<?xml version="1.0" encoding="UTF-8"?>
<gpx creator="StravaGPX" version="1.1" xmlns="http://www.topografix.com/GPX/1/1" xmlns:xsi="http://www.w3.org/2001/XMLSchema-instance" xsi:schemaLocation="http://www.topografix.com/GPX/1/1 http://www.topografix.com/GPX/1/1/gpx.xsd">
 <metadata>
  <time>2020-06-15T13:57:58Z</time>
 </metadata>
 <trk>
  <name>Morning run</name>
  <type>running</type>
  <trkseg>
   <trkpt lat="39.6947300" lon="-104.8777410">
    <ele>1671.9</ele>
    <time>2020-06-15T13:57:58Z</time>
   </trkpt>
   <trkpt lat="39.6947070" lon="-104.8777480">
    <ele>1671.9</ele>
    <time>2020-06-15T13:57:59Z</time>
   </trkpt>
   <trkpt lat="39.6946910" lon="-104.8777500">
    <ele>1671.9</ele>
    <time>2020-06-15T13:58:00Z</time>
   </trkpt>
   <trkpt lat="39.6946570" lon="-104.8777430">
    <ele>1672.0</ele>
    <time>2020-06-15T13:58:01Z</time>
   </trkpt>
   <trkpt lat="39.6946220" lon="-104.8777400">
    <ele>1672.0</ele>
    <time>2020-06-15T13:58:02Z</time>
   </trkpt>
   <trkpt lat="39.6945830" lon="-104.8777300">
    <ele>1672.1</ele>
    <time>2020-06-15T13:58:03Z</time>
   </trkpt>
   <trkpt lat="39.6945700" lon="-104.8777290">
    <ele>1672.1</ele>
    <time>2020-06-15T13:58:04Z</time>
   </trkpt>
   <trkpt lat="39.6945360" lon="-104.8777320">
    <ele>1672.2</ele>
    <time>2020-06-15T13:58:05Z</time>
   </trkpt>
   <trkpt lat="39.6944990" lon="-104.8777290">
    <ele>1672.2</ele>
    <time>2020-06-15T13:58:06Z</time>
   </trkpt>
   <trkpt lat="39.6944380" lon="-104.8777210">
    <ele>1672.3</ele>
    <time>2020-06-15T13:58:07Z</time>
   </trkpt>
   <trkpt lat="39.6943940" lon="-104.8777350">
    <ele>1672.3</ele>
    <time>2020-06-15T13:58:08Z</time>
   </trkpt>
   <trkpt lat="39.6943460" lon="-104.8777340">
    <ele>1672.4</ele>
    <time>2020-06-15T13:58:09Z</time>
   </trkpt>
   <trkpt lat="39.6943060" lon="-104.8777290">
    <ele>1672.4</ele>
    <time>2020-06-15T13:58:10Z</time>
   </trkpt>
   <trkpt lat="39.6942580" lon="-104.8777290">
    <ele>1672.4</ele>
    <time>2020-06-15T13:58:11Z</time>
   </trkpt>
   <trkpt lat="39.6942120" lon="-104.8777370">
    <ele>1672.5</ele>
    <time>2020-06-15T13:58:12Z</time>
   </trkpt>
   <trkpt lat="39.6941650" lon="-104.8777390">
    <ele>1672.6</ele>
    <time>2020-06-15T13:58:13Z</time>
   </trkpt>
   <trkpt lat="39.6941180" lon="-104.8777490">
    <ele>1672.7</ele>
    <time>2020-06-15T13:58:14Z</time>
   </trkpt>
   <trkpt lat="39.6940550" lon="-104.8777560">
    <ele>1672.8</ele>
    <time>2020-06-15T13:58:15Z</time>
   </trkpt>
   <trkpt lat="39.6940130" lon="-104.8777340">
    <ele>1672.8</ele>
    <time>2020-06-15T13:58:16Z</time>
   </trkpt>
   <trkpt lat="39.6939810" lon="-104.8777170">
    <ele>1672.9</ele>
    <time>2020-06-15T13:58:17Z</time>
   </trkpt>
   <trkpt lat="39.6939460" lon="-104.8777210">
    <ele>1673.0</ele>
    <time>2020-06-15T13:58:18Z</time>
   </trkpt>
   <trkpt lat="39.6938970" lon="-104.8777240">
    <ele>1673.1</ele>
    <time>2020-06-15T13:58:19Z</time>
   </trkpt>
   <trkpt lat="39.6938560" lon="-104.8777280">
    <ele>1673.3</ele>
    <time>2020-06-15T13:58:20Z</time>
   </trkpt>
   <trkpt lat="39.6938140" lon="-104.8777210">
    <ele>1673.6</ele>
    <time>2020-06-15T13:58:21Z</time>
   </trkpt>
   <trkpt lat="39.6937700" lon="-104.8777280">
    <ele>1673.5</ele>
    <time>2020-06-15T13:58:22Z</time>
   </trkpt>
   <trkpt lat="39.6937390" lon="-104.8777270">
    <ele>1673.5</ele>
    <time>2020-06-15T13:58:23Z</time>
   </trkpt>
   <trkpt lat="39.6936990" lon="-104.8777320">
    <ele>1673.4</ele>
    <time>2020-06-15T13:58:24Z</time>
   </trkpt>
   <trkpt lat="39.6936600" lon="-104.8777360">
    <ele>1673.4</ele>
    <time>2020-06-15T13:58:25Z</time>
   </trkpt>
   <trkpt lat="39.6936260" lon="-104.8777470">
    <ele>1673.3</ele>
    <time>2020-06-15T13:58:26Z</time>
   </trkpt>
   <trkpt lat="39.6935820" lon="-104.8777420">
    <ele>1673.2</ele>
    <time>2020-06-15T13:58:28Z</time>
   </trkpt>
   <trkpt lat="39.6935500" lon="-104.8777280">
    <ele>1673.1</ele>
    <time>2020-06-15T13:58:29Z</time>
   </trkpt>
   <trkpt lat="39.6935080" lon="-104.8777280">
    <ele>1673.0</ele>
    <time>2020-06-15T13:58:30Z</time>
   </trkpt>
   <trkpt lat="39.6934630" lon="-104.8777180">
    <ele>1672.9</ele>
    <time>2020-06-15T13:58:31Z</time>
   </trkpt>
   <trkpt lat="39.6934250" lon="-104.8777120">
    <ele>1672.8</ele>
    <time>2020-06-15T13:58:32Z</time>
   </trkpt>
   <trkpt lat="39.6933830" lon="-104.8777160">
    <ele>1672.7</ele>
    <time>2020-06-15T13:58:33Z</time>
   </trkpt>
   <trkpt lat="39.6933440" lon="-104.8777280">
    <ele>1672.7</ele>
    <time>2020-06-15T13:58:34Z</time>
   </trkpt>
   <trkpt lat="39.6933030" lon="-104.8777420">
    <ele>1672.6</ele>
    <time>2020-06-15T13:58:35Z</time>
   </trkpt>
   <trkpt lat="39.6932560" lon="-104.8777240">
    <ele>1672.6</ele>
    <time>2020-06-15T13:58:36Z</time>
   </trkpt>
   <trkpt lat="39.6932200" lon="-104.8777330">
    <ele>1672.6</ele>
    <time>2020-06-15T13:58:37Z</time>
   </trkpt>
   <trkpt lat="39.6931760" lon="-104.8777260">
    <ele>1672.6</ele>
    <time>2020-06-15T13:58:38Z</time>
   </trkpt>
   <trkpt lat="39.6931360" lon="-104.8777260">
    <ele>1672.6</ele>
    <time>2020-06-15T13:58:39Z</time>
   </trkpt>
   <trkpt lat="39.6931000" lon="-104.8777230">
    <ele>1672.6</ele>
    <time>2020-06-15T13:58:40Z</time>
   </trkpt>
   <trkpt lat="39.6930640" lon="-104.8777050">
    <ele>1672.6</ele>
    <time>2020-06-15T13:58:41Z</time>
   </trkpt>
   <trkpt lat="39.6930210" lon="-104.8777250">
    <ele>1672.5</ele>
    <time>2020-06-15T13:58:42Z</time>
   </trkpt>
   <trkpt lat="39.6929780" lon="-104.8777270">
    <ele>1672.3</ele>
    <time>2020-06-15T13:58:43Z</time>
   </trkpt>
   <trkpt lat="39.6929370" lon="-104.8777250">
    <ele>1672.1</ele>
    <time>2020-06-15T13:58:44Z</time>
   </trkpt>
   <trkpt lat="39.6928960" lon="-104.8777270">
    <ele>1672.0</ele>
    <time>2020-06-15T13:58:45Z</time>
   </trkpt>
   <trkpt lat="39.6928530" lon="-104.8777160">
    <ele>1671.8</ele>
    <time>2020-06-15T13:58:46Z</time>
   </trkpt>
   <trkpt lat="39.6928170" lon="-104.8777240">
    <ele>1671.8</ele>
    <time>2020-06-15T13:58:47Z</time>
   </trkpt>
   <trkpt lat="39.6927750" lon="-104.8777110">
    <ele>1671.8</ele>
    <time>2020-06-15T13:58:48Z</time>
   </trkpt>
   <trkpt lat="39.6927390" lon="-104.8777170">
    <ele>1671.9</ele>
    <time>2020-06-15T13:58:49Z</time>
   </trkpt>
   <trkpt lat="39.6926970" lon="-104.8777150">
    <ele>1672.0</ele>
    <time>2020-06-15T13:58:50Z</time>
   </trkpt>
   <trkpt lat="39.6926590" lon="-104.8777120">
    <ele>1672.5</ele>
    <time>2020-06-15T13:58:51Z</time>
   </trkpt>
   <trkpt lat="39.6926200" lon="-104.8777260">
    <ele>1672.9</ele>
    <time>2020-06-15T13:58:52Z</time>
   </trkpt>
   <trkpt lat="39.6925780" lon="-104.8777160">
    <ele>1673.2</ele>
    <time>2020-06-15T13:58:53Z</time>
   </trkpt>
   <trkpt lat="39.6925370" lon="-104.8777320">
    <ele>1673.4</ele>
    <time>2020-06-15T13:58:54Z</time>
   </trkpt>
   <trkpt lat="39.6925000" lon="-104.8777240">
    <ele>1673.5</ele>
    <time>2020-06-15T13:58:55Z</time>
   </trkpt>
   <trkpt lat="39.6924720" lon="-104.8777200">
    <ele>1673.6</ele>
    <time>2020-06-15T13:58:56Z</time>
   </trkpt>
   <trkpt lat="39.6924410" lon="-104.8777170">
    <ele>1673.6</ele>
    <time>2020-06-15T13:58:57Z</time>
   </trkpt>
   <trkpt lat="39.6923990" lon="-104.8777100">
    <ele>1673.6</ele>
    <time>2020-06-15T13:58:58Z</time>
   </trkpt>
   <trkpt lat="39.6923680" lon="-104.8777100">
    <ele>1673.6</ele>
    <time>2020-06-15T13:58:59Z</time>
   </trkpt>
   <trkpt lat="39.6923260" lon="-104.8777120">
    <ele>1673.5</ele>
    <time>2020-06-15T13:59:00Z</time>
   </trkpt>
   <trkpt lat="39.6922780" lon="-104.8777120">
    <ele>1673.4</ele>
    <time>2020-06-15T13:59:01Z</time>
   </trkpt>
   <trkpt lat="39.6922540" lon="-104.8777120">
    <ele>1673.2</ele>
    <time>2020-06-15T13:59:02Z</time>
   </trkpt>
   <trkpt lat="39.6922060" lon="-104.8777070">
    <ele>1673.3</ele>
    <time>2020-06-15T13:59:03Z</time>
   </trkpt>
   <trkpt lat="39.6921820" lon="-104.8777070">
    <ele>1673.4</ele>
    <time>2020-06-15T13:59:04Z</time>
   </trkpt>
   <trkpt lat="39.6921340" lon="-104.8777060">
    <ele>1673.4</ele>
    <time>2020-06-15T13:59:05Z</time>
   </trkpt>
   <trkpt lat="39.6920980" lon="-104.8777230">
    <ele>1673.5</ele>
    <time>2020-06-15T13:59:06Z</time>
   </trkpt>
   <trkpt lat="39.6920580" lon="-104.8777070">
    <ele>1673.6</ele>
    <time>2020-06-15T13:59:07Z</time>
   </trkpt>
   <trkpt lat="39.6920210" lon="-104.8777140">
    <ele>1673.6</ele>
    <time>2020-06-15T13:59:08Z</time>
   </trkpt>
   <trkpt lat="39.6919910" lon="-104.8777130">
    <ele>1673.7</ele>
    <time>2020-06-15T13:59:09Z</time>
   </trkpt>
   <trkpt lat="39.6919480" lon="-104.8777160">
    <ele>1673.8</ele>
    <time>2020-06-15T13:59:10Z</time>
   </trkpt>
   <trkpt lat="39.6919130" lon="-104.8777160">
    <ele>1673.9</ele>
    <time>2020-06-15T13:59:11Z</time>
   </trkpt>
   <trkpt lat="39.6918730" lon="-104.8777140">
    <ele>1673.9</ele>
    <time>2020-06-15T13:59:12Z</time>
   </trkpt>
   <trkpt lat="39.6918250" lon="-104.8777130">
    <ele>1673.9</ele>
    <time>2020-06-15T13:59:13Z</time>
   </trkpt>
   <trkpt lat="39.6917890" lon="-104.8777240">
    <ele>1673.9</ele>
    <time>2020-06-15T13:59:14Z</time>
   </trkpt>
   <trkpt lat="39.6917570" lon="-104.8777140">
    <ele>1674.0</ele>
    <time>2020-06-15T13:59:15Z</time>
   </trkpt>
   <trkpt lat="39.6917160" lon="-104.8777100">
    <ele>1674.0</ele>
    <time>2020-06-15T13:59:16Z</time>
   </trkpt>
   <trkpt lat="39.6916710" lon="-104.8777110">
    <ele>1674.1</ele>
    <time>2020-06-15T13:59:17Z</time>
   </trkpt>
   <trkpt lat="39.6916160" lon="-104.8777160">
    <ele>1674.1</ele>
    <time>2020-06-15T13:59:18Z</time>
   </trkpt>
   <trkpt lat="39.6915820" lon="-104.8777280">
    <ele>1674.1</ele>
    <time>2020-06-15T13:59:19Z</time>
   </trkpt>
   <trkpt lat="39.6915470" lon="-104.8777220">
    <ele>1674.2</ele>
    <time>2020-06-15T13:59:20Z</time>
   </trkpt>
   <trkpt lat="39.6915050" lon="-104.8777080">
    <ele>1674.2</ele>
    <time>2020-06-15T13:59:21Z</time>
   </trkpt>
   <trkpt lat="39.6914820" lon="-104.8777050">
    <ele>1674.3</ele>
    <time>2020-06-15T13:59:22Z</time>
   </trkpt>
   <trkpt lat="39.6914430" lon="-104.8777120">
    <ele>1674.4</ele>
    <time>2020-06-15T13:59:23Z</time>
   </trkpt>
   <trkpt lat="39.6914090" lon="-104.8777200">
    <ele>1674.4</ele>
    <time>2020-06-15T13:59:24Z</time>
   </trkpt>
   <trkpt lat="39.6913650" lon="-104.8777330">
    <ele>1674.5</ele>
    <time>2020-06-15T13:59:25Z</time>
   </trkpt>
   <trkpt lat="39.6913140" lon="-104.8777260">
    <ele>1674.5</ele>
    <time>2020-06-15T13:59:26Z</time>
   </trkpt>
   <trkpt lat="39.6912890" lon="-104.8777230">
    <ele>1674.5</ele>
    <time>2020-06-15T13:59:27Z</time>
   </trkpt>
   <trkpt lat="39.6912500" lon="-104.8777210">
    <ele>1674.6</ele>
    <time>2020-06-15T13:59:28Z</time>
   </trkpt>
   <trkpt lat="39.6912130" lon="-104.8777280">
    <ele>1674.6</ele>
    <time>2020-06-15T13:59:29Z</time>
   </trkpt>
   <trkpt lat="39.6911800" lon="-104.8777080">
    <ele>1674.6</ele>
    <time>2020-06-15T13:59:30Z</time>
   </trkpt>
   <trkpt lat="39.6911360" lon="-104.8777200">
    <ele>1674.5</ele>
    <time>2020-06-15T13:59:31Z</time>
   </trkpt>
   <trkpt lat="39.6910970" lon="-104.8777130">
    <ele>1674.5</ele>
    <time>2020-06-15T13:59:32Z</time>
   </trkpt>
   <trkpt lat="39.6910570" lon="-104.8777260">
    <ele>1674.5</ele>
    <time>2020-06-15T13:59:33Z</time>
   </trkpt>
   <trkpt lat="39.6910270" lon="-104.8777260">
    <ele>1674.9</ele>
    <time>2020-06-15T13:59:34Z</time>
   </trkpt>
   <trkpt lat="39.6909960" lon="-104.8777200">
    <ele>1675.1</ele>
    <time>2020-06-15T13:59:35Z</time>
   </trkpt>
   <trkpt lat="39.6909570" lon="-104.8777310">
    <ele>1675.3</ele>
    <time>2020-06-15T13:59:36Z</time>
   </trkpt>
   <trkpt lat="39.6909220" lon="-104.8777270">
    <ele>1675.4</ele>
    <time>2020-06-15T13:59:37Z</time>
   </trkpt>
   <trkpt lat="39.6908840" lon="-104.8777150">
    <ele>1675.6</ele>
    <time>2020-06-15T13:59:38Z</time>
   </trkpt>
   <trkpt lat="39.6908490" lon="-104.8777150">
    <ele>1675.7</ele>
    <time>2020-06-15T13:59:39Z</time>
   </trkpt>
   <trkpt lat="39.6908090" lon="-104.8777060">
    <ele>1675.8</ele>
    <time>2020-06-15T13:59:40Z</time>
   </trkpt>
   <trkpt lat="39.6907640" lon="-104.8777080">
    <ele>1675.9</ele>
    <time>2020-06-15T13:59:41Z</time>
   </trkpt>
   <trkpt lat="39.6907380" lon="-104.8777080">
    <ele>1676.0</ele>
    <time>2020-06-15T13:59:42Z</time>
   </trkpt>
   <trkpt lat="39.6907060" lon="-104.8777240">
    <ele>1676.1</ele>
    <time>2020-06-15T13:59:43Z</time>
   </trkpt>
   <trkpt lat="39.6906620" lon="-104.8777250">
    <ele>1676.2</ele>
    <time>2020-06-15T13:59:44Z</time>
   </trkpt>
   <trkpt lat="39.6906410" lon="-104.8777220">
    <ele>1676.2</ele>
    <time>2020-06-15T13:59:45Z</time>
   </trkpt>
   <trkpt lat="39.6906060" lon="-104.8777160">
    <ele>1676.3</ele>
    <time>2020-06-15T13:59:46Z</time>
   </trkpt>
   <trkpt lat="39.6905690" lon="-104.8777320">
    <ele>1676.5</ele>
    <time>2020-06-15T13:59:47Z</time>
   </trkpt>
   <trkpt lat="39.6905370" lon="-104.8777330">
    <ele>1676.5</ele>
    <time>2020-06-15T13:59:48Z</time>
   </trkpt>
   <trkpt lat="39.6905040" lon="-104.8777450">
    <ele>1676.6</ele>
    <time>2020-06-15T13:59:49Z</time>
   </trkpt>
   <trkpt lat="39.6904650" lon="-104.8777320">
    <ele>1676.6</ele>
    <time>2020-06-15T13:59:50Z</time>
   </trkpt>
   <trkpt lat="39.6904280" lon="-104.8777520">
    <ele>1676.5</ele>
    <time>2020-06-15T13:59:51Z</time>
   </trkpt>
   <trkpt lat="39.6903980" lon="-104.8777520">
    <ele>1676.4</ele>
    <time>2020-06-15T13:59:52Z</time>
   </trkpt>
   <trkpt lat="39.6903630" lon="-104.8777600">
    <ele>1676.2</ele>
    <time>2020-06-15T13:59:53Z</time>
   </trkpt>
   <trkpt lat="39.6903350" lon="-104.8777410">
    <ele>1676.1</ele>
    <time>2020-06-15T13:59:54Z</time>
   </trkpt>
   <trkpt lat="39.6903020" lon="-104.8777430">
    <ele>1676.2</ele>
    <time>2020-06-15T13:59:55Z</time>
   </trkpt>
   <trkpt lat="39.6902660" lon="-104.8777240">
    <ele>1676.2</ele>
    <time>2020-06-15T13:59:56Z</time>
   </trkpt>
   <trkpt lat="39.6902360" lon="-104.8777350">
    <ele>1676.2</ele>
    <time>2020-06-15T13:59:57Z</time>
   </trkpt>
   <trkpt lat="39.6902050" lon="-104.8777470">
    <ele>1676.3</ele>
    <time>2020-06-15T13:59:58Z</time>
   </trkpt>
   <trkpt lat="39.6901790" lon="-104.8777570">
    <ele>1676.3</ele>
    <time>2020-06-15T13:59:59Z</time>
   </trkpt>
   <trkpt lat="39.6901390" lon="-104.8777490">
    <ele>1676.4</ele>
    <time>2020-06-15T14:00:00Z</time>
   </trkpt>
   <trkpt lat="39.6901200" lon="-104.8777480">
    <ele>1676.4</ele>
    <time>2020-06-15T14:00:01Z</time>
   </trkpt>
   <trkpt lat="39.6900890" lon="-104.8777350">
    <ele>1676.5</ele>
    <time>2020-06-15T14:00:02Z</time>
   </trkpt>
   <trkpt lat="39.6900590" lon="-104.8777450">
    <ele>1676.5</ele>
    <time>2020-06-15T14:00:03Z</time>
   </trkpt>
   <trkpt lat="39.6900220" lon="-104.8777470">
    <ele>1676.5</ele>
    <time>2020-06-15T14:00:04Z</time>
   </trkpt>
   <trkpt lat="39.6899920" lon="-104.8777520">
    <ele>1676.6</ele>
    <time>2020-06-15T14:00:05Z</time>
   </trkpt>
   <trkpt lat="39.6899580" lon="-104.8777530">
    <ele>1676.5</ele>
    <time>2020-06-15T14:00:06Z</time>
   </trkpt>
   <trkpt lat="39.6899250" lon="-104.8777420">
    <ele>1676.5</ele>
    <time>2020-06-15T14:00:07Z</time>
   </trkpt>
   <trkpt lat="39.6898980" lon="-104.8777380">
    <ele>1676.5</ele>
    <time>2020-06-15T14:00:08Z</time>
   </trkpt>
   <trkpt lat="39.6898590" lon="-104.8777330">
    <ele>1676.5</ele>
    <time>2020-06-15T14:00:09Z</time>
   </trkpt>
   <trkpt lat="39.6898260" lon="-104.8777330">
    <ele>1676.4</ele>
    <time>2020-06-15T14:00:10Z</time>
   </trkpt>
   <trkpt lat="39.6897970" lon="-104.8777350">
    <ele>1676.3</ele>
    <time>2020-06-15T14:00:11Z</time>
   </trkpt>
   <trkpt lat="39.6897690" lon="-104.8777340">
    <ele>1676.3</ele>
    <time>2020-06-15T14:00:12Z</time>
   </trkpt>
   <trkpt lat="39.6897370" lon="-104.8777270">
    <ele>1676.2</ele>
    <time>2020-06-15T14:00:13Z</time>
   </trkpt>
   <trkpt lat="39.6897020" lon="-104.8777320">
    <ele>1676.1</ele>
    <time>2020-06-15T14:00:14Z</time>
   </trkpt>
   <trkpt lat="39.6896690" lon="-104.8777420">
    <ele>1676.1</ele>
    <time>2020-06-15T14:00:15Z</time>
   </trkpt>
   <trkpt lat="39.6896370" lon="-104.8777360">
    <ele>1676.1</ele>
    <time>2020-06-15T14:00:16Z</time>
   </trkpt>
   <trkpt lat="39.6895940" lon="-104.8777380">
    <ele>1676.1</ele>
    <time>2020-06-15T14:00:17Z</time>
   </trkpt>
   <trkpt lat="39.6895600" lon="-104.8777370">
    <ele>1676.1</ele>
    <time>2020-06-15T14:00:18Z</time>
   </trkpt>
   <trkpt lat="39.6895240" lon="-104.8777330">
    <ele>1676.2</ele>
    <time>2020-06-15T14:00:19Z</time>
   </trkpt>
   <trkpt lat="39.6894910" lon="-104.8777340">
    <ele>1676.2</ele>
    <time>2020-06-15T14:00:20Z</time>
   </trkpt>
   <trkpt lat="39.6894530" lon="-104.8777280">
    <ele>1676.3</ele>
    <time>2020-06-15T14:00:21Z</time>
   </trkpt>
   <trkpt lat="39.6894310" lon="-104.8777250">
    <ele>1676.3</ele>
    <time>2020-06-15T14:00:22Z</time>
   </trkpt>
   <trkpt lat="39.6894150" lon="-104.8776540">
    <ele>1676.2</ele>
    <time>2020-06-15T14:00:23Z</time>
   </trkpt>
   <trkpt lat="39.6894190" lon="-104.8776040">
    <ele>1676.1</ele>
    <time>2020-06-15T14:00:24Z</time>
   </trkpt>
   <trkpt lat="39.6894210" lon="-104.8775570">
    <ele>1676.1</ele>
    <time>2020-06-15T14:00:25Z</time>
   </trkpt>
   <trkpt lat="39.6894120" lon="-104.8775160">
    <ele>1676.1</ele>
    <time>2020-06-15T14:00:26Z</time>
   </trkpt>
   <trkpt lat="39.6893940" lon="-104.8774800">
    <ele>1676.0</ele>
    <time>2020-06-15T14:00:27Z</time>
   </trkpt>
   <trkpt lat="39.6893950" lon="-104.8774390">
    <ele>1676.0</ele>
    <time>2020-06-15T14:00:28Z</time>
   </trkpt>
   <trkpt lat="39.6893980" lon="-104.8773920">
    <ele>1676.0</ele>
    <time>2020-06-15T14:00:29Z</time>
   </trkpt>
   <trkpt lat="39.6893990" lon="-104.8773440">
    <ele>1676.0</ele>
    <time>2020-06-15T14:00:30Z</time>
   </trkpt>
   <trkpt lat="39.6894080" lon="-104.8772990">
    <ele>1676.0</ele>
    <time>2020-06-15T14:00:31Z</time>
   </trkpt>
   <trkpt lat="39.6893980" lon="-104.8772610">
    <ele>1676.0</ele>
    <time>2020-06-15T14:00:32Z</time>
   </trkpt>
   <trkpt lat="39.6893930" lon="-104.8772180">
    <ele>1676.0</ele>
    <time>2020-06-15T14:00:33Z</time>
   </trkpt>
   <trkpt lat="39.6894090" lon="-104.8771800">
    <ele>1676.0</ele>
    <time>2020-06-15T14:00:34Z</time>
   </trkpt>
   <trkpt lat="39.6894010" lon="-104.8771380">
    <ele>1676.0</ele>
    <time>2020-06-15T14:00:35Z</time>
   </trkpt>
   <trkpt lat="39.6894050" lon="-104.8770960">
    <ele>1676.0</ele>
    <time>2020-06-15T14:00:36Z</time>
   </trkpt>
   <trkpt lat="39.6893990" lon="-104.8770510">
    <ele>1675.9</ele>
    <time>2020-06-15T14:00:37Z</time>
   </trkpt>
   <trkpt lat="39.6893930" lon="-104.8770090">
    <ele>1675.9</ele>
    <time>2020-06-15T14:00:38Z</time>
   </trkpt>
   <trkpt lat="39.6894030" lon="-104.8769590">
    <ele>1675.9</ele>
    <time>2020-06-15T14:00:39Z</time>
   </trkpt>
   <trkpt lat="39.6893930" lon="-104.8769230">
    <ele>1675.8</ele>
    <time>2020-06-15T14:00:40Z</time>
   </trkpt>
   <trkpt lat="39.6893910" lon="-104.8768730">
    <ele>1675.8</ele>
    <time>2020-06-15T14:00:41Z</time>
   </trkpt>
   <trkpt lat="39.6893950" lon="-104.8768270">
    <ele>1675.8</ele>
    <time>2020-06-15T14:00:42Z</time>
   </trkpt>
   <trkpt lat="39.6893920" lon="-104.8767830">
    <ele>1675.8</ele>
    <time>2020-06-15T14:00:43Z</time>
   </trkpt>
   <trkpt lat="39.6894000" lon="-104.8767450">
    <ele>1675.9</ele>
    <time>2020-06-15T14:00:44Z</time>
   </trkpt>
   <trkpt lat="39.6893940" lon="-104.8767050">
    <ele>1675.9</ele>
    <time>2020-06-15T14:00:45Z</time>
   </trkpt>
   <trkpt lat="39.6893900" lon="-104.8766540">
    <ele>1675.9</ele>
    <time>2020-06-15T14:00:46Z</time>
   </trkpt>
   <trkpt lat="39.6894000" lon="-104.8766100">
    <ele>1675.9</ele>
    <time>2020-06-15T14:00:47Z</time>
   </trkpt>
   <trkpt lat="39.6893920" lon="-104.8765520">
    <ele>1676.0</ele>
    <time>2020-06-15T14:00:48Z</time>
   </trkpt>
   <trkpt lat="39.6893910" lon="-104.8765260">
    <ele>1676.0</ele>
    <time>2020-06-15T14:00:49Z</time>
   </trkpt>
   <trkpt lat="39.6893920" lon="-104.8764670">
    <ele>1676.0</ele>
    <time>2020-06-15T14:00:50Z</time>
   </trkpt>
   <trkpt lat="39.6893880" lon="-104.8764430">
    <ele>1676.0</ele>
    <time>2020-06-15T14:00:51Z</time>
   </trkpt>
   <trkpt lat="39.6893940" lon="-104.8763870">
    <ele>1676.1</ele>
    <time>2020-06-15T14:00:52Z</time>
   </trkpt>
   <trkpt lat="39.6893880" lon="-104.8763310">
    <ele>1676.1</ele>
    <time>2020-06-15T14:00:53Z</time>
   </trkpt>
   <trkpt lat="39.6893870" lon="-104.8763070">
    <ele>1676.1</ele>
    <time>2020-06-15T14:00:54Z</time>
   </trkpt>
   <trkpt lat="39.6893990" lon="-104.8762680">
    <ele>1676.2</ele>
    <time>2020-06-15T14:00:55Z</time>
   </trkpt>
   <trkpt lat="39.6893930" lon="-104.8762020">
    <ele>1676.2</ele>
    <time>2020-06-15T14:00:56Z</time>
   </trkpt>
   <trkpt lat="39.6894010" lon="-104.8761510">
    <ele>1676.3</ele>
    <time>2020-06-15T14:00:57Z</time>
   </trkpt>
   <trkpt lat="39.6893950" lon="-104.8760970">
    <ele>1676.4</ele>
    <time>2020-06-15T14:00:58Z</time>
   </trkpt>
   <trkpt lat="39.6893950" lon="-104.8760560">
    <ele>1676.5</ele>
    <time>2020-06-15T14:00:59Z</time>
   </trkpt>
   <trkpt lat="39.6893920" lon="-104.8759940">
    <ele>1676.5</ele>
    <time>2020-06-15T14:01:00Z</time>
   </trkpt>
   <trkpt lat="39.6893940" lon="-104.8759390">
    <ele>1676.6</ele>
    <time>2020-06-15T14:01:01Z</time>
   </trkpt>
   <trkpt lat="39.6893980" lon="-104.8759140">
    <ele>1676.6</ele>
    <time>2020-06-15T14:01:02Z</time>
   </trkpt>
   <trkpt lat="39.6894040" lon="-104.8758540">
    <ele>1676.6</ele>
    <time>2020-06-15T14:01:03Z</time>
   </trkpt>
   <trkpt lat="39.6893870" lon="-104.8758050">
    <ele>1676.7</ele>
    <time>2020-06-15T14:01:04Z</time>
   </trkpt>
   <trkpt lat="39.6893980" lon="-104.8757600">
    <ele>1676.7</ele>
    <time>2020-06-15T14:01:05Z</time>
   </trkpt>
   <trkpt lat="39.6894030" lon="-104.8757130">
    <ele>1676.7</ele>
    <time>2020-06-15T14:01:06Z</time>
   </trkpt>
   <trkpt lat="39.6893980" lon="-104.8756690">
    <ele>1676.7</ele>
    <time>2020-06-15T14:01:07Z</time>
   </trkpt>
   <trkpt lat="39.6894070" lon="-104.8756080">
    <ele>1676.7</ele>
    <time>2020-06-15T14:01:08Z</time>
   </trkpt>
   <trkpt lat="39.6894000" lon="-104.8755710">
    <ele>1676.7</ele>
    <time>2020-06-15T14:01:09Z</time>
   </trkpt>
   <trkpt lat="39.6894020" lon="-104.8755210">
    <ele>1676.8</ele>
    <time>2020-06-15T14:01:10Z</time>
   </trkpt>
   <trkpt lat="39.6894070" lon="-104.8754660">
    <ele>1676.8</ele>
    <time>2020-06-15T14:01:11Z</time>
   </trkpt>
   <trkpt lat="39.6894060" lon="-104.8754440">
    <ele>1676.8</ele>
    <time>2020-06-15T14:01:12Z</time>
   </trkpt>
   <trkpt lat="39.6894200" lon="-104.8754200">
    <ele>1676.9</ele>
    <time>2020-06-15T14:01:13Z</time>
   </trkpt>
   <trkpt lat="39.6894310" lon="-104.8754260">
    <ele>1676.9</ele>
    <time>2020-06-15T14:01:14Z</time>
   </trkpt>
   <trkpt lat="39.6893720" lon="-104.8754270">
    <ele>1677.0</ele>
    <time>2020-06-15T14:01:15Z</time>
   </trkpt>
   <trkpt lat="39.6893080" lon="-104.8754180">
    <ele>1677.4</ele>
    <time>2020-06-15T14:01:16Z</time>
   </trkpt>
   <trkpt lat="39.6892450" lon="-104.8754100">
    <ele>1677.2</ele>
    <time>2020-06-15T14:01:17Z</time>
   </trkpt>
   <trkpt lat="39.6891820" lon="-104.8754020">
    <ele>1677.1</ele>
    <time>2020-06-15T14:01:18Z</time>
   </trkpt>
   <trkpt lat="39.6891190" lon="-104.8753940">
    <ele>1677.0</ele>
    <time>2020-06-15T14:02:20Z</time>
   </trkpt>
   <trkpt lat="39.6890550" lon="-104.8753850">
    <ele>1676.9</ele>
    <time>2020-06-15T14:02:21Z</time>
   </trkpt>
   <trkpt lat="39.6889920" lon="-104.8753770">
    <ele>1676.8</ele>
    <time>2020-06-15T14:02:22Z</time>
   </trkpt>
   <trkpt lat="39.6889520" lon="-104.8754000">
    <ele>1676.7</ele>
    <time>2020-06-15T14:02:23Z</time>
   </trkpt>
   <trkpt lat="39.6889210" lon="-104.8754040">
    <ele>1676.6</ele>
    <time>2020-06-15T14:02:24Z</time>
   </trkpt>
   <trkpt lat="39.6888810" lon="-104.8754090">
    <ele>1676.3</ele>
    <time>2020-06-15T14:02:25Z</time>
   </trkpt>
   <trkpt lat="39.6888400" lon="-104.8754270">
    <ele>1676.3</ele>
    <time>2020-06-15T14:02:26Z</time>
   </trkpt>
   <trkpt lat="39.6888210" lon="-104.8754290">
    <ele>1676.3</ele>
    <time>2020-06-15T14:02:27Z</time>
   </trkpt>
   <trkpt lat="39.6887840" lon="-104.8754420">
    <ele>1676.3</ele>
    <time>2020-06-15T14:02:28Z</time>
   </trkpt>
   <trkpt lat="39.6887470" lon="-104.8754460">
    <ele>1676.3</ele>
    <time>2020-06-15T14:02:29Z</time>
   </trkpt>
   <trkpt lat="39.6887120" lon="-104.8754480">
    <ele>1676.3</ele>
    <time>2020-06-15T14:02:30Z</time>
   </trkpt>
   <trkpt lat="39.6886790" lon="-104.8754460">
    <ele>1676.4</ele>
    <time>2020-06-15T14:02:31Z</time>
   </trkpt>
   <trkpt lat="39.6886400" lon="-104.8754440">
    <ele>1676.4</ele>
    <time>2020-06-15T14:02:32Z</time>
   </trkpt>
   <trkpt lat="39.6886020" lon="-104.8754430">
    <ele>1676.4</ele>
    <time>2020-06-15T14:02:33Z</time>
   </trkpt>
   <trkpt lat="39.6885730" lon="-104.8754460">
    <ele>1676.5</ele>
    <time>2020-06-15T14:02:34Z</time>
   </trkpt>
   <trkpt lat="39.6885360" lon="-104.8754420">
    <ele>1676.5</ele>
    <time>2020-06-15T14:02:35Z</time>
   </trkpt>
   <trkpt lat="39.6884910" lon="-104.8754350">
    <ele>1676.5</ele>
    <time>2020-06-15T14:02:36Z</time>
   </trkpt>
   <trkpt lat="39.6884590" lon="-104.8754390">
    <ele>1676.6</ele>
    <time>2020-06-15T14:02:37Z</time>
   </trkpt>
   <trkpt lat="39.6884290" lon="-104.8754410">
    <ele>1676.6</ele>
    <time>2020-06-15T14:02:38Z</time>
   </trkpt>
   <trkpt lat="39.6883860" lon="-104.8754360">
    <ele>1676.6</ele>
    <time>2020-06-15T14:02:39Z</time>
   </trkpt>
   <trkpt lat="39.6883510" lon="-104.8754520">
    <ele>1676.7</ele>
    <time>2020-06-15T14:02:40Z</time>
   </trkpt>
   <trkpt lat="39.6883100" lon="-104.8754400">
    <ele>1676.7</ele>
    <time>2020-06-15T14:02:41Z</time>
   </trkpt>
   <trkpt lat="39.6882670" lon="-104.8754390">
    <ele>1676.8</ele>
    <time>2020-06-15T14:02:42Z</time>
   </trkpt>
   <trkpt lat="39.6882360" lon="-104.8754400">
    <ele>1676.8</ele>
    <time>2020-06-15T14:02:43Z</time>
   </trkpt>
   <trkpt lat="39.6881980" lon="-104.8754430">
    <ele>1676.9</ele>
    <time>2020-06-15T14:02:44Z</time>
   </trkpt>
   <trkpt lat="39.6881660" lon="-104.8754550">
    <ele>1676.9</ele>
    <time>2020-06-15T14:02:45Z</time>
   </trkpt>
   <trkpt lat="39.6881220" lon="-104.8754410">
    <ele>1677.0</ele>
    <time>2020-06-15T14:02:46Z</time>
   </trkpt>
   <trkpt lat="39.6880770" lon="-104.8754440">
    <ele>1677.0</ele>
    <time>2020-06-15T14:02:47Z</time>
   </trkpt>
   <trkpt lat="39.6880400" lon="-104.8754400">
    <ele>1677.0</ele>
    <time>2020-06-15T14:02:48Z</time>
   </trkpt>
   <trkpt lat="39.6880000" lon="-104.8754450">
    <ele>1677.0</ele>
    <time>2020-06-15T14:02:49Z</time>
   </trkpt>
   <trkpt lat="39.6879830" lon="-104.8754430">
    <ele>1677.0</ele>
    <time>2020-06-15T14:02:50Z</time>
   </trkpt>
   <trkpt lat="39.6879430" lon="-104.8754420">
    <ele>1677.0</ele>
    <time>2020-06-15T14:02:51Z</time>
   </trkpt>
   <trkpt lat="39.6879070" lon="-104.8754470">
    <ele>1677.0</ele>
    <time>2020-06-15T14:02:52Z</time>
   </trkpt>
   <trkpt lat="39.6878700" lon="-104.8754460">
    <ele>1677.0</ele>
    <time>2020-06-15T14:02:53Z</time>
   </trkpt>
   <trkpt lat="39.6878200" lon="-104.8754270">
    <ele>1677.0</ele>
    <time>2020-06-15T14:02:54Z</time>
   </trkpt>
   <trkpt lat="39.6877840" lon="-104.8754230">
    <ele>1677.0</ele>
    <time>2020-06-15T14:02:55Z</time>
   </trkpt>
   <trkpt lat="39.6877560" lon="-104.8754290">
    <ele>1677.0</ele>
    <time>2020-06-15T14:02:56Z</time>
   </trkpt>
   <trkpt lat="39.6877280" lon="-104.8754260">
    <ele>1677.1</ele>
    <time>2020-06-15T14:02:57Z</time>
   </trkpt>
   <trkpt lat="39.6876890" lon="-104.8754220">
    <ele>1677.1</ele>
    <time>2020-06-15T14:02:58Z</time>
   </trkpt>
   <trkpt lat="39.6876620" lon="-104.8754320">
    <ele>1677.2</ele>
    <time>2020-06-15T14:02:59Z</time>
   </trkpt>
   <trkpt lat="39.6876410" lon="-104.8754320">
    <ele>1677.2</ele>
    <time>2020-06-15T14:03:00Z</time>
   </trkpt>
   <trkpt lat="39.6875870" lon="-104.8754280">
    <ele>1677.3</ele>
    <time>2020-06-15T14:03:01Z</time>
   </trkpt>
   <trkpt lat="39.6875600" lon="-104.8754430">
    <ele>1677.3</ele>
    <time>2020-06-15T14:03:02Z</time>
   </trkpt>
   <trkpt lat="39.6875260" lon="-104.8754670">
    <ele>1677.8</ele>
    <time>2020-06-15T14:03:03Z</time>
   </trkpt>
   <trkpt lat="39.6874930" lon="-104.8754960">
    <ele>1677.9</ele>
    <time>2020-06-15T14:03:04Z</time>
   </trkpt>
   <trkpt lat="39.6874810" lon="-104.8755060">
    <ele>1677.9</ele>
    <time>2020-06-15T14:03:05Z</time>
   </trkpt>
   <trkpt lat="39.6874630" lon="-104.8755440">
    <ele>1678.0</ele>
    <time>2020-06-15T14:03:06Z</time>
   </trkpt>
   <trkpt lat="39.6874450" lon="-104.8755940">
    <ele>1678.1</ele>
    <time>2020-06-15T14:03:07Z</time>
   </trkpt>
   <trkpt lat="39.6874370" lon="-104.8756170">
    <ele>1678.1</ele>
    <time>2020-06-15T14:03:08Z</time>
   </trkpt>
   <trkpt lat="39.6874340" lon="-104.8756640">
    <ele>1678.2</ele>
    <time>2020-06-15T14:03:09Z</time>
   </trkpt>
   <trkpt lat="39.6874470" lon="-104.8757010">
    <ele>1678.3</ele>
    <time>2020-06-15T14:03:10Z</time>
   </trkpt>
   <trkpt lat="39.6874480" lon="-104.8757450">
    <ele>1678.3</ele>
    <time>2020-06-15T14:03:11Z</time>
   </trkpt>
   <trkpt lat="39.6874480" lon="-104.8757920">
    <ele>1678.3</ele>
    <time>2020-06-15T14:03:12Z</time>
   </trkpt>
   <trkpt lat="39.6874460" lon="-104.8758320">
    <ele>1678.3</ele>
    <time>2020-06-15T14:03:13Z</time>
   </trkpt>
   <trkpt lat="39.6874480" lon="-104.8759150">
    <ele>1678.3</ele>
    <time>2020-06-15T14:03:14Z</time>
   </trkpt>
   <trkpt lat="39.6874540" lon="-104.8759610">
    <ele>1678.3</ele>
    <time>2020-06-15T14:03:15Z</time>
   </trkpt>
   <trkpt lat="39.6874470" lon="-104.8760050">
    <ele>1678.3</ele>
    <time>2020-06-15T14:03:16Z</time>
   </trkpt>
   <trkpt lat="39.6874450" lon="-104.8760490">
    <ele>1678.3</ele>
    <time>2020-06-15T14:03:17Z</time>
   </trkpt>
   <trkpt lat="39.6874480" lon="-104.8760990">
    <ele>1678.3</ele>
    <time>2020-06-15T14:03:18Z</time>
   </trkpt>
   <trkpt lat="39.6874530" lon="-104.8761510">
    <ele>1678.3</ele>
    <time>2020-06-15T14:03:19Z</time>
   </trkpt>
   <trkpt lat="39.6874580" lon="-104.8761700">
    <ele>1678.3</ele>
    <time>2020-06-15T14:03:20Z</time>
   </trkpt>
   <trkpt lat="39.6874650" lon="-104.8762170">
    <ele>1678.3</ele>
    <time>2020-06-15T14:03:21Z</time>
   </trkpt>
   <trkpt lat="39.6874620" lon="-104.8762540">
    <ele>1678.3</ele>
    <time>2020-06-15T14:03:22Z</time>
   </trkpt>
   <trkpt lat="39.6874560" lon="-104.8763050">
    <ele>1678.3</ele>
    <time>2020-06-15T14:03:23Z</time>
   </trkpt>
   <trkpt lat="39.6874590" lon="-104.8763490">
    <ele>1678.3</ele>
    <time>2020-06-15T14:03:24Z</time>
   </trkpt>
   <trkpt lat="39.6874690" lon="-104.8764020">
    <ele>1678.3</ele>
    <time>2020-06-15T14:03:25Z</time>
   </trkpt>
   <trkpt lat="39.6874750" lon="-104.8764230">
    <ele>1678.3</ele>
    <time>2020-06-15T14:03:26Z</time>
   </trkpt>
   <trkpt lat="39.6874570" lon="-104.8764710">
    <ele>1678.3</ele>
    <time>2020-06-15T14:03:27Z</time>
   </trkpt>
   <trkpt lat="39.6874470" lon="-104.8765140">
    <ele>1678.3</ele>
    <time>2020-06-15T14:03:28Z</time>
   </trkpt>
   <trkpt lat="39.6874380" lon="-104.8765630">
    <ele>1678.3</ele>
    <time>2020-06-15T14:03:29Z</time>
   </trkpt>
   <trkpt lat="39.6874450" lon="-104.8766130">
    <ele>1678.3</ele>
    <time>2020-06-15T14:03:30Z</time>
   </trkpt>
   <trkpt lat="39.6874610" lon="-104.8766350">
    <ele>1678.4</ele>
    <time>2020-06-15T14:03:31Z</time>
   </trkpt>
   <trkpt lat="39.6874600" lon="-104.8766880">
    <ele>1678.4</ele>
    <time>2020-06-15T14:03:32Z</time>
   </trkpt>
   <trkpt lat="39.6874610" lon="-104.8767260">
    <ele>1678.4</ele>
    <time>2020-06-15T14:03:33Z</time>
   </trkpt>
   <trkpt lat="39.6874670" lon="-104.8767700">
    <ele>1678.4</ele>
    <time>2020-06-15T14:03:34Z</time>
   </trkpt>
   <trkpt lat="39.6874530" lon="-104.8768110">
    <ele>1678.4</ele>
    <time>2020-06-15T14:03:35Z</time>
   </trkpt>
   <trkpt lat="39.6874540" lon="-104.8768500">
    <ele>1678.4</ele>
    <time>2020-06-15T14:03:36Z</time>
   </trkpt>
   <trkpt lat="39.6874570" lon="-104.8768920">
    <ele>1678.4</ele>
    <time>2020-06-15T14:03:37Z</time>
   </trkpt>
   <trkpt lat="39.6874440" lon="-104.8769250">
    <ele>1678.4</ele>
    <time>2020-06-15T14:03:38Z</time>
   </trkpt>
   <trkpt lat="39.6874520" lon="-104.8769650">
    <ele>1678.4</ele>
    <time>2020-06-15T14:03:39Z</time>
   </trkpt>
   <trkpt lat="39.6874450" lon="-104.8770120">
    <ele>1678.4</ele>
    <time>2020-06-15T14:03:40Z</time>
   </trkpt>
   <trkpt lat="39.6874250" lon="-104.8770490">
    <ele>1678.4</ele>
    <time>2020-06-15T14:03:41Z</time>
   </trkpt>
   <trkpt lat="39.6874290" lon="-104.8770850">
    <ele>1678.4</ele>
    <time>2020-06-15T14:03:42Z</time>
   </trkpt>
   <trkpt lat="39.6874290" lon="-104.8771260">
    <ele>1678.4</ele>
    <time>2020-06-15T14:03:43Z</time>
   </trkpt>
   <trkpt lat="39.6874410" lon="-104.8771740">
    <ele>1678.5</ele>
    <time>2020-06-15T14:03:44Z</time>
   </trkpt>
   <trkpt lat="39.6874440" lon="-104.8772260">
    <ele>1678.5</ele>
    <time>2020-06-15T14:03:45Z</time>
   </trkpt>
   <trkpt lat="39.6874420" lon="-104.8772480">
    <ele>1678.5</ele>
    <time>2020-06-15T14:03:46Z</time>
   </trkpt>
   <trkpt lat="39.6874440" lon="-104.8772880">
    <ele>1678.5</ele>
    <time>2020-06-15T14:03:47Z</time>
   </trkpt>
   <trkpt lat="39.6874600" lon="-104.8773450">
    <ele>1678.3</ele>
    <time>2020-06-15T14:03:48Z</time>
   </trkpt>
   <trkpt lat="39.6874690" lon="-104.8773910">
    <ele>1678.2</ele>
    <time>2020-06-15T14:03:49Z</time>
   </trkpt>
   <trkpt lat="39.6874690" lon="-104.8774320">
    <ele>1678.2</ele>
    <time>2020-06-15T14:03:50Z</time>
   </trkpt>
   <trkpt lat="39.6874670" lon="-104.8774860">
    <ele>1678.1</ele>
    <time>2020-06-15T14:03:51Z</time>
   </trkpt>
   <trkpt lat="39.6874690" lon="-104.8775230">
    <ele>1678.1</ele>
    <time>2020-06-15T14:03:52Z</time>
   </trkpt>
   <trkpt lat="39.6874680" lon="-104.8775840">
    <ele>1678.2</ele>
    <time>2020-06-15T14:03:53Z</time>
   </trkpt>
   <trkpt lat="39.6874620" lon="-104.8776100">
    <ele>1678.2</ele>
    <time>2020-06-15T14:03:54Z</time>
   </trkpt>
   <trkpt lat="39.6874690" lon="-104.8776480">
    <ele>1678.3</ele>
    <time>2020-06-15T14:03:55Z</time>
   </trkpt>
   <trkpt lat="39.6874810" lon="-104.8776920">
    <ele>1678.3</ele>
    <time>2020-06-15T14:03:56Z</time>
   </trkpt>
   <trkpt lat="39.6875010" lon="-104.8777450">
    <ele>1678.4</ele>
    <time>2020-06-15T14:03:57Z</time>
   </trkpt>
   <trkpt lat="39.6874960" lon="-104.8777870">
    <ele>1678.4</ele>
    <time>2020-06-15T14:03:58Z</time>
   </trkpt>
   <trkpt lat="39.6874840" lon="-104.8778240">
    <ele>1678.4</ele>
    <time>2020-06-15T14:03:59Z</time>
   </trkpt>
   <trkpt lat="39.6874910" lon="-104.8778700">
    <ele>1678.4</ele>
    <time>2020-06-15T14:04:00Z</time>
   </trkpt>
   <trkpt lat="39.6874910" lon="-104.8779070">
    <ele>1678.5</ele>
    <time>2020-06-15T14:04:01Z</time>
   </trkpt>
   <trkpt lat="39.6874940" lon="-104.8779490">
    <ele>1678.7</ele>
    <time>2020-06-15T14:04:02Z</time>
   </trkpt>
   <trkpt lat="39.6874820" lon="-104.8779970">
    <ele>1678.8</ele>
    <time>2020-06-15T14:04:03Z</time>
   </trkpt>
   <trkpt lat="39.6874790" lon="-104.8780320">
    <ele>1678.9</ele>
    <time>2020-06-15T14:04:04Z</time>
   </trkpt>
   <trkpt lat="39.6874590" lon="-104.8780770">
    <ele>1679.0</ele>
    <time>2020-06-15T14:04:05Z</time>
   </trkpt>
   <trkpt lat="39.6874610" lon="-104.8781120">
    <ele>1679.0</ele>
    <time>2020-06-15T14:04:06Z</time>
   </trkpt>
   <trkpt lat="39.6874620" lon="-104.8781560">
    <ele>1679.1</ele>
    <time>2020-06-15T14:04:07Z</time>
   </trkpt>
   <trkpt lat="39.6874600" lon="-104.8782120">
    <ele>1679.1</ele>
    <time>2020-06-15T14:04:08Z</time>
   </trkpt>
   <trkpt lat="39.6874470" lon="-104.8782450">
    <ele>1679.1</ele>
    <time>2020-06-15T14:04:09Z</time>
   </trkpt>
   <trkpt lat="39.6874540" lon="-104.8782900">
    <ele>1679.1</ele>
    <time>2020-06-15T14:04:10Z</time>
   </trkpt>
   <trkpt lat="39.6874490" lon="-104.8783330">
    <ele>1679.1</ele>
    <time>2020-06-15T14:04:11Z</time>
   </trkpt>
   <trkpt lat="39.6874660" lon="-104.8783840">
    <ele>1679.0</ele>
    <time>2020-06-15T14:04:12Z</time>
   </trkpt>
   <trkpt lat="39.6874720" lon="-104.8784410">
    <ele>1678.9</ele>
    <time>2020-06-15T14:04:13Z</time>
   </trkpt>
   <trkpt lat="39.6874750" lon="-104.8784960">
    <ele>1678.8</ele>
    <time>2020-06-15T14:04:14Z</time>
   </trkpt>
   <trkpt lat="39.6874750" lon="-104.8785190">
    <ele>1678.7</ele>
    <time>2020-06-15T14:04:15Z</time>
   </trkpt>
   <trkpt lat="39.6874800" lon="-104.8785660">
    <ele>1678.6</ele>
    <time>2020-06-15T14:04:16Z</time>
   </trkpt>
   <trkpt lat="39.6874810" lon="-104.8786150">
    <ele>1678.6</ele>
    <time>2020-06-15T14:04:17Z</time>
   </trkpt>
   <trkpt lat="39.6874890" lon="-104.8786550">
    <ele>1678.6</ele>
    <time>2020-06-15T14:04:18Z</time>
   </trkpt>
   <trkpt lat="39.6874910" lon="-104.8787030">
    <ele>1678.6</ele>
    <time>2020-06-15T14:04:19Z</time>
   </trkpt>
   <trkpt lat="39.6874970" lon="-104.8787440">
    <ele>1678.6</ele>
    <time>2020-06-15T14:04:20Z</time>
   </trkpt>
   <trkpt lat="39.6874940" lon="-104.8787810">
    <ele>1678.6</ele>
    <time>2020-06-15T14:04:21Z</time>
   </trkpt>
   <trkpt lat="39.6874930" lon="-104.8788210">
    <ele>1678.6</ele>
    <time>2020-06-15T14:04:22Z</time>
   </trkpt>
   <trkpt lat="39.6873900" lon="-104.8789270">
    <ele>1678.9</ele>
    <time>2020-06-15T14:11:01Z</time>
   </trkpt>
   <trkpt lat="39.6874030" lon="-104.8789200">
    <ele>1679.0</ele>
    <time>2020-06-15T14:11:02Z</time>
   </trkpt>
   <trkpt lat="39.6874190" lon="-104.8789250">
    <ele>1679.1</ele>
    <time>2020-06-15T14:11:03Z</time>
   </trkpt>
   <trkpt lat="39.6874410" lon="-104.8789520">
    <ele>1679.3</ele>
    <time>2020-06-15T14:11:04Z</time>
   </trkpt>
   <trkpt lat="39.6874560" lon="-104.8789990">
    <ele>1679.4</ele>
    <time>2020-06-15T14:11:05Z</time>
   </trkpt>
   <trkpt lat="39.6874600" lon="-104.8790560">
    <ele>1679.5</ele>
    <time>2020-06-15T14:11:06Z</time>
   </trkpt>
   <trkpt lat="39.6874620" lon="-104.8791030">
    <ele>1679.6</ele>
    <time>2020-06-15T14:11:07Z</time>
   </trkpt>
   <trkpt lat="39.6874640" lon="-104.8791630">
    <ele>1679.6</ele>
    <time>2020-06-15T14:11:08Z</time>
   </trkpt>
   <trkpt lat="39.6874660" lon="-104.8792230">
    <ele>1679.6</ele>
    <time>2020-06-15T14:11:09Z</time>
   </trkpt>
   <trkpt lat="39.6874720" lon="-104.8792730">
    <ele>1679.6</ele>
    <time>2020-06-15T14:11:10Z</time>
   </trkpt>
   <trkpt lat="39.6874690" lon="-104.8793270">
    <ele>1679.6</ele>
    <time>2020-06-15T14:11:11Z</time>
   </trkpt>
   <trkpt lat="39.6874680" lon="-104.8793710">
    <ele>1679.6</ele>
    <time>2020-06-15T14:11:12Z</time>
   </trkpt>
   <trkpt lat="39.6874660" lon="-104.8794220">
    <ele>1679.6</ele>
    <time>2020-06-15T14:11:13Z</time>
   </trkpt>
   <trkpt lat="39.6874670" lon="-104.8794610">
    <ele>1679.6</ele>
    <time>2020-06-15T14:11:14Z</time>
   </trkpt>
   <trkpt lat="39.6874670" lon="-104.8794880">
    <ele>1679.6</ele>
    <time>2020-06-15T14:11:15Z</time>
   </trkpt>
   <trkpt lat="39.6874680" lon="-104.8795430">
    <ele>1679.5</ele>
    <time>2020-06-15T14:11:16Z</time>
   </trkpt>
   <trkpt lat="39.6874630" lon="-104.8795960">
    <ele>1679.5</ele>
    <time>2020-06-15T14:11:17Z</time>
   </trkpt>
   <trkpt lat="39.6874680" lon="-104.8796470">
    <ele>1679.4</ele>
    <time>2020-06-15T14:11:18Z</time>
   </trkpt>
   <trkpt lat="39.6874680" lon="-104.8797180">
    <ele>1679.2</ele>
    <time>2020-06-15T14:11:19Z</time>
   </trkpt>
   <trkpt lat="39.6874640" lon="-104.8797690">
    <ele>1679.0</ele>
    <time>2020-06-15T14:11:20Z</time>
   </trkpt>
   <trkpt lat="39.6874610" lon="-104.8798190">
    <ele>1678.7</ele>
    <time>2020-06-15T14:11:21Z</time>
   </trkpt>
   <trkpt lat="39.6874600" lon="-104.8798680">
    <ele>1678.2</ele>
    <time>2020-06-15T14:11:22Z</time>
   </trkpt>
   <trkpt lat="39.6874630" lon="-104.8799230">
    <ele>1678.0</ele>
    <time>2020-06-15T14:11:23Z</time>
   </trkpt>
   <trkpt lat="39.6874640" lon="-104.8799520">
    <ele>1678.0</ele>
    <time>2020-06-15T14:11:24Z</time>
   </trkpt>
   <trkpt lat="39.6874750" lon="-104.8799950">
    <ele>1677.9</ele>
    <time>2020-06-15T14:11:25Z</time>
   </trkpt>
   <trkpt lat="39.6874690" lon="-104.8800460">
    <ele>1677.8</ele>
    <time>2020-06-15T14:11:26Z</time>
   </trkpt>
   <trkpt lat="39.6874770" lon="-104.8800920">
    <ele>1677.8</ele>
    <time>2020-06-15T14:11:27Z</time>
   </trkpt>
   <trkpt lat="39.6874750" lon="-104.8801370">
    <ele>1677.8</ele>
    <time>2020-06-15T14:11:28Z</time>
   </trkpt>
   <trkpt lat="39.6874670" lon="-104.8801750">
    <ele>1677.8</ele>
    <time>2020-06-15T14:11:29Z</time>
   </trkpt>
   <trkpt lat="39.6874750" lon="-104.8802170">
    <ele>1677.8</ele>
    <time>2020-06-15T14:11:30Z</time>
   </trkpt>
   <trkpt lat="39.6874730" lon="-104.8802590">
    <ele>1677.8</ele>
    <time>2020-06-15T14:11:31Z</time>
   </trkpt>
   <trkpt lat="39.6874840" lon="-104.8803230">
    <ele>1677.8</ele>
    <time>2020-06-15T14:11:32Z</time>
   </trkpt>
   <trkpt lat="39.6874920" lon="-104.8803780">
    <ele>1677.8</ele>
    <time>2020-06-15T14:11:33Z</time>
   </trkpt>
   <trkpt lat="39.6874790" lon="-104.8804190">
    <ele>1677.8</ele>
    <time>2020-06-15T14:11:34Z</time>
   </trkpt>
   <trkpt lat="39.6874900" lon="-104.8804700">
    <ele>1677.8</ele>
    <time>2020-06-15T14:11:35Z</time>
   </trkpt>
   <trkpt lat="39.6874790" lon="-104.8805250">
    <ele>1677.8</ele>
    <time>2020-06-15T14:11:36Z</time>
   </trkpt>
   <trkpt lat="39.6874820" lon="-104.8805610">
    <ele>1677.8</ele>
    <time>2020-06-15T14:11:37Z</time>
   </trkpt>
   <trkpt lat="39.6874860" lon="-104.8806180">
    <ele>1677.8</ele>
    <time>2020-06-15T14:11:38Z</time>
   </trkpt>
   <trkpt lat="39.6874770" lon="-104.8806700">
    <ele>1677.8</ele>
    <time>2020-06-15T14:11:39Z</time>
   </trkpt>
   <trkpt lat="39.6874680" lon="-104.8807140">
    <ele>1677.7</ele>
    <time>2020-06-15T14:11:40Z</time>
   </trkpt>
   <trkpt lat="39.6874730" lon="-104.8807770">
    <ele>1677.6</ele>
    <time>2020-06-15T14:11:41Z</time>
   </trkpt>
   <trkpt lat="39.6874800" lon="-104.8808250">
    <ele>1677.5</ele>
    <time>2020-06-15T14:11:42Z</time>
   </trkpt>
   <trkpt lat="39.6874890" lon="-104.8808420">
    <ele>1677.5</ele>
    <time>2020-06-15T14:11:43Z</time>
   </trkpt>
   <trkpt lat="39.6875240" lon="-104.8808810">
    <ele>1677.5</ele>
    <time>2020-06-15T14:11:44Z</time>
   </trkpt>
   <trkpt lat="39.6875570" lon="-104.8809170">
    <ele>1677.5</ele>
    <time>2020-06-15T14:11:45Z</time>
   </trkpt>
   <trkpt lat="39.6875720" lon="-104.8809310">
    <ele>1677.5</ele>
    <time>2020-06-15T14:11:46Z</time>
   </trkpt>
   <trkpt lat="39.6875950" lon="-104.8809780">
    <ele>1677.4</ele>
    <time>2020-06-15T14:11:47Z</time>
   </trkpt>
   <trkpt lat="39.6876160" lon="-104.8810140">
    <ele>1677.5</ele>
    <time>2020-06-15T14:11:48Z</time>
   </trkpt>
   <trkpt lat="39.6876460" lon="-104.8810360">
    <ele>1677.5</ele>
    <time>2020-06-15T14:11:49Z</time>
   </trkpt>
   <trkpt lat="39.6876500" lon="-104.8810750">
    <ele>1677.5</ele>
    <time>2020-06-15T14:11:50Z</time>
   </trkpt>
   <trkpt lat="39.6876550" lon="-104.8811370">
    <ele>1677.5</ele>
    <time>2020-06-15T14:11:51Z</time>
   </trkpt>
   <trkpt lat="39.6876700" lon="-104.8811830">
    <ele>1677.5</ele>
    <time>2020-06-15T14:11:52Z</time>
   </trkpt>
   <trkpt lat="39.6876880" lon="-104.8812140">
    <ele>1677.5</ele>
    <time>2020-06-15T14:11:53Z</time>
   </trkpt>
   <trkpt lat="39.6877200" lon="-104.8812160">
    <ele>1677.5</ele>
    <time>2020-06-15T14:11:54Z</time>
   </trkpt>
   <trkpt lat="39.6877510" lon="-104.8812130">
    <ele>1677.5</ele>
    <time>2020-06-15T14:11:55Z</time>
   </trkpt>
   <trkpt lat="39.6877770" lon="-104.8812010">
    <ele>1677.5</ele>
    <time>2020-06-15T14:11:56Z</time>
   </trkpt>
   <trkpt lat="39.6878070" lon="-104.8811950">
    <ele>1677.5</ele>
    <time>2020-06-15T14:11:57Z</time>
   </trkpt>
   <trkpt lat="39.6878420" lon="-104.8812100">
    <ele>1677.5</ele>
    <time>2020-06-15T14:11:58Z</time>
   </trkpt>
   <trkpt lat="39.6878820" lon="-104.8812070">
    <ele>1677.5</ele>
    <time>2020-06-15T14:11:59Z</time>
   </trkpt>
   <trkpt lat="39.6879170" lon="-104.8812050">
    <ele>1677.6</ele>
    <time>2020-06-15T14:12:00Z</time>
   </trkpt>
   <trkpt lat="39.6879480" lon="-104.8812090">
    <ele>1677.6</ele>
    <time>2020-06-15T14:12:01Z</time>
   </trkpt>
   <trkpt lat="39.6879880" lon="-104.8811940">
    <ele>1677.6</ele>
    <time>2020-06-15T14:12:02Z</time>
   </trkpt>
   <trkpt lat="39.6880210" lon="-104.8811960">
    <ele>1677.6</ele>
    <time>2020-06-15T14:12:03Z</time>
   </trkpt>
   <trkpt lat="39.6880600" lon="-104.8811960">
    <ele>1677.6</ele>
    <time>2020-06-15T14:12:04Z</time>
   </trkpt>
   <trkpt lat="39.6880920" lon="-104.8812190">
    <ele>1677.6</ele>
    <time>2020-06-15T14:12:05Z</time>
   </trkpt>
   <trkpt lat="39.6881110" lon="-104.8812200">
    <ele>1677.6</ele>
    <time>2020-06-15T14:12:06Z</time>
   </trkpt>
   <trkpt lat="39.6881480" lon="-104.8812020">
    <ele>1677.6</ele>
    <time>2020-06-15T14:12:07Z</time>
   </trkpt>
   <trkpt lat="39.6881870" lon="-104.8811890">
    <ele>1677.6</ele>
    <time>2020-06-15T14:12:08Z</time>
   </trkpt>
   <trkpt lat="39.6882260" lon="-104.8811650">
    <ele>1677.6</ele>
    <time>2020-06-15T14:12:09Z</time>
   </trkpt>
   <trkpt lat="39.6882730" lon="-104.8811600">
    <ele>1677.6</ele>
    <time>2020-06-15T14:12:10Z</time>
   </trkpt>
   <trkpt lat="39.6883040" lon="-104.8811510">
    <ele>1677.6</ele>
    <time>2020-06-15T14:12:11Z</time>
   </trkpt>
   <trkpt lat="39.6883460" lon="-104.8811620">
    <ele>1677.5</ele>
    <time>2020-06-15T14:12:12Z</time>
   </trkpt>
   <trkpt lat="39.6883810" lon="-104.8811680">
    <ele>1677.5</ele>
    <time>2020-06-15T14:12:13Z</time>
   </trkpt>
   <trkpt lat="39.6884170" lon="-104.8811820">
    <ele>1677.5</ele>
    <time>2020-06-15T14:12:14Z</time>
   </trkpt>
   <trkpt lat="39.6884570" lon="-104.8811720">
    <ele>1677.5</ele>
    <time>2020-06-15T14:12:15Z</time>
   </trkpt>
   <trkpt lat="39.6884910" lon="-104.8811630">
    <ele>1677.5</ele>
    <time>2020-06-15T14:12:16Z</time>
   </trkpt>
   <trkpt lat="39.6885280" lon="-104.8811650">
    <ele>1677.5</ele>
    <time>2020-06-15T14:12:17Z</time>
   </trkpt>
   <trkpt lat="39.6885690" lon="-104.8811560">
    <ele>1677.4</ele>
    <time>2020-06-15T14:12:18Z</time>
   </trkpt>
   <trkpt lat="39.6886150" lon="-104.8811590">
    <ele>1677.4</ele>
    <time>2020-06-15T14:12:19Z</time>
   </trkpt>
   <trkpt lat="39.6886500" lon="-104.8811700">
    <ele>1677.4</ele>
    <time>2020-06-15T14:12:20Z</time>
   </trkpt>
   <trkpt lat="39.6886860" lon="-104.8811820">
    <ele>1677.4</ele>
    <time>2020-06-15T14:12:21Z</time>
   </trkpt>
   <trkpt lat="39.6887310" lon="-104.8812030">
    <ele>1677.4</ele>
    <time>2020-06-15T14:12:22Z</time>
   </trkpt>
   <trkpt lat="39.6887720" lon="-104.8812140">
    <ele>1677.3</ele>
    <time>2020-06-15T14:12:23Z</time>
   </trkpt>
   <trkpt lat="39.6888130" lon="-104.8811930">
    <ele>1677.3</ele>
    <time>2020-06-15T14:12:24Z</time>
   </trkpt>
   <trkpt lat="39.6888490" lon="-104.8811820">
    <ele>1677.3</ele>
    <time>2020-06-15T14:12:25Z</time>
   </trkpt>
   <trkpt lat="39.6888880" lon="-104.8811720">
    <ele>1677.2</ele>
    <time>2020-06-15T14:12:26Z</time>
   </trkpt>
   <trkpt lat="39.6889390" lon="-104.8811480">
    <ele>1677.2</ele>
    <time>2020-06-15T14:12:27Z</time>
   </trkpt>
   <trkpt lat="39.6889780" lon="-104.8811580">
    <ele>1677.1</ele>
    <time>2020-06-15T14:12:28Z</time>
   </trkpt>
   <trkpt lat="39.6890170" lon="-104.8811690">
    <ele>1677.1</ele>
    <time>2020-06-15T14:12:29Z</time>
   </trkpt>
   <trkpt lat="39.6890630" lon="-104.8811800">
    <ele>1677.0</ele>
    <time>2020-06-15T14:12:30Z</time>
   </trkpt>
   <trkpt lat="39.6890970" lon="-104.8811820">
    <ele>1677.0</ele>
    <time>2020-06-15T14:12:31Z</time>
   </trkpt>
   <trkpt lat="39.6891380" lon="-104.8811870">
    <ele>1676.9</ele>
    <time>2020-06-15T14:12:32Z</time>
   </trkpt>
   <trkpt lat="39.6891730" lon="-104.8812120">
    <ele>1676.6</ele>
    <time>2020-06-15T14:12:33Z</time>
   </trkpt>
   <trkpt lat="39.6891920" lon="-104.8812700">
    <ele>1676.6</ele>
    <time>2020-06-15T14:12:34Z</time>
   </trkpt>
   <trkpt lat="39.6891950" lon="-104.8813330">
    <ele>1676.6</ele>
    <time>2020-06-15T14:12:35Z</time>
   </trkpt>
   <trkpt lat="39.6891880" lon="-104.8813780">
    <ele>1676.7</ele>
    <time>2020-06-15T14:12:36Z</time>
   </trkpt>
   <trkpt lat="39.6891780" lon="-104.8814280">
    <ele>1676.7</ele>
    <time>2020-06-15T14:12:37Z</time>
   </trkpt>
   <trkpt lat="39.6891840" lon="-104.8814730">
    <ele>1676.8</ele>
    <time>2020-06-15T14:12:38Z</time>
   </trkpt>
   <trkpt lat="39.6891900" lon="-104.8815170">
    <ele>1676.8</ele>
    <time>2020-06-15T14:12:39Z</time>
   </trkpt>
   <trkpt lat="39.6892160" lon="-104.8815510">
    <ele>1676.9</ele>
    <time>2020-06-15T14:12:40Z</time>
   </trkpt>
   <trkpt lat="39.6892190" lon="-104.8816090">
    <ele>1677.0</ele>
    <time>2020-06-15T14:12:41Z</time>
   </trkpt>
   <trkpt lat="39.6892130" lon="-104.8816350">
    <ele>1677.0</ele>
    <time>2020-06-15T14:12:42Z</time>
   </trkpt>
   <trkpt lat="39.6892150" lon="-104.8816770">
    <ele>1677.1</ele>
    <time>2020-06-15T14:12:43Z</time>
   </trkpt>
   <trkpt lat="39.6891980" lon="-104.8817270">
    <ele>1677.2</ele>
    <time>2020-06-15T14:12:44Z</time>
   </trkpt>
   <trkpt lat="39.6892140" lon="-104.8817660">
    <ele>1677.3</ele>
    <time>2020-06-15T14:12:45Z</time>
   </trkpt>
   <trkpt lat="39.6892110" lon="-104.8818070">
    <ele>1677.3</ele>
    <time>2020-06-15T14:12:46Z</time>
   </trkpt>
   <trkpt lat="39.6892080" lon="-104.8818460">
    <ele>1677.4</ele>
    <time>2020-06-15T14:12:47Z</time>
   </trkpt>
   <trkpt lat="39.6892160" lon="-104.8818890">
    <ele>1677.4</ele>
    <time>2020-06-15T14:12:48Z</time>
   </trkpt>
   <trkpt lat="39.6892190" lon="-104.8819380">
    <ele>1677.5</ele>
    <time>2020-06-15T14:12:49Z</time>
   </trkpt>
   <trkpt lat="39.6892120" lon="-104.8819820">
    <ele>1677.5</ele>
    <time>2020-06-15T14:12:50Z</time>
   </trkpt>
   <trkpt lat="39.6891880" lon="-104.8820260">
    <ele>1677.6</ele>
    <time>2020-06-15T14:12:51Z</time>
   </trkpt>
   <trkpt lat="39.6891980" lon="-104.8820690">
    <ele>1677.7</ele>
    <time>2020-06-15T14:12:52Z</time>
   </trkpt>
   <trkpt lat="39.6891950" lon="-104.8820950">
    <ele>1677.7</ele>
    <time>2020-06-15T14:12:53Z</time>
   </trkpt>
   <trkpt lat="39.6891990" lon="-104.8821130">
    <ele>1677.7</ele>
    <time>2020-06-15T14:12:54Z</time>
   </trkpt>
   <trkpt lat="39.6893220" lon="-104.8821450">
    <ele>1678.0</ele>
    <time>2020-06-15T14:12:55Z</time>
   </trkpt>
   <trkpt lat="39.6894420" lon="-104.8821640">
    <ele>1678.2</ele>
    <time>2020-06-15T14:13:48Z</time>
   </trkpt>
   <trkpt lat="39.6895630" lon="-104.8821840">
    <ele>1678.4</ele>
    <time>2020-06-15T14:13:51Z</time>
   </trkpt>
   <trkpt lat="39.6896830" lon="-104.8822030">
    <ele>1678.8</ele>
    <time>2020-06-15T14:13:53Z</time>
   </trkpt>
   <trkpt lat="39.6898030" lon="-104.8822220">
    <ele>1678.8</ele>
    <time>2020-06-15T14:13:54Z</time>
   </trkpt>
   <trkpt lat="39.6898390" lon="-104.8822360">
    <ele>1678.8</ele>
    <time>2020-06-15T14:13:55Z</time>
   </trkpt>
   <trkpt lat="39.6898720" lon="-104.8822360">
    <ele>1678.8</ele>
    <time>2020-06-15T14:13:56Z</time>
   </trkpt>
   <trkpt lat="39.6899090" lon="-104.8822170">
    <ele>1678.8</ele>
    <time>2020-06-15T14:13:57Z</time>
   </trkpt>
   <trkpt lat="39.6899590" lon="-104.8822250">
    <ele>1678.9</ele>
    <time>2020-06-15T14:13:58Z</time>
   </trkpt>
   <trkpt lat="39.6900040" lon="-104.8822250">
    <ele>1678.9</ele>
    <time>2020-06-15T14:13:59Z</time>
   </trkpt>
   <trkpt lat="39.6900390" lon="-104.8822180">
    <ele>1678.9</ele>
    <time>2020-06-15T14:14:00Z</time>
   </trkpt>
   <trkpt lat="39.6900730" lon="-104.8822140">
    <ele>1679.0</ele>
    <time>2020-06-15T14:14:01Z</time>
   </trkpt>
   <trkpt lat="39.6901160" lon="-104.8822090">
    <ele>1679.0</ele>
    <time>2020-06-15T14:14:02Z</time>
   </trkpt>
   <trkpt lat="39.6901350" lon="-104.8822060">
    <ele>1679.1</ele>
    <time>2020-06-15T14:14:03Z</time>
   </trkpt>
   <trkpt lat="39.6901670" lon="-104.8822030">
    <ele>1679.1</ele>
    <time>2020-06-15T14:14:04Z</time>
   </trkpt>
   <trkpt lat="39.6902060" lon="-104.8822090">
    <ele>1679.2</ele>
    <time>2020-06-15T14:14:05Z</time>
   </trkpt>
   <trkpt lat="39.6902430" lon="-104.8822110">
    <ele>1679.3</ele>
    <time>2020-06-15T14:14:06Z</time>
   </trkpt>
   <trkpt lat="39.6902800" lon="-104.8822190">
    <ele>1679.2</ele>
    <time>2020-06-15T14:14:07Z</time>
   </trkpt>
   <trkpt lat="39.6903200" lon="-104.8822100">
    <ele>1679.1</ele>
    <time>2020-06-15T14:14:08Z</time>
   </trkpt>
   <trkpt lat="39.6903680" lon="-104.8822110">
    <ele>1679.0</ele>
    <time>2020-06-15T14:14:09Z</time>
   </trkpt>
   <trkpt lat="39.6903990" lon="-104.8822090">
    <ele>1679.0</ele>
    <time>2020-06-15T14:14:10Z</time>
   </trkpt>
   <trkpt lat="39.6904320" lon="-104.8822030">
    <ele>1678.9</ele>
    <time>2020-06-15T14:14:11Z</time>
   </trkpt>
   <trkpt lat="39.6904690" lon="-104.8822080">
    <ele>1678.9</ele>
    <time>2020-06-15T14:14:12Z</time>
   </trkpt>
   <trkpt lat="39.6905100" lon="-104.8822050">
    <ele>1678.8</ele>
    <time>2020-06-15T14:14:13Z</time>
   </trkpt>
   <trkpt lat="39.6905580" lon="-104.8822040">
    <ele>1678.7</ele>
    <time>2020-06-15T14:14:14Z</time>
   </trkpt>
   <trkpt lat="39.6905920" lon="-104.8822030">
    <ele>1678.7</ele>
    <time>2020-06-15T14:14:15Z</time>
   </trkpt>
   <trkpt lat="39.6906320" lon="-104.8821990">
    <ele>1678.6</ele>
    <time>2020-06-15T14:14:16Z</time>
   </trkpt>
   <trkpt lat="39.6906880" lon="-104.8822160">
    <ele>1678.4</ele>
    <time>2020-06-15T14:14:17Z</time>
   </trkpt>
   <trkpt lat="39.6907260" lon="-104.8822180">
    <ele>1678.3</ele>
    <time>2020-06-15T14:14:18Z</time>
   </trkpt>
   <trkpt lat="39.6907660" lon="-104.8822160">
    <ele>1678.2</ele>
    <time>2020-06-15T14:14:19Z</time>
   </trkpt>
   <trkpt lat="39.6907840" lon="-104.8822170">
    <ele>1678.1</ele>
    <time>2020-06-15T14:14:20Z</time>
   </trkpt>
   <trkpt lat="39.6908210" lon="-104.8822040">
    <ele>1678.0</ele>
    <time>2020-06-15T14:14:21Z</time>
   </trkpt>
   <trkpt lat="39.6908620" lon="-104.8822140">
    <ele>1678.0</ele>
    <time>2020-06-15T14:14:22Z</time>
   </trkpt>
   <trkpt lat="39.6909000" lon="-104.8822000">
    <ele>1677.9</ele>
    <time>2020-06-15T14:14:23Z</time>
   </trkpt>
   <trkpt lat="39.6909430" lon="-104.8822030">
    <ele>1677.9</ele>
    <time>2020-06-15T14:14:24Z</time>
   </trkpt>
   <trkpt lat="39.6909840" lon="-104.8822100">
    <ele>1677.9</ele>
    <time>2020-06-15T14:14:25Z</time>
   </trkpt>
   <trkpt lat="39.6910190" lon="-104.8822070">
    <ele>1677.9</ele>
    <time>2020-06-15T14:14:26Z</time>
   </trkpt>
   <trkpt lat="39.6910580" lon="-104.8822050">
    <ele>1677.9</ele>
    <time>2020-06-15T14:14:27Z</time>
   </trkpt>
   <trkpt lat="39.6910980" lon="-104.8822070">
    <ele>1677.9</ele>
    <time>2020-06-15T14:14:28Z</time>
   </trkpt>
   <trkpt lat="39.6911310" lon="-104.8822140">
    <ele>1678.0</ele>
    <time>2020-06-15T14:14:29Z</time>
   </trkpt>
   <trkpt lat="39.6911790" lon="-104.8822260">
    <ele>1678.1</ele>
    <time>2020-06-15T14:14:30Z</time>
   </trkpt>
   <trkpt lat="39.6912100" lon="-104.8822090">
    <ele>1678.1</ele>
    <time>2020-06-15T14:14:31Z</time>
   </trkpt>
   <trkpt lat="39.6912590" lon="-104.8822270">
    <ele>1678.0</ele>
    <time>2020-06-15T14:14:32Z</time>
   </trkpt>
   <trkpt lat="39.6912920" lon="-104.8822370">
    <ele>1678.0</ele>
    <time>2020-06-15T14:14:33Z</time>
   </trkpt>
   <trkpt lat="39.6913260" lon="-104.8822220">
    <ele>1678.0</ele>
    <time>2020-06-15T14:14:34Z</time>
   </trkpt>
   <trkpt lat="39.6913660" lon="-104.8822160">
    <ele>1677.9</ele>
    <time>2020-06-15T14:14:35Z</time>
   </trkpt>
   <trkpt lat="39.6913960" lon="-104.8822190">
    <ele>1677.9</ele>
    <time>2020-06-15T14:14:36Z</time>
   </trkpt>
   <trkpt lat="39.6914290" lon="-104.8822260">
    <ele>1677.9</ele>
    <time>2020-06-15T14:14:37Z</time>
   </trkpt>
   <trkpt lat="39.6914630" lon="-104.8822330">
    <ele>1677.9</ele>
    <time>2020-06-15T14:14:38Z</time>
   </trkpt>
   <trkpt lat="39.6915050" lon="-104.8822240">
    <ele>1677.8</ele>
    <time>2020-06-15T14:14:39Z</time>
   </trkpt>
   <trkpt lat="39.6915490" lon="-104.8821970">
    <ele>1677.8</ele>
    <time>2020-06-15T14:14:40Z</time>
   </trkpt>
   <trkpt lat="39.6915720" lon="-104.8822150">
    <ele>1677.8</ele>
    <time>2020-06-15T14:14:41Z</time>
   </trkpt>
   <trkpt lat="39.6916050" lon="-104.8822080">
    <ele>1677.8</ele>
    <time>2020-06-15T14:14:42Z</time>
   </trkpt>
   <trkpt lat="39.6916440" lon="-104.8822110">
    <ele>1677.7</ele>
    <time>2020-06-15T14:14:43Z</time>
   </trkpt>
   <trkpt lat="39.6916710" lon="-104.8822250">
    <ele>1677.7</ele>
    <time>2020-06-15T14:14:44Z</time>
   </trkpt>
   <trkpt lat="39.6917090" lon="-104.8822240">
    <ele>1677.7</ele>
    <time>2020-06-15T14:14:45Z</time>
   </trkpt>
   <trkpt lat="39.6917490" lon="-104.8822260">
    <ele>1677.6</ele>
    <time>2020-06-15T14:14:46Z</time>
   </trkpt>
   <trkpt lat="39.6917840" lon="-104.8822270">
    <ele>1677.6</ele>
    <time>2020-06-15T14:14:47Z</time>
   </trkpt>
   <trkpt lat="39.6918150" lon="-104.8822420">
    <ele>1677.6</ele>
    <time>2020-06-15T14:14:48Z</time>
   </trkpt>
   <trkpt lat="39.6918560" lon="-104.8822240">
    <ele>1677.5</ele>
    <time>2020-06-15T14:14:49Z</time>
   </trkpt>
   <trkpt lat="39.6918850" lon="-104.8822140">
    <ele>1677.5</ele>
    <time>2020-06-15T14:14:50Z</time>
   </trkpt>
   <trkpt lat="39.6919290" lon="-104.8822180">
    <ele>1677.4</ele>
    <time>2020-06-15T14:14:51Z</time>
   </trkpt>
   <trkpt lat="39.6919700" lon="-104.8822080">
    <ele>1677.4</ele>
    <time>2020-06-15T14:14:52Z</time>
   </trkpt>
   <trkpt lat="39.6919860" lon="-104.8822030">
    <ele>1677.4</ele>
    <time>2020-06-15T14:14:53Z</time>
   </trkpt>
   <trkpt lat="39.6920260" lon="-104.8822100">
    <ele>1677.3</ele>
    <time>2020-06-15T14:14:54Z</time>
   </trkpt>
   <trkpt lat="39.6920560" lon="-104.8822120">
    <ele>1677.3</ele>
    <time>2020-06-15T14:14:55Z</time>
   </trkpt>
   <trkpt lat="39.6920890" lon="-104.8822300">
    <ele>1677.3</ele>
    <time>2020-06-15T14:14:56Z</time>
   </trkpt>
   <trkpt lat="39.6921300" lon="-104.8822240">
    <ele>1677.3</ele>
    <time>2020-06-15T14:14:57Z</time>
   </trkpt>
   <trkpt lat="39.6921700" lon="-104.8822180">
    <ele>1677.2</ele>
    <time>2020-06-15T14:14:58Z</time>
   </trkpt>
   <trkpt lat="39.6922070" lon="-104.8822300">
    <ele>1677.2</ele>
    <time>2020-06-15T14:14:59Z</time>
   </trkpt>
   <trkpt lat="39.6922380" lon="-104.8822410">
    <ele>1677.1</ele>
    <time>2020-06-15T14:15:00Z</time>
   </trkpt>
   <trkpt lat="39.6922770" lon="-104.8822370">
    <ele>1677.1</ele>
    <time>2020-06-15T14:15:01Z</time>
   </trkpt>
   <trkpt lat="39.6923090" lon="-104.8822540">
    <ele>1676.9</ele>
    <time>2020-06-15T14:15:02Z</time>
   </trkpt>
   <trkpt lat="39.6923360" lon="-104.8822570">
    <ele>1676.8</ele>
    <time>2020-06-15T14:15:03Z</time>
   </trkpt>
   <trkpt lat="39.6923800" lon="-104.8822440">
    <ele>1676.7</ele>
    <time>2020-06-15T14:15:04Z</time>
   </trkpt>
   <trkpt lat="39.6924190" lon="-104.8822240">
    <ele>1676.5</ele>
    <time>2020-06-15T14:15:05Z</time>
   </trkpt>
   <trkpt lat="39.6924460" lon="-104.8822300">
    <ele>1676.4</ele>
    <time>2020-06-15T14:15:06Z</time>
   </trkpt>
   <trkpt lat="39.6924780" lon="-104.8822290">
    <ele>1676.3</ele>
    <time>2020-06-15T14:15:07Z</time>
   </trkpt>
   <trkpt lat="39.6925140" lon="-104.8822220">
    <ele>1676.1</ele>
    <time>2020-06-15T14:15:08Z</time>
   </trkpt>
   <trkpt lat="39.6925510" lon="-104.8822220">
    <ele>1676.0</ele>
    <time>2020-06-15T14:15:09Z</time>
   </trkpt>
   <trkpt lat="39.6925870" lon="-104.8822480">
    <ele>1675.8</ele>
    <time>2020-06-15T14:15:10Z</time>
   </trkpt>
   <trkpt lat="39.6926280" lon="-104.8822360">
    <ele>1675.5</ele>
    <time>2020-06-15T14:15:11Z</time>
   </trkpt>
   <trkpt lat="39.6927030" lon="-104.8822340">
    <ele>1675.2</ele>
    <time>2020-06-15T14:15:12Z</time>
   </trkpt>
   <trkpt lat="39.6927360" lon="-104.8822370">
    <ele>1675.1</ele>
    <time>2020-06-15T14:15:13Z</time>
   </trkpt>
   <trkpt lat="39.6927770" lon="-104.8822450">
    <ele>1674.9</ele>
    <time>2020-06-15T14:15:14Z</time>
   </trkpt>
   <trkpt lat="39.6928220" lon="-104.8822190">
    <ele>1674.8</ele>
    <time>2020-06-15T14:15:15Z</time>
   </trkpt>
   <trkpt lat="39.6928760" lon="-104.8822200">
    <ele>1674.7</ele>
    <time>2020-06-15T14:15:16Z</time>
   </trkpt>
   <trkpt lat="39.6929170" lon="-104.8822290">
    <ele>1674.6</ele>
    <time>2020-06-15T14:15:17Z</time>
   </trkpt>
   <trkpt lat="39.6929470" lon="-104.8822260">
    <ele>1674.2</ele>
    <time>2020-06-15T14:15:18Z</time>
   </trkpt>
   <trkpt lat="39.6929970" lon="-104.8822300">
    <ele>1673.9</ele>
    <time>2020-06-15T14:15:19Z</time>
   </trkpt>
   <trkpt lat="39.6930290" lon="-104.8822210">
    <ele>1673.6</ele>
    <time>2020-06-15T14:15:20Z</time>
   </trkpt>
   <trkpt lat="39.6930640" lon="-104.8822200">
    <ele>1673.4</ele>
    <time>2020-06-15T14:15:21Z</time>
   </trkpt>
   <trkpt lat="39.6931040" lon="-104.8822300">
    <ele>1673.2</ele>
    <time>2020-06-15T14:15:22Z</time>
   </trkpt>
   <trkpt lat="39.6931430" lon="-104.8822200">
    <ele>1673.0</ele>
    <time>2020-06-15T14:15:23Z</time>
   </trkpt>
   <trkpt lat="39.6931800" lon="-104.8822260">
    <ele>1672.8</ele>
    <time>2020-06-15T14:15:24Z</time>
   </trkpt>
   <trkpt lat="39.6932180" lon="-104.8822290">
    <ele>1672.7</ele>
    <time>2020-06-15T14:15:25Z</time>
   </trkpt>
   <trkpt lat="39.6932350" lon="-104.8822320">
    <ele>1672.6</ele>
    <time>2020-06-15T14:15:26Z</time>
   </trkpt>
   <trkpt lat="39.6932700" lon="-104.8822490">
    <ele>1672.4</ele>
    <time>2020-06-15T14:15:27Z</time>
   </trkpt>
   <trkpt lat="39.6933010" lon="-104.8822450">
    <ele>1672.3</ele>
    <time>2020-06-15T14:15:28Z</time>
   </trkpt>
   <trkpt lat="39.6933460" lon="-104.8822460">
    <ele>1672.2</ele>
    <time>2020-06-15T14:15:29Z</time>
   </trkpt>
   <trkpt lat="39.6933900" lon="-104.8822440">
    <ele>1672.1</ele>
    <time>2020-06-15T14:15:30Z</time>
   </trkpt>
   <trkpt lat="39.6934240" lon="-104.8822410">
    <ele>1672.0</ele>
    <time>2020-06-15T14:15:31Z</time>
   </trkpt>
   <trkpt lat="39.6934580" lon="-104.8822480">
    <ele>1672.0</ele>
    <time>2020-06-15T14:15:32Z</time>
   </trkpt>
   <trkpt lat="39.6934920" lon="-104.8822430">
    <ele>1671.9</ele>
    <time>2020-06-15T14:15:33Z</time>
   </trkpt>
   <trkpt lat="39.6935250" lon="-104.8822600">
    <ele>1671.9</ele>
    <time>2020-06-15T14:15:34Z</time>
   </trkpt>
   <trkpt lat="39.6935660" lon="-104.8822880">
    <ele>1671.8</ele>
    <time>2020-06-15T14:15:35Z</time>
   </trkpt>
   <trkpt lat="39.6936060" lon="-104.8822610">
    <ele>1671.7</ele>
    <time>2020-06-15T14:15:36Z</time>
   </trkpt>
   <trkpt lat="39.6936420" lon="-104.8822490">
    <ele>1671.8</ele>
    <time>2020-06-15T14:15:37Z</time>
   </trkpt>
   <trkpt lat="39.6936820" lon="-104.8822400">
    <ele>1671.8</ele>
    <time>2020-06-15T14:15:38Z</time>
   </trkpt>
   <trkpt lat="39.6937290" lon="-104.8822260">
    <ele>1671.8</ele>
    <time>2020-06-15T14:15:39Z</time>
   </trkpt>
   <trkpt lat="39.6937640" lon="-104.8822170">
    <ele>1671.7</ele>
    <time>2020-06-15T14:15:40Z</time>
   </trkpt>
   <trkpt lat="39.6937970" lon="-104.8822340">
    <ele>1671.6</ele>
    <time>2020-06-15T14:15:41Z</time>
   </trkpt>
   <trkpt lat="39.6938370" lon="-104.8822300">
    <ele>1671.6</ele>
    <time>2020-06-15T14:15:42Z</time>
   </trkpt>
   <trkpt lat="39.6938750" lon="-104.8822360">
    <ele>1671.5</ele>
    <time>2020-06-15T14:15:43Z</time>
   </trkpt>
   <trkpt lat="39.6939040" lon="-104.8822420">
    <ele>1671.5</ele>
    <time>2020-06-15T14:15:44Z</time>
   </trkpt>
   <trkpt lat="39.6939340" lon="-104.8822380">
    <ele>1671.4</ele>
    <time>2020-06-15T14:15:45Z</time>
   </trkpt>
   <trkpt lat="39.6939730" lon="-104.8822610">
    <ele>1671.4</ele>
    <time>2020-06-15T14:15:46Z</time>
   </trkpt>
   <trkpt lat="39.6940080" lon="-104.8822510">
    <ele>1671.4</ele>
    <time>2020-06-15T14:15:47Z</time>
   </trkpt>
   <trkpt lat="39.6940510" lon="-104.8822310">
    <ele>1671.4</ele>
    <time>2020-06-15T14:15:48Z</time>
   </trkpt>
   <trkpt lat="39.6940780" lon="-104.8822400">
    <ele>1671.4</ele>
    <time>2020-06-15T14:15:49Z</time>
   </trkpt>
   <trkpt lat="39.6941130" lon="-104.8822540">
    <ele>1671.4</ele>
    <time>2020-06-15T14:15:50Z</time>
   </trkpt>
   <trkpt lat="39.6941530" lon="-104.8822480">
    <ele>1671.4</ele>
    <time>2020-06-15T14:15:51Z</time>
   </trkpt>
   <trkpt lat="39.6941940" lon="-104.8822320">
    <ele>1671.4</ele>
    <time>2020-06-15T14:15:52Z</time>
   </trkpt>
   <trkpt lat="39.6942250" lon="-104.8822220">
    <ele>1671.4</ele>
    <time>2020-06-15T14:15:53Z</time>
   </trkpt>
   <trkpt lat="39.6942550" lon="-104.8822190">
    <ele>1671.4</ele>
    <time>2020-06-15T14:15:54Z</time>
   </trkpt>
   <trkpt lat="39.6942980" lon="-104.8822240">
    <ele>1671.4</ele>
    <time>2020-06-15T14:15:55Z</time>
   </trkpt>
   <trkpt lat="39.6943350" lon="-104.8822230">
    <ele>1671.3</ele>
    <time>2020-06-15T14:15:56Z</time>
   </trkpt>
   <trkpt lat="39.6943670" lon="-104.8822180">
    <ele>1671.3</ele>
    <time>2020-06-15T14:15:57Z</time>
   </trkpt>
   <trkpt lat="39.6944010" lon="-104.8822020">
    <ele>1671.2</ele>
    <time>2020-06-15T14:15:58Z</time>
   </trkpt>
   <trkpt lat="39.6944440" lon="-104.8822020">
    <ele>1671.2</ele>
    <time>2020-06-15T14:15:59Z</time>
   </trkpt>
   <trkpt lat="39.6944600" lon="-104.8821990">
    <ele>1671.2</ele>
    <time>2020-06-15T14:16:00Z</time>
   </trkpt>
   <trkpt lat="39.6945050" lon="-104.8822100">
    <ele>1671.2</ele>
    <time>2020-06-15T14:16:01Z</time>
   </trkpt>
   <trkpt lat="39.6945370" lon="-104.8822160">
    <ele>1671.2</ele>
    <time>2020-06-15T14:16:02Z</time>
   </trkpt>
   <trkpt lat="39.6945810" lon="-104.8822150">
    <ele>1671.2</ele>
    <time>2020-06-15T14:16:04Z</time>
   </trkpt>
   <trkpt lat="39.6946160" lon="-104.8822110">
    <ele>1671.2</ele>
    <time>2020-06-15T14:16:05Z</time>
   </trkpt>
   <trkpt lat="39.6946460" lon="-104.8822040">
    <ele>1671.2</ele>
    <time>2020-06-15T14:16:06Z</time>
   </trkpt>
   <trkpt lat="39.6946920" lon="-104.8822040">
    <ele>1671.2</ele>
    <time>2020-06-15T14:16:07Z</time>
   </trkpt>
   <trkpt lat="39.6947270" lon="-104.8822070">
    <ele>1671.2</ele>
    <time>2020-06-15T14:16:08Z</time>
   </trkpt>
   <trkpt lat="39.6947660" lon="-104.8822150">
    <ele>1671.1</ele>
    <time>2020-06-15T14:16:09Z</time>
   </trkpt>
   <trkpt lat="39.6948210" lon="-104.8822220">
    <ele>1671.1</ele>
    <time>2020-06-15T14:16:10Z</time>
   </trkpt>
   <trkpt lat="39.6948590" lon="-104.8822180">
    <ele>1671.0</ele>
    <time>2020-06-15T14:16:11Z</time>
   </trkpt>
   <trkpt lat="39.6948730" lon="-104.8822060">
    <ele>1671.0</ele>
    <time>2020-06-15T14:16:12Z</time>
   </trkpt>
   <trkpt lat="39.6949140" lon="-104.8822120">
    <ele>1670.9</ele>
    <time>2020-06-15T14:16:13Z</time>
   </trkpt>
   <trkpt lat="39.6949510" lon="-104.8822220">
    <ele>1670.8</ele>
    <time>2020-06-15T14:16:14Z</time>
   </trkpt>
   <trkpt lat="39.6949800" lon="-104.8822190">
    <ele>1670.8</ele>
    <time>2020-06-15T14:16:15Z</time>
   </trkpt>
   <trkpt lat="39.6950240" lon="-104.8822300">
    <ele>1670.7</ele>
    <time>2020-06-15T14:16:16Z</time>
   </trkpt>
   <trkpt lat="39.6950570" lon="-104.8822220">
    <ele>1670.7</ele>
    <time>2020-06-15T14:16:17Z</time>
   </trkpt>
   <trkpt lat="39.6950970" lon="-104.8822180">
    <ele>1670.6</ele>
    <time>2020-06-15T14:16:18Z</time>
   </trkpt>
   <trkpt lat="39.6951330" lon="-104.8822160">
    <ele>1670.6</ele>
    <time>2020-06-15T14:16:19Z</time>
   </trkpt>
   <trkpt lat="39.6951700" lon="-104.8821970">
    <ele>1670.5</ele>
    <time>2020-06-15T14:16:20Z</time>
   </trkpt>
   <trkpt lat="39.6952130" lon="-104.8821990">
    <ele>1670.5</ele>
    <time>2020-06-15T14:16:21Z</time>
   </trkpt>
   <trkpt lat="39.6952480" lon="-104.8822050">
    <ele>1670.5</ele>
    <time>2020-06-15T14:16:22Z</time>
   </trkpt>
   <trkpt lat="39.6952780" lon="-104.8822130">
    <ele>1670.4</ele>
    <time>2020-06-15T14:16:23Z</time>
   </trkpt>
   <trkpt lat="39.6953150" lon="-104.8822320">
    <ele>1670.4</ele>
    <time>2020-06-15T14:16:24Z</time>
   </trkpt>
   <trkpt lat="39.6953460" lon="-104.8822390">
    <ele>1670.3</ele>
    <time>2020-06-15T14:16:25Z</time>
   </trkpt>
   <trkpt lat="39.6953950" lon="-104.8822180">
    <ele>1670.3</ele>
    <time>2020-06-15T14:16:26Z</time>
   </trkpt>
   <trkpt lat="39.6954300" lon="-104.8822260">
    <ele>1670.2</ele>
    <time>2020-06-15T14:16:27Z</time>
   </trkpt>
   <trkpt lat="39.6954610" lon="-104.8822250">
    <ele>1670.2</ele>
    <time>2020-06-15T14:16:28Z</time>
   </trkpt>
   <trkpt lat="39.6955020" lon="-104.8822350">
    <ele>1670.2</ele>
    <time>2020-06-15T14:16:29Z</time>
   </trkpt>
   <trkpt lat="39.6955430" lon="-104.8822400">
    <ele>1670.2</ele>
    <time>2020-06-15T14:16:30Z</time>
   </trkpt>
   <trkpt lat="39.6955800" lon="-104.8822320">
    <ele>1670.0</ele>
    <time>2020-06-15T14:16:31Z</time>
   </trkpt>
   <trkpt lat="39.6956160" lon="-104.8822390">
    <ele>1669.9</ele>
    <time>2020-06-15T14:16:32Z</time>
   </trkpt>
   <trkpt lat="39.6956530" lon="-104.8822390">
    <ele>1669.8</ele>
    <time>2020-06-15T14:16:33Z</time>
   </trkpt>
   <trkpt lat="39.6956940" lon="-104.8822500">
    <ele>1669.7</ele>
    <time>2020-06-15T14:16:34Z</time>
   </trkpt>
   <trkpt lat="39.6957300" lon="-104.8822630">
    <ele>1669.7</ele>
    <time>2020-06-15T14:16:35Z</time>
   </trkpt>
   <trkpt lat="39.6957690" lon="-104.8822720">
    <ele>1669.6</ele>
    <time>2020-06-15T14:16:36Z</time>
   </trkpt>
   <trkpt lat="39.6958120" lon="-104.8822600">
    <ele>1669.6</ele>
    <time>2020-06-15T14:16:37Z</time>
   </trkpt>
   <trkpt lat="39.6958420" lon="-104.8822330">
    <ele>1669.6</ele>
    <time>2020-06-15T14:16:38Z</time>
   </trkpt>
   <trkpt lat="39.6958800" lon="-104.8822320">
    <ele>1669.6</ele>
    <time>2020-06-15T14:16:39Z</time>
   </trkpt>
   <trkpt lat="39.6959150" lon="-104.8822150">
    <ele>1669.6</ele>
    <time>2020-06-15T14:16:40Z</time>
   </trkpt>
   <trkpt lat="39.6959560" lon="-104.8822030">
    <ele>1669.7</ele>
    <time>2020-06-15T14:16:41Z</time>
   </trkpt>
   <trkpt lat="39.6959870" lon="-104.8822190">
    <ele>1669.7</ele>
    <time>2020-06-15T14:16:42Z</time>
   </trkpt>
   <trkpt lat="39.6960220" lon="-104.8822260">
    <ele>1669.7</ele>
    <time>2020-06-15T14:16:43Z</time>
   </trkpt>
   <trkpt lat="39.6960510" lon="-104.8822480">
    <ele>1669.7</ele>
    <time>2020-06-15T14:16:44Z</time>
   </trkpt>
   <trkpt lat="39.6960860" lon="-104.8822380">
    <ele>1669.7</ele>
    <time>2020-06-15T14:16:45Z</time>
   </trkpt>
   <trkpt lat="39.6961210" lon="-104.8822330">
    <ele>1669.7</ele>
    <time>2020-06-15T14:16:46Z</time>
   </trkpt>
   <trkpt lat="39.6961680" lon="-104.8822190">
    <ele>1669.7</ele>
    <time>2020-06-15T14:16:47Z</time>
   </trkpt>
   <trkpt lat="39.6962130" lon="-104.8822250">
    <ele>1669.8</ele>
    <time>2020-06-15T14:16:48Z</time>
   </trkpt>
   <trkpt lat="39.6962450" lon="-104.8822320">
    <ele>1669.8</ele>
    <time>2020-06-15T14:16:49Z</time>
   </trkpt>
   <trkpt lat="39.6962840" lon="-104.8822510">
    <ele>1669.8</ele>
    <time>2020-06-15T14:16:50Z</time>
   </trkpt>
   <trkpt lat="39.6963160" lon="-104.8822580">
    <ele>1669.9</ele>
    <time>2020-06-15T14:16:51Z</time>
   </trkpt>
   <trkpt lat="39.6963440" lon="-104.8822250">
    <ele>1669.9</ele>
    <time>2020-06-15T14:16:52Z</time>
   </trkpt>
   <trkpt lat="39.6963830" lon="-104.8822300">
    <ele>1670.0</ele>
    <time>2020-06-15T14:16:53Z</time>
   </trkpt>
   <trkpt lat="39.6964180" lon="-104.8822140">
    <ele>1670.0</ele>
    <time>2020-06-15T14:16:54Z</time>
   </trkpt>
   <trkpt lat="39.6964310" lon="-104.8822040">
    <ele>1670.2</ele>
    <time>2020-06-15T14:16:55Z</time>
   </trkpt>
   <trkpt lat="39.6964480" lon="-104.8821660">
    <ele>1670.2</ele>
    <time>2020-06-15T14:16:56Z</time>
   </trkpt>
   <trkpt lat="39.6964420" lon="-104.8821240">
    <ele>1670.3</ele>
    <time>2020-06-15T14:16:57Z</time>
   </trkpt>
   <trkpt lat="39.6964470" lon="-104.8820700">
    <ele>1670.4</ele>
    <time>2020-06-15T14:16:58Z</time>
   </trkpt>
   <trkpt lat="39.6964510" lon="-104.8820260">
    <ele>1670.5</ele>
    <time>2020-06-15T14:16:59Z</time>
   </trkpt>
   <trkpt lat="39.6964400" lon="-104.8819660">
    <ele>1670.6</ele>
    <time>2020-06-15T14:17:00Z</time>
   </trkpt>
   <trkpt lat="39.6964320" lon="-104.8819270">
    <ele>1670.7</ele>
    <time>2020-06-15T14:17:01Z</time>
   </trkpt>
   <trkpt lat="39.6964290" lon="-104.8818720">
    <ele>1670.7</ele>
    <time>2020-06-15T14:17:02Z</time>
   </trkpt>
   <trkpt lat="39.6964230" lon="-104.8818500">
    <ele>1670.7</ele>
    <time>2020-06-15T14:17:03Z</time>
   </trkpt>
   <trkpt lat="39.6964230" lon="-104.8818100">
    <ele>1670.7</ele>
    <time>2020-06-15T14:17:04Z</time>
   </trkpt>
   <trkpt lat="39.6964130" lon="-104.8817680">
    <ele>1670.8</ele>
    <time>2020-06-15T14:17:05Z</time>
   </trkpt>
   <trkpt lat="39.6963970" lon="-104.8817220">
    <ele>1670.8</ele>
    <time>2020-06-15T14:17:06Z</time>
   </trkpt>
   <trkpt lat="39.6964030" lon="-104.8816850">
    <ele>1670.8</ele>
    <time>2020-06-15T14:17:07Z</time>
   </trkpt>
   <trkpt lat="39.6964210" lon="-104.8815860">
    <ele>1670.9</ele>
    <time>2020-06-15T14:17:08Z</time>
   </trkpt>
   <trkpt lat="39.6964330" lon="-104.8814960">
    <ele>1671.0</ele>
    <time>2020-06-15T14:17:10Z</time>
   </trkpt>
   <trkpt lat="39.6964240" lon="-104.8814460">
    <ele>1671.1</ele>
    <time>2020-06-15T14:17:11Z</time>
   </trkpt>
   <trkpt lat="39.6964360" lon="-104.8813940">
    <ele>1671.1</ele>
    <time>2020-06-15T14:17:12Z</time>
   </trkpt>
   <trkpt lat="39.6964350" lon="-104.8813340">
    <ele>1671.1</ele>
    <time>2020-06-15T14:17:13Z</time>
   </trkpt>
   <trkpt lat="39.6964240" lon="-104.8812940">
    <ele>1671.1</ele>
    <time>2020-06-15T14:17:14Z</time>
   </trkpt>
   <trkpt lat="39.6964240" lon="-104.8812780">
    <ele>1671.1</ele>
    <time>2020-06-15T14:17:15Z</time>
   </trkpt>
   <trkpt lat="39.6964300" lon="-104.8812760">
    <ele>1671.1</ele>
    <time>2020-06-15T14:17:16Z</time>
   </trkpt>
   <trkpt lat="39.6964500" lon="-104.8811770">
    <ele>1671.2</ele>
    <time>2020-06-15T14:17:52Z</time>
   </trkpt>
   <trkpt lat="39.6964530" lon="-104.8811620">
    <ele>1671.2</ele>
    <time>2020-06-15T14:17:53Z</time>
   </trkpt>
   <trkpt lat="39.6964640" lon="-104.8811200">
    <ele>1671.3</ele>
    <time>2020-06-15T14:17:54Z</time>
   </trkpt>
   <trkpt lat="39.6964720" lon="-104.8810670">
    <ele>1671.4</ele>
    <time>2020-06-15T14:17:55Z</time>
   </trkpt>
   <trkpt lat="39.6964550" lon="-104.8810150">
    <ele>1671.4</ele>
    <time>2020-06-15T14:17:56Z</time>
   </trkpt>
   <trkpt lat="39.6964550" lon="-104.8809120">
    <ele>1671.6</ele>
    <time>2020-06-15T14:17:57Z</time>
   </trkpt>
   <trkpt lat="39.6964420" lon="-104.8808750">
    <ele>1671.6</ele>
    <time>2020-06-15T14:17:58Z</time>
   </trkpt>
   <trkpt lat="39.6964400" lon="-104.8808070">
    <ele>1671.7</ele>
    <time>2020-06-15T14:17:59Z</time>
   </trkpt>
   <trkpt lat="39.6964360" lon="-104.8807550">
    <ele>1671.9</ele>
    <time>2020-06-15T14:18:00Z</time>
   </trkpt>
   <trkpt lat="39.6964440" lon="-104.8807120">
    <ele>1672.0</ele>
    <time>2020-06-15T14:18:01Z</time>
   </trkpt>
   <trkpt lat="39.6964420" lon="-104.8806480">
    <ele>1672.1</ele>
    <time>2020-06-15T14:18:02Z</time>
   </trkpt>
   <trkpt lat="39.6964240" lon="-104.8805850">
    <ele>1672.4</ele>
    <time>2020-06-15T14:18:03Z</time>
   </trkpt>
   <trkpt lat="39.6964240" lon="-104.8805340">
    <ele>1672.6</ele>
    <time>2020-06-15T14:18:04Z</time>
   </trkpt>
   <trkpt lat="39.6964290" lon="-104.8804760">
    <ele>1672.8</ele>
    <time>2020-06-15T14:18:05Z</time>
   </trkpt>
   <trkpt lat="39.6964460" lon="-104.8803890">
    <ele>1673.1</ele>
    <time>2020-06-15T14:18:06Z</time>
   </trkpt>
   <trkpt lat="39.6964300" lon="-104.8803430">
    <ele>1673.2</ele>
    <time>2020-06-15T14:18:07Z</time>
   </trkpt>
   <trkpt lat="39.6964210" lon="-104.8802770">
    <ele>1673.2</ele>
    <time>2020-06-15T14:18:08Z</time>
   </trkpt>
   <trkpt lat="39.6964180" lon="-104.8802200">
    <ele>1673.3</ele>
    <time>2020-06-15T14:18:10Z</time>
   </trkpt>
   <trkpt lat="39.6964300" lon="-104.8801550">
    <ele>1673.3</ele>
    <time>2020-06-15T14:18:11Z</time>
   </trkpt>
   <trkpt lat="39.6964300" lon="-104.8800940">
    <ele>1673.3</ele>
    <time>2020-06-15T14:18:12Z</time>
   </trkpt>
   <trkpt lat="39.6964280" lon="-104.8800390">
    <ele>1673.4</ele>
    <time>2020-06-15T14:18:13Z</time>
   </trkpt>
   <trkpt lat="39.6964330" lon="-104.8799910">
    <ele>1673.4</ele>
    <time>2020-06-15T14:18:14Z</time>
   </trkpt>
   <trkpt lat="39.6964350" lon="-104.8799430">
    <ele>1673.5</ele>
    <time>2020-06-15T14:18:15Z</time>
   </trkpt>
   <trkpt lat="39.6964380" lon="-104.8798870">
    <ele>1673.5</ele>
    <time>2020-06-15T14:18:16Z</time>
   </trkpt>
   <trkpt lat="39.6964240" lon="-104.8798210">
    <ele>1673.5</ele>
    <time>2020-06-15T14:18:17Z</time>
   </trkpt>
   <trkpt lat="39.6964290" lon="-104.8797560">
    <ele>1673.4</ele>
    <time>2020-06-15T14:18:18Z</time>
   </trkpt>
   <trkpt lat="39.6964310" lon="-104.8796980">
    <ele>1673.3</ele>
    <time>2020-06-15T14:18:19Z</time>
   </trkpt>
   <trkpt lat="39.6964290" lon="-104.8796340">
    <ele>1673.1</ele>
    <time>2020-06-15T14:18:20Z</time>
   </trkpt>
   <trkpt lat="39.6964260" lon="-104.8795830">
    <ele>1673.0</ele>
    <time>2020-06-15T14:18:21Z</time>
   </trkpt>
   <trkpt lat="39.6964330" lon="-104.8795200">
    <ele>1672.9</ele>
    <time>2020-06-15T14:18:22Z</time>
   </trkpt>
   <trkpt lat="39.6964290" lon="-104.8794500">
    <ele>1672.7</ele>
    <time>2020-06-15T14:18:23Z</time>
   </trkpt>
   <trkpt lat="39.6964310" lon="-104.8793740">
    <ele>1672.6</ele>
    <time>2020-06-15T14:18:24Z</time>
   </trkpt>
   <trkpt lat="39.6964250" lon="-104.8793100">
    <ele>1672.6</ele>
    <time>2020-06-15T14:18:25Z</time>
   </trkpt>
   <trkpt lat="39.6964140" lon="-104.8792490">
    <ele>1672.5</ele>
    <time>2020-06-15T14:18:26Z</time>
   </trkpt>
   <trkpt lat="39.6964090" lon="-104.8791940">
    <ele>1672.4</ele>
    <time>2020-06-15T14:18:27Z</time>
   </trkpt>
   <trkpt lat="39.6964090" lon="-104.8791390">
    <ele>1672.4</ele>
    <time>2020-06-15T14:18:28Z</time>
   </trkpt>
   <trkpt lat="39.6964000" lon="-104.8790710">
    <ele>1672.2</ele>
    <time>2020-06-15T14:18:29Z</time>
   </trkpt>
   <trkpt lat="39.6964010" lon="-104.8790210">
    <ele>1672.1</ele>
    <time>2020-06-15T14:18:30Z</time>
   </trkpt>
   <trkpt lat="39.6963950" lon="-104.8789560">
    <ele>1672.0</ele>
    <time>2020-06-15T14:18:31Z</time>
   </trkpt>
   <trkpt lat="39.6964050" lon="-104.8789010">
    <ele>1671.9</ele>
    <time>2020-06-15T14:18:32Z</time>
   </trkpt>
   <trkpt lat="39.6964030" lon="-104.8788400">
    <ele>1671.7</ele>
    <time>2020-06-15T14:18:33Z</time>
   </trkpt>
   <trkpt lat="39.6964100" lon="-104.8787790">
    <ele>1671.6</ele>
    <time>2020-06-15T14:18:34Z</time>
   </trkpt>
   <trkpt lat="39.6964140" lon="-104.8787160">
    <ele>1671.4</ele>
    <time>2020-06-15T14:18:35Z</time>
   </trkpt>
   <trkpt lat="39.6964110" lon="-104.8786690">
    <ele>1671.3</ele>
    <time>2020-06-15T14:18:36Z</time>
   </trkpt>
   <trkpt lat="39.6964090" lon="-104.8786110">
    <ele>1671.2</ele>
    <time>2020-06-15T14:18:37Z</time>
   </trkpt>
   <trkpt lat="39.6964110" lon="-104.8785500">
    <ele>1671.2</ele>
    <time>2020-06-15T14:18:38Z</time>
   </trkpt>
   <trkpt lat="39.6964040" lon="-104.8784750">
    <ele>1671.2</ele>
    <time>2020-06-15T14:18:39Z</time>
   </trkpt>
   <trkpt lat="39.6964000" lon="-104.8784130">
    <ele>1671.2</ele>
    <time>2020-06-15T14:18:40Z</time>
   </trkpt>
   <trkpt lat="39.6964010" lon="-104.8783690">
    <ele>1671.2</ele>
    <time>2020-06-15T14:18:41Z</time>
   </trkpt>
   <trkpt lat="39.6964040" lon="-104.8783150">
    <ele>1671.1</ele>
    <time>2020-06-15T14:18:42Z</time>
   </trkpt>
   <trkpt lat="39.6964100" lon="-104.8782620">
    <ele>1671.0</ele>
    <time>2020-06-15T14:18:43Z</time>
   </trkpt>
   <trkpt lat="39.6964000" lon="-104.8781930">
    <ele>1670.9</ele>
    <time>2020-06-15T14:18:44Z</time>
   </trkpt>
   <trkpt lat="39.6963880" lon="-104.8781470">
    <ele>1670.9</ele>
    <time>2020-06-15T14:18:45Z</time>
   </trkpt>
   <trkpt lat="39.6964000" lon="-104.8780820">
    <ele>1670.9</ele>
    <time>2020-06-15T14:18:46Z</time>
   </trkpt>
   <trkpt lat="39.6964030" lon="-104.8780300">
    <ele>1670.8</ele>
    <time>2020-06-15T14:18:47Z</time>
   </trkpt>
   <trkpt lat="39.6963970" lon="-104.8779670">
    <ele>1670.8</ele>
    <time>2020-06-15T14:18:48Z</time>
   </trkpt>
   <trkpt lat="39.6964110" lon="-104.8779030">
    <ele>1670.7</ele>
    <time>2020-06-15T14:18:49Z</time>
   </trkpt>
   <trkpt lat="39.6964090" lon="-104.8778550">
    <ele>1670.7</ele>
    <time>2020-06-15T14:18:50Z</time>
   </trkpt>
   <trkpt lat="39.6964160" lon="-104.8778010">
    <ele>1670.7</ele>
    <time>2020-06-15T14:18:51Z</time>
   </trkpt>
   <trkpt lat="39.6964140" lon="-104.8777620">
    <ele>1670.6</ele>
    <time>2020-06-15T14:18:52Z</time>
   </trkpt>
   <trkpt lat="39.6964130" lon="-104.8777510">
    <ele>1670.6</ele>
    <time>2020-06-15T14:18:53Z</time>
   </trkpt>
  </trkseg>
 </trk>
</gpx>
