<?xml version="1.0" encoding="UTF-8"?>
<gpx creator="StravaGPX" version="1.1" xmlns="http://www.topografix.com/GPX/1/1" xmlns:xsi="http://www.w3.org/2001/XMLSchema-instance" xsi:schemaLocation="http://www.topografix.com/GPX/1/1 http://www.topografix.com/GPX/1/1/gpx.xsd">
 <metadata>
  <time>2020-08-09T17:14:59Z</time>
 </metadata>
 <trk>
  <name>Cool down</name>
  <type>running</type>
  <trkseg>
   <trkpt lat="47.4093890" lon="-122.0361780">
    <ele>112.5</ele>
    <time>2020-08-09T17:14:59Z</time>
   </trkpt>
   <trkpt lat="47.4094010" lon="-122.0361380">
    <ele>112.8</ele>
    <time>2020-08-09T17:15:00Z</time>
   </trkpt>
   <trkpt lat="47.4094050" lon="-122.0361170">
    <ele>113.0</ele>
    <time>2020-08-09T17:15:01Z</time>
   </trkpt>
   <trkpt lat="47.4094140" lon="-122.0360800">
    <ele>113.3</ele>
    <time>2020-08-09T17:15:02Z</time>
   </trkpt>
   <trkpt lat="47.4094170" lon="-122.0360630">
    <ele>113.4</ele>
    <time>2020-08-09T17:15:03Z</time>
   </trkpt>
   <trkpt lat="47.4094130" lon="-122.0360100">
    <ele>113.8</ele>
    <time>2020-08-09T17:15:04Z</time>
   </trkpt>
   <trkpt lat="47.4094180" lon="-122.0359680">
    <ele>114.1</ele>
    <time>2020-08-09T17:15:05Z</time>
   </trkpt>
   <trkpt lat="47.4094160" lon="-122.0359550">
    <ele>114.2</ele>
    <time>2020-08-09T17:15:06Z</time>
   </trkpt>
   <trkpt lat="47.4094270" lon="-122.0358890">
    <ele>114.8</ele>
    <time>2020-08-09T17:15:07Z</time>
   </trkpt>
   <trkpt lat="47.4094360" lon="-122.0358470">
    <ele>115.1</ele>
    <time>2020-08-09T17:15:08Z</time>
   </trkpt>
   <trkpt lat="47.4094560" lon="-122.0357990">
    <ele>115.5</ele>
    <time>2020-08-09T17:15:09Z</time>
   </trkpt>
   <trkpt lat="47.4094590" lon="-122.0357770">
    <ele>115.7</ele>
    <time>2020-08-09T17:15:10Z</time>
   </trkpt>
   <trkpt lat="47.4094710" lon="-122.0356800">
    <ele>116.5</ele>
    <time>2020-08-09T17:15:11Z</time>
   </trkpt>
   <trkpt lat="47.4094620" lon="-122.0356290">
    <ele>116.9</ele>
    <time>2020-08-09T17:15:12Z</time>
   </trkpt>
   <trkpt lat="47.4094750" lon="-122.0355670">
    <ele>117.4</ele>
    <time>2020-08-09T17:15:13Z</time>
   </trkpt>
   <trkpt lat="47.4094950" lon="-122.0355120">
    <ele>117.9</ele>
    <time>2020-08-09T17:15:14Z</time>
   </trkpt>
   <trkpt lat="47.4095020" lon="-122.0354880">
    <ele>118.1</ele>
    <time>2020-08-09T17:15:15Z</time>
   </trkpt>
   <trkpt lat="47.4095000" lon="-122.0354340">
    <ele>118.5</ele>
    <time>2020-08-09T17:15:16Z</time>
   </trkpt>
   <trkpt lat="47.4094910" lon="-122.0353640">
    <ele>119.0</ele>
    <time>2020-08-09T17:15:17Z</time>
   </trkpt>
   <trkpt lat="47.4094990" lon="-122.0353240">
    <ele>119.3</ele>
    <time>2020-08-09T17:15:18Z</time>
   </trkpt>
   <trkpt lat="47.4095100" lon="-122.0352730">
    <ele>119.7</ele>
    <time>2020-08-09T17:15:19Z</time>
   </trkpt>
   <trkpt lat="47.4095150" lon="-122.0352140">
    <ele>120.1</ele>
    <time>2020-08-09T17:15:20Z</time>
   </trkpt>
   <trkpt lat="47.4095220" lon="-122.0351670">
    <ele>120.5</ele>
    <time>2020-08-09T17:15:21Z</time>
   </trkpt>
   <trkpt lat="47.4095330" lon="-122.0351190">
    <ele>120.9</ele>
    <time>2020-08-09T17:15:22Z</time>
   </trkpt>
   <trkpt lat="47.4095420" lon="-122.0350740">
    <ele>121.2</ele>
    <time>2020-08-09T17:15:23Z</time>
   </trkpt>
   <trkpt lat="47.4095360" lon="-122.0350200">
    <ele>121.6</ele>
    <time>2020-08-09T17:15:24Z</time>
   </trkpt>
   <trkpt lat="47.4095390" lon="-122.0349950">
    <ele>121.8</ele>
    <time>2020-08-09T17:15:25Z</time>
   </trkpt>
   <trkpt lat="47.4095310" lon="-122.0349390">
    <ele>122.2</ele>
    <time>2020-08-09T17:15:26Z</time>
   </trkpt>
   <trkpt lat="47.4095490" lon="-122.0348950">
    <ele>122.6</ele>
    <time>2020-08-09T17:15:27Z</time>
   </trkpt>
   <trkpt lat="47.4095510" lon="-122.0348470">
    <ele>122.9</ele>
    <time>2020-08-09T17:15:28Z</time>
   </trkpt>
   <trkpt lat="47.4095490" lon="-122.0348000">
    <ele>123.2</ele>
    <time>2020-08-09T17:15:29Z</time>
   </trkpt>
   <trkpt lat="47.4095620" lon="-122.0347400">
    <ele>123.6</ele>
    <time>2020-08-09T17:15:30Z</time>
   </trkpt>
   <trkpt lat="47.4095840" lon="-122.0346890">
    <ele>123.9</ele>
    <time>2020-08-09T17:15:31Z</time>
   </trkpt>
   <trkpt lat="47.4096000" lon="-122.0346640">
    <ele>124.0</ele>
    <time>2020-08-09T17:15:32Z</time>
   </trkpt>
   <trkpt lat="47.4096090" lon="-122.0346060">
    <ele>124.2</ele>
    <time>2020-08-09T17:15:33Z</time>
   </trkpt>
   <trkpt lat="47.4096130" lon="-122.0345790">
    <ele>124.4</ele>
    <time>2020-08-09T17:15:34Z</time>
   </trkpt>
   <trkpt lat="47.4096190" lon="-122.0345390">
    <ele>124.6</ele>
    <time>2020-08-09T17:15:35Z</time>
   </trkpt>
   <trkpt lat="47.4096170" lon="-122.0344990">
    <ele>124.7</ele>
    <time>2020-08-09T17:15:36Z</time>
   </trkpt>
   <trkpt lat="47.4096290" lon="-122.0344530">
    <ele>125.0</ele>
    <time>2020-08-09T17:15:37Z</time>
   </trkpt>
   <trkpt lat="47.4096370" lon="-122.0343930">
    <ele>125.2</ele>
    <time>2020-08-09T17:15:38Z</time>
   </trkpt>
   <trkpt lat="47.4096450" lon="-122.0343690">
    <ele>125.4</ele>
    <time>2020-08-09T17:15:39Z</time>
   </trkpt>
   <trkpt lat="47.4096600" lon="-122.0343140">
    <ele>125.6</ele>
    <time>2020-08-09T17:15:40Z</time>
   </trkpt>
   <trkpt lat="47.4096660" lon="-122.0342950">
    <ele>125.7</ele>
    <time>2020-08-09T17:15:41Z</time>
   </trkpt>
   <trkpt lat="47.4096730" lon="-122.0342500">
    <ele>125.9</ele>
    <time>2020-08-09T17:15:42Z</time>
   </trkpt>
   <trkpt lat="47.4096750" lon="-122.0342290">
    <ele>126.0</ele>
    <time>2020-08-09T17:15:43Z</time>
   </trkpt>
   <trkpt lat="47.4097000" lon="-122.0341950">
    <ele>126.2</ele>
    <time>2020-08-09T17:15:44Z</time>
   </trkpt>
   <trkpt lat="47.4097110" lon="-122.0341410">
    <ele>126.5</ele>
    <time>2020-08-09T17:15:45Z</time>
   </trkpt>
   <trkpt lat="47.4097160" lon="-122.0341190">
    <ele>126.6</ele>
    <time>2020-08-09T17:15:46Z</time>
   </trkpt>
   <trkpt lat="47.4097070" lon="-122.0340670">
    <ele>126.8</ele>
    <time>2020-08-09T17:15:47Z</time>
   </trkpt>
   <trkpt lat="47.4097020" lon="-122.0340530">
    <ele>126.9</ele>
    <time>2020-08-09T17:15:48Z</time>
   </trkpt>
   <trkpt lat="47.4097170" lon="-122.0340040">
    <ele>127.1</ele>
    <time>2020-08-09T17:15:49Z</time>
   </trkpt>
   <trkpt lat="47.4097320" lon="-122.0339640">
    <ele>127.3</ele>
    <time>2020-08-09T17:15:50Z</time>
   </trkpt>
   <trkpt lat="47.4097400" lon="-122.0339100">
    <ele>127.6</ele>
    <time>2020-08-09T17:15:51Z</time>
   </trkpt>
   <trkpt lat="47.4097440" lon="-122.0338920">
    <ele>127.6</ele>
    <time>2020-08-09T17:15:52Z</time>
   </trkpt>
   <trkpt lat="47.4097490" lon="-122.0338520">
    <ele>127.8</ele>
    <time>2020-08-09T17:15:53Z</time>
   </trkpt>
   <trkpt lat="47.4097530" lon="-122.0338340">
    <ele>127.9</ele>
    <time>2020-08-09T17:15:54Z</time>
   </trkpt>
   <trkpt lat="47.4097620" lon="-122.0337930">
    <ele>128.0</ele>
    <time>2020-08-09T17:15:55Z</time>
   </trkpt>
   <trkpt lat="47.4097680" lon="-122.0337320">
    <ele>128.3</ele>
    <time>2020-08-09T17:15:56Z</time>
   </trkpt>
   <trkpt lat="47.4097750" lon="-122.0337090">
    <ele>128.4</ele>
    <time>2020-08-09T17:15:57Z</time>
   </trkpt>
   <trkpt lat="47.4097730" lon="-122.0336640">
    <ele>128.5</ele>
    <time>2020-08-09T17:15:58Z</time>
   </trkpt>
   <trkpt lat="47.4097860" lon="-122.0336100">
    <ele>128.7</ele>
    <time>2020-08-09T17:15:59Z</time>
   </trkpt>
   <trkpt lat="47.4097930" lon="-122.0335930">
    <ele>128.8</ele>
    <time>2020-08-09T17:16:00Z</time>
   </trkpt>
   <trkpt lat="47.4098060" lon="-122.0335420">
    <ele>128.9</ele>
    <time>2020-08-09T17:16:01Z</time>
   </trkpt>
   <trkpt lat="47.4098140" lon="-122.0335260">
    <ele>129.0</ele>
    <time>2020-08-09T17:16:02Z</time>
   </trkpt>
   <trkpt lat="47.4098160" lon="-122.0334700">
    <ele>129.2</ele>
    <time>2020-08-09T17:16:03Z</time>
   </trkpt>
   <trkpt lat="47.4098200" lon="-122.0334480">
    <ele>129.2</ele>
    <time>2020-08-09T17:16:04Z</time>
   </trkpt>
   <trkpt lat="47.4098240" lon="-122.0333960">
    <ele>129.3</ele>
    <time>2020-08-09T17:16:05Z</time>
   </trkpt>
   <trkpt lat="47.4098240" lon="-122.0333680">
    <ele>129.4</ele>
    <time>2020-08-09T17:16:06Z</time>
   </trkpt>
   <trkpt lat="47.4098350" lon="-122.0333320">
    <ele>129.5</ele>
    <time>2020-08-09T17:16:07Z</time>
   </trkpt>
   <trkpt lat="47.4098450" lon="-122.0332730">
    <ele>129.6</ele>
    <time>2020-08-09T17:16:08Z</time>
   </trkpt>
   <trkpt lat="47.4098510" lon="-122.0332540">
    <ele>129.7</ele>
    <time>2020-08-09T17:16:09Z</time>
   </trkpt>
   <trkpt lat="47.4098520" lon="-122.0332090">
    <ele>129.8</ele>
    <time>2020-08-09T17:16:10Z</time>
   </trkpt>
   <trkpt lat="47.4098580" lon="-122.0331700">
    <ele>129.9</ele>
    <time>2020-08-09T17:16:11Z</time>
   </trkpt>
   <trkpt lat="47.4098720" lon="-122.0331270">
    <ele>130.0</ele>
    <time>2020-08-09T17:16:12Z</time>
   </trkpt>
   <trkpt lat="47.4098900" lon="-122.0330940">
    <ele>130.0</ele>
    <time>2020-08-09T17:16:13Z</time>
   </trkpt>
   <trkpt lat="47.4099010" lon="-122.0330820">
    <ele>130.1</ele>
    <time>2020-08-09T17:16:14Z</time>
   </trkpt>
   <trkpt lat="47.4099140" lon="-122.0330370">
    <ele>130.2</ele>
    <time>2020-08-09T17:16:15Z</time>
   </trkpt>
   <trkpt lat="47.4099140" lon="-122.0329980">
    <ele>130.2</ele>
    <time>2020-08-09T17:16:16Z</time>
   </trkpt>
   <trkpt lat="47.4099260" lon="-122.0329370">
    <ele>130.4</ele>
    <time>2020-08-09T17:16:17Z</time>
   </trkpt>
   <trkpt lat="47.4099300" lon="-122.0329060">
    <ele>130.4</ele>
    <time>2020-08-09T17:16:18Z</time>
   </trkpt>
   <trkpt lat="47.4099470" lon="-122.0328620">
    <ele>130.5</ele>
    <time>2020-08-09T17:16:19Z</time>
   </trkpt>
   <trkpt lat="47.4099550" lon="-122.0328370">
    <ele>130.6</ele>
    <time>2020-08-09T17:16:20Z</time>
   </trkpt>
   <trkpt lat="47.4099590" lon="-122.0327920">
    <ele>130.6</ele>
    <time>2020-08-09T17:16:21Z</time>
   </trkpt>
   <trkpt lat="47.4099650" lon="-122.0327750">
    <ele>130.7</ele>
    <time>2020-08-09T17:16:22Z</time>
   </trkpt>
   <trkpt lat="47.4099830" lon="-122.0327360">
    <ele>130.8</ele>
    <time>2020-08-09T17:16:23Z</time>
   </trkpt>
   <trkpt lat="47.4099840" lon="-122.0327180">
    <ele>130.8</ele>
    <time>2020-08-09T17:16:24Z</time>
   </trkpt>
   <trkpt lat="47.4100050" lon="-122.0326770">
    <ele>130.9</ele>
    <time>2020-08-09T17:16:25Z</time>
   </trkpt>
   <trkpt lat="47.4100160" lon="-122.0326330">
    <ele>131.0</ele>
    <time>2020-08-09T17:16:26Z</time>
   </trkpt>
   <trkpt lat="47.4100230" lon="-122.0325890">
    <ele>131.0</ele>
    <time>2020-08-09T17:16:27Z</time>
   </trkpt>
   <trkpt lat="47.4100410" lon="-122.0325460">
    <ele>131.1</ele>
    <time>2020-08-09T17:16:28Z</time>
   </trkpt>
   <trkpt lat="47.4100460" lon="-122.0324950">
    <ele>131.2</ele>
    <time>2020-08-09T17:16:29Z</time>
   </trkpt>
   <trkpt lat="47.4100530" lon="-122.0324740">
    <ele>131.3</ele>
    <time>2020-08-09T17:16:30Z</time>
   </trkpt>
   <trkpt lat="47.4100540" lon="-122.0324180">
    <ele>131.4</ele>
    <time>2020-08-09T17:16:31Z</time>
   </trkpt>
   <trkpt lat="47.4100550" lon="-122.0323960">
    <ele>131.4</ele>
    <time>2020-08-09T17:16:32Z</time>
   </trkpt>
   <trkpt lat="47.4100680" lon="-122.0323550">
    <ele>131.5</ele>
    <time>2020-08-09T17:16:33Z</time>
   </trkpt>
   <trkpt lat="47.4100730" lon="-122.0323040">
    <ele>131.6</ele>
    <time>2020-08-09T17:16:34Z</time>
   </trkpt>
   <trkpt lat="47.4100760" lon="-122.0322820">
    <ele>131.6</ele>
    <time>2020-08-09T17:16:35Z</time>
   </trkpt>
   <trkpt lat="47.4100900" lon="-122.0322420">
    <ele>131.7</ele>
    <time>2020-08-09T17:16:36Z</time>
   </trkpt>
   <trkpt lat="47.4101010" lon="-122.0321920">
    <ele>131.8</ele>
    <time>2020-08-09T17:16:37Z</time>
   </trkpt>
   <trkpt lat="47.4101030" lon="-122.0321740">
    <ele>131.9</ele>
    <time>2020-08-09T17:16:38Z</time>
   </trkpt>
   <trkpt lat="47.4101100" lon="-122.0321310">
    <ele>131.9</ele>
    <time>2020-08-09T17:16:39Z</time>
   </trkpt>
   <trkpt lat="47.4101250" lon="-122.0320860">
    <ele>132.0</ele>
    <time>2020-08-09T17:16:40Z</time>
   </trkpt>
   <trkpt lat="47.4101220" lon="-122.0320700">
    <ele>132.1</ele>
    <time>2020-08-09T17:16:41Z</time>
   </trkpt>
   <trkpt lat="47.4101260" lon="-122.0320190">
    <ele>132.2</ele>
    <time>2020-08-09T17:16:42Z</time>
   </trkpt>
   <trkpt lat="47.4101470" lon="-122.0319760">
    <ele>132.3</ele>
    <time>2020-08-09T17:16:43Z</time>
   </trkpt>
   <trkpt lat="47.4101500" lon="-122.0319570">
    <ele>132.3</ele>
    <time>2020-08-09T17:16:44Z</time>
   </trkpt>
   <trkpt lat="47.4101680" lon="-122.0319260">
    <ele>132.4</ele>
    <time>2020-08-09T17:16:45Z</time>
   </trkpt>
   <trkpt lat="47.4101780" lon="-122.0318700">
    <ele>132.5</ele>
    <time>2020-08-09T17:16:46Z</time>
   </trkpt>
   <trkpt lat="47.4101800" lon="-122.0318500">
    <ele>132.6</ele>
    <time>2020-08-09T17:16:47Z</time>
   </trkpt>
   <trkpt lat="47.4101880" lon="-122.0318010">
    <ele>132.7</ele>
    <time>2020-08-09T17:16:48Z</time>
   </trkpt>
   <trkpt lat="47.4101840" lon="-122.0317530">
    <ele>132.8</ele>
    <time>2020-08-09T17:16:49Z</time>
   </trkpt>
   <trkpt lat="47.4102040" lon="-122.0317100">
    <ele>132.9</ele>
    <time>2020-08-09T17:16:50Z</time>
   </trkpt>
   <trkpt lat="47.4102150" lon="-122.0316610">
    <ele>133.0</ele>
    <time>2020-08-09T17:16:51Z</time>
   </trkpt>
   <trkpt lat="47.4102280" lon="-122.0316470">
    <ele>133.1</ele>
    <time>2020-08-09T17:16:52Z</time>
   </trkpt>
   <trkpt lat="47.4102300" lon="-122.0316060">
    <ele>133.1</ele>
    <time>2020-08-09T17:16:53Z</time>
   </trkpt>
   <trkpt lat="47.4102340" lon="-122.0315620">
    <ele>133.3</ele>
    <time>2020-08-09T17:16:54Z</time>
   </trkpt>
   <trkpt lat="47.4102530" lon="-122.0315180">
    <ele>133.4</ele>
    <time>2020-08-09T17:16:55Z</time>
   </trkpt>
   <trkpt lat="47.4102560" lon="-122.0314990">
    <ele>133.4</ele>
    <time>2020-08-09T17:16:56Z</time>
   </trkpt>
   <trkpt lat="47.4102690" lon="-122.0314550">
    <ele>133.5</ele>
    <time>2020-08-09T17:16:57Z</time>
   </trkpt>
   <trkpt lat="47.4102700" lon="-122.0314150">
    <ele>133.6</ele>
    <time>2020-08-09T17:16:58Z</time>
   </trkpt>
   <trkpt lat="47.4102870" lon="-122.0313800">
    <ele>133.7</ele>
    <time>2020-08-09T17:16:59Z</time>
   </trkpt>
   <trkpt lat="47.4102900" lon="-122.0313200">
    <ele>133.8</ele>
    <time>2020-08-09T17:17:00Z</time>
   </trkpt>
   <trkpt lat="47.4102900" lon="-122.0312960">
    <ele>133.8</ele>
    <time>2020-08-09T17:17:01Z</time>
   </trkpt>
   <trkpt lat="47.4103150" lon="-122.0312560">
    <ele>134.0</ele>
    <time>2020-08-09T17:17:02Z</time>
   </trkpt>
   <trkpt lat="47.4103330" lon="-122.0312180">
    <ele>134.1</ele>
    <time>2020-08-09T17:17:03Z</time>
   </trkpt>
   <trkpt lat="47.4103400" lon="-122.0312000">
    <ele>134.1</ele>
    <time>2020-08-09T17:17:04Z</time>
   </trkpt>
   <trkpt lat="47.4103580" lon="-122.0311550">
    <ele>134.2</ele>
    <time>2020-08-09T17:17:05Z</time>
   </trkpt>
   <trkpt lat="47.4103640" lon="-122.0311050">
    <ele>134.3</ele>
    <time>2020-08-09T17:17:06Z</time>
   </trkpt>
   <trkpt lat="47.4103700" lon="-122.0310820">
    <ele>134.4</ele>
    <time>2020-08-09T17:17:07Z</time>
   </trkpt>
   <trkpt lat="47.4103830" lon="-122.0310320">
    <ele>134.5</ele>
    <time>2020-08-09T17:17:08Z</time>
   </trkpt>
   <trkpt lat="47.4103840" lon="-122.0309840">
    <ele>134.6</ele>
    <time>2020-08-09T17:17:09Z</time>
   </trkpt>
   <trkpt lat="47.4103960" lon="-122.0309390">
    <ele>134.7</ele>
    <time>2020-08-09T17:17:10Z</time>
   </trkpt>
   <trkpt lat="47.4104000" lon="-122.0309300">
    <ele>134.7</ele>
    <time>2020-08-09T17:17:11Z</time>
   </trkpt>
   <trkpt lat="47.4104130" lon="-122.0308800">
    <ele>134.9</ele>
    <time>2020-08-09T17:17:12Z</time>
   </trkpt>
   <trkpt lat="47.4104230" lon="-122.0308150">
    <ele>135.0</ele>
    <time>2020-08-09T17:17:13Z</time>
   </trkpt>
   <trkpt lat="47.4104290" lon="-122.0307880">
    <ele>135.1</ele>
    <time>2020-08-09T17:17:14Z</time>
   </trkpt>
   <trkpt lat="47.4104320" lon="-122.0307400">
    <ele>135.2</ele>
    <time>2020-08-09T17:17:15Z</time>
   </trkpt>
   <trkpt lat="47.4104370" lon="-122.0307230">
    <ele>135.2</ele>
    <time>2020-08-09T17:17:16Z</time>
   </trkpt>
   <trkpt lat="47.4104640" lon="-122.0306910">
    <ele>135.3</ele>
    <time>2020-08-09T17:17:17Z</time>
   </trkpt>
   <trkpt lat="47.4104820" lon="-122.0306530">
    <ele>135.4</ele>
    <time>2020-08-09T17:17:18Z</time>
   </trkpt>
   <trkpt lat="47.4104930" lon="-122.0306030">
    <ele>135.6</ele>
    <time>2020-08-09T17:17:19Z</time>
   </trkpt>
   <trkpt lat="47.4104870" lon="-122.0305820">
    <ele>135.6</ele>
    <time>2020-08-09T17:17:20Z</time>
   </trkpt>
   <trkpt lat="47.4105050" lon="-122.0305330">
    <ele>135.8</ele>
    <time>2020-08-09T17:17:21Z</time>
   </trkpt>
   <trkpt lat="47.4105120" lon="-122.0305170">
    <ele>135.8</ele>
    <time>2020-08-09T17:17:22Z</time>
   </trkpt>
   <trkpt lat="47.4105320" lon="-122.0304870">
    <ele>135.9</ele>
    <time>2020-08-09T17:17:23Z</time>
   </trkpt>
   <trkpt lat="47.4105420" lon="-122.0304370">
    <ele>136.0</ele>
    <time>2020-08-09T17:17:24Z</time>
   </trkpt>
   <trkpt lat="47.4105530" lon="-122.0303900">
    <ele>136.1</ele>
    <time>2020-08-09T17:17:25Z</time>
   </trkpt>
   <trkpt lat="47.4105580" lon="-122.0303720">
    <ele>136.1</ele>
    <time>2020-08-09T17:17:26Z</time>
   </trkpt>
   <trkpt lat="47.4105840" lon="-122.0303360">
    <ele>136.2</ele>
    <time>2020-08-09T17:17:27Z</time>
   </trkpt>
   <trkpt lat="47.4105910" lon="-122.0302880">
    <ele>136.3</ele>
    <time>2020-08-09T17:17:28Z</time>
   </trkpt>
   <trkpt lat="47.4106080" lon="-122.0302360">
    <ele>136.4</ele>
    <time>2020-08-09T17:17:29Z</time>
   </trkpt>
   <trkpt lat="47.4106170" lon="-122.0302180">
    <ele>136.4</ele>
    <time>2020-08-09T17:17:30Z</time>
   </trkpt>
   <trkpt lat="47.4106190" lon="-122.0301640">
    <ele>136.5</ele>
    <time>2020-08-09T17:17:31Z</time>
   </trkpt>
   <trkpt lat="47.4106250" lon="-122.0301480">
    <ele>136.6</ele>
    <time>2020-08-09T17:17:32Z</time>
   </trkpt>
   <trkpt lat="47.4106450" lon="-122.0300900">
    <ele>136.7</ele>
    <time>2020-08-09T17:17:33Z</time>
   </trkpt>
   <trkpt lat="47.4106510" lon="-122.0300630">
    <ele>136.7</ele>
    <time>2020-08-09T17:17:34Z</time>
   </trkpt>
   <trkpt lat="47.4106630" lon="-122.0300090">
    <ele>136.9</ele>
    <time>2020-08-09T17:17:35Z</time>
   </trkpt>
   <trkpt lat="47.4106690" lon="-122.0299890">
    <ele>136.9</ele>
    <time>2020-08-09T17:17:36Z</time>
   </trkpt>
   <trkpt lat="47.4106820" lon="-122.0299510">
    <ele>137.0</ele>
    <time>2020-08-09T17:17:37Z</time>
   </trkpt>
   <trkpt lat="47.4106930" lon="-122.0298980">
    <ele>137.1</ele>
    <time>2020-08-09T17:17:38Z</time>
   </trkpt>
   <trkpt lat="47.4107010" lon="-122.0298830">
    <ele>137.1</ele>
    <time>2020-08-09T17:17:39Z</time>
   </trkpt>
   <trkpt lat="47.4107070" lon="-122.0298420">
    <ele>137.1</ele>
    <time>2020-08-09T17:17:40Z</time>
   </trkpt>
   <trkpt lat="47.4107120" lon="-122.0298240">
    <ele>137.2</ele>
    <time>2020-08-09T17:17:41Z</time>
   </trkpt>
   <trkpt lat="47.4107340" lon="-122.0297690">
    <ele>137.2</ele>
    <time>2020-08-09T17:17:42Z</time>
   </trkpt>
   <trkpt lat="47.4107410" lon="-122.0297430">
    <ele>137.3</ele>
    <time>2020-08-09T17:17:43Z</time>
   </trkpt>
   <trkpt lat="47.4107630" lon="-122.0297210">
    <ele>137.3</ele>
    <time>2020-08-09T17:17:44Z</time>
   </trkpt>
   <trkpt lat="47.4108680" lon="-122.0294660">
    <ele>137.6</ele>
    <time>2020-08-09T17:17:59Z</time>
   </trkpt>
   <trkpt lat="47.4108760" lon="-122.0294510">
    <ele>137.6</ele>
    <time>2020-08-09T17:18:00Z</time>
   </trkpt>
   <trkpt lat="47.4108850" lon="-122.0294360">
    <ele>137.7</ele>
    <time>2020-08-09T17:18:01Z</time>
   </trkpt>
   <trkpt lat="47.4109000" lon="-122.0293760">
    <ele>137.7</ele>
    <time>2020-08-09T17:18:02Z</time>
   </trkpt>
   <trkpt lat="47.4108990" lon="-122.0293450">
    <ele>137.7</ele>
    <time>2020-08-09T17:18:03Z</time>
   </trkpt>
   <trkpt lat="47.4109040" lon="-122.0293030">
    <ele>137.7</ele>
    <time>2020-08-09T17:18:04Z</time>
   </trkpt>
   <trkpt lat="47.4109070" lon="-122.0292610">
    <ele>137.8</ele>
    <time>2020-08-09T17:18:05Z</time>
   </trkpt>
   <trkpt lat="47.4109270" lon="-122.0292190">
    <ele>137.8</ele>
    <time>2020-08-09T17:18:06Z</time>
   </trkpt>
   <trkpt lat="47.4109360" lon="-122.0292070">
    <ele>137.8</ele>
    <time>2020-08-09T17:18:07Z</time>
   </trkpt>
   <trkpt lat="47.4109460" lon="-122.0291500">
    <ele>137.8</ele>
    <time>2020-08-09T17:18:08Z</time>
   </trkpt>
   <trkpt lat="47.4109560" lon="-122.0291130">
    <ele>137.8</ele>
    <time>2020-08-09T17:18:09Z</time>
   </trkpt>
   <trkpt lat="47.4109710" lon="-122.0290710">
    <ele>137.8</ele>
    <time>2020-08-09T17:18:10Z</time>
   </trkpt>
   <trkpt lat="47.4109780" lon="-122.0290290">
    <ele>137.8</ele>
    <time>2020-08-09T17:18:11Z</time>
   </trkpt>
   <trkpt lat="47.4110020" lon="-122.0290000">
    <ele>137.8</ele>
    <time>2020-08-09T17:18:12Z</time>
   </trkpt>
   <trkpt lat="47.4110150" lon="-122.0289630">
    <ele>137.8</ele>
    <time>2020-08-09T17:18:13Z</time>
   </trkpt>
   <trkpt lat="47.4110210" lon="-122.0289140">
    <ele>137.8</ele>
    <time>2020-08-09T17:18:14Z</time>
   </trkpt>
   <trkpt lat="47.4110410" lon="-122.0288610">
    <ele>137.8</ele>
    <time>2020-08-09T17:18:15Z</time>
   </trkpt>
   <trkpt lat="47.4110510" lon="-122.0288120">
    <ele>137.8</ele>
    <time>2020-08-09T17:18:16Z</time>
   </trkpt>
   <trkpt lat="47.4110700" lon="-122.0287610">
    <ele>137.8</ele>
    <time>2020-08-09T17:18:17Z</time>
   </trkpt>
   <trkpt lat="47.4110740" lon="-122.0287390">
    <ele>137.7</ele>
    <time>2020-08-09T17:18:18Z</time>
   </trkpt>
   <trkpt lat="47.4110900" lon="-122.0286870">
    <ele>137.7</ele>
    <time>2020-08-09T17:18:19Z</time>
   </trkpt>
   <trkpt lat="47.4110930" lon="-122.0286650">
    <ele>137.7</ele>
    <time>2020-08-09T17:18:20Z</time>
   </trkpt>
   <trkpt lat="47.4111170" lon="-122.0285940">
    <ele>137.7</ele>
    <time>2020-08-09T17:18:21Z</time>
   </trkpt>
   <trkpt lat="47.4111360" lon="-122.0285630">
    <ele>137.6</ele>
    <time>2020-08-09T17:18:22Z</time>
   </trkpt>
   <trkpt lat="47.4111450" lon="-122.0285030">
    <ele>137.6</ele>
    <time>2020-08-09T17:18:23Z</time>
   </trkpt>
   <trkpt lat="47.4111670" lon="-122.0284590">
    <ele>137.6</ele>
    <time>2020-08-09T17:18:24Z</time>
   </trkpt>
   <trkpt lat="47.4111680" lon="-122.0284140">
    <ele>137.5</ele>
    <time>2020-08-09T17:18:25Z</time>
   </trkpt>
   <trkpt lat="47.4111790" lon="-122.0283650">
    <ele>137.5</ele>
    <time>2020-08-09T17:18:26Z</time>
   </trkpt>
   <trkpt lat="47.4112130" lon="-122.0283260">
    <ele>137.4</ele>
    <time>2020-08-09T17:18:27Z</time>
   </trkpt>
   <trkpt lat="47.4112260" lon="-122.0283090">
    <ele>137.4</ele>
    <time>2020-08-09T17:18:28Z</time>
   </trkpt>
   <trkpt lat="47.4112410" lon="-122.0282500">
    <ele>137.3</ele>
    <time>2020-08-09T17:18:29Z</time>
   </trkpt>
   <trkpt lat="47.4112500" lon="-122.0282270">
    <ele>137.3</ele>
    <time>2020-08-09T17:18:30Z</time>
   </trkpt>
   <trkpt lat="47.4112620" lon="-122.0281740">
    <ele>137.2</ele>
    <time>2020-08-09T17:18:31Z</time>
   </trkpt>
   <trkpt lat="47.4112690" lon="-122.0281320">
    <ele>137.1</ele>
    <time>2020-08-09T17:18:32Z</time>
   </trkpt>
   <trkpt lat="47.4112750" lon="-122.0280700">
    <ele>137.0</ele>
    <time>2020-08-09T17:18:33Z</time>
   </trkpt>
   <trkpt lat="47.4112810" lon="-122.0280450">
    <ele>137.0</ele>
    <time>2020-08-09T17:18:34Z</time>
   </trkpt>
   <trkpt lat="47.4113080" lon="-122.0280050">
    <ele>136.9</ele>
    <time>2020-08-09T17:18:35Z</time>
   </trkpt>
   <trkpt lat="47.4113220" lon="-122.0279580">
    <ele>136.9</ele>
    <time>2020-08-09T17:18:36Z</time>
   </trkpt>
   <trkpt lat="47.4113270" lon="-122.0279360">
    <ele>136.8</ele>
    <time>2020-08-09T17:18:37Z</time>
   </trkpt>
   <trkpt lat="47.4113570" lon="-122.0278980">
    <ele>136.8</ele>
    <time>2020-08-09T17:18:38Z</time>
   </trkpt>
   <trkpt lat="47.4113590" lon="-122.0278530">
    <ele>136.7</ele>
    <time>2020-08-09T17:18:39Z</time>
   </trkpt>
   <trkpt lat="47.4113760" lon="-122.0278080">
    <ele>136.6</ele>
    <time>2020-08-09T17:18:40Z</time>
   </trkpt>
   <trkpt lat="47.4114000" lon="-122.0277670">
    <ele>136.5</ele>
    <time>2020-08-09T17:18:41Z</time>
   </trkpt>
   <trkpt lat="47.4114170" lon="-122.0277150">
    <ele>136.4</ele>
    <time>2020-08-09T17:18:42Z</time>
   </trkpt>
   <trkpt lat="47.4114270" lon="-122.0277000">
    <ele>136.3</ele>
    <time>2020-08-09T17:18:43Z</time>
   </trkpt>
   <trkpt lat="47.4114540" lon="-122.0276480">
    <ele>136.2</ele>
    <time>2020-08-09T17:18:44Z</time>
   </trkpt>
   <trkpt lat="47.4114650" lon="-122.0276030">
    <ele>136.1</ele>
    <time>2020-08-09T17:18:45Z</time>
   </trkpt>
   <trkpt lat="47.4114730" lon="-122.0275480">
    <ele>136.0</ele>
    <time>2020-08-09T17:18:46Z</time>
   </trkpt>
   <trkpt lat="47.4114810" lon="-122.0275260">
    <ele>135.9</ele>
    <time>2020-08-09T17:18:47Z</time>
   </trkpt>
   <trkpt lat="47.4115020" lon="-122.0274880">
    <ele>135.8</ele>
    <time>2020-08-09T17:18:48Z</time>
   </trkpt>
   <trkpt lat="47.4115110" lon="-122.0274280">
    <ele>135.7</ele>
    <time>2020-08-09T17:18:49Z</time>
   </trkpt>
   <trkpt lat="47.4115150" lon="-122.0274050">
    <ele>135.7</ele>
    <time>2020-08-09T17:18:50Z</time>
   </trkpt>
   <trkpt lat="47.4115450" lon="-122.0273770">
    <ele>135.6</ele>
    <time>2020-08-09T17:18:51Z</time>
   </trkpt>
   <trkpt lat="47.4115660" lon="-122.0273310">
    <ele>135.5</ele>
    <time>2020-08-09T17:18:52Z</time>
   </trkpt>
   <trkpt lat="47.4115850" lon="-122.0272840">
    <ele>135.3</ele>
    <time>2020-08-09T17:18:53Z</time>
   </trkpt>
   <trkpt lat="47.4115960" lon="-122.0272710">
    <ele>135.3</ele>
    <time>2020-08-09T17:18:54Z</time>
   </trkpt>
   <trkpt lat="47.4116110" lon="-122.0272310">
    <ele>135.2</ele>
    <time>2020-08-09T17:18:55Z</time>
   </trkpt>
   <trkpt lat="47.4116350" lon="-122.0271960">
    <ele>135.1</ele>
    <time>2020-08-09T17:18:56Z</time>
   </trkpt>
   <trkpt lat="47.4116530" lon="-122.0271580">
    <ele>135.0</ele>
    <time>2020-08-09T17:18:57Z</time>
   </trkpt>
   <trkpt lat="47.4116770" lon="-122.0271250">
    <ele>134.9</ele>
    <time>2020-08-09T17:18:58Z</time>
   </trkpt>
   <trkpt lat="47.4117060" lon="-122.0270910">
    <ele>134.8</ele>
    <time>2020-08-09T17:18:59Z</time>
   </trkpt>
   <trkpt lat="47.4117180" lon="-122.0270750">
    <ele>134.8</ele>
    <time>2020-08-09T17:19:00Z</time>
   </trkpt>
   <trkpt lat="47.4117380" lon="-122.0270390">
    <ele>134.7</ele>
    <time>2020-08-09T17:19:01Z</time>
   </trkpt>
   <trkpt lat="47.4117590" lon="-122.0270090">
    <ele>134.4</ele>
    <time>2020-08-09T17:19:02Z</time>
   </trkpt>
   <trkpt lat="47.4117870" lon="-122.0269850">
    <ele>134.2</ele>
    <time>2020-08-09T17:19:03Z</time>
   </trkpt>
   <trkpt lat="47.4118030" lon="-122.0269500">
    <ele>134.0</ele>
    <time>2020-08-09T17:19:04Z</time>
   </trkpt>
   <trkpt lat="47.4118290" lon="-122.0269290">
    <ele>133.7</ele>
    <time>2020-08-09T17:19:05Z</time>
   </trkpt>
   <trkpt lat="47.4118560" lon="-122.0269040">
    <ele>133.5</ele>
    <time>2020-08-09T17:19:06Z</time>
   </trkpt>
   <trkpt lat="47.4118790" lon="-122.0268730">
    <ele>133.3</ele>
    <time>2020-08-09T17:19:07Z</time>
   </trkpt>
   <trkpt lat="47.4119060" lon="-122.0268440">
    <ele>133.1</ele>
    <time>2020-08-09T17:19:08Z</time>
   </trkpt>
   <trkpt lat="47.4119450" lon="-122.0268260">
    <ele>132.9</ele>
    <time>2020-08-09T17:19:09Z</time>
   </trkpt>
   <trkpt lat="47.4119590" lon="-122.0268150">
    <ele>132.8</ele>
    <time>2020-08-09T17:19:10Z</time>
   </trkpt>
   <trkpt lat="47.4119980" lon="-122.0268010">
    <ele>132.6</ele>
    <time>2020-08-09T17:19:11Z</time>
   </trkpt>
   <trkpt lat="47.4120120" lon="-122.0267940">
    <ele>132.5</ele>
    <time>2020-08-09T17:19:12Z</time>
   </trkpt>
   <trkpt lat="47.4120420" lon="-122.0267780">
    <ele>132.2</ele>
    <time>2020-08-09T17:19:13Z</time>
   </trkpt>
   <trkpt lat="47.4120660" lon="-122.0267390">
    <ele>132.0</ele>
    <time>2020-08-09T17:19:14Z</time>
   </trkpt>
   <trkpt lat="47.4120920" lon="-122.0267240">
    <ele>131.8</ele>
    <time>2020-08-09T17:19:15Z</time>
   </trkpt>
   <trkpt lat="47.4121300" lon="-122.0267190">
    <ele>131.5</ele>
    <time>2020-08-09T17:19:16Z</time>
   </trkpt>
   <trkpt lat="47.4121470" lon="-122.0267180">
    <ele>131.4</ele>
    <time>2020-08-09T17:19:17Z</time>
   </trkpt>
   <trkpt lat="47.4121830" lon="-122.0266950">
    <ele>131.1</ele>
    <time>2020-08-09T17:19:18Z</time>
   </trkpt>
   <trkpt lat="47.4122140" lon="-122.0266840">
    <ele>130.9</ele>
    <time>2020-08-09T17:19:19Z</time>
   </trkpt>
   <trkpt lat="47.4122450" lon="-122.0266780">
    <ele>130.8</ele>
    <time>2020-08-09T17:19:20Z</time>
   </trkpt>
   <trkpt lat="47.4122750" lon="-122.0266640">
    <ele>130.6</ele>
    <time>2020-08-09T17:19:21Z</time>
   </trkpt>
   <trkpt lat="47.4122850" lon="-122.0266500">
    <ele>130.5</ele>
    <time>2020-08-09T17:19:22Z</time>
   </trkpt>
   <trkpt lat="47.4123250" lon="-122.0266430">
    <ele>130.3</ele>
    <time>2020-08-09T17:19:23Z</time>
   </trkpt>
   <trkpt lat="47.4123610" lon="-122.0266520">
    <ele>130.1</ele>
    <time>2020-08-09T17:19:24Z</time>
   </trkpt>
   <trkpt lat="47.4123890" lon="-122.0266680">
    <ele>130.0</ele>
    <time>2020-08-09T17:19:25Z</time>
   </trkpt>
   <trkpt lat="47.4124140" lon="-122.0266590">
    <ele>129.9</ele>
    <time>2020-08-09T17:19:26Z</time>
   </trkpt>
   <trkpt lat="47.4124490" lon="-122.0266450">
    <ele>129.7</ele>
    <time>2020-08-09T17:19:28Z</time>
   </trkpt>
   <trkpt lat="47.4124850" lon="-122.0266390">
    <ele>129.6</ele>
    <time>2020-08-09T17:19:29Z</time>
   </trkpt>
   <trkpt lat="47.4125010" lon="-122.0266410">
    <ele>129.5</ele>
    <time>2020-08-09T17:19:30Z</time>
   </trkpt>
   <trkpt lat="47.4125340" lon="-122.0266360">
    <ele>129.4</ele>
    <time>2020-08-09T17:19:31Z</time>
   </trkpt>
   <trkpt lat="47.4125650" lon="-122.0266270">
    <ele>129.3</ele>
    <time>2020-08-09T17:19:32Z</time>
   </trkpt>
   <trkpt lat="47.4125920" lon="-122.0266180">
    <ele>129.2</ele>
    <time>2020-08-09T17:19:33Z</time>
   </trkpt>
   <trkpt lat="47.4126260" lon="-122.0266150">
    <ele>129.1</ele>
    <time>2020-08-09T17:19:34Z</time>
   </trkpt>
   <trkpt lat="47.4126670" lon="-122.0266050">
    <ele>129.0</ele>
    <time>2020-08-09T17:19:35Z</time>
   </trkpt>
   <trkpt lat="47.4126830" lon="-122.0266000">
    <ele>129.0</ele>
    <time>2020-08-09T17:19:36Z</time>
   </trkpt>
   <trkpt lat="47.4127110" lon="-122.0266050">
    <ele>128.9</ele>
    <time>2020-08-09T17:19:37Z</time>
   </trkpt>
   <trkpt lat="47.4127430" lon="-122.0266070">
    <ele>128.9</ele>
    <time>2020-08-09T17:19:38Z</time>
   </trkpt>
   <trkpt lat="47.4127840" lon="-122.0266060">
    <ele>128.8</ele>
    <time>2020-08-09T17:19:39Z</time>
   </trkpt>
   <trkpt lat="47.4128000" lon="-122.0266070">
    <ele>128.8</ele>
    <time>2020-08-09T17:19:40Z</time>
   </trkpt>
   <trkpt lat="47.4128250" lon="-122.0266200">
    <ele>128.8</ele>
    <time>2020-08-09T17:19:41Z</time>
   </trkpt>
   <trkpt lat="47.4128630" lon="-122.0266170">
    <ele>128.7</ele>
    <time>2020-08-09T17:19:42Z</time>
   </trkpt>
   <trkpt lat="47.4128810" lon="-122.0266120">
    <ele>128.7</ele>
    <time>2020-08-09T17:19:43Z</time>
   </trkpt>
   <trkpt lat="47.4129080" lon="-122.0266190">
    <ele>128.6</ele>
    <time>2020-08-09T17:19:44Z</time>
   </trkpt>
   <trkpt lat="47.4129410" lon="-122.0266180">
    <ele>128.5</ele>
    <time>2020-08-09T17:19:45Z</time>
   </trkpt>
   <trkpt lat="47.4129690" lon="-122.0266250">
    <ele>128.5</ele>
    <time>2020-08-09T17:19:46Z</time>
   </trkpt>
   <trkpt lat="47.4130060" lon="-122.0266190">
    <ele>128.4</ele>
    <time>2020-08-09T17:19:47Z</time>
   </trkpt>
   <trkpt lat="47.4130180" lon="-122.0266120">
    <ele>128.3</ele>
    <time>2020-08-09T17:19:48Z</time>
   </trkpt>
   <trkpt lat="47.4130450" lon="-122.0265940">
    <ele>128.3</ele>
    <time>2020-08-09T17:19:49Z</time>
   </trkpt>
   <trkpt lat="47.4130740" lon="-122.0265790">
    <ele>128.2</ele>
    <time>2020-08-09T17:19:50Z</time>
   </trkpt>
   <trkpt lat="47.4131050" lon="-122.0265730">
    <ele>128.1</ele>
    <time>2020-08-09T17:19:51Z</time>
   </trkpt>
   <trkpt lat="47.4131370" lon="-122.0265770">
    <ele>128.0</ele>
    <time>2020-08-09T17:19:52Z</time>
   </trkpt>
   <trkpt lat="47.4131760" lon="-122.0265800">
    <ele>127.9</ele>
    <time>2020-08-09T17:19:53Z</time>
   </trkpt>
   <trkpt lat="47.4131970" lon="-122.0265760">
    <ele>127.9</ele>
    <time>2020-08-09T17:19:54Z</time>
   </trkpt>
   <trkpt lat="47.4132110" lon="-122.0265790">
    <ele>127.9</ele>
    <time>2020-08-09T17:19:55Z</time>
   </trkpt>
   <trkpt lat="47.4132680" lon="-122.0265810">
    <ele>127.7</ele>
    <time>2020-08-09T17:19:56Z</time>
   </trkpt>
   <trkpt lat="47.4133160" lon="-122.0265810">
    <ele>127.6</ele>
    <time>2020-08-09T17:19:57Z</time>
   </trkpt>
   <trkpt lat="47.4133640" lon="-122.0265800">
    <ele>127.5</ele>
    <time>2020-08-09T17:19:58Z</time>
   </trkpt>
   <trkpt lat="47.4134110" lon="-122.0265790">
    <ele>127.4</ele>
    <time>2020-08-09T17:20:26Z</time>
   </trkpt>
   <trkpt lat="47.4134590" lon="-122.0265790">
    <ele>127.3</ele>
    <time>2020-08-09T17:20:27Z</time>
   </trkpt>
   <trkpt lat="47.4135070" lon="-122.0265780">
    <ele>127.2</ele>
    <time>2020-08-09T17:20:28Z</time>
   </trkpt>
   <trkpt lat="47.4135430" lon="-122.0265820">
    <ele>127.1</ele>
    <time>2020-08-09T17:20:29Z</time>
   </trkpt>
   <trkpt lat="47.4135580" lon="-122.0265830">
    <ele>127.1</ele>
    <time>2020-08-09T17:20:30Z</time>
   </trkpt>
   <trkpt lat="47.4135930" lon="-122.0265880">
    <ele>127.0</ele>
    <time>2020-08-09T17:20:31Z</time>
   </trkpt>
   <trkpt lat="47.4136280" lon="-122.0265960">
    <ele>127.0</ele>
    <time>2020-08-09T17:20:32Z</time>
   </trkpt>
   <trkpt lat="47.4136580" lon="-122.0265950">
    <ele>126.9</ele>
    <time>2020-08-09T17:20:33Z</time>
   </trkpt>
   <trkpt lat="47.4136880" lon="-122.0265810">
    <ele>126.9</ele>
    <time>2020-08-09T17:20:34Z</time>
   </trkpt>
   <trkpt lat="47.4137310" lon="-122.0265780">
    <ele>126.8</ele>
    <time>2020-08-09T17:20:35Z</time>
   </trkpt>
   <trkpt lat="47.4137470" lon="-122.0265760">
    <ele>126.8</ele>
    <time>2020-08-09T17:20:36Z</time>
   </trkpt>
   <trkpt lat="47.4137840" lon="-122.0265770">
    <ele>126.7</ele>
    <time>2020-08-09T17:20:37Z</time>
   </trkpt>
   <trkpt lat="47.4138150" lon="-122.0265650">
    <ele>126.7</ele>
    <time>2020-08-09T17:20:38Z</time>
   </trkpt>
   <trkpt lat="47.4138430" lon="-122.0265770">
    <ele>126.7</ele>
    <time>2020-08-09T17:20:39Z</time>
   </trkpt>
   <trkpt lat="47.4138690" lon="-122.0265860">
    <ele>126.7</ele>
    <time>2020-08-09T17:20:40Z</time>
   </trkpt>
   <trkpt lat="47.4139050" lon="-122.0265780">
    <ele>126.8</ele>
    <time>2020-08-09T17:20:41Z</time>
   </trkpt>
   <trkpt lat="47.4139200" lon="-122.0265750">
    <ele>126.8</ele>
    <time>2020-08-09T17:20:42Z</time>
   </trkpt>
   <trkpt lat="47.4139500" lon="-122.0265670">
    <ele>126.8</ele>
    <time>2020-08-09T17:20:43Z</time>
   </trkpt>
   <trkpt lat="47.4139800" lon="-122.0265580">
    <ele>126.9</ele>
    <time>2020-08-09T17:20:44Z</time>
   </trkpt>
   <trkpt lat="47.4140180" lon="-122.0265540">
    <ele>127.0</ele>
    <time>2020-08-09T17:20:45Z</time>
   </trkpt>
   <trkpt lat="47.4140560" lon="-122.0265550">
    <ele>127.1</ele>
    <time>2020-08-09T17:20:46Z</time>
   </trkpt>
   <trkpt lat="47.4140970" lon="-122.0265440">
    <ele>127.1</ele>
    <time>2020-08-09T17:20:47Z</time>
   </trkpt>
   <trkpt lat="47.4141110" lon="-122.0265370">
    <ele>127.1</ele>
    <time>2020-08-09T17:20:48Z</time>
   </trkpt>
   <trkpt lat="47.4141480" lon="-122.0265050">
    <ele>127.2</ele>
    <time>2020-08-09T17:20:49Z</time>
   </trkpt>
   <trkpt lat="47.4141770" lon="-122.0265120">
    <ele>127.2</ele>
    <time>2020-08-09T17:20:50Z</time>
   </trkpt>
   <trkpt lat="47.4141940" lon="-122.0265070">
    <ele>127.2</ele>
    <time>2020-08-09T17:20:51Z</time>
   </trkpt>
   <trkpt lat="47.4142330" lon="-122.0265370">
    <ele>127.2</ele>
    <time>2020-08-09T17:20:52Z</time>
   </trkpt>
   <trkpt lat="47.4142770" lon="-122.0265230">
    <ele>127.2</ele>
    <time>2020-08-09T17:20:53Z</time>
   </trkpt>
   <trkpt lat="47.4142960" lon="-122.0265180">
    <ele>127.3</ele>
    <time>2020-08-09T17:20:54Z</time>
   </trkpt>
   <trkpt lat="47.4143230" lon="-122.0265340">
    <ele>127.3</ele>
    <time>2020-08-09T17:20:55Z</time>
   </trkpt>
   <trkpt lat="47.4143640" lon="-122.0265410">
    <ele>127.4</ele>
    <time>2020-08-09T17:20:56Z</time>
   </trkpt>
   <trkpt lat="47.4143820" lon="-122.0265470">
    <ele>127.4</ele>
    <time>2020-08-09T17:20:57Z</time>
   </trkpt>
   <trkpt lat="47.4144140" lon="-122.0265490">
    <ele>127.5</ele>
    <time>2020-08-09T17:20:58Z</time>
   </trkpt>
   <trkpt lat="47.4144550" lon="-122.0265490">
    <ele>127.5</ele>
    <time>2020-08-09T17:20:59Z</time>
   </trkpt>
   <trkpt lat="47.4144710" lon="-122.0265390">
    <ele>127.6</ele>
    <time>2020-08-09T17:21:00Z</time>
   </trkpt>
   <trkpt lat="47.4145080" lon="-122.0265350">
    <ele>127.7</ele>
    <time>2020-08-09T17:21:01Z</time>
   </trkpt>
   <trkpt lat="47.4145230" lon="-122.0265410">
    <ele>127.7</ele>
    <time>2020-08-09T17:21:02Z</time>
   </trkpt>
   <trkpt lat="47.4145510" lon="-122.0265530">
    <ele>127.8</ele>
    <time>2020-08-09T17:21:03Z</time>
   </trkpt>
   <trkpt lat="47.4146030" lon="-122.0265630">
    <ele>127.9</ele>
    <time>2020-08-09T17:21:04Z</time>
   </trkpt>
   <trkpt lat="47.4146340" lon="-122.0265500">
    <ele>128.0</ele>
    <time>2020-08-09T17:21:05Z</time>
   </trkpt>
   <trkpt lat="47.4146480" lon="-122.0265430">
    <ele>128.1</ele>
    <time>2020-08-09T17:21:06Z</time>
   </trkpt>
   <trkpt lat="47.4146800" lon="-122.0265640">
    <ele>128.2</ele>
    <time>2020-08-09T17:21:07Z</time>
   </trkpt>
   <trkpt lat="47.4147150" lon="-122.0265550">
    <ele>128.3</ele>
    <time>2020-08-09T17:21:08Z</time>
   </trkpt>
   <trkpt lat="47.4147450" lon="-122.0265810">
    <ele>128.4</ele>
    <time>2020-08-09T17:21:09Z</time>
   </trkpt>
   <trkpt lat="47.4147830" lon="-122.0265740">
    <ele>128.6</ele>
    <time>2020-08-09T17:21:10Z</time>
   </trkpt>
   <trkpt lat="47.4148020" lon="-122.0265710">
    <ele>128.7</ele>
    <time>2020-08-09T17:21:11Z</time>
   </trkpt>
   <trkpt lat="47.4148290" lon="-122.0265780">
    <ele>128.8</ele>
    <time>2020-08-09T17:21:12Z</time>
   </trkpt>
   <trkpt lat="47.4148760" lon="-122.0265940">
    <ele>129.0</ele>
    <time>2020-08-09T17:21:13Z</time>
   </trkpt>
   <trkpt lat="47.4149030" lon="-122.0266230">
    <ele>129.1</ele>
    <time>2020-08-09T17:21:14Z</time>
   </trkpt>
   <trkpt lat="47.4149430" lon="-122.0266350">
    <ele>129.3</ele>
    <time>2020-08-09T17:21:15Z</time>
   </trkpt>
   <trkpt lat="47.4149600" lon="-122.0266370">
    <ele>129.4</ele>
    <time>2020-08-09T17:21:16Z</time>
   </trkpt>
   <trkpt lat="47.4150030" lon="-122.0266440">
    <ele>129.6</ele>
    <time>2020-08-09T17:21:17Z</time>
   </trkpt>
   <trkpt lat="47.4150210" lon="-122.0266460">
    <ele>129.7</ele>
    <time>2020-08-09T17:21:18Z</time>
   </trkpt>
   <trkpt lat="47.4150490" lon="-122.0266740">
    <ele>129.9</ele>
    <time>2020-08-09T17:21:19Z</time>
   </trkpt>
   <trkpt lat="47.4150780" lon="-122.0266950">
    <ele>130.0</ele>
    <time>2020-08-09T17:21:20Z</time>
   </trkpt>
   <trkpt lat="47.4150890" lon="-122.0267140">
    <ele>130.1</ele>
    <time>2020-08-09T17:21:21Z</time>
   </trkpt>
   <trkpt lat="47.4151210" lon="-122.0267310">
    <ele>130.3</ele>
    <time>2020-08-09T17:21:22Z</time>
   </trkpt>
   <trkpt lat="47.4151380" lon="-122.0267400">
    <ele>130.4</ele>
    <time>2020-08-09T17:21:23Z</time>
   </trkpt>
   <trkpt lat="47.4151600" lon="-122.0267730">
    <ele>130.5</ele>
    <time>2020-08-09T17:21:24Z</time>
   </trkpt>
   <trkpt lat="47.4151900" lon="-122.0268040">
    <ele>130.7</ele>
    <time>2020-08-09T17:21:25Z</time>
   </trkpt>
   <trkpt lat="47.4152160" lon="-122.0268180">
    <ele>130.9</ele>
    <time>2020-08-09T17:21:26Z</time>
   </trkpt>
   <trkpt lat="47.4152250" lon="-122.0268230">
    <ele>130.9</ele>
    <time>2020-08-09T17:21:27Z</time>
   </trkpt>
   <trkpt lat="47.4152350" lon="-122.0268270">
    <ele>130.9</ele>
    <time>2020-08-09T17:21:32Z</time>
   </trkpt>
   <trkpt lat="47.4152450" lon="-122.0268320">
    <ele>130.9</ele>
    <time>2020-08-09T17:21:33Z</time>
   </trkpt>
   <trkpt lat="47.4152540" lon="-122.0268370">
    <ele>131.0</ele>
    <time>2020-08-09T17:21:34Z</time>
   </trkpt>
   <trkpt lat="47.4152640" lon="-122.0268420">
    <ele>131.0</ele>
    <time>2020-08-09T17:21:35Z</time>
   </trkpt>
   <trkpt lat="47.4152870" lon="-122.0268710">
    <ele>131.1</ele>
    <time>2020-08-09T17:21:36Z</time>
   </trkpt>
   <trkpt lat="47.4152930" lon="-122.0268740">
    <ele>131.1</ele>
    <time>2020-08-09T17:21:37Z</time>
   </trkpt>
   <trkpt lat="47.4152990" lon="-122.0268760">
    <ele>131.1</ele>
    <time>2020-08-09T17:21:38Z</time>
   </trkpt>
   <trkpt lat="47.4153300" lon="-122.0269130">
    <ele>131.2</ele>
    <time>2020-08-09T17:21:39Z</time>
   </trkpt>
   <trkpt lat="47.4153620" lon="-122.0269390">
    <ele>131.3</ele>
    <time>2020-08-09T17:21:40Z</time>
   </trkpt>
   <trkpt lat="47.4154040" lon="-122.0269670">
    <ele>131.3</ele>
    <time>2020-08-09T17:21:41Z</time>
   </trkpt>
   <trkpt lat="47.4154460" lon="-122.0269760">
    <ele>131.4</ele>
    <time>2020-08-09T17:21:42Z</time>
   </trkpt>
   <trkpt lat="47.4154610" lon="-122.0269860">
    <ele>131.5</ele>
    <time>2020-08-09T17:21:43Z</time>
   </trkpt>
   <trkpt lat="47.4154970" lon="-122.0270250">
    <ele>131.5</ele>
    <time>2020-08-09T17:21:44Z</time>
   </trkpt>
   <trkpt lat="47.4155220" lon="-122.0270490">
    <ele>131.6</ele>
    <time>2020-08-09T17:21:45Z</time>
   </trkpt>
   <trkpt lat="47.4155540" lon="-122.0270670">
    <ele>131.6</ele>
    <time>2020-08-09T17:21:46Z</time>
   </trkpt>
   <trkpt lat="47.4155750" lon="-122.0270950">
    <ele>131.7</ele>
    <time>2020-08-09T17:21:47Z</time>
   </trkpt>
   <trkpt lat="47.4156010" lon="-122.0271280">
    <ele>131.7</ele>
    <time>2020-08-09T17:21:48Z</time>
   </trkpt>
   <trkpt lat="47.4156330" lon="-122.0271600">
    <ele>131.7</ele>
    <time>2020-08-09T17:21:49Z</time>
   </trkpt>
   <trkpt lat="47.4156640" lon="-122.0271900">
    <ele>131.8</ele>
    <time>2020-08-09T17:21:50Z</time>
   </trkpt>
   <trkpt lat="47.4156920" lon="-122.0272220">
    <ele>131.8</ele>
    <time>2020-08-09T17:21:51Z</time>
   </trkpt>
   <trkpt lat="47.4157030" lon="-122.0272340">
    <ele>131.8</ele>
    <time>2020-08-09T17:21:52Z</time>
   </trkpt>
   <trkpt lat="47.4157320" lon="-122.0272710">
    <ele>131.8</ele>
    <time>2020-08-09T17:21:53Z</time>
   </trkpt>
   <trkpt lat="47.4157680" lon="-122.0272940">
    <ele>131.9</ele>
    <time>2020-08-09T17:21:54Z</time>
   </trkpt>
   <trkpt lat="47.4157960" lon="-122.0273340">
    <ele>131.9</ele>
    <time>2020-08-09T17:21:55Z</time>
   </trkpt>
   <trkpt lat="47.4158060" lon="-122.0273470">
    <ele>131.9</ele>
    <time>2020-08-09T17:21:56Z</time>
   </trkpt>
   <trkpt lat="47.4158400" lon="-122.0273720">
    <ele>131.9</ele>
    <time>2020-08-09T17:21:57Z</time>
   </trkpt>
   <trkpt lat="47.4158700" lon="-122.0274020">
    <ele>131.9</ele>
    <time>2020-08-09T17:21:58Z</time>
   </trkpt>
   <trkpt lat="47.4158820" lon="-122.0274120">
    <ele>131.9</ele>
    <time>2020-08-09T17:21:59Z</time>
   </trkpt>
   <trkpt lat="47.4159160" lon="-122.0274500">
    <ele>131.9</ele>
    <time>2020-08-09T17:22:00Z</time>
   </trkpt>
   <trkpt lat="47.4159320" lon="-122.0274640">
    <ele>131.9</ele>
    <time>2020-08-09T17:22:01Z</time>
   </trkpt>
   <trkpt lat="47.4159600" lon="-122.0274930">
    <ele>131.9</ele>
    <time>2020-08-09T17:22:02Z</time>
   </trkpt>
   <trkpt lat="47.4159850" lon="-122.0275270">
    <ele>131.9</ele>
    <time>2020-08-09T17:22:03Z</time>
   </trkpt>
   <trkpt lat="47.4160140" lon="-122.0275510">
    <ele>131.8</ele>
    <time>2020-08-09T17:22:04Z</time>
   </trkpt>
   <trkpt lat="47.4160440" lon="-122.0275710">
    <ele>131.8</ele>
    <time>2020-08-09T17:22:05Z</time>
   </trkpt>
   <trkpt lat="47.4160720" lon="-122.0275930">
    <ele>131.8</ele>
    <time>2020-08-09T17:22:06Z</time>
   </trkpt>
   <trkpt lat="47.4160810" lon="-122.0276030">
    <ele>131.7</ele>
    <time>2020-08-09T17:22:07Z</time>
   </trkpt>
   <trkpt lat="47.4161130" lon="-122.0276340">
    <ele>131.7</ele>
    <time>2020-08-09T17:22:08Z</time>
   </trkpt>
   <trkpt lat="47.4161430" lon="-122.0276600">
    <ele>131.6</ele>
    <time>2020-08-09T17:22:09Z</time>
   </trkpt>
   <trkpt lat="47.4161690" lon="-122.0276910">
    <ele>131.6</ele>
    <time>2020-08-09T17:22:10Z</time>
   </trkpt>
   <trkpt lat="47.4161970" lon="-122.0277150">
    <ele>131.5</ele>
    <time>2020-08-09T17:22:11Z</time>
   </trkpt>
   <trkpt lat="47.4162330" lon="-122.0277450">
    <ele>131.4</ele>
    <time>2020-08-09T17:22:12Z</time>
   </trkpt>
   <trkpt lat="47.4162650" lon="-122.0277580">
    <ele>131.4</ele>
    <time>2020-08-09T17:22:13Z</time>
   </trkpt>
   <trkpt lat="47.4162750" lon="-122.0277710">
    <ele>131.3</ele>
    <time>2020-08-09T17:22:14Z</time>
   </trkpt>
   <trkpt lat="47.4163030" lon="-122.0278000">
    <ele>131.3</ele>
    <time>2020-08-09T17:22:15Z</time>
   </trkpt>
   <trkpt lat="47.4163330" lon="-122.0278420">
    <ele>131.2</ele>
    <time>2020-08-09T17:22:16Z</time>
   </trkpt>
   <trkpt lat="47.4163440" lon="-122.0278630">
    <ele>131.2</ele>
    <time>2020-08-09T17:22:17Z</time>
   </trkpt>
   <trkpt lat="47.4163810" lon="-122.0278900">
    <ele>131.2</ele>
    <time>2020-08-09T17:22:18Z</time>
   </trkpt>
   <trkpt lat="47.4163980" lon="-122.0279070">
    <ele>131.2</ele>
    <time>2020-08-09T17:22:19Z</time>
   </trkpt>
   <trkpt lat="47.4164310" lon="-122.0279370">
    <ele>131.2</ele>
    <time>2020-08-09T17:22:20Z</time>
   </trkpt>
   <trkpt lat="47.4164420" lon="-122.0279530">
    <ele>131.2</ele>
    <time>2020-08-09T17:22:21Z</time>
   </trkpt>
   <trkpt lat="47.4164700" lon="-122.0279760">
    <ele>131.2</ele>
    <time>2020-08-09T17:22:22Z</time>
   </trkpt>
   <trkpt lat="47.4164760" lon="-122.0279850">
    <ele>131.2</ele>
    <time>2020-08-09T17:22:23Z</time>
   </trkpt>
   <trkpt lat="47.4165230" lon="-122.0279890">
    <ele>131.2</ele>
    <time>2020-08-09T17:22:24Z</time>
   </trkpt>
   <trkpt lat="47.4165510" lon="-122.0280240">
    <ele>131.1</ele>
    <time>2020-08-09T17:22:25Z</time>
   </trkpt>
   <trkpt lat="47.4165640" lon="-122.0280330">
    <ele>131.1</ele>
    <time>2020-08-09T17:22:26Z</time>
   </trkpt>
   <trkpt lat="47.4165880" lon="-122.0280510">
    <ele>131.0</ele>
    <time>2020-08-09T17:22:27Z</time>
   </trkpt>
   <trkpt lat="47.4166120" lon="-122.0280730">
    <ele>130.9</ele>
    <time>2020-08-09T17:22:28Z</time>
   </trkpt>
   <trkpt lat="47.4166400" lon="-122.0281040">
    <ele>130.8</ele>
    <time>2020-08-09T17:22:29Z</time>
   </trkpt>
   <trkpt lat="47.4166740" lon="-122.0281430">
    <ele>130.7</ele>
    <time>2020-08-09T17:22:30Z</time>
   </trkpt>
   <trkpt lat="47.4166980" lon="-122.0281630">
    <ele>130.6</ele>
    <time>2020-08-09T17:22:31Z</time>
   </trkpt>
   <trkpt lat="47.4167270" lon="-122.0281940">
    <ele>130.5</ele>
    <time>2020-08-09T17:22:32Z</time>
   </trkpt>
   <trkpt lat="47.4167540" lon="-122.0282150">
    <ele>130.4</ele>
    <time>2020-08-09T17:22:33Z</time>
   </trkpt>
   <trkpt lat="47.4167620" lon="-122.0282240">
    <ele>130.4</ele>
    <time>2020-08-09T17:22:34Z</time>
   </trkpt>
   <trkpt lat="47.4167900" lon="-122.0282380">
    <ele>130.3</ele>
    <time>2020-08-09T17:22:35Z</time>
   </trkpt>
   <trkpt lat="47.4168030" lon="-122.0282430">
    <ele>130.3</ele>
    <time>2020-08-09T17:22:36Z</time>
   </trkpt>
   <trkpt lat="47.4168150" lon="-122.0282470">
    <ele>130.2</ele>
    <time>2020-08-09T17:22:37Z</time>
   </trkpt>
   <trkpt lat="47.4168460" lon="-122.0282620">
    <ele>130.1</ele>
    <time>2020-08-09T17:22:38Z</time>
   </trkpt>
   <trkpt lat="47.4168750" lon="-122.0282770">
    <ele>130.0</ele>
    <time>2020-08-09T17:22:39Z</time>
   </trkpt>
   <trkpt lat="47.4169100" lon="-122.0282960">
    <ele>129.9</ele>
    <time>2020-08-09T17:22:40Z</time>
   </trkpt>
   <trkpt lat="47.4169380" lon="-122.0283170">
    <ele>129.7</ele>
    <time>2020-08-09T17:22:41Z</time>
   </trkpt>
   <trkpt lat="47.4169650" lon="-122.0283230">
    <ele>129.6</ele>
    <time>2020-08-09T17:22:42Z</time>
   </trkpt>
   <trkpt lat="47.4169890" lon="-122.0283480">
    <ele>129.5</ele>
    <time>2020-08-09T17:22:43Z</time>
   </trkpt>
   <trkpt lat="47.4170210" lon="-122.0283770">
    <ele>129.4</ele>
    <time>2020-08-09T17:22:44Z</time>
   </trkpt>
   <trkpt lat="47.4170610" lon="-122.0283980">
    <ele>129.2</ele>
    <time>2020-08-09T17:22:45Z</time>
   </trkpt>
   <trkpt lat="47.4170970" lon="-122.0284110">
    <ele>129.1</ele>
    <time>2020-08-09T17:22:46Z</time>
   </trkpt>
   <trkpt lat="47.4171120" lon="-122.0284190">
    <ele>129.0</ele>
    <time>2020-08-09T17:22:47Z</time>
   </trkpt>
   <trkpt lat="47.4171430" lon="-122.0284380">
    <ele>128.9</ele>
    <time>2020-08-09T17:22:48Z</time>
   </trkpt>
   <trkpt lat="47.4171510" lon="-122.0284360">
    <ele>128.9</ele>
    <time>2020-08-09T17:22:49Z</time>
   </trkpt>
   <trkpt lat="47.4171950" lon="-122.0284620">
    <ele>128.7</ele>
    <time>2020-08-09T17:22:50Z</time>
   </trkpt>
   <trkpt lat="47.4172220" lon="-122.0284750">
    <ele>128.7</ele>
    <time>2020-08-09T17:22:51Z</time>
   </trkpt>
   <trkpt lat="47.4172590" lon="-122.0284900">
    <ele>128.5</ele>
    <time>2020-08-09T17:22:52Z</time>
   </trkpt>
   <trkpt lat="47.4172730" lon="-122.0285030">
    <ele>128.5</ele>
    <time>2020-08-09T17:22:53Z</time>
   </trkpt>
   <trkpt lat="47.4173040" lon="-122.0285090">
    <ele>128.4</ele>
    <time>2020-08-09T17:22:54Z</time>
   </trkpt>
   <trkpt lat="47.4173320" lon="-122.0285190">
    <ele>128.3</ele>
    <time>2020-08-09T17:22:55Z</time>
   </trkpt>
   <trkpt lat="47.4173640" lon="-122.0285330">
    <ele>128.2</ele>
    <time>2020-08-09T17:22:56Z</time>
   </trkpt>
   <trkpt lat="47.4174030" lon="-122.0285510">
    <ele>128.1</ele>
    <time>2020-08-09T17:22:57Z</time>
   </trkpt>
   <trkpt lat="47.4174370" lon="-122.0285870">
    <ele>127.9</ele>
    <time>2020-08-09T17:22:58Z</time>
   </trkpt>
   <trkpt lat="47.4174710" lon="-122.0285870">
    <ele>127.8</ele>
    <time>2020-08-09T17:22:59Z</time>
   </trkpt>
   <trkpt lat="47.4175060" lon="-122.0286070">
    <ele>127.7</ele>
    <time>2020-08-09T17:23:00Z</time>
   </trkpt>
   <trkpt lat="47.4175410" lon="-122.0286170">
    <ele>127.6</ele>
    <time>2020-08-09T17:23:01Z</time>
   </trkpt>
   <trkpt lat="47.4175500" lon="-122.0286210">
    <ele>127.6</ele>
    <time>2020-08-09T17:23:02Z</time>
   </trkpt>
   <trkpt lat="47.4175980" lon="-122.0286450">
    <ele>127.5</ele>
    <time>2020-08-09T17:23:03Z</time>
   </trkpt>
   <trkpt lat="47.4176300" lon="-122.0286550">
    <ele>127.4</ele>
    <time>2020-08-09T17:23:04Z</time>
   </trkpt>
   <trkpt lat="47.4176690" lon="-122.0286840">
    <ele>127.2</ele>
    <time>2020-08-09T17:23:05Z</time>
   </trkpt>
   <trkpt lat="47.4176870" lon="-122.0287050">
    <ele>127.2</ele>
    <time>2020-08-09T17:23:06Z</time>
   </trkpt>
   <trkpt lat="47.4177170" lon="-122.0287030">
    <ele>127.1</ele>
    <time>2020-08-09T17:23:07Z</time>
   </trkpt>
   <trkpt lat="47.4177410" lon="-122.0287380">
    <ele>127.0</ele>
    <time>2020-08-09T17:23:08Z</time>
   </trkpt>
   <trkpt lat="47.4177750" lon="-122.0287630">
    <ele>127.0</ele>
    <time>2020-08-09T17:23:09Z</time>
   </trkpt>
   <trkpt lat="47.4177860" lon="-122.0287680">
    <ele>127.0</ele>
    <time>2020-08-09T17:23:10Z</time>
   </trkpt>
   <trkpt lat="47.4178140" lon="-122.0287880">
    <ele>126.9</ele>
    <time>2020-08-09T17:23:11Z</time>
   </trkpt>
   <trkpt lat="47.4178460" lon="-122.0288030">
    <ele>126.9</ele>
    <time>2020-08-09T17:23:12Z</time>
   </trkpt>
   <trkpt lat="47.4178780" lon="-122.0288170">
    <ele>126.9</ele>
    <time>2020-08-09T17:23:13Z</time>
   </trkpt>
   <trkpt lat="47.4179070" lon="-122.0288330">
    <ele>126.8</ele>
    <time>2020-08-09T17:23:14Z</time>
   </trkpt>
   <trkpt lat="47.4179420" lon="-122.0288450">
    <ele>126.8</ele>
    <time>2020-08-09T17:23:15Z</time>
   </trkpt>
   <trkpt lat="47.4179520" lon="-122.0288560">
    <ele>126.8</ele>
    <time>2020-08-09T17:23:16Z</time>
   </trkpt>
   <trkpt lat="47.4179900" lon="-122.0288690">
    <ele>126.8</ele>
    <time>2020-08-09T17:23:17Z</time>
   </trkpt>
   <trkpt lat="47.4180070" lon="-122.0288770">
    <ele>126.8</ele>
    <time>2020-08-09T17:23:18Z</time>
   </trkpt>
   <trkpt lat="47.4180440" lon="-122.0288760">
    <ele>126.8</ele>
    <time>2020-08-09T17:23:19Z</time>
   </trkpt>
   <trkpt lat="47.4180700" lon="-122.0288940">
    <ele>126.8</ele>
    <time>2020-08-09T17:23:20Z</time>
   </trkpt>
   <trkpt lat="47.4181100" lon="-122.0289170">
    <ele>126.9</ele>
    <time>2020-08-09T17:23:21Z</time>
   </trkpt>
   <trkpt lat="47.4181410" lon="-122.0288870">
    <ele>127.0</ele>
    <time>2020-08-09T17:23:22Z</time>
   </trkpt>
   <trkpt lat="47.4181660" lon="-122.0289080">
    <ele>127.0</ele>
    <time>2020-08-09T17:23:23Z</time>
   </trkpt>
   <trkpt lat="47.4182090" lon="-122.0289160">
    <ele>127.2</ele>
    <time>2020-08-09T17:23:24Z</time>
   </trkpt>
   <trkpt lat="47.4182310" lon="-122.0289180">
    <ele>127.2</ele>
    <time>2020-08-09T17:23:25Z</time>
   </trkpt>
   <trkpt lat="47.4182610" lon="-122.0289350">
    <ele>127.3</ele>
    <time>2020-08-09T17:23:26Z</time>
   </trkpt>
   <trkpt lat="47.4183010" lon="-122.0289410">
    <ele>127.4</ele>
    <time>2020-08-09T17:23:27Z</time>
   </trkpt>
   <trkpt lat="47.4183290" lon="-122.0289420">
    <ele>127.5</ele>
    <time>2020-08-09T17:23:28Z</time>
   </trkpt>
   <trkpt lat="47.4183580" lon="-122.0289550">
    <ele>127.6</ele>
    <time>2020-08-09T17:23:29Z</time>
   </trkpt>
   <trkpt lat="47.4183940" lon="-122.0289530">
    <ele>127.7</ele>
    <time>2020-08-09T17:23:30Z</time>
   </trkpt>
   <trkpt lat="47.4184290" lon="-122.0289710">
    <ele>127.8</ele>
    <time>2020-08-09T17:23:31Z</time>
   </trkpt>
   <trkpt lat="47.4184420" lon="-122.0289680">
    <ele>127.8</ele>
    <time>2020-08-09T17:23:32Z</time>
   </trkpt>
   <trkpt lat="47.4184710" lon="-122.0289770">
    <ele>127.9</ele>
    <time>2020-08-09T17:23:33Z</time>
   </trkpt>
   <trkpt lat="47.4185050" lon="-122.0289810">
    <ele>128.0</ele>
    <time>2020-08-09T17:23:34Z</time>
   </trkpt>
   <trkpt lat="47.4185370" lon="-122.0289610">
    <ele>128.2</ele>
    <time>2020-08-09T17:23:35Z</time>
   </trkpt>
   <trkpt lat="47.4185670" lon="-122.0289630">
    <ele>128.3</ele>
    <time>2020-08-09T17:23:36Z</time>
   </trkpt>
   <trkpt lat="47.4185960" lon="-122.0289450">
    <ele>128.4</ele>
    <time>2020-08-09T17:23:37Z</time>
   </trkpt>
   <trkpt lat="47.4186370" lon="-122.0289480">
    <ele>128.5</ele>
    <time>2020-08-09T17:23:38Z</time>
   </trkpt>
   <trkpt lat="47.4186540" lon="-122.0289530">
    <ele>128.6</ele>
    <time>2020-08-09T17:23:39Z</time>
   </trkpt>
   <trkpt lat="47.4186840" lon="-122.0289560">
    <ele>128.7</ele>
    <time>2020-08-09T17:23:40Z</time>
   </trkpt>
   <trkpt lat="47.4186960" lon="-122.0289520">
    <ele>128.8</ele>
    <time>2020-08-09T17:23:41Z</time>
   </trkpt>
   <trkpt lat="47.4187330" lon="-122.0289490">
    <ele>128.9</ele>
    <time>2020-08-09T17:23:42Z</time>
   </trkpt>
   <trkpt lat="47.4187630" lon="-122.0289600">
    <ele>129.0</ele>
    <time>2020-08-09T17:23:43Z</time>
   </trkpt>
   <trkpt lat="47.4187970" lon="-122.0289650">
    <ele>129.1</ele>
    <time>2020-08-09T17:23:44Z</time>
   </trkpt>
   <trkpt lat="47.4188310" lon="-122.0289380">
    <ele>129.3</ele>
    <time>2020-08-09T17:23:45Z</time>
   </trkpt>
   <trkpt lat="47.4188460" lon="-122.0289330">
    <ele>129.4</ele>
    <time>2020-08-09T17:23:46Z</time>
   </trkpt>
   <trkpt lat="47.4188820" lon="-122.0289330">
    <ele>129.5</ele>
    <time>2020-08-09T17:23:47Z</time>
   </trkpt>
   <trkpt lat="47.4189180" lon="-122.0289180">
    <ele>129.6</ele>
    <time>2020-08-09T17:23:48Z</time>
   </trkpt>
   <trkpt lat="47.4189290" lon="-122.0289100">
    <ele>129.7</ele>
    <time>2020-08-09T17:23:49Z</time>
   </trkpt>
   <trkpt lat="47.4189610" lon="-122.0289060">
    <ele>129.8</ele>
    <time>2020-08-09T17:23:50Z</time>
   </trkpt>
   <trkpt lat="47.4190000" lon="-122.0289110">
    <ele>129.9</ele>
    <time>2020-08-09T17:23:51Z</time>
   </trkpt>
   <trkpt lat="47.4190190" lon="-122.0288980">
    <ele>130.0</ele>
    <time>2020-08-09T17:23:52Z</time>
   </trkpt>
   <trkpt lat="47.4190580" lon="-122.0288800">
    <ele>130.1</ele>
    <time>2020-08-09T17:23:53Z</time>
   </trkpt>
   <trkpt lat="47.4190730" lon="-122.0288740">
    <ele>130.1</ele>
    <time>2020-08-09T17:23:54Z</time>
   </trkpt>
   <trkpt lat="47.4191050" lon="-122.0288780">
    <ele>130.1</ele>
    <time>2020-08-09T17:23:55Z</time>
   </trkpt>
   <trkpt lat="47.4191370" lon="-122.0288870">
    <ele>130.1</ele>
    <time>2020-08-09T17:23:56Z</time>
   </trkpt>
   <trkpt lat="47.4191820" lon="-122.0288900">
    <ele>130.1</ele>
    <time>2020-08-09T17:23:57Z</time>
   </trkpt>
   <trkpt lat="47.4192200" lon="-122.0288600">
    <ele>130.1</ele>
    <time>2020-08-09T17:23:58Z</time>
   </trkpt>
   <trkpt lat="47.4192380" lon="-122.0288510">
    <ele>130.1</ele>
    <time>2020-08-09T17:23:59Z</time>
   </trkpt>
   <trkpt lat="47.4192650" lon="-122.0288420">
    <ele>130.1</ele>
    <time>2020-08-09T17:24:00Z</time>
   </trkpt>
   <trkpt lat="47.4192930" lon="-122.0288250">
    <ele>130.0</ele>
    <time>2020-08-09T17:24:01Z</time>
   </trkpt>
   <trkpt lat="47.4193290" lon="-122.0288140">
    <ele>130.0</ele>
    <time>2020-08-09T17:24:02Z</time>
   </trkpt>
   <trkpt lat="47.4193600" lon="-122.0288130">
    <ele>130.0</ele>
    <time>2020-08-09T17:24:03Z</time>
   </trkpt>
   <trkpt lat="47.4194040" lon="-122.0288220">
    <ele>130.0</ele>
    <time>2020-08-09T17:24:04Z</time>
   </trkpt>
   <trkpt lat="47.4194320" lon="-122.0288260">
    <ele>130.0</ele>
    <time>2020-08-09T17:24:05Z</time>
   </trkpt>
   <trkpt lat="47.4194430" lon="-122.0288240">
    <ele>130.0</ele>
    <time>2020-08-09T17:24:06Z</time>
   </trkpt>
   <trkpt lat="47.4194770" lon="-122.0288120">
    <ele>130.0</ele>
    <time>2020-08-09T17:24:07Z</time>
   </trkpt>
   <trkpt lat="47.4195180" lon="-122.0287760">
    <ele>129.9</ele>
    <time>2020-08-09T17:24:08Z</time>
   </trkpt>
   <trkpt lat="47.4195370" lon="-122.0287660">
    <ele>129.9</ele>
    <time>2020-08-09T17:24:09Z</time>
   </trkpt>
   <trkpt lat="47.4195660" lon="-122.0287490">
    <ele>129.9</ele>
    <time>2020-08-09T17:24:10Z</time>
   </trkpt>
   <trkpt lat="47.4196100" lon="-122.0287530">
    <ele>129.9</ele>
    <time>2020-08-09T17:24:11Z</time>
   </trkpt>
   <trkpt lat="47.4196440" lon="-122.0287260">
    <ele>129.8</ele>
    <time>2020-08-09T17:24:12Z</time>
   </trkpt>
   <trkpt lat="47.4196600" lon="-122.0287150">
    <ele>129.8</ele>
    <time>2020-08-09T17:24:13Z</time>
   </trkpt>
   <trkpt lat="47.4196950" lon="-122.0286950">
    <ele>129.8</ele>
    <time>2020-08-09T17:24:14Z</time>
   </trkpt>
   <trkpt lat="47.4197050" lon="-122.0286900">
    <ele>129.8</ele>
    <time>2020-08-09T17:24:15Z</time>
   </trkpt>
   <trkpt lat="47.4197450" lon="-122.0286880">
    <ele>129.8</ele>
    <time>2020-08-09T17:24:16Z</time>
   </trkpt>
   <trkpt lat="47.4197740" lon="-122.0286720">
    <ele>129.8</ele>
    <time>2020-08-09T17:24:17Z</time>
   </trkpt>
   <trkpt lat="47.4197970" lon="-122.0286420">
    <ele>129.7</ele>
    <time>2020-08-09T17:24:18Z</time>
   </trkpt>
   <trkpt lat="47.4198250" lon="-122.0286610">
    <ele>129.7</ele>
    <time>2020-08-09T17:24:19Z</time>
   </trkpt>
   <trkpt lat="47.4198640" lon="-122.0286400">
    <ele>129.7</ele>
    <time>2020-08-09T17:24:20Z</time>
   </trkpt>
   <trkpt lat="47.4198820" lon="-122.0286450">
    <ele>129.7</ele>
    <time>2020-08-09T17:24:21Z</time>
   </trkpt>
   <trkpt lat="47.4199120" lon="-122.0286390">
    <ele>129.7</ele>
    <time>2020-08-09T17:24:22Z</time>
   </trkpt>
   <trkpt lat="47.4199350" lon="-122.0286050">
    <ele>129.7</ele>
    <time>2020-08-09T17:24:23Z</time>
   </trkpt>
   <trkpt lat="47.4199640" lon="-122.0285910">
    <ele>129.6</ele>
    <time>2020-08-09T17:24:24Z</time>
   </trkpt>
   <trkpt lat="47.4199690" lon="-122.0285800">
    <ele>129.6</ele>
    <time>2020-08-09T17:24:25Z</time>
   </trkpt>
   <trkpt lat="47.4200030" lon="-122.0285640">
    <ele>129.6</ele>
    <time>2020-08-09T17:24:26Z</time>
   </trkpt>
   <trkpt lat="47.4200310" lon="-122.0285480">
    <ele>129.6</ele>
    <time>2020-08-09T17:24:27Z</time>
   </trkpt>
   <trkpt lat="47.4200540" lon="-122.0285250">
    <ele>129.6</ele>
    <time>2020-08-09T17:24:28Z</time>
   </trkpt>
   <trkpt lat="47.4200770" lon="-122.0285490">
    <ele>129.5</ele>
    <time>2020-08-09T17:24:29Z</time>
   </trkpt>
   <trkpt lat="47.4201020" lon="-122.0285400">
    <ele>129.5</ele>
    <time>2020-08-09T17:24:30Z</time>
   </trkpt>
   <trkpt lat="47.4201130" lon="-122.0285360">
    <ele>129.5</ele>
    <time>2020-08-09T17:24:31Z</time>
   </trkpt>
   <trkpt lat="47.4201490" lon="-122.0285150">
    <ele>129.5</ele>
    <time>2020-08-09T17:24:32Z</time>
   </trkpt>
   <trkpt lat="47.4201620" lon="-122.0285070">
    <ele>129.4</ele>
    <time>2020-08-09T17:24:33Z</time>
   </trkpt>
   <trkpt lat="47.4201920" lon="-122.0285010">
    <ele>129.4</ele>
    <time>2020-08-09T17:24:34Z</time>
   </trkpt>
   <trkpt lat="47.4202180" lon="-122.0284680">
    <ele>129.3</ele>
    <time>2020-08-09T17:24:35Z</time>
   </trkpt>
   <trkpt lat="47.4202470" lon="-122.0284570">
    <ele>129.3</ele>
    <time>2020-08-09T17:24:36Z</time>
   </trkpt>
   <trkpt lat="47.4202790" lon="-122.0284370">
    <ele>129.2</ele>
    <time>2020-08-09T17:24:37Z</time>
   </trkpt>
   <trkpt lat="47.4202880" lon="-122.0284250">
    <ele>129.2</ele>
    <time>2020-08-09T17:24:38Z</time>
   </trkpt>
   <trkpt lat="47.4203130" lon="-122.0284070">
    <ele>129.2</ele>
    <time>2020-08-09T17:24:39Z</time>
   </trkpt>
   <trkpt lat="47.4203420" lon="-122.0283870">
    <ele>129.1</ele>
    <time>2020-08-09T17:24:40Z</time>
   </trkpt>
   <trkpt lat="47.4203510" lon="-122.0283690">
    <ele>129.1</ele>
    <time>2020-08-09T17:24:41Z</time>
   </trkpt>
   <trkpt lat="47.4203860" lon="-122.0283450">
    <ele>129.0</ele>
    <time>2020-08-09T17:24:42Z</time>
   </trkpt>
   <trkpt lat="47.4203970" lon="-122.0283370">
    <ele>128.9</ele>
    <time>2020-08-09T17:24:43Z</time>
   </trkpt>
   <trkpt lat="47.4204350" lon="-122.0283160">
    <ele>128.7</ele>
    <time>2020-08-09T17:24:44Z</time>
   </trkpt>
   <trkpt lat="47.4204690" lon="-122.0282720">
    <ele>128.4</ele>
    <time>2020-08-09T17:24:45Z</time>
   </trkpt>
   <trkpt lat="47.4205040" lon="-122.0282430">
    <ele>128.2</ele>
    <time>2020-08-09T17:24:46Z</time>
   </trkpt>
   <trkpt lat="47.4205190" lon="-122.0282300">
    <ele>128.1</ele>
    <time>2020-08-09T17:24:47Z</time>
   </trkpt>
   <trkpt lat="47.4205430" lon="-122.0282060">
    <ele>127.9</ele>
    <time>2020-08-09T17:24:48Z</time>
   </trkpt>
   <trkpt lat="47.4205700" lon="-122.0281890">
    <ele>127.8</ele>
    <time>2020-08-09T17:24:49Z</time>
   </trkpt>
   <trkpt lat="47.4205980" lon="-122.0281670">
    <ele>127.6</ele>
    <time>2020-08-09T17:24:50Z</time>
   </trkpt>
   <trkpt lat="47.4206320" lon="-122.0281490">
    <ele>127.5</ele>
    <time>2020-08-09T17:24:51Z</time>
   </trkpt>
   <trkpt lat="47.4206430" lon="-122.0281410">
    <ele>127.4</ele>
    <time>2020-08-09T17:24:52Z</time>
   </trkpt>
   <trkpt lat="47.4206830" lon="-122.0281100">
    <ele>127.2</ele>
    <time>2020-08-09T17:24:53Z</time>
   </trkpt>
   <trkpt lat="47.4207120" lon="-122.0281060">
    <ele>127.1</ele>
    <time>2020-08-09T17:24:54Z</time>
   </trkpt>
   <trkpt lat="47.4207490" lon="-122.0281030">
    <ele>127.0</ele>
    <time>2020-08-09T17:24:55Z</time>
   </trkpt>
   <trkpt lat="47.4207610" lon="-122.0281040">
    <ele>127.0</ele>
    <time>2020-08-09T17:24:56Z</time>
   </trkpt>
   <trkpt lat="47.4207930" lon="-122.0280770">
    <ele>126.9</ele>
    <time>2020-08-09T17:24:57Z</time>
   </trkpt>
   <trkpt lat="47.4208040" lon="-122.0280690">
    <ele>126.9</ele>
    <time>2020-08-09T17:24:58Z</time>
   </trkpt>
   <trkpt lat="47.4208450" lon="-122.0280540">
    <ele>126.8</ele>
    <time>2020-08-09T17:24:59Z</time>
   </trkpt>
   <trkpt lat="47.4208740" lon="-122.0280470">
    <ele>126.8</ele>
    <time>2020-08-09T17:25:00Z</time>
   </trkpt>
   <trkpt lat="47.4208940" lon="-122.0280180">
    <ele>126.7</ele>
    <time>2020-08-09T17:25:01Z</time>
   </trkpt>
   <trkpt lat="47.4209220" lon="-122.0279970">
    <ele>126.7</ele>
    <time>2020-08-09T17:25:02Z</time>
   </trkpt>
   <trkpt lat="47.4209460" lon="-122.0279730">
    <ele>126.7</ele>
    <time>2020-08-09T17:25:03Z</time>
   </trkpt>
   <trkpt lat="47.4209540" lon="-122.0279610">
    <ele>126.7</ele>
    <time>2020-08-09T17:25:04Z</time>
   </trkpt>
   <trkpt lat="47.4209740" lon="-122.0279260">
    <ele>126.7</ele>
    <time>2020-08-09T17:25:05Z</time>
   </trkpt>
   <trkpt lat="47.4210110" lon="-122.0278970">
    <ele>126.8</ele>
    <time>2020-08-09T17:25:06Z</time>
   </trkpt>
   <trkpt lat="47.4210240" lon="-122.0278830">
    <ele>126.8</ele>
    <time>2020-08-09T17:25:07Z</time>
   </trkpt>
   <trkpt lat="47.4210510" lon="-122.0278820">
    <ele>126.9</ele>
    <time>2020-08-09T17:25:08Z</time>
   </trkpt>
   <trkpt lat="47.4210840" lon="-122.0278680">
    <ele>127.0</ele>
    <time>2020-08-09T17:25:09Z</time>
   </trkpt>
   <trkpt lat="47.4211110" lon="-122.0278580">
    <ele>127.1</ele>
    <time>2020-08-09T17:25:10Z</time>
   </trkpt>
   <trkpt lat="47.4211290" lon="-122.0278140">
    <ele>127.3</ele>
    <time>2020-08-09T17:25:11Z</time>
   </trkpt>
   <trkpt lat="47.4211370" lon="-122.0277970">
    <ele>127.4</ele>
    <time>2020-08-09T17:25:12Z</time>
   </trkpt>
   <trkpt lat="47.4211580" lon="-122.0277660">
    <ele>127.5</ele>
    <time>2020-08-09T17:25:13Z</time>
   </trkpt>
   <trkpt lat="47.4211890" lon="-122.0277250">
    <ele>127.8</ele>
    <time>2020-08-09T17:25:14Z</time>
   </trkpt>
   <trkpt lat="47.4212210" lon="-122.0277000">
    <ele>128.0</ele>
    <time>2020-08-09T17:25:15Z</time>
   </trkpt>
   <trkpt lat="47.4212480" lon="-122.0276890">
    <ele>128.2</ele>
    <time>2020-08-09T17:25:16Z</time>
   </trkpt>
   <trkpt lat="47.4212560" lon="-122.0276790">
    <ele>128.2</ele>
    <time>2020-08-09T17:25:17Z</time>
   </trkpt>
   <trkpt lat="47.4212850" lon="-122.0276530">
    <ele>128.4</ele>
    <time>2020-08-09T17:25:18Z</time>
   </trkpt>
   <trkpt lat="47.4212960" lon="-122.0276410">
    <ele>128.5</ele>
    <time>2020-08-09T17:25:19Z</time>
   </trkpt>
   <trkpt lat="47.4213210" lon="-122.0276180">
    <ele>128.7</ele>
    <time>2020-08-09T17:25:20Z</time>
   </trkpt>
   <trkpt lat="47.4213490" lon="-122.0276020">
    <ele>128.9</ele>
    <time>2020-08-09T17:25:21Z</time>
   </trkpt>
   <trkpt lat="47.4213860" lon="-122.0275600">
    <ele>129.1</ele>
    <time>2020-08-09T17:25:22Z</time>
   </trkpt>
   <trkpt lat="47.4214030" lon="-122.0275440">
    <ele>129.2</ele>
    <time>2020-08-09T17:25:23Z</time>
   </trkpt>
   <trkpt lat="47.4214330" lon="-122.0275130">
    <ele>129.4</ele>
    <time>2020-08-09T17:25:24Z</time>
   </trkpt>
   <trkpt lat="47.4214450" lon="-122.0275000">
    <ele>129.5</ele>
    <time>2020-08-09T17:25:25Z</time>
   </trkpt>
   <trkpt lat="47.4214770" lon="-122.0274780">
    <ele>129.6</ele>
    <time>2020-08-09T17:25:26Z</time>
   </trkpt>
   <trkpt lat="47.4214870" lon="-122.0274620">
    <ele>129.6</ele>
    <time>2020-08-09T17:25:27Z</time>
   </trkpt>
   <trkpt lat="47.4215140" lon="-122.0274330">
    <ele>129.7</ele>
    <time>2020-08-09T17:25:28Z</time>
   </trkpt>
   <trkpt lat="47.4215400" lon="-122.0274050">
    <ele>129.8</ele>
    <time>2020-08-09T17:25:29Z</time>
   </trkpt>
   <trkpt lat="47.4215570" lon="-122.0273740">
    <ele>129.8</ele>
    <time>2020-08-09T17:25:30Z</time>
   </trkpt>
   <trkpt lat="47.4215840" lon="-122.0273470">
    <ele>129.8</ele>
    <time>2020-08-09T17:25:31Z</time>
   </trkpt>
   <trkpt lat="47.4216070" lon="-122.0273150">
    <ele>129.8</ele>
    <time>2020-08-09T17:25:32Z</time>
   </trkpt>
   <trkpt lat="47.4216160" lon="-122.0273040">
    <ele>129.8</ele>
    <time>2020-08-09T17:25:33Z</time>
   </trkpt>
   <trkpt lat="47.4216410" lon="-122.0272750">
    <ele>129.8</ele>
    <time>2020-08-09T17:25:34Z</time>
   </trkpt>
   <trkpt lat="47.4216660" lon="-122.0272470">
    <ele>129.7</ele>
    <time>2020-08-09T17:25:35Z</time>
   </trkpt>
   <trkpt lat="47.4216990" lon="-122.0272320">
    <ele>129.6</ele>
    <time>2020-08-09T17:25:36Z</time>
   </trkpt>
   <trkpt lat="47.4217090" lon="-122.0272220">
    <ele>129.6</ele>
    <time>2020-08-09T17:25:37Z</time>
   </trkpt>
   <trkpt lat="47.4217340" lon="-122.0271910">
    <ele>129.4</ele>
    <time>2020-08-09T17:25:38Z</time>
   </trkpt>
   <trkpt lat="47.4217430" lon="-122.0271760">
    <ele>129.4</ele>
    <time>2020-08-09T17:25:39Z</time>
   </trkpt>
   <trkpt lat="47.4217690" lon="-122.0271460">
    <ele>129.2</ele>
    <time>2020-08-09T17:25:40Z</time>
   </trkpt>
   <trkpt lat="47.4217840" lon="-122.0271060">
    <ele>129.1</ele>
    <time>2020-08-09T17:25:41Z</time>
   </trkpt>
   <trkpt lat="47.4217940" lon="-122.0270960">
    <ele>129.0</ele>
    <time>2020-08-09T17:25:42Z</time>
   </trkpt>
   <trkpt lat="47.4218270" lon="-122.0270590">
    <ele>128.8</ele>
    <time>2020-08-09T17:25:43Z</time>
   </trkpt>
   <trkpt lat="47.4218420" lon="-122.0270490">
    <ele>128.7</ele>
    <time>2020-08-09T17:25:44Z</time>
   </trkpt>
   <trkpt lat="47.4218640" lon="-122.0270120">
    <ele>128.6</ele>
    <time>2020-08-09T17:25:45Z</time>
   </trkpt>
   <trkpt lat="47.4218680" lon="-122.0269960">
    <ele>128.5</ele>
    <time>2020-08-09T17:25:46Z</time>
   </trkpt>
   <trkpt lat="47.4218900" lon="-122.0269620">
    <ele>128.4</ele>
    <time>2020-08-09T17:25:47Z</time>
   </trkpt>
   <trkpt lat="47.4219110" lon="-122.0269380">
    <ele>128.3</ele>
    <time>2020-08-09T17:25:48Z</time>
   </trkpt>
   <trkpt lat="47.4219290" lon="-122.0268830">
    <ele>128.2</ele>
    <time>2020-08-09T17:25:49Z</time>
   </trkpt>
   <trkpt lat="47.4219360" lon="-122.0268600">
    <ele>128.1</ele>
    <time>2020-08-09T17:25:50Z</time>
   </trkpt>
   <trkpt lat="47.4219480" lon="-122.0268230">
    <ele>128.1</ele>
    <time>2020-08-09T17:25:51Z</time>
   </trkpt>
   <trkpt lat="47.4219700" lon="-122.0267830">
    <ele>128.0</ele>
    <time>2020-08-09T17:25:52Z</time>
   </trkpt>
   <trkpt lat="47.4220000" lon="-122.0267530">
    <ele>128.0</ele>
    <time>2020-08-09T17:25:53Z</time>
   </trkpt>
   <trkpt lat="47.4220080" lon="-122.0267420">
    <ele>128.0</ele>
    <time>2020-08-09T17:25:54Z</time>
   </trkpt>
   <trkpt lat="47.4220400" lon="-122.0267130">
    <ele>128.0</ele>
    <time>2020-08-09T17:25:55Z</time>
   </trkpt>
   <trkpt lat="47.4220700" lon="-122.0267020">
    <ele>128.0</ele>
    <time>2020-08-09T17:25:56Z</time>
   </trkpt>
   <trkpt lat="47.4221000" lon="-122.0266780">
    <ele>128.0</ele>
    <time>2020-08-09T17:25:57Z</time>
   </trkpt>
   <trkpt lat="47.4221340" lon="-122.0266760">
    <ele>128.1</ele>
    <time>2020-08-09T17:25:58Z</time>
   </trkpt>
   <trkpt lat="47.4221700" lon="-122.0266660">
    <ele>128.2</ele>
    <time>2020-08-09T17:25:59Z</time>
   </trkpt>
   <trkpt lat="47.4221860" lon="-122.0266620">
    <ele>128.3</ele>
    <time>2020-08-09T17:26:00Z</time>
   </trkpt>
   <trkpt lat="47.4222150" lon="-122.0266530">
    <ele>128.4</ele>
    <time>2020-08-09T17:26:01Z</time>
   </trkpt>
   <trkpt lat="47.4222490" lon="-122.0266300">
    <ele>128.6</ele>
    <time>2020-08-09T17:26:02Z</time>
   </trkpt>
   <trkpt lat="47.4222840" lon="-122.0266260">
    <ele>128.7</ele>
    <time>2020-08-09T17:26:03Z</time>
   </trkpt>
   <trkpt lat="47.4223230" lon="-122.0266040">
    <ele>128.9</ele>
    <time>2020-08-09T17:26:04Z</time>
   </trkpt>
   <trkpt lat="47.4223430" lon="-122.0265940">
    <ele>129.1</ele>
    <time>2020-08-09T17:26:05Z</time>
   </trkpt>
   <trkpt lat="47.4223820" lon="-122.0265930">
    <ele>129.3</ele>
    <time>2020-08-09T17:26:06Z</time>
   </trkpt>
   <trkpt lat="47.4223970" lon="-122.0265860">
    <ele>129.4</ele>
    <time>2020-08-09T17:26:07Z</time>
   </trkpt>
   <trkpt lat="47.4224330" lon="-122.0265910">
    <ele>129.7</ele>
    <time>2020-08-09T17:26:08Z</time>
   </trkpt>
   <trkpt lat="47.4224660" lon="-122.0265800">
    <ele>130.0</ele>
    <time>2020-08-09T17:26:09Z</time>
   </trkpt>
   <trkpt lat="47.4225010" lon="-122.0265690">
    <ele>130.4</ele>
    <time>2020-08-09T17:26:10Z</time>
   </trkpt>
   <trkpt lat="47.4225120" lon="-122.0265690">
    <ele>130.5</ele>
    <time>2020-08-09T17:26:11Z</time>
   </trkpt>
   <trkpt lat="47.4225490" lon="-122.0265820">
    <ele>130.9</ele>
    <time>2020-08-09T17:26:12Z</time>
   </trkpt>
   <trkpt lat="47.4225620" lon="-122.0265890">
    <ele>131.0</ele>
    <time>2020-08-09T17:26:13Z</time>
   </trkpt>
   <trkpt lat="47.4225930" lon="-122.0265810">
    <ele>131.4</ele>
    <time>2020-08-09T17:26:14Z</time>
   </trkpt>
   <trkpt lat="47.4226270" lon="-122.0265740">
    <ele>131.6</ele>
    <time>2020-08-09T17:26:15Z</time>
   </trkpt>
   <trkpt lat="47.4226380" lon="-122.0265720">
    <ele>131.7</ele>
    <time>2020-08-09T17:26:16Z</time>
   </trkpt>
   <trkpt lat="47.4226730" lon="-122.0265760">
    <ele>131.8</ele>
    <time>2020-08-09T17:26:17Z</time>
   </trkpt>
   <trkpt lat="47.4226850" lon="-122.0265840">
    <ele>131.9</ele>
    <time>2020-08-09T17:26:18Z</time>
   </trkpt>
   <trkpt lat="47.4227190" lon="-122.0265910">
    <ele>132.1</ele>
    <time>2020-08-09T17:26:19Z</time>
   </trkpt>
   <trkpt lat="47.4227320" lon="-122.0265960">
    <ele>132.1</ele>
    <time>2020-08-09T17:26:20Z</time>
   </trkpt>
   <trkpt lat="47.4227660" lon="-122.0265900">
    <ele>132.3</ele>
    <time>2020-08-09T17:26:21Z</time>
   </trkpt>
   <trkpt lat="47.4227780" lon="-122.0265820">
    <ele>132.4</ele>
    <time>2020-08-09T17:26:22Z</time>
   </trkpt>
   <trkpt lat="47.4228120" lon="-122.0265870">
    <ele>132.5</ele>
    <time>2020-08-09T17:26:23Z</time>
   </trkpt>
   <trkpt lat="47.4228210" lon="-122.0265880">
    <ele>132.6</ele>
    <time>2020-08-09T17:26:24Z</time>
   </trkpt>
   <trkpt lat="47.4228530" lon="-122.0265750">
    <ele>132.8</ele>
    <time>2020-08-09T17:26:25Z</time>
   </trkpt>
   <trkpt lat="47.4228830" lon="-122.0265910">
    <ele>132.9</ele>
    <time>2020-08-09T17:26:26Z</time>
   </trkpt>
   <trkpt lat="47.4229210" lon="-122.0265930">
    <ele>133.1</ele>
    <time>2020-08-09T17:26:27Z</time>
   </trkpt>
   <trkpt lat="47.4229330" lon="-122.0265940">
    <ele>133.2</ele>
    <time>2020-08-09T17:26:28Z</time>
   </trkpt>
   <trkpt lat="47.4229600" lon="-122.0265870">
    <ele>133.4</ele>
    <time>2020-08-09T17:26:29Z</time>
   </trkpt>
   <trkpt lat="47.4229740" lon="-122.0265780">
    <ele>133.4</ele>
    <time>2020-08-09T17:26:30Z</time>
   </trkpt>
   <trkpt lat="47.4230090" lon="-122.0265850">
    <ele>133.7</ele>
    <time>2020-08-09T17:26:31Z</time>
   </trkpt>
   <trkpt lat="47.4230210" lon="-122.0265880">
    <ele>133.7</ele>
    <time>2020-08-09T17:26:32Z</time>
   </trkpt>
   <trkpt lat="47.4230510" lon="-122.0265780">
    <ele>133.9</ele>
    <time>2020-08-09T17:26:33Z</time>
   </trkpt>
   <trkpt lat="47.4230820" lon="-122.0265840">
    <ele>134.1</ele>
    <time>2020-08-09T17:26:34Z</time>
   </trkpt>
   <trkpt lat="47.4230920" lon="-122.0265840">
    <ele>134.2</ele>
    <time>2020-08-09T17:26:35Z</time>
   </trkpt>
   <trkpt lat="47.4231280" lon="-122.0265810">
    <ele>134.4</ele>
    <time>2020-08-09T17:26:36Z</time>
   </trkpt>
   <trkpt lat="47.4231600" lon="-122.0265890">
    <ele>134.6</ele>
    <time>2020-08-09T17:26:37Z</time>
   </trkpt>
   <trkpt lat="47.4231710" lon="-122.0265930">
    <ele>134.6</ele>
    <time>2020-08-09T17:26:38Z</time>
   </trkpt>
   <trkpt lat="47.4232030" lon="-122.0265960">
    <ele>134.8</ele>
    <time>2020-08-09T17:26:39Z</time>
   </trkpt>
   <trkpt lat="47.4232150" lon="-122.0265910">
    <ele>134.9</ele>
    <time>2020-08-09T17:26:40Z</time>
   </trkpt>
   <trkpt lat="47.4232430" lon="-122.0265900">
    <ele>135.0</ele>
    <time>2020-08-09T17:26:41Z</time>
   </trkpt>
   <trkpt lat="47.4232750" lon="-122.0265870">
    <ele>135.2</ele>
    <time>2020-08-09T17:26:42Z</time>
   </trkpt>
   <trkpt lat="47.4232900" lon="-122.0265910">
    <ele>135.3</ele>
    <time>2020-08-09T17:26:43Z</time>
   </trkpt>
   <trkpt lat="47.4233190" lon="-122.0265950">
    <ele>135.5</ele>
    <time>2020-08-09T17:26:44Z</time>
   </trkpt>
   <trkpt lat="47.4233300" lon="-122.0265900">
    <ele>135.6</ele>
    <time>2020-08-09T17:26:45Z</time>
   </trkpt>
   <trkpt lat="47.4233680" lon="-122.0265950">
    <ele>135.8</ele>
    <time>2020-08-09T17:26:46Z</time>
   </trkpt>
   <trkpt lat="47.4233800" lon="-122.0265970">
    <ele>135.9</ele>
    <time>2020-08-09T17:26:47Z</time>
   </trkpt>
   <trkpt lat="47.4234100" lon="-122.0265790">
    <ele>136.1</ele>
    <time>2020-08-09T17:26:48Z</time>
   </trkpt>
   <trkpt lat="47.4234180" lon="-122.0265720">
    <ele>136.1</ele>
    <time>2020-08-09T17:26:49Z</time>
   </trkpt>
   <trkpt lat="47.4236510" lon="-122.0266590">
    <ele>137.5</ele>
    <time>2020-08-09T17:27:30Z</time>
   </trkpt>
   <trkpt lat="47.4236600" lon="-122.0266580">
    <ele>137.6</ele>
    <time>2020-08-09T17:27:31Z</time>
   </trkpt>
   <trkpt lat="47.4236680" lon="-122.0266560">
    <ele>137.6</ele>
    <time>2020-08-09T17:27:32Z</time>
   </trkpt>
   <trkpt lat="47.4236890" lon="-122.0266500">
    <ele>137.7</ele>
    <time>2020-08-09T17:27:33Z</time>
   </trkpt>
   <trkpt lat="47.4237170" lon="-122.0266510">
    <ele>137.9</ele>
    <time>2020-08-09T17:27:34Z</time>
   </trkpt>
   <trkpt lat="47.4237260" lon="-122.0266560">
    <ele>137.9</ele>
    <time>2020-08-09T17:27:35Z</time>
   </trkpt>
   <trkpt lat="47.4237560" lon="-122.0266450">
    <ele>138.1</ele>
    <time>2020-08-09T17:27:36Z</time>
   </trkpt>
   <trkpt lat="47.4237880" lon="-122.0266220">
    <ele>138.3</ele>
    <time>2020-08-09T17:27:37Z</time>
   </trkpt>
   <trkpt lat="47.4238260" lon="-122.0265960">
    <ele>138.5</ele>
    <time>2020-08-09T17:27:38Z</time>
   </trkpt>
   <trkpt lat="47.4238640" lon="-122.0265920">
    <ele>138.7</ele>
    <time>2020-08-09T17:27:39Z</time>
   </trkpt>
   <trkpt lat="47.4238920" lon="-122.0266010">
    <ele>138.9</ele>
    <time>2020-08-09T17:27:40Z</time>
   </trkpt>
   <trkpt lat="47.4239300" lon="-122.0266050">
    <ele>139.1</ele>
    <time>2020-08-09T17:27:41Z</time>
   </trkpt>
   <trkpt lat="47.4239450" lon="-122.0266060">
    <ele>139.1</ele>
    <time>2020-08-09T17:27:42Z</time>
   </trkpt>
   <trkpt lat="47.4239750" lon="-122.0266140">
    <ele>139.3</ele>
    <time>2020-08-09T17:27:43Z</time>
   </trkpt>
   <trkpt lat="47.4240320" lon="-122.0266030">
    <ele>139.6</ele>
    <time>2020-08-09T17:27:44Z</time>
   </trkpt>
   <trkpt lat="47.4240630" lon="-122.0266000">
    <ele>139.8</ele>
    <time>2020-08-09T17:27:45Z</time>
   </trkpt>
   <trkpt lat="47.4240910" lon="-122.0266010">
    <ele>140.0</ele>
    <time>2020-08-09T17:27:46Z</time>
   </trkpt>
   <trkpt lat="47.4241310" lon="-122.0266030">
    <ele>140.2</ele>
    <time>2020-08-09T17:27:47Z</time>
   </trkpt>
   <trkpt lat="47.4241450" lon="-122.0266030">
    <ele>140.3</ele>
    <time>2020-08-09T17:27:48Z</time>
   </trkpt>
   <trkpt lat="47.4241560" lon="-122.0266240">
    <ele>140.4</ele>
    <time>2020-08-09T17:27:49Z</time>
   </trkpt>
   <trkpt lat="47.4241740" lon="-122.0266190">
    <ele>140.5</ele>
    <time>2020-08-09T17:27:50Z</time>
   </trkpt>
   <trkpt lat="47.4242060" lon="-122.0265880">
    <ele>140.7</ele>
    <time>2020-08-09T17:27:51Z</time>
   </trkpt>
   <trkpt lat="47.4242360" lon="-122.0265850">
    <ele>140.9</ele>
    <time>2020-08-09T17:27:52Z</time>
   </trkpt>
   <trkpt lat="47.4242640" lon="-122.0265830">
    <ele>141.0</ele>
    <time>2020-08-09T17:27:53Z</time>
   </trkpt>
   <trkpt lat="47.4242930" lon="-122.0265760">
    <ele>141.2</ele>
    <time>2020-08-09T17:27:54Z</time>
   </trkpt>
   <trkpt lat="47.4243060" lon="-122.0265740">
    <ele>141.2</ele>
    <time>2020-08-09T17:27:55Z</time>
   </trkpt>
   <trkpt lat="47.4243510" lon="-122.0265590">
    <ele>141.5</ele>
    <time>2020-08-09T17:27:56Z</time>
   </trkpt>
   <trkpt lat="47.4243740" lon="-122.0265550">
    <ele>141.6</ele>
    <time>2020-08-09T17:27:57Z</time>
   </trkpt>
   <trkpt lat="47.4243990" lon="-122.0265550">
    <ele>141.8</ele>
    <time>2020-08-09T17:27:58Z</time>
   </trkpt>
   <trkpt lat="47.4244270" lon="-122.0265480">
    <ele>142.0</ele>
    <time>2020-08-09T17:27:59Z</time>
   </trkpt>
   <trkpt lat="47.4244640" lon="-122.0265550">
    <ele>142.2</ele>
    <time>2020-08-09T17:28:00Z</time>
   </trkpt>
   <trkpt lat="47.4244750" lon="-122.0265540">
    <ele>142.2</ele>
    <time>2020-08-09T17:28:01Z</time>
   </trkpt>
   <trkpt lat="47.4245050" lon="-122.0265660">
    <ele>142.4</ele>
    <time>2020-08-09T17:28:02Z</time>
   </trkpt>
   <trkpt lat="47.4245360" lon="-122.0265550">
    <ele>142.6</ele>
    <time>2020-08-09T17:28:03Z</time>
   </trkpt>
   <trkpt lat="47.4245460" lon="-122.0265600">
    <ele>142.7</ele>
    <time>2020-08-09T17:28:04Z</time>
   </trkpt>
   <trkpt lat="47.4245800" lon="-122.0265590">
    <ele>142.9</ele>
    <time>2020-08-09T17:28:05Z</time>
   </trkpt>
   <trkpt lat="47.4245920" lon="-122.0265540">
    <ele>143.0</ele>
    <time>2020-08-09T17:28:06Z</time>
   </trkpt>
   <trkpt lat="47.4246300" lon="-122.0265590">
    <ele>143.2</ele>
    <time>2020-08-09T17:28:07Z</time>
   </trkpt>
   <trkpt lat="47.4246460" lon="-122.0265600">
    <ele>143.3</ele>
    <time>2020-08-09T17:28:08Z</time>
   </trkpt>
   <trkpt lat="47.4246890" lon="-122.0265640">
    <ele>143.6</ele>
    <time>2020-08-09T17:28:09Z</time>
   </trkpt>
   <trkpt lat="47.4247250" lon="-122.0265760">
    <ele>143.9</ele>
    <time>2020-08-09T17:28:10Z</time>
   </trkpt>
   <trkpt lat="47.4247400" lon="-122.0265780">
    <ele>144.0</ele>
    <time>2020-08-09T17:28:11Z</time>
   </trkpt>
   <trkpt lat="47.4247680" lon="-122.0265840">
    <ele>144.2</ele>
    <time>2020-08-09T17:28:12Z</time>
   </trkpt>
   <trkpt lat="47.4247780" lon="-122.0265810">
    <ele>144.3</ele>
    <time>2020-08-09T17:28:13Z</time>
   </trkpt>
   <trkpt lat="47.4248070" lon="-122.0265960">
    <ele>144.5</ele>
    <time>2020-08-09T17:28:14Z</time>
   </trkpt>
   <trkpt lat="47.4248440" lon="-122.0265810">
    <ele>144.8</ele>
    <time>2020-08-09T17:28:15Z</time>
   </trkpt>
   <trkpt lat="47.4248570" lon="-122.0265720">
    <ele>144.9</ele>
    <time>2020-08-09T17:28:16Z</time>
   </trkpt>
   <trkpt lat="47.4248850" lon="-122.0265830">
    <ele>145.1</ele>
    <time>2020-08-09T17:28:17Z</time>
   </trkpt>
   <trkpt lat="47.4249130" lon="-122.0265870">
    <ele>145.3</ele>
    <time>2020-08-09T17:28:18Z</time>
   </trkpt>
   <trkpt lat="47.4249250" lon="-122.0265840">
    <ele>145.4</ele>
    <time>2020-08-09T17:28:19Z</time>
   </trkpt>
   <trkpt lat="47.4249540" lon="-122.0265900">
    <ele>145.5</ele>
    <time>2020-08-09T17:28:20Z</time>
   </trkpt>
   <trkpt lat="47.4249740" lon="-122.0265910">
    <ele>145.7</ele>
    <time>2020-08-09T17:28:26Z</time>
   </trkpt>
   <trkpt lat="47.4249930" lon="-122.0265930">
    <ele>145.8</ele>
    <time>2020-08-09T17:28:27Z</time>
   </trkpt>
   <trkpt lat="47.4250130" lon="-122.0265940">
    <ele>145.9</ele>
    <time>2020-08-09T17:28:28Z</time>
   </trkpt>
   <trkpt lat="47.4250320" lon="-122.0265960">
    <ele>146.0</ele>
    <time>2020-08-09T17:28:29Z</time>
   </trkpt>
   <trkpt lat="47.4250660" lon="-122.0265910">
    <ele>146.3</ele>
    <time>2020-08-09T17:28:30Z</time>
   </trkpt>
   <trkpt lat="47.4250960" lon="-122.0265860">
    <ele>146.4</ele>
    <time>2020-08-09T17:28:31Z</time>
   </trkpt>
   <trkpt lat="47.4251020" lon="-122.0265800">
    <ele>146.5</ele>
    <time>2020-08-09T17:28:32Z</time>
   </trkpt>
   <trkpt lat="47.4251340" lon="-122.0265760">
    <ele>146.7</ele>
    <time>2020-08-09T17:28:33Z</time>
   </trkpt>
   <trkpt lat="47.4251650" lon="-122.0265500">
    <ele>146.9</ele>
    <time>2020-08-09T17:28:34Z</time>
   </trkpt>
   <trkpt lat="47.4251720" lon="-122.0265410">
    <ele>147.0</ele>
    <time>2020-08-09T17:28:35Z</time>
   </trkpt>
   <trkpt lat="47.4251990" lon="-122.0265260">
    <ele>147.1</ele>
    <time>2020-08-09T17:28:36Z</time>
   </trkpt>
   <trkpt lat="47.4252160" lon="-122.0265130">
    <ele>147.1</ele>
    <time>2020-08-09T17:28:37Z</time>
   </trkpt>
   <trkpt lat="47.4252500" lon="-122.0265090">
    <ele>147.2</ele>
    <time>2020-08-09T17:28:38Z</time>
   </trkpt>
   <trkpt lat="47.4252670" lon="-122.0265180">
    <ele>147.2</ele>
    <time>2020-08-09T17:28:39Z</time>
   </trkpt>
   <trkpt lat="47.4252790" lon="-122.0265100">
    <ele>147.2</ele>
    <time>2020-08-09T17:28:40Z</time>
   </trkpt>
   <trkpt lat="47.4253090" lon="-122.0265070">
    <ele>147.3</ele>
    <time>2020-08-09T17:28:41Z</time>
   </trkpt>
   <trkpt lat="47.4253420" lon="-122.0265100">
    <ele>147.3</ele>
    <time>2020-08-09T17:28:42Z</time>
   </trkpt>
   <trkpt lat="47.4253570" lon="-122.0265170">
    <ele>147.3</ele>
    <time>2020-08-09T17:28:43Z</time>
   </trkpt>
   <trkpt lat="47.4253840" lon="-122.0265260">
    <ele>147.3</ele>
    <time>2020-08-09T17:28:44Z</time>
   </trkpt>
   <trkpt lat="47.4254120" lon="-122.0265040">
    <ele>147.4</ele>
    <time>2020-08-09T17:28:45Z</time>
   </trkpt>
   <trkpt lat="47.4254390" lon="-122.0264890">
    <ele>147.4</ele>
    <time>2020-08-09T17:28:46Z</time>
   </trkpt>
   <trkpt lat="47.4254670" lon="-122.0264880">
    <ele>147.4</ele>
    <time>2020-08-09T17:28:47Z</time>
   </trkpt>
   <trkpt lat="47.4255090" lon="-122.0264830">
    <ele>147.4</ele>
    <time>2020-08-09T17:28:48Z</time>
   </trkpt>
   <trkpt lat="47.4255400" lon="-122.0264920">
    <ele>147.5</ele>
    <time>2020-08-09T17:28:49Z</time>
   </trkpt>
   <trkpt lat="47.4255780" lon="-122.0264920">
    <ele>147.5</ele>
    <time>2020-08-09T17:28:50Z</time>
   </trkpt>
   <trkpt lat="47.4255940" lon="-122.0264900">
    <ele>147.5</ele>
    <time>2020-08-09T17:28:51Z</time>
   </trkpt>
   <trkpt lat="47.4256250" lon="-122.0265100">
    <ele>147.5</ele>
    <time>2020-08-09T17:28:52Z</time>
   </trkpt>
   <trkpt lat="47.4256380" lon="-122.0265130">
    <ele>147.6</ele>
    <time>2020-08-09T17:28:53Z</time>
   </trkpt>
   <trkpt lat="47.4256890" lon="-122.0265120">
    <ele>147.6</ele>
    <time>2020-08-09T17:28:54Z</time>
   </trkpt>
   <trkpt lat="47.4257180" lon="-122.0265030">
    <ele>147.7</ele>
    <time>2020-08-09T17:28:55Z</time>
   </trkpt>
   <trkpt lat="47.4257480" lon="-122.0264850">
    <ele>147.7</ele>
    <time>2020-08-09T17:28:56Z</time>
   </trkpt>
   <trkpt lat="47.4257870" lon="-122.0264960">
    <ele>147.8</ele>
    <time>2020-08-09T17:28:57Z</time>
   </trkpt>
   <trkpt lat="47.4258010" lon="-122.0264940">
    <ele>147.9</ele>
    <time>2020-08-09T17:28:58Z</time>
   </trkpt>
   <trkpt lat="47.4258350" lon="-122.0265000">
    <ele>148.0</ele>
    <time>2020-08-09T17:28:59Z</time>
   </trkpt>
   <trkpt lat="47.4258720" lon="-122.0264920">
    <ele>148.1</ele>
    <time>2020-08-09T17:29:00Z</time>
   </trkpt>
   <trkpt lat="47.4258870" lon="-122.0264880">
    <ele>148.1</ele>
    <time>2020-08-09T17:29:01Z</time>
   </trkpt>
   <trkpt lat="47.4259290" lon="-122.0264890">
    <ele>148.3</ele>
    <time>2020-08-09T17:29:02Z</time>
   </trkpt>
   <trkpt lat="47.4259450" lon="-122.0264860">
    <ele>148.3</ele>
    <time>2020-08-09T17:29:03Z</time>
   </trkpt>
   <trkpt lat="47.4259840" lon="-122.0264630">
    <ele>148.4</ele>
    <time>2020-08-09T17:29:04Z</time>
   </trkpt>
   <trkpt lat="47.4259970" lon="-122.0264500">
    <ele>148.5</ele>
    <time>2020-08-09T17:29:05Z</time>
   </trkpt>
   <trkpt lat="47.4260320" lon="-122.0264210">
    <ele>148.6</ele>
    <time>2020-08-09T17:29:06Z</time>
   </trkpt>
   <trkpt lat="47.4260710" lon="-122.0263790">
    <ele>148.7</ele>
    <time>2020-08-09T17:29:07Z</time>
   </trkpt>
   <trkpt lat="47.4260860" lon="-122.0263470">
    <ele>148.8</ele>
    <time>2020-08-09T17:29:08Z</time>
   </trkpt>
   <trkpt lat="47.4260830" lon="-122.0263250">
    <ele>148.8</ele>
    <time>2020-08-09T17:29:09Z</time>
   </trkpt>
  </trkseg>
 </trk>
</gpx>
