<?xml version="1.0" encoding="UTF-8"?>
<gpx creator="StravaGPX" version="1.1" xmlns="http://www.topografix.com/GPX/1/1" xmlns:xsi="http://www.w3.org/2001/XMLSchema-instance" xsi:schemaLocation="http://www.topografix.com/GPX/1/1 http://www.topografix.com/GPX/1/1/gpx.xsd">
 <metadata>
  <time>2020-08-13T00:22:29Z</time>
 </metadata>
 <trk>
  <name>Hills</name>
  <type>running</type>
  <trkseg>
   <trkpt lat="47.8096900" lon="-122.3730750">
    <ele>35.8</ele>
    <time>2020-08-13T00:22:29Z</time>
   </trkpt>
   <trkpt lat="47.8096880" lon="-122.3730330">
    <ele>36.0</ele>
    <time>2020-08-13T00:22:30Z</time>
   </trkpt>
   <trkpt lat="47.8096850" lon="-122.3730160">
    <ele>36.1</ele>
    <time>2020-08-13T00:22:31Z</time>
   </trkpt>
   <trkpt lat="47.8096910" lon="-122.3729670">
    <ele>36.5</ele>
    <time>2020-08-13T00:22:32Z</time>
   </trkpt>
   <trkpt lat="47.8096920" lon="-122.3729450">
    <ele>36.6</ele>
    <time>2020-08-13T00:22:33Z</time>
   </trkpt>
   <trkpt lat="47.8096910" lon="-122.3729020">
    <ele>36.8</ele>
    <time>2020-08-13T00:22:34Z</time>
   </trkpt>
   <trkpt lat="47.8096920" lon="-122.3728880">
    <ele>36.9</ele>
    <time>2020-08-13T00:22:35Z</time>
   </trkpt>
   <trkpt lat="47.8096940" lon="-122.3728460">
    <ele>37.1</ele>
    <time>2020-08-13T00:22:36Z</time>
   </trkpt>
   <trkpt lat="47.8096960" lon="-122.3727970">
    <ele>37.4</ele>
    <time>2020-08-13T00:22:37Z</time>
   </trkpt>
   <trkpt lat="47.8096890" lon="-122.3727390">
    <ele>37.7</ele>
    <time>2020-08-13T00:22:38Z</time>
   </trkpt>
   <trkpt lat="47.8096920" lon="-122.3727150">
    <ele>37.9</ele>
    <time>2020-08-13T00:22:39Z</time>
   </trkpt>
   <trkpt lat="47.8096880" lon="-122.3726600">
    <ele>38.1</ele>
    <time>2020-08-13T00:22:40Z</time>
   </trkpt>
   <trkpt lat="47.8096890" lon="-122.3725810">
    <ele>38.4</ele>
    <time>2020-08-13T00:22:41Z</time>
   </trkpt>
   <trkpt lat="47.8096780" lon="-122.3725380">
    <ele>38.7</ele>
    <time>2020-08-13T00:22:42Z</time>
   </trkpt>
   <trkpt lat="47.8096650" lon="-122.3724790">
    <ele>38.9</ele>
    <time>2020-08-13T00:22:43Z</time>
   </trkpt>
   <trkpt lat="47.8096570" lon="-122.3724230">
    <ele>39.1</ele>
    <time>2020-08-13T00:22:44Z</time>
   </trkpt>
   <trkpt lat="47.8096530" lon="-122.3723760">
    <ele>39.3</ele>
    <time>2020-08-13T00:22:45Z</time>
   </trkpt>
   <trkpt lat="47.8096550" lon="-122.3723020">
    <ele>39.6</ele>
    <time>2020-08-13T00:22:46Z</time>
   </trkpt>
   <trkpt lat="47.8096480" lon="-122.3722590">
    <ele>39.7</ele>
    <time>2020-08-13T00:22:47Z</time>
   </trkpt>
   <trkpt lat="47.8096470" lon="-122.3722120">
    <ele>39.7</ele>
    <time>2020-08-13T00:22:48Z</time>
   </trkpt>
   <trkpt lat="47.8096570" lon="-122.3721530">
    <ele>40.0</ele>
    <time>2020-08-13T00:22:49Z</time>
   </trkpt>
   <trkpt lat="47.8096640" lon="-122.3721010">
    <ele>40.3</ele>
    <time>2020-08-13T00:22:50Z</time>
   </trkpt>
   <trkpt lat="47.8096620" lon="-122.3720310">
    <ele>40.7</ele>
    <time>2020-08-13T00:22:51Z</time>
   </trkpt>
   <trkpt lat="47.8096580" lon="-122.3719710">
    <ele>41.0</ele>
    <time>2020-08-13T00:22:52Z</time>
   </trkpt>
   <trkpt lat="47.8096560" lon="-122.3719220">
    <ele>41.3</ele>
    <time>2020-08-13T00:22:53Z</time>
   </trkpt>
   <trkpt lat="47.8096450" lon="-122.3718650">
    <ele>41.6</ele>
    <time>2020-08-13T00:22:54Z</time>
   </trkpt>
   <trkpt lat="47.8096400" lon="-122.3718390">
    <ele>41.7</ele>
    <time>2020-08-13T00:22:55Z</time>
   </trkpt>
   <trkpt lat="47.8096490" lon="-122.3717630">
    <ele>42.1</ele>
    <time>2020-08-13T00:22:56Z</time>
   </trkpt>
   <trkpt lat="47.8096500" lon="-122.3717070">
    <ele>42.4</ele>
    <time>2020-08-13T00:22:57Z</time>
   </trkpt>
   <trkpt lat="47.8096550" lon="-122.3716470">
    <ele>42.5</ele>
    <time>2020-08-13T00:22:58Z</time>
   </trkpt>
   <trkpt lat="47.8096500" lon="-122.3715790">
    <ele>42.7</ele>
    <time>2020-08-13T00:22:59Z</time>
   </trkpt>
   <trkpt lat="47.8096470" lon="-122.3715450">
    <ele>42.9</ele>
    <time>2020-08-13T00:23:00Z</time>
   </trkpt>
   <trkpt lat="47.8096560" lon="-122.3714530">
    <ele>43.2</ele>
    <time>2020-08-13T00:23:01Z</time>
   </trkpt>
   <trkpt lat="47.8096630" lon="-122.3714020">
    <ele>43.4</ele>
    <time>2020-08-13T00:23:02Z</time>
   </trkpt>
   <trkpt lat="47.8096720" lon="-122.3713500">
    <ele>43.6</ele>
    <time>2020-08-13T00:23:03Z</time>
   </trkpt>
   <trkpt lat="47.8096760" lon="-122.3712800">
    <ele>43.9</ele>
    <time>2020-08-13T00:23:04Z</time>
   </trkpt>
   <trkpt lat="47.8096730" lon="-122.3712230">
    <ele>44.2</ele>
    <time>2020-08-13T00:23:05Z</time>
   </trkpt>
   <trkpt lat="47.8096660" lon="-122.3711490">
    <ele>44.7</ele>
    <time>2020-08-13T00:23:06Z</time>
   </trkpt>
   <trkpt lat="47.8096720" lon="-122.3710790">
    <ele>45.2</ele>
    <time>2020-08-13T00:23:07Z</time>
   </trkpt>
   <trkpt lat="47.8096760" lon="-122.3710470">
    <ele>45.4</ele>
    <time>2020-08-13T00:23:08Z</time>
   </trkpt>
   <trkpt lat="47.8096750" lon="-122.3709990">
    <ele>45.6</ele>
    <time>2020-08-13T00:23:09Z</time>
   </trkpt>
   <trkpt lat="47.8096770" lon="-122.3709450">
    <ele>45.8</ele>
    <time>2020-08-13T00:23:10Z</time>
   </trkpt>
   <trkpt lat="47.8096770" lon="-122.3708860">
    <ele>45.9</ele>
    <time>2020-08-13T00:23:11Z</time>
   </trkpt>
   <trkpt lat="47.8096600" lon="-122.3708400">
    <ele>46.1</ele>
    <time>2020-08-13T00:23:12Z</time>
   </trkpt>
   <trkpt lat="47.8096610" lon="-122.3707800">
    <ele>46.2</ele>
    <time>2020-08-13T00:23:13Z</time>
   </trkpt>
   <trkpt lat="47.8096670" lon="-122.3707140">
    <ele>46.4</ele>
    <time>2020-08-13T00:23:14Z</time>
   </trkpt>
   <trkpt lat="47.8096670" lon="-122.3706610">
    <ele>46.6</ele>
    <time>2020-08-13T00:23:15Z</time>
   </trkpt>
   <trkpt lat="47.8096640" lon="-122.3706130">
    <ele>46.9</ele>
    <time>2020-08-13T00:23:16Z</time>
   </trkpt>
   <trkpt lat="47.8096570" lon="-122.3705650">
    <ele>47.2</ele>
    <time>2020-08-13T00:23:17Z</time>
   </trkpt>
   <trkpt lat="47.8096380" lon="-122.3705360">
    <ele>47.4</ele>
    <time>2020-08-13T00:23:18Z</time>
   </trkpt>
   <trkpt lat="47.8096430" lon="-122.3704820">
    <ele>47.7</ele>
    <time>2020-08-13T00:23:19Z</time>
   </trkpt>
   <trkpt lat="47.8096470" lon="-122.3704200">
    <ele>48.1</ele>
    <time>2020-08-13T00:23:20Z</time>
   </trkpt>
   <trkpt lat="47.8096500" lon="-122.3703620">
    <ele>48.4</ele>
    <time>2020-08-13T00:23:21Z</time>
   </trkpt>
   <trkpt lat="47.8096530" lon="-122.3703320">
    <ele>48.5</ele>
    <time>2020-08-13T00:23:22Z</time>
   </trkpt>
   <trkpt lat="47.8096560" lon="-122.3702820">
    <ele>48.8</ele>
    <time>2020-08-13T00:23:23Z</time>
   </trkpt>
   <trkpt lat="47.8096550" lon="-122.3702160">
    <ele>49.2</ele>
    <time>2020-08-13T00:23:24Z</time>
   </trkpt>
   <trkpt lat="47.8096500" lon="-122.3701660">
    <ele>49.4</ele>
    <time>2020-08-13T00:23:25Z</time>
   </trkpt>
   <trkpt lat="47.8096510" lon="-122.3701070">
    <ele>49.8</ele>
    <time>2020-08-13T00:23:26Z</time>
   </trkpt>
   <trkpt lat="47.8096520" lon="-122.3700540">
    <ele>50.1</ele>
    <time>2020-08-13T00:23:27Z</time>
   </trkpt>
   <trkpt lat="47.8096360" lon="-122.3700070">
    <ele>50.4</ele>
    <time>2020-08-13T00:23:28Z</time>
   </trkpt>
   <trkpt lat="47.8096370" lon="-122.3699660">
    <ele>50.6</ele>
    <time>2020-08-13T00:23:29Z</time>
   </trkpt>
   <trkpt lat="47.8096400" lon="-122.3699110">
    <ele>50.9</ele>
    <time>2020-08-13T00:23:30Z</time>
   </trkpt>
   <trkpt lat="47.8096320" lon="-122.3698390">
    <ele>51.3</ele>
    <time>2020-08-13T00:23:31Z</time>
   </trkpt>
   <trkpt lat="47.8096490" lon="-122.3697730">
    <ele>51.7</ele>
    <time>2020-08-13T00:23:32Z</time>
   </trkpt>
   <trkpt lat="47.8096550" lon="-122.3697390">
    <ele>51.9</ele>
    <time>2020-08-13T00:23:33Z</time>
   </trkpt>
   <trkpt lat="47.8096440" lon="-122.3696780">
    <ele>52.3</ele>
    <time>2020-08-13T00:23:35Z</time>
   </trkpt>
   <trkpt lat="47.8096410" lon="-122.3696560">
    <ele>52.4</ele>
    <time>2020-08-13T00:23:36Z</time>
   </trkpt>
   <trkpt lat="47.8096230" lon="-122.3696200">
    <ele>52.6</ele>
    <time>2020-08-13T00:23:37Z</time>
   </trkpt>
   <trkpt lat="47.8096100" lon="-122.3695600">
    <ele>52.9</ele>
    <time>2020-08-13T00:23:38Z</time>
   </trkpt>
   <trkpt lat="47.8096050" lon="-122.3695310">
    <ele>53.1</ele>
    <time>2020-08-13T00:23:39Z</time>
   </trkpt>
   <trkpt lat="47.8096030" lon="-122.3694860">
    <ele>53.3</ele>
    <time>2020-08-13T00:23:40Z</time>
   </trkpt>
   <trkpt lat="47.8095970" lon="-122.3694040">
    <ele>53.6</ele>
    <time>2020-08-13T00:23:41Z</time>
   </trkpt>
   <trkpt lat="47.8096080" lon="-122.3693380">
    <ele>53.9</ele>
    <time>2020-08-13T00:23:42Z</time>
   </trkpt>
   <trkpt lat="47.8096180" lon="-122.3693040">
    <ele>54.1</ele>
    <time>2020-08-13T00:23:43Z</time>
   </trkpt>
   <trkpt lat="47.8096240" lon="-122.3692470">
    <ele>54.4</ele>
    <time>2020-08-13T00:23:44Z</time>
   </trkpt>
   <trkpt lat="47.8096350" lon="-122.3692060">
    <ele>54.7</ele>
    <time>2020-08-13T00:23:45Z</time>
   </trkpt>
   <trkpt lat="47.8096360" lon="-122.3691570">
    <ele>55.0</ele>
    <time>2020-08-13T00:23:46Z</time>
   </trkpt>
   <trkpt lat="47.8096370" lon="-122.3691400">
    <ele>55.1</ele>
    <time>2020-08-13T00:23:47Z</time>
   </trkpt>
   <trkpt lat="47.8096320" lon="-122.3690870">
    <ele>55.4</ele>
    <time>2020-08-13T00:23:48Z</time>
   </trkpt>
   <trkpt lat="47.8096230" lon="-122.3690340">
    <ele>55.8</ele>
    <time>2020-08-13T00:23:49Z</time>
   </trkpt>
   <trkpt lat="47.8096140" lon="-122.3690140">
    <ele>56.0</ele>
    <time>2020-08-13T00:23:50Z</time>
   </trkpt>
   <trkpt lat="47.8096150" lon="-122.3689590">
    <ele>56.4</ele>
    <time>2020-08-13T00:23:51Z</time>
   </trkpt>
   <trkpt lat="47.8096150" lon="-122.3688990">
    <ele>56.9</ele>
    <time>2020-08-13T00:23:52Z</time>
   </trkpt>
   <trkpt lat="47.8096180" lon="-122.3688580">
    <ele>57.2</ele>
    <time>2020-08-13T00:23:53Z</time>
   </trkpt>
   <trkpt lat="47.8096140" lon="-122.3688160">
    <ele>57.5</ele>
    <time>2020-08-13T00:23:54Z</time>
   </trkpt>
   <trkpt lat="47.8096240" lon="-122.3687620">
    <ele>58.0</ele>
    <time>2020-08-13T00:23:55Z</time>
   </trkpt>
   <trkpt lat="47.8096160" lon="-122.3687100">
    <ele>58.4</ele>
    <time>2020-08-13T00:23:56Z</time>
   </trkpt>
   <trkpt lat="47.8096230" lon="-122.3686710">
    <ele>58.7</ele>
    <time>2020-08-13T00:23:57Z</time>
   </trkpt>
   <trkpt lat="47.8096140" lon="-122.3686180">
    <ele>59.2</ele>
    <time>2020-08-13T00:23:58Z</time>
   </trkpt>
   <trkpt lat="47.8096170" lon="-122.3685590">
    <ele>59.6</ele>
    <time>2020-08-13T00:23:59Z</time>
   </trkpt>
   <trkpt lat="47.8096180" lon="-122.3685380">
    <ele>59.8</ele>
    <time>2020-08-13T00:24:00Z</time>
   </trkpt>
   <trkpt lat="47.8096230" lon="-122.3684890">
    <ele>60.2</ele>
    <time>2020-08-13T00:24:01Z</time>
   </trkpt>
   <trkpt lat="47.8096290" lon="-122.3684490">
    <ele>60.5</ele>
    <time>2020-08-13T00:24:02Z</time>
   </trkpt>
   <trkpt lat="47.8096330" lon="-122.3683970">
    <ele>60.9</ele>
    <time>2020-08-13T00:24:03Z</time>
   </trkpt>
   <trkpt lat="47.8096280" lon="-122.3683470">
    <ele>61.3</ele>
    <time>2020-08-13T00:24:04Z</time>
   </trkpt>
   <trkpt lat="47.8096290" lon="-122.3682970">
    <ele>61.7</ele>
    <time>2020-08-13T00:24:05Z</time>
   </trkpt>
   <trkpt lat="47.8096310" lon="-122.3682260">
    <ele>62.2</ele>
    <time>2020-08-13T00:24:06Z</time>
   </trkpt>
   <trkpt lat="47.8096430" lon="-122.3681650">
    <ele>62.6</ele>
    <time>2020-08-13T00:24:07Z</time>
   </trkpt>
   <trkpt lat="47.8096460" lon="-122.3681410">
    <ele>62.8</ele>
    <time>2020-08-13T00:24:08Z</time>
   </trkpt>
   <trkpt lat="47.8096450" lon="-122.3680980">
    <ele>63.1</ele>
    <time>2020-08-13T00:24:09Z</time>
   </trkpt>
   <trkpt lat="47.8096350" lon="-122.3680430">
    <ele>63.5</ele>
    <time>2020-08-13T00:24:10Z</time>
   </trkpt>
   <trkpt lat="47.8096450" lon="-122.3679810">
    <ele>64.0</ele>
    <time>2020-08-13T00:24:11Z</time>
   </trkpt>
   <trkpt lat="47.8096520" lon="-122.3679500">
    <ele>64.2</ele>
    <time>2020-08-13T00:24:12Z</time>
   </trkpt>
   <trkpt lat="47.8096510" lon="-122.3679090">
    <ele>64.5</ele>
    <time>2020-08-13T00:24:13Z</time>
   </trkpt>
   <trkpt lat="47.8096430" lon="-122.3678610">
    <ele>64.8</ele>
    <time>2020-08-13T00:24:14Z</time>
   </trkpt>
   <trkpt lat="47.8096430" lon="-122.3678270">
    <ele>65.0</ele>
    <time>2020-08-13T00:24:15Z</time>
   </trkpt>
   <trkpt lat="47.8096310" lon="-122.3671870">
    <ele>68.9</ele>
    <time>2020-08-13T00:25:10Z</time>
   </trkpt>
   <trkpt lat="47.8096240" lon="-122.3671660">
    <ele>69.1</ele>
    <time>2020-08-13T00:25:11Z</time>
   </trkpt>
   <trkpt lat="47.8096200" lon="-122.3671420">
    <ele>69.2</ele>
    <time>2020-08-13T00:25:12Z</time>
   </trkpt>
   <trkpt lat="47.8096190" lon="-122.3671160">
    <ele>69.3</ele>
    <time>2020-08-13T00:25:13Z</time>
   </trkpt>
   <trkpt lat="47.8096170" lon="-122.3670900">
    <ele>69.5</ele>
    <time>2020-08-13T00:25:14Z</time>
   </trkpt>
   <trkpt lat="47.8095970" lon="-122.3670580">
    <ele>71.0</ele>
    <time>2020-08-13T00:25:15Z</time>
   </trkpt>
   <trkpt lat="47.8095840" lon="-122.3670510">
    <ele>71.1</ele>
    <time>2020-08-13T00:25:16Z</time>
   </trkpt>
   <trkpt lat="47.8095590" lon="-122.3670700">
    <ele>71.4</ele>
    <time>2020-08-13T00:25:17Z</time>
   </trkpt>
   <trkpt lat="47.8095180" lon="-122.3670810">
    <ele>71.8</ele>
    <time>2020-08-13T00:25:18Z</time>
   </trkpt>
   <trkpt lat="47.8094990" lon="-122.3670830">
    <ele>72.0</ele>
    <time>2020-08-13T00:25:19Z</time>
   </trkpt>
   <trkpt lat="47.8094690" lon="-122.3670750">
    <ele>72.3</ele>
    <time>2020-08-13T00:25:20Z</time>
   </trkpt>
   <trkpt lat="47.8094370" lon="-122.3670760">
    <ele>72.6</ele>
    <time>2020-08-13T00:25:21Z</time>
   </trkpt>
   <trkpt lat="47.8094020" lon="-122.3670730">
    <ele>72.9</ele>
    <time>2020-08-13T00:25:22Z</time>
   </trkpt>
   <trkpt lat="47.8093460" lon="-122.3670690">
    <ele>73.3</ele>
    <time>2020-08-13T00:25:23Z</time>
   </trkpt>
   <trkpt lat="47.8093100" lon="-122.3670790">
    <ele>73.6</ele>
    <time>2020-08-13T00:25:24Z</time>
   </trkpt>
   <trkpt lat="47.8092710" lon="-122.3670730">
    <ele>73.6</ele>
    <time>2020-08-13T00:25:25Z</time>
   </trkpt>
   <trkpt lat="47.8092350" lon="-122.3670780">
    <ele>73.6</ele>
    <time>2020-08-13T00:25:26Z</time>
   </trkpt>
   <trkpt lat="47.8092030" lon="-122.3670680">
    <ele>73.7</ele>
    <time>2020-08-13T00:25:27Z</time>
   </trkpt>
   <trkpt lat="47.8091720" lon="-122.3670710">
    <ele>73.8</ele>
    <time>2020-08-13T00:25:28Z</time>
   </trkpt>
   <trkpt lat="47.8091360" lon="-122.3670740">
    <ele>73.9</ele>
    <time>2020-08-13T00:25:29Z</time>
   </trkpt>
   <trkpt lat="47.8090950" lon="-122.3670780">
    <ele>74.1</ele>
    <time>2020-08-13T00:25:30Z</time>
   </trkpt>
   <trkpt lat="47.8090560" lon="-122.3670710">
    <ele>74.3</ele>
    <time>2020-08-13T00:25:31Z</time>
   </trkpt>
   <trkpt lat="47.8090270" lon="-122.3670650">
    <ele>74.4</ele>
    <time>2020-08-13T00:25:32Z</time>
   </trkpt>
   <trkpt lat="47.8089840" lon="-122.3670760">
    <ele>74.6</ele>
    <time>2020-08-13T00:25:33Z</time>
   </trkpt>
   <trkpt lat="47.8089650" lon="-122.3670770">
    <ele>74.6</ele>
    <time>2020-08-13T00:25:34Z</time>
   </trkpt>
   <trkpt lat="47.8089290" lon="-122.3670830">
    <ele>74.8</ele>
    <time>2020-08-13T00:25:35Z</time>
   </trkpt>
   <trkpt lat="47.8088920" lon="-122.3670790">
    <ele>74.9</ele>
    <time>2020-08-13T00:25:36Z</time>
   </trkpt>
   <trkpt lat="47.8088590" lon="-122.3670810">
    <ele>75.0</ele>
    <time>2020-08-13T00:25:37Z</time>
   </trkpt>
   <trkpt lat="47.8088260" lon="-122.3670730">
    <ele>75.2</ele>
    <time>2020-08-13T00:25:38Z</time>
   </trkpt>
   <trkpt lat="47.8087960" lon="-122.3670730">
    <ele>75.3</ele>
    <time>2020-08-13T00:25:39Z</time>
   </trkpt>
   <trkpt lat="47.8087680" lon="-122.3670690">
    <ele>75.4</ele>
    <time>2020-08-13T00:25:40Z</time>
   </trkpt>
   <trkpt lat="47.8087380" lon="-122.3670720">
    <ele>75.5</ele>
    <time>2020-08-13T00:25:41Z</time>
   </trkpt>
   <trkpt lat="47.8087020" lon="-122.3670700">
    <ele>75.7</ele>
    <time>2020-08-13T00:25:42Z</time>
   </trkpt>
   <trkpt lat="47.8086720" lon="-122.3670670">
    <ele>75.8</ele>
    <time>2020-08-13T00:25:43Z</time>
   </trkpt>
   <trkpt lat="47.8086230" lon="-122.3670640">
    <ele>76.0</ele>
    <time>2020-08-13T00:25:44Z</time>
   </trkpt>
   <trkpt lat="47.8085940" lon="-122.3670640">
    <ele>76.1</ele>
    <time>2020-08-13T00:25:45Z</time>
   </trkpt>
   <trkpt lat="47.8085600" lon="-122.3670700">
    <ele>76.2</ele>
    <time>2020-08-13T00:25:46Z</time>
   </trkpt>
   <trkpt lat="47.8085250" lon="-122.3670760">
    <ele>76.4</ele>
    <time>2020-08-13T00:25:47Z</time>
   </trkpt>
   <trkpt lat="47.8084850" lon="-122.3670660">
    <ele>76.6</ele>
    <time>2020-08-13T00:25:48Z</time>
   </trkpt>
   <trkpt lat="47.8084700" lon="-122.3670690">
    <ele>76.6</ele>
    <time>2020-08-13T00:25:49Z</time>
   </trkpt>
   <trkpt lat="47.8084400" lon="-122.3670610">
    <ele>76.8</ele>
    <time>2020-08-13T00:25:50Z</time>
   </trkpt>
   <trkpt lat="47.8084000" lon="-122.3670770">
    <ele>77.0</ele>
    <time>2020-08-13T00:25:51Z</time>
   </trkpt>
   <trkpt lat="47.8083610" lon="-122.3670600">
    <ele>77.2</ele>
    <time>2020-08-13T00:25:52Z</time>
   </trkpt>
   <trkpt lat="47.8083240" lon="-122.3670560">
    <ele>77.3</ele>
    <time>2020-08-13T00:25:53Z</time>
   </trkpt>
   <trkpt lat="47.8082930" lon="-122.3670820">
    <ele>77.5</ele>
    <time>2020-08-13T00:25:54Z</time>
   </trkpt>
   <trkpt lat="47.8082610" lon="-122.3670760">
    <ele>77.7</ele>
    <time>2020-08-13T00:25:55Z</time>
   </trkpt>
   <trkpt lat="47.8082470" lon="-122.3670760">
    <ele>77.7</ele>
    <time>2020-08-13T00:25:56Z</time>
   </trkpt>
   <trkpt lat="47.8082150" lon="-122.3670780">
    <ele>77.9</ele>
    <time>2020-08-13T00:25:57Z</time>
   </trkpt>
   <trkpt lat="47.8081750" lon="-122.3670850">
    <ele>78.1</ele>
    <time>2020-08-13T00:25:58Z</time>
   </trkpt>
   <trkpt lat="47.8081600" lon="-122.3670970">
    <ele>78.2</ele>
    <time>2020-08-13T00:25:59Z</time>
   </trkpt>
   <trkpt lat="47.8081260" lon="-122.3670970">
    <ele>78.3</ele>
    <time>2020-08-13T00:26:00Z</time>
   </trkpt>
   <trkpt lat="47.8081130" lon="-122.3670960">
    <ele>78.4</ele>
    <time>2020-08-13T00:26:01Z</time>
   </trkpt>
   <trkpt lat="47.8080740" lon="-122.3671100">
    <ele>78.6</ele>
    <time>2020-08-13T00:26:02Z</time>
   </trkpt>
   <trkpt lat="47.8080370" lon="-122.3670910">
    <ele>78.8</ele>
    <time>2020-08-13T00:26:03Z</time>
   </trkpt>
   <trkpt lat="47.8080160" lon="-122.3670900">
    <ele>79.0</ele>
    <time>2020-08-13T00:26:04Z</time>
   </trkpt>
   <trkpt lat="47.8079800" lon="-122.3670740">
    <ele>79.2</ele>
    <time>2020-08-13T00:26:05Z</time>
   </trkpt>
   <trkpt lat="47.8079650" lon="-122.3670710">
    <ele>79.3</ele>
    <time>2020-08-13T00:26:06Z</time>
   </trkpt>
   <trkpt lat="47.8079280" lon="-122.3670680">
    <ele>79.5</ele>
    <time>2020-08-13T00:26:07Z</time>
   </trkpt>
   <trkpt lat="47.8078980" lon="-122.3670760">
    <ele>79.7</ele>
    <time>2020-08-13T00:26:08Z</time>
   </trkpt>
   <trkpt lat="47.8078590" lon="-122.3670820">
    <ele>80.0</ele>
    <time>2020-08-13T00:26:09Z</time>
   </trkpt>
   <trkpt lat="47.8078270" lon="-122.3670810">
    <ele>80.2</ele>
    <time>2020-08-13T00:26:10Z</time>
   </trkpt>
   <trkpt lat="47.8077910" lon="-122.3670770">
    <ele>80.4</ele>
    <time>2020-08-13T00:26:11Z</time>
   </trkpt>
   <trkpt lat="47.8077570" lon="-122.3670710">
    <ele>80.6</ele>
    <time>2020-08-13T00:26:12Z</time>
   </trkpt>
   <trkpt lat="47.8077130" lon="-122.3670770">
    <ele>80.9</ele>
    <time>2020-08-13T00:26:13Z</time>
   </trkpt>
   <trkpt lat="47.8076940" lon="-122.3670850">
    <ele>81.1</ele>
    <time>2020-08-13T00:26:14Z</time>
   </trkpt>
   <trkpt lat="47.8076580" lon="-122.3670850">
    <ele>81.3</ele>
    <time>2020-08-13T00:26:15Z</time>
   </trkpt>
   <trkpt lat="47.8076470" lon="-122.3670840">
    <ele>81.4</ele>
    <time>2020-08-13T00:26:16Z</time>
   </trkpt>
   <trkpt lat="47.8076170" lon="-122.3670790">
    <ele>81.6</ele>
    <time>2020-08-13T00:26:17Z</time>
   </trkpt>
   <trkpt lat="47.8075810" lon="-122.3670840">
    <ele>81.9</ele>
    <time>2020-08-13T00:26:18Z</time>
   </trkpt>
   <trkpt lat="47.8075460" lon="-122.3670850">
    <ele>82.2</ele>
    <time>2020-08-13T00:26:19Z</time>
   </trkpt>
   <trkpt lat="47.8075270" lon="-122.3670890">
    <ele>82.4</ele>
    <time>2020-08-13T00:26:20Z</time>
   </trkpt>
   <trkpt lat="47.8063930" lon="-122.3670640">
    <ele>85.9</ele>
    <time>2020-08-13T00:27:54Z</time>
   </trkpt>
   <trkpt lat="47.8063640" lon="-122.3670580">
    <ele>86.0</ele>
    <time>2020-08-13T00:27:55Z</time>
   </trkpt>
   <trkpt lat="47.8063490" lon="-122.3670570">
    <ele>86.1</ele>
    <time>2020-08-13T00:27:56Z</time>
   </trkpt>
   <trkpt lat="47.8063340" lon="-122.3670550">
    <ele>86.1</ele>
    <time>2020-08-13T00:27:57Z</time>
   </trkpt>
   <trkpt lat="47.8062980" lon="-122.3670600">
    <ele>86.2</ele>
    <time>2020-08-13T00:27:58Z</time>
   </trkpt>
   <trkpt lat="47.8062860" lon="-122.3670610">
    <ele>86.3</ele>
    <time>2020-08-13T00:27:59Z</time>
   </trkpt>
   <trkpt lat="47.8062580" lon="-122.3670630">
    <ele>86.4</ele>
    <time>2020-08-13T00:28:00Z</time>
   </trkpt>
   <trkpt lat="47.8062290" lon="-122.3670550">
    <ele>86.5</ele>
    <time>2020-08-13T00:28:01Z</time>
   </trkpt>
   <trkpt lat="47.8061490" lon="-122.3670630">
    <ele>86.7</ele>
    <time>2020-08-13T00:28:02Z</time>
   </trkpt>
   <trkpt lat="47.8061190" lon="-122.3670560">
    <ele>86.8</ele>
    <time>2020-08-13T00:28:03Z</time>
   </trkpt>
   <trkpt lat="47.8061090" lon="-122.3670650">
    <ele>86.8</ele>
    <time>2020-08-13T00:28:04Z</time>
   </trkpt>
   <trkpt lat="47.8060880" lon="-122.3670630">
    <ele>86.9</ele>
    <time>2020-08-13T00:28:05Z</time>
   </trkpt>
   <trkpt lat="47.8060480" lon="-122.3670590">
    <ele>87.0</ele>
    <time>2020-08-13T00:28:06Z</time>
   </trkpt>
   <trkpt lat="47.8059940" lon="-122.3670640">
    <ele>87.2</ele>
    <time>2020-08-13T00:28:07Z</time>
   </trkpt>
   <trkpt lat="47.8059670" lon="-122.3670540">
    <ele>87.3</ele>
    <time>2020-08-13T00:28:08Z</time>
   </trkpt>
   <trkpt lat="47.8059250" lon="-122.3670600">
    <ele>87.4</ele>
    <time>2020-08-13T00:28:09Z</time>
   </trkpt>
   <trkpt lat="47.8058750" lon="-122.3670470">
    <ele>87.6</ele>
    <time>2020-08-13T00:28:10Z</time>
   </trkpt>
   <trkpt lat="47.8058300" lon="-122.3670580">
    <ele>87.7</ele>
    <time>2020-08-13T00:28:11Z</time>
   </trkpt>
   <trkpt lat="47.8058090" lon="-122.3670630">
    <ele>87.8</ele>
    <time>2020-08-13T00:28:12Z</time>
   </trkpt>
   <trkpt lat="47.8057780" lon="-122.3670640">
    <ele>87.9</ele>
    <time>2020-08-13T00:28:13Z</time>
   </trkpt>
   <trkpt lat="47.8057450" lon="-122.3670650">
    <ele>88.0</ele>
    <time>2020-08-13T00:28:14Z</time>
   </trkpt>
   <trkpt lat="47.8057020" lon="-122.3670590">
    <ele>88.2</ele>
    <time>2020-08-13T00:28:15Z</time>
   </trkpt>
   <trkpt lat="47.8056740" lon="-122.3670490">
    <ele>88.3</ele>
    <time>2020-08-13T00:28:16Z</time>
   </trkpt>
   <trkpt lat="47.8056290" lon="-122.3670550">
    <ele>88.5</ele>
    <time>2020-08-13T00:28:17Z</time>
   </trkpt>
   <trkpt lat="47.8056100" lon="-122.3670550">
    <ele>88.5</ele>
    <time>2020-08-13T00:28:18Z</time>
   </trkpt>
   <trkpt lat="47.8055670" lon="-122.3670550">
    <ele>88.7</ele>
    <time>2020-08-13T00:28:19Z</time>
   </trkpt>
   <trkpt lat="47.8055320" lon="-122.3670490">
    <ele>88.8</ele>
    <time>2020-08-13T00:28:20Z</time>
   </trkpt>
   <trkpt lat="47.8054950" lon="-122.3670330">
    <ele>89.0</ele>
    <time>2020-08-13T00:28:21Z</time>
   </trkpt>
   <trkpt lat="47.8054550" lon="-122.3670390">
    <ele>89.2</ele>
    <time>2020-08-13T00:28:22Z</time>
   </trkpt>
   <trkpt lat="47.8054240" lon="-122.3670540">
    <ele>89.3</ele>
    <time>2020-08-13T00:28:23Z</time>
   </trkpt>
   <trkpt lat="47.8053800" lon="-122.3670530">
    <ele>89.5</ele>
    <time>2020-08-13T00:28:24Z</time>
   </trkpt>
   <trkpt lat="47.8053350" lon="-122.3670440">
    <ele>89.7</ele>
    <time>2020-08-13T00:28:25Z</time>
   </trkpt>
   <trkpt lat="47.8053060" lon="-122.3670370">
    <ele>89.8</ele>
    <time>2020-08-13T00:28:26Z</time>
   </trkpt>
   <trkpt lat="47.8052770" lon="-122.3670390">
    <ele>90.0</ele>
    <time>2020-08-13T00:28:27Z</time>
   </trkpt>
   <trkpt lat="47.8052480" lon="-122.3670510">
    <ele>90.1</ele>
    <time>2020-08-13T00:28:28Z</time>
   </trkpt>
   <trkpt lat="47.8052120" lon="-122.3670530">
    <ele>90.2</ele>
    <time>2020-08-13T00:28:29Z</time>
   </trkpt>
   <trkpt lat="47.8051630" lon="-122.3670460">
    <ele>90.4</ele>
    <time>2020-08-13T00:28:30Z</time>
   </trkpt>
   <trkpt lat="47.8051200" lon="-122.3670350">
    <ele>90.6</ele>
    <time>2020-08-13T00:28:31Z</time>
   </trkpt>
   <trkpt lat="47.8051000" lon="-122.3670300">
    <ele>90.7</ele>
    <time>2020-08-13T00:28:32Z</time>
   </trkpt>
   <trkpt lat="47.8050670" lon="-122.3670180">
    <ele>90.8</ele>
    <time>2020-08-13T00:28:33Z</time>
   </trkpt>
   <trkpt lat="47.8050300" lon="-122.3670280">
    <ele>91.0</ele>
    <time>2020-08-13T00:28:34Z</time>
   </trkpt>
   <trkpt lat="47.8049970" lon="-122.3670370">
    <ele>91.1</ele>
    <time>2020-08-13T00:28:35Z</time>
   </trkpt>
   <trkpt lat="47.8049660" lon="-122.3670350">
    <ele>91.3</ele>
    <time>2020-08-13T00:28:36Z</time>
   </trkpt>
   <trkpt lat="47.8049240" lon="-122.3670330">
    <ele>91.5</ele>
    <time>2020-08-13T00:28:37Z</time>
   </trkpt>
   <trkpt lat="47.8049010" lon="-122.3670100">
    <ele>91.6</ele>
    <time>2020-08-13T00:28:38Z</time>
   </trkpt>
   <trkpt lat="47.8048700" lon="-122.3670200">
    <ele>91.7</ele>
    <time>2020-08-13T00:28:39Z</time>
   </trkpt>
   <trkpt lat="47.8048300" lon="-122.3670280">
    <ele>91.8</ele>
    <time>2020-08-13T00:28:40Z</time>
   </trkpt>
   <trkpt lat="47.8048150" lon="-122.3670300">
    <ele>91.9</ele>
    <time>2020-08-13T00:28:41Z</time>
   </trkpt>
   <trkpt lat="47.8047820" lon="-122.3670450">
    <ele>92.1</ele>
    <time>2020-08-13T00:28:42Z</time>
   </trkpt>
   <trkpt lat="47.8047540" lon="-122.3670450">
    <ele>92.2</ele>
    <time>2020-08-13T00:28:43Z</time>
   </trkpt>
   <trkpt lat="47.8047190" lon="-122.3670580">
    <ele>92.4</ele>
    <time>2020-08-13T00:28:44Z</time>
   </trkpt>
   <trkpt lat="47.8046830" lon="-122.3670590">
    <ele>92.5</ele>
    <time>2020-08-13T00:28:45Z</time>
   </trkpt>
   <trkpt lat="47.8046480" lon="-122.3670510">
    <ele>92.7</ele>
    <time>2020-08-13T00:28:46Z</time>
   </trkpt>
   <trkpt lat="47.8046150" lon="-122.3670440">
    <ele>92.8</ele>
    <time>2020-08-13T00:28:47Z</time>
   </trkpt>
   <trkpt lat="47.8045840" lon="-122.3670470">
    <ele>93.0</ele>
    <time>2020-08-13T00:28:48Z</time>
   </trkpt>
   <trkpt lat="47.8045560" lon="-122.3670630">
    <ele>93.1</ele>
    <time>2020-08-13T00:28:49Z</time>
   </trkpt>
   <trkpt lat="47.8045240" lon="-122.3670410">
    <ele>93.2</ele>
    <time>2020-08-13T00:28:50Z</time>
   </trkpt>
   <trkpt lat="47.8044940" lon="-122.3670480">
    <ele>93.3</ele>
    <time>2020-08-13T00:28:51Z</time>
   </trkpt>
   <trkpt lat="47.8044440" lon="-122.3670230">
    <ele>93.5</ele>
    <time>2020-08-13T00:28:52Z</time>
   </trkpt>
   <trkpt lat="47.8044180" lon="-122.3670410">
    <ele>93.6</ele>
    <time>2020-08-13T00:28:53Z</time>
   </trkpt>
   <trkpt lat="47.8043720" lon="-122.3670320">
    <ele>93.7</ele>
    <time>2020-08-13T00:28:54Z</time>
   </trkpt>
   <trkpt lat="47.8043330" lon="-122.3670310">
    <ele>93.9</ele>
    <time>2020-08-13T00:28:55Z</time>
   </trkpt>
   <trkpt lat="47.8043170" lon="-122.3670310">
    <ele>93.9</ele>
    <time>2020-08-13T00:28:56Z</time>
   </trkpt>
   <trkpt lat="47.8042850" lon="-122.3670270">
    <ele>94.0</ele>
    <time>2020-08-13T00:28:57Z</time>
   </trkpt>
   <trkpt lat="47.8042720" lon="-122.3670290">
    <ele>94.1</ele>
    <time>2020-08-13T00:28:58Z</time>
   </trkpt>
   <trkpt lat="47.8042260" lon="-122.3670220">
    <ele>94.2</ele>
    <time>2020-08-13T00:28:59Z</time>
   </trkpt>
   <trkpt lat="47.8041840" lon="-122.3670130">
    <ele>94.4</ele>
    <time>2020-08-13T00:29:00Z</time>
   </trkpt>
   <trkpt lat="47.8041420" lon="-122.3670310">
    <ele>94.5</ele>
    <time>2020-08-13T00:29:01Z</time>
   </trkpt>
   <trkpt lat="47.8041050" lon="-122.3670200">
    <ele>94.7</ele>
    <time>2020-08-13T00:29:02Z</time>
   </trkpt>
   <trkpt lat="47.8040320" lon="-122.3670310">
    <ele>94.7</ele>
    <time>2020-08-13T00:29:03Z</time>
   </trkpt>
   <trkpt lat="47.8040020" lon="-122.3670230">
    <ele>94.7</ele>
    <time>2020-08-13T00:29:04Z</time>
   </trkpt>
   <trkpt lat="47.8039720" lon="-122.3670320">
    <ele>94.8</ele>
    <time>2020-08-13T00:29:05Z</time>
   </trkpt>
   <trkpt lat="47.8039420" lon="-122.3670220">
    <ele>94.9</ele>
    <time>2020-08-13T00:29:06Z</time>
   </trkpt>
   <trkpt lat="47.8039150" lon="-122.3670400">
    <ele>94.9</ele>
    <time>2020-08-13T00:29:07Z</time>
   </trkpt>
   <trkpt lat="47.8038740" lon="-122.3670250">
    <ele>95.0</ele>
    <time>2020-08-13T00:29:08Z</time>
   </trkpt>
   <trkpt lat="47.8038460" lon="-122.3670310">
    <ele>95.1</ele>
    <time>2020-08-13T00:29:09Z</time>
   </trkpt>
   <trkpt lat="47.8038100" lon="-122.3670180">
    <ele>95.2</ele>
    <time>2020-08-13T00:29:10Z</time>
   </trkpt>
   <trkpt lat="47.8037690" lon="-122.3670170">
    <ele>95.3</ele>
    <time>2020-08-13T00:29:11Z</time>
   </trkpt>
   <trkpt lat="47.8037340" lon="-122.3670330">
    <ele>95.4</ele>
    <time>2020-08-13T00:29:12Z</time>
   </trkpt>
   <trkpt lat="47.8037060" lon="-122.3670190">
    <ele>95.4</ele>
    <time>2020-08-13T00:29:13Z</time>
   </trkpt>
   <trkpt lat="47.8036690" lon="-122.3670260">
    <ele>95.5</ele>
    <time>2020-08-13T00:29:14Z</time>
   </trkpt>
   <trkpt lat="47.8036170" lon="-122.3670230">
    <ele>95.6</ele>
    <time>2020-08-13T00:29:15Z</time>
   </trkpt>
   <trkpt lat="47.8035760" lon="-122.3670150">
    <ele>95.7</ele>
    <time>2020-08-13T00:29:16Z</time>
   </trkpt>
   <trkpt lat="47.8035570" lon="-122.3670170">
    <ele>95.7</ele>
    <time>2020-08-13T00:29:17Z</time>
   </trkpt>
   <trkpt lat="47.8035160" lon="-122.3670130">
    <ele>95.8</ele>
    <time>2020-08-13T00:29:18Z</time>
   </trkpt>
   <trkpt lat="47.8034980" lon="-122.3670170">
    <ele>95.9</ele>
    <time>2020-08-13T00:29:19Z</time>
   </trkpt>
   <trkpt lat="47.8034670" lon="-122.3670210">
    <ele>95.9</ele>
    <time>2020-08-13T00:29:20Z</time>
   </trkpt>
   <trkpt lat="47.8034310" lon="-122.3670130">
    <ele>96.0</ele>
    <time>2020-08-13T00:29:21Z</time>
   </trkpt>
   <trkpt lat="47.8034010" lon="-122.3670090">
    <ele>96.1</ele>
    <time>2020-08-13T00:29:22Z</time>
   </trkpt>
   <trkpt lat="47.8033690" lon="-122.3669970">
    <ele>96.2</ele>
    <time>2020-08-13T00:29:23Z</time>
   </trkpt>
   <trkpt lat="47.8033460" lon="-122.3669910">
    <ele>96.2</ele>
    <time>2020-08-13T00:29:24Z</time>
   </trkpt>
   <trkpt lat="47.8033410" lon="-122.3670000">
    <ele>96.2</ele>
    <time>2020-08-13T00:29:25Z</time>
   </trkpt>
   <trkpt lat="47.8033160" lon="-122.3670000">
    <ele>96.3</ele>
    <time>2020-08-13T00:29:26Z</time>
   </trkpt>
   <trkpt lat="47.8033020" lon="-122.3669980">
    <ele>96.3</ele>
    <time>2020-08-13T00:29:27Z</time>
   </trkpt>
   <trkpt lat="47.8032870" lon="-122.3669960">
    <ele>96.3</ele>
    <time>2020-08-13T00:29:28Z</time>
   </trkpt>
   <trkpt lat="47.8032480" lon="-122.3670180">
    <ele>96.4</ele>
    <time>2020-08-13T00:29:29Z</time>
   </trkpt>
   <trkpt lat="47.8031970" lon="-122.3669960">
    <ele>96.5</ele>
    <time>2020-08-13T00:29:30Z</time>
   </trkpt>
   <trkpt lat="47.8031550" lon="-122.3670230">
    <ele>96.6</ele>
    <time>2020-08-13T00:29:31Z</time>
   </trkpt>
   <trkpt lat="47.8031130" lon="-122.3670150">
    <ele>96.7</ele>
    <time>2020-08-13T00:29:32Z</time>
   </trkpt>
   <trkpt lat="47.8030720" lon="-122.3670220">
    <ele>96.7</ele>
    <time>2020-08-13T00:29:33Z</time>
   </trkpt>
   <trkpt lat="47.8030550" lon="-122.3670220">
    <ele>96.8</ele>
    <time>2020-08-13T00:29:34Z</time>
   </trkpt>
   <trkpt lat="47.8030150" lon="-122.3670200">
    <ele>96.8</ele>
    <time>2020-08-13T00:29:35Z</time>
   </trkpt>
   <trkpt lat="47.8029770" lon="-122.3669990">
    <ele>96.9</ele>
    <time>2020-08-13T00:29:36Z</time>
   </trkpt>
   <trkpt lat="47.8029590" lon="-122.3669920">
    <ele>97.0</ele>
    <time>2020-08-13T00:29:37Z</time>
   </trkpt>
   <trkpt lat="47.8029270" lon="-122.3670120">
    <ele>97.1</ele>
    <time>2020-08-13T00:29:38Z</time>
   </trkpt>
   <trkpt lat="47.8028950" lon="-122.3670200">
    <ele>97.1</ele>
    <time>2020-08-13T00:29:39Z</time>
   </trkpt>
   <trkpt lat="47.8028460" lon="-122.3670070">
    <ele>97.2</ele>
    <time>2020-08-13T00:29:41Z</time>
   </trkpt>
   <trkpt lat="47.8028240" lon="-122.3670050">
    <ele>97.3</ele>
    <time>2020-08-13T00:29:42Z</time>
   </trkpt>
   <trkpt lat="47.8028010" lon="-122.3670040">
    <ele>97.3</ele>
    <time>2020-08-13T00:29:43Z</time>
   </trkpt>
   <trkpt lat="47.8027670" lon="-122.3670240">
    <ele>97.4</ele>
    <time>2020-08-13T00:29:44Z</time>
   </trkpt>
   <trkpt lat="47.8027350" lon="-122.3670220">
    <ele>97.5</ele>
    <time>2020-08-13T00:29:45Z</time>
   </trkpt>
   <trkpt lat="47.8027210" lon="-122.3670190">
    <ele>97.5</ele>
    <time>2020-08-13T00:29:46Z</time>
   </trkpt>
   <trkpt lat="47.8024710" lon="-122.3670170">
    <ele>98.0</ele>
    <time>2020-08-13T00:30:05Z</time>
   </trkpt>
   <trkpt lat="47.8024570" lon="-122.3670140">
    <ele>98.0</ele>
    <time>2020-08-13T00:30:06Z</time>
   </trkpt>
   <trkpt lat="47.8024420" lon="-122.3670120">
    <ele>98.1</ele>
    <time>2020-08-13T00:30:07Z</time>
   </trkpt>
   <trkpt lat="47.8024270" lon="-122.3670090">
    <ele>98.1</ele>
    <time>2020-08-13T00:30:08Z</time>
   </trkpt>
   <trkpt lat="47.8024130" lon="-122.3670000">
    <ele>98.1</ele>
    <time>2020-08-13T00:30:09Z</time>
   </trkpt>
   <trkpt lat="47.8023920" lon="-122.3670070">
    <ele>98.2</ele>
    <time>2020-08-13T00:30:10Z</time>
   </trkpt>
   <trkpt lat="47.8023620" lon="-122.3670010">
    <ele>98.2</ele>
    <time>2020-08-13T00:30:11Z</time>
   </trkpt>
   <trkpt lat="47.8023220" lon="-122.3669970">
    <ele>98.3</ele>
    <time>2020-08-13T00:30:12Z</time>
   </trkpt>
   <trkpt lat="47.8023100" lon="-122.3669970">
    <ele>98.3</ele>
    <time>2020-08-13T00:30:13Z</time>
   </trkpt>
   <trkpt lat="47.8022730" lon="-122.3670040">
    <ele>98.3</ele>
    <time>2020-08-13T00:30:14Z</time>
   </trkpt>
   <trkpt lat="47.8022610" lon="-122.3670140">
    <ele>98.4</ele>
    <time>2020-08-13T00:30:15Z</time>
   </trkpt>
   <trkpt lat="47.8022280" lon="-122.3669870">
    <ele>98.4</ele>
    <time>2020-08-13T00:30:16Z</time>
   </trkpt>
   <trkpt lat="47.8021790" lon="-122.3669790">
    <ele>98.4</ele>
    <time>2020-08-13T00:30:17Z</time>
   </trkpt>
   <trkpt lat="47.8021350" lon="-122.3669870">
    <ele>98.5</ele>
    <time>2020-08-13T00:30:18Z</time>
   </trkpt>
   <trkpt lat="47.8021010" lon="-122.3670100">
    <ele>98.5</ele>
    <time>2020-08-13T00:30:19Z</time>
   </trkpt>
   <trkpt lat="47.8020660" lon="-122.3670230">
    <ele>98.5</ele>
    <time>2020-08-13T00:30:20Z</time>
   </trkpt>
   <trkpt lat="47.8020170" lon="-122.3669840">
    <ele>98.6</ele>
    <time>2020-08-13T00:30:21Z</time>
   </trkpt>
   <trkpt lat="47.8019640" lon="-122.3669870">
    <ele>98.6</ele>
    <time>2020-08-13T00:30:22Z</time>
   </trkpt>
   <trkpt lat="47.8019240" lon="-122.3669830">
    <ele>98.7</ele>
    <time>2020-08-13T00:30:23Z</time>
   </trkpt>
   <trkpt lat="47.8018930" lon="-122.3669940">
    <ele>98.7</ele>
    <time>2020-08-13T00:30:24Z</time>
   </trkpt>
   <trkpt lat="47.8018400" lon="-122.3670150">
    <ele>98.7</ele>
    <time>2020-08-13T00:30:25Z</time>
   </trkpt>
   <trkpt lat="47.8018050" lon="-122.3670110">
    <ele>98.7</ele>
    <time>2020-08-13T00:30:26Z</time>
   </trkpt>
   <trkpt lat="47.8017700" lon="-122.3669920">
    <ele>98.7</ele>
    <time>2020-08-13T00:30:27Z</time>
   </trkpt>
   <trkpt lat="47.8017230" lon="-122.3669810">
    <ele>98.8</ele>
    <time>2020-08-13T00:30:28Z</time>
   </trkpt>
   <trkpt lat="47.8016860" lon="-122.3669820">
    <ele>98.8</ele>
    <time>2020-08-13T00:30:29Z</time>
   </trkpt>
   <trkpt lat="47.8016430" lon="-122.3669780">
    <ele>98.9</ele>
    <time>2020-08-13T00:30:30Z</time>
   </trkpt>
   <trkpt lat="47.8015990" lon="-122.3669860">
    <ele>98.9</ele>
    <time>2020-08-13T00:30:31Z</time>
   </trkpt>
   <trkpt lat="47.8015690" lon="-122.3669790">
    <ele>98.9</ele>
    <time>2020-08-13T00:30:32Z</time>
   </trkpt>
   <trkpt lat="47.8015310" lon="-122.3669780">
    <ele>99.0</ele>
    <time>2020-08-13T00:30:33Z</time>
   </trkpt>
   <trkpt lat="47.8014830" lon="-122.3669860">
    <ele>99.0</ele>
    <time>2020-08-13T00:30:34Z</time>
   </trkpt>
   <trkpt lat="47.8014450" lon="-122.3669960">
    <ele>99.1</ele>
    <time>2020-08-13T00:30:35Z</time>
   </trkpt>
   <trkpt lat="47.8014190" lon="-122.3670060">
    <ele>99.1</ele>
    <time>2020-08-13T00:30:36Z</time>
   </trkpt>
   <trkpt lat="47.8013820" lon="-122.3670020">
    <ele>99.2</ele>
    <time>2020-08-13T00:30:37Z</time>
   </trkpt>
   <trkpt lat="47.8013550" lon="-122.3669870">
    <ele>99.2</ele>
    <time>2020-08-13T00:30:38Z</time>
   </trkpt>
   <trkpt lat="47.8013200" lon="-122.3670030">
    <ele>99.3</ele>
    <time>2020-08-13T00:30:39Z</time>
   </trkpt>
   <trkpt lat="47.8012830" lon="-122.3669990">
    <ele>99.4</ele>
    <time>2020-08-13T00:30:40Z</time>
   </trkpt>
   <trkpt lat="47.8012470" lon="-122.3670000">
    <ele>99.4</ele>
    <time>2020-08-13T00:30:41Z</time>
   </trkpt>
   <trkpt lat="47.8012030" lon="-122.3669830">
    <ele>99.5</ele>
    <time>2020-08-13T00:30:42Z</time>
   </trkpt>
   <trkpt lat="47.8011700" lon="-122.3669870">
    <ele>99.5</ele>
    <time>2020-08-13T00:30:43Z</time>
   </trkpt>
   <trkpt lat="47.8011290" lon="-122.3670010">
    <ele>99.5</ele>
    <time>2020-08-13T00:30:44Z</time>
   </trkpt>
   <trkpt lat="47.8010930" lon="-122.3669940">
    <ele>99.5</ele>
    <time>2020-08-13T00:30:45Z</time>
   </trkpt>
   <trkpt lat="47.8010610" lon="-122.3670100">
    <ele>99.5</ele>
    <time>2020-08-13T00:30:46Z</time>
   </trkpt>
   <trkpt lat="47.8010290" lon="-122.3669890">
    <ele>99.5</ele>
    <time>2020-08-13T00:30:47Z</time>
   </trkpt>
   <trkpt lat="47.8009860" lon="-122.3669970">
    <ele>99.5</ele>
    <time>2020-08-13T00:30:48Z</time>
   </trkpt>
   <trkpt lat="47.8009650" lon="-122.3669960">
    <ele>99.4</ele>
    <time>2020-08-13T00:30:49Z</time>
   </trkpt>
   <trkpt lat="47.8009300" lon="-122.3669860">
    <ele>99.4</ele>
    <time>2020-08-13T00:30:50Z</time>
   </trkpt>
   <trkpt lat="47.8008950" lon="-122.3669970">
    <ele>99.3</ele>
    <time>2020-08-13T00:30:51Z</time>
   </trkpt>
   <trkpt lat="47.8008660" lon="-122.3669910">
    <ele>99.3</ele>
    <time>2020-08-13T00:30:52Z</time>
   </trkpt>
   <trkpt lat="47.8008320" lon="-122.3669860">
    <ele>99.2</ele>
    <time>2020-08-13T00:30:53Z</time>
   </trkpt>
   <trkpt lat="47.8007830" lon="-122.3669720">
    <ele>99.1</ele>
    <time>2020-08-13T00:30:54Z</time>
   </trkpt>
   <trkpt lat="47.8007590" lon="-122.3669620">
    <ele>99.1</ele>
    <time>2020-08-13T00:30:55Z</time>
   </trkpt>
   <trkpt lat="47.8007230" lon="-122.3669740">
    <ele>99.0</ele>
    <time>2020-08-13T00:30:56Z</time>
   </trkpt>
   <trkpt lat="47.8006900" lon="-122.3669960">
    <ele>98.9</ele>
    <time>2020-08-13T00:30:57Z</time>
   </trkpt>
   <trkpt lat="47.8006560" lon="-122.3670000">
    <ele>98.8</ele>
    <time>2020-08-13T00:30:58Z</time>
   </trkpt>
   <trkpt lat="47.8006150" lon="-122.3670110">
    <ele>98.7</ele>
    <time>2020-08-13T00:30:59Z</time>
   </trkpt>
   <trkpt lat="47.8005840" lon="-122.3670000">
    <ele>98.7</ele>
    <time>2020-08-13T00:31:00Z</time>
   </trkpt>
   <trkpt lat="47.8005410" lon="-122.3670070">
    <ele>98.6</ele>
    <time>2020-08-13T00:31:01Z</time>
   </trkpt>
   <trkpt lat="47.8005220" lon="-122.3670030">
    <ele>98.6</ele>
    <time>2020-08-13T00:31:02Z</time>
   </trkpt>
   <trkpt lat="47.8004820" lon="-122.3669870">
    <ele>98.5</ele>
    <time>2020-08-13T00:31:03Z</time>
   </trkpt>
   <trkpt lat="47.8004550" lon="-122.3669920">
    <ele>98.5</ele>
    <time>2020-08-13T00:31:04Z</time>
   </trkpt>
   <trkpt lat="47.8003990" lon="-122.3669560">
    <ele>98.5</ele>
    <time>2020-08-13T00:31:05Z</time>
   </trkpt>
   <trkpt lat="47.8003580" lon="-122.3669730">
    <ele>98.4</ele>
    <time>2020-08-13T00:31:06Z</time>
   </trkpt>
   <trkpt lat="47.8003170" lon="-122.3669800">
    <ele>98.4</ele>
    <time>2020-08-13T00:31:07Z</time>
   </trkpt>
   <trkpt lat="47.8002880" lon="-122.3669850">
    <ele>98.4</ele>
    <time>2020-08-13T00:31:08Z</time>
   </trkpt>
   <trkpt lat="47.8002570" lon="-122.3669780">
    <ele>98.4</ele>
    <time>2020-08-13T00:31:09Z</time>
   </trkpt>
   <trkpt lat="47.8002260" lon="-122.3669730">
    <ele>98.4</ele>
    <time>2020-08-13T00:31:10Z</time>
   </trkpt>
   <trkpt lat="47.8001980" lon="-122.3669650">
    <ele>98.5</ele>
    <time>2020-08-13T00:31:11Z</time>
   </trkpt>
   <trkpt lat="47.8001680" lon="-122.3669620">
    <ele>98.5</ele>
    <time>2020-08-13T00:31:12Z</time>
   </trkpt>
   <trkpt lat="47.8001300" lon="-122.3669550">
    <ele>98.5</ele>
    <time>2020-08-13T00:31:13Z</time>
   </trkpt>
   <trkpt lat="47.8000940" lon="-122.3669450">
    <ele>98.6</ele>
    <time>2020-08-13T00:31:14Z</time>
   </trkpt>
   <trkpt lat="47.8000820" lon="-122.3669390">
    <ele>98.6</ele>
    <time>2020-08-13T00:31:15Z</time>
   </trkpt>
   <trkpt lat="47.8000540" lon="-122.3669460">
    <ele>98.6</ele>
    <time>2020-08-13T00:31:16Z</time>
   </trkpt>
   <trkpt lat="47.8000150" lon="-122.3669690">
    <ele>98.7</ele>
    <time>2020-08-13T00:31:17Z</time>
   </trkpt>
   <trkpt lat="47.7999900" lon="-122.3669650">
    <ele>98.8</ele>
    <time>2020-08-13T00:31:18Z</time>
   </trkpt>
   <trkpt lat="47.7996660" lon="-122.3663820">
    <ele>103.1</ele>
    <time>2020-08-13T00:32:41Z</time>
   </trkpt>
   <trkpt lat="47.7996550" lon="-122.3662770">
    <ele>103.7</ele>
    <time>2020-08-13T00:32:43Z</time>
   </trkpt>
   <trkpt lat="47.7996440" lon="-122.3662700">
    <ele>103.7</ele>
    <time>2020-08-13T00:32:44Z</time>
   </trkpt>
   <trkpt lat="47.7996440" lon="-122.3662380">
    <ele>103.7</ele>
    <time>2020-08-13T00:32:45Z</time>
   </trkpt>
   <trkpt lat="47.7996460" lon="-122.3661870">
    <ele>103.9</ele>
    <time>2020-08-13T00:32:46Z</time>
   </trkpt>
   <trkpt lat="47.7996470" lon="-122.3661330">
    <ele>104.3</ele>
    <time>2020-08-13T00:32:47Z</time>
   </trkpt>
   <trkpt lat="47.7996510" lon="-122.3661020">
    <ele>104.5</ele>
    <time>2020-08-13T00:32:48Z</time>
   </trkpt>
   <trkpt lat="47.7996530" lon="-122.3660590">
    <ele>104.8</ele>
    <time>2020-08-13T00:32:49Z</time>
   </trkpt>
   <trkpt lat="47.7996530" lon="-122.3660040">
    <ele>105.2</ele>
    <time>2020-08-13T00:32:50Z</time>
   </trkpt>
   <trkpt lat="47.7996490" lon="-122.3659590">
    <ele>105.5</ele>
    <time>2020-08-13T00:32:51Z</time>
   </trkpt>
   <trkpt lat="47.7996450" lon="-122.3659170">
    <ele>105.8</ele>
    <time>2020-08-13T00:32:52Z</time>
   </trkpt>
   <trkpt lat="47.7996430" lon="-122.3658710">
    <ele>106.2</ele>
    <time>2020-08-13T00:32:53Z</time>
   </trkpt>
   <trkpt lat="47.7996470" lon="-122.3658210">
    <ele>106.5</ele>
    <time>2020-08-13T00:32:54Z</time>
   </trkpt>
   <trkpt lat="47.7996420" lon="-122.3657720">
    <ele>106.9</ele>
    <time>2020-08-13T00:32:55Z</time>
   </trkpt>
   <trkpt lat="47.7996420" lon="-122.3656830">
    <ele>107.6</ele>
    <time>2020-08-13T00:32:56Z</time>
   </trkpt>
   <trkpt lat="47.7996480" lon="-122.3656360">
    <ele>107.9</ele>
    <time>2020-08-13T00:32:57Z</time>
   </trkpt>
   <trkpt lat="47.7996510" lon="-122.3655850">
    <ele>108.3</ele>
    <time>2020-08-13T00:32:58Z</time>
   </trkpt>
   <trkpt lat="47.7996520" lon="-122.3655350">
    <ele>108.7</ele>
    <time>2020-08-13T00:32:59Z</time>
   </trkpt>
   <trkpt lat="47.7996570" lon="-122.3654930">
    <ele>109.0</ele>
    <time>2020-08-13T00:33:00Z</time>
   </trkpt>
   <trkpt lat="47.7996610" lon="-122.3654450">
    <ele>109.4</ele>
    <time>2020-08-13T00:33:01Z</time>
   </trkpt>
   <trkpt lat="47.7996550" lon="-122.3653870">
    <ele>109.8</ele>
    <time>2020-08-13T00:33:02Z</time>
   </trkpt>
   <trkpt lat="47.7996530" lon="-122.3653270">
    <ele>110.1</ele>
    <time>2020-08-13T00:33:03Z</time>
   </trkpt>
   <trkpt lat="47.7996500" lon="-122.3652820">
    <ele>110.4</ele>
    <time>2020-08-13T00:33:04Z</time>
   </trkpt>
   <trkpt lat="47.7996490" lon="-122.3652260">
    <ele>110.7</ele>
    <time>2020-08-13T00:33:05Z</time>
   </trkpt>
   <trkpt lat="47.7996430" lon="-122.3651740">
    <ele>111.1</ele>
    <time>2020-08-13T00:33:06Z</time>
   </trkpt>
   <trkpt lat="47.7996440" lon="-122.3651130">
    <ele>111.5</ele>
    <time>2020-08-13T00:33:07Z</time>
   </trkpt>
   <trkpt lat="47.7996520" lon="-122.3650590">
    <ele>111.8</ele>
    <time>2020-08-13T00:33:08Z</time>
   </trkpt>
   <trkpt lat="47.7996530" lon="-122.3650010">
    <ele>112.1</ele>
    <time>2020-08-13T00:33:09Z</time>
   </trkpt>
   <trkpt lat="47.7996500" lon="-122.3649460">
    <ele>112.4</ele>
    <time>2020-08-13T00:33:10Z</time>
   </trkpt>
   <trkpt lat="47.7996570" lon="-122.3648910">
    <ele>112.7</ele>
    <time>2020-08-13T00:33:11Z</time>
   </trkpt>
   <trkpt lat="47.7996580" lon="-122.3648460">
    <ele>113.0</ele>
    <time>2020-08-13T00:33:12Z</time>
   </trkpt>
   <trkpt lat="47.7996630" lon="-122.3647850">
    <ele>113.2</ele>
    <time>2020-08-13T00:33:13Z</time>
   </trkpt>
   <trkpt lat="47.7996540" lon="-122.3647380">
    <ele>113.5</ele>
    <time>2020-08-13T00:33:14Z</time>
   </trkpt>
   <trkpt lat="47.7996650" lon="-122.3646780">
    <ele>113.7</ele>
    <time>2020-08-13T00:33:15Z</time>
   </trkpt>
   <trkpt lat="47.7996590" lon="-122.3646110">
    <ele>114.0</ele>
    <time>2020-08-13T00:33:16Z</time>
   </trkpt>
   <trkpt lat="47.7996550" lon="-122.3645550">
    <ele>114.1</ele>
    <time>2020-08-13T00:33:17Z</time>
   </trkpt>
   <trkpt lat="47.7996520" lon="-122.3644930">
    <ele>114.3</ele>
    <time>2020-08-13T00:33:18Z</time>
   </trkpt>
   <trkpt lat="47.7996520" lon="-122.3644440">
    <ele>114.5</ele>
    <time>2020-08-13T00:33:19Z</time>
   </trkpt>
   <trkpt lat="47.7996520" lon="-122.3643920">
    <ele>114.6</ele>
    <time>2020-08-13T00:33:20Z</time>
   </trkpt>
   <trkpt lat="47.7996530" lon="-122.3643450">
    <ele>114.7</ele>
    <time>2020-08-13T00:33:21Z</time>
   </trkpt>
   <trkpt lat="47.7996470" lon="-122.3642880">
    <ele>114.9</ele>
    <time>2020-08-13T00:33:22Z</time>
   </trkpt>
   <trkpt lat="47.7996540" lon="-122.3642610">
    <ele>114.9</ele>
    <time>2020-08-13T00:33:23Z</time>
   </trkpt>
   <trkpt lat="47.7996550" lon="-122.3642200">
    <ele>115.0</ele>
    <time>2020-08-13T00:33:24Z</time>
   </trkpt>
   <trkpt lat="47.7996460" lon="-122.3641750">
    <ele>115.1</ele>
    <time>2020-08-13T00:33:25Z</time>
   </trkpt>
   <trkpt lat="47.7996440" lon="-122.3641130">
    <ele>115.2</ele>
    <time>2020-08-13T00:33:26Z</time>
   </trkpt>
   <trkpt lat="47.7996340" lon="-122.3640760">
    <ele>115.2</ele>
    <time>2020-08-13T00:33:27Z</time>
   </trkpt>
   <trkpt lat="47.7996250" lon="-122.3640210">
    <ele>115.3</ele>
    <time>2020-08-13T00:33:28Z</time>
   </trkpt>
   <trkpt lat="47.7996540" lon="-122.3628000">
    <ele>116.0</ele>
    <time>2020-08-13T00:34:33Z</time>
   </trkpt>
   <trkpt lat="47.7996550" lon="-122.3627790">
    <ele>116.0</ele>
    <time>2020-08-13T00:34:34Z</time>
   </trkpt>
   <trkpt lat="47.7996550" lon="-122.3627570">
    <ele>116.0</ele>
    <time>2020-08-13T00:34:35Z</time>
   </trkpt>
   <trkpt lat="47.7996500" lon="-122.3626990">
    <ele>116.0</ele>
    <time>2020-08-13T00:34:36Z</time>
   </trkpt>
   <trkpt lat="47.7996470" lon="-122.3626800">
    <ele>116.0</ele>
    <time>2020-08-13T00:34:37Z</time>
   </trkpt>
   <trkpt lat="47.7996430" lon="-122.3626390">
    <ele>115.9</ele>
    <time>2020-08-13T00:34:38Z</time>
   </trkpt>
   <trkpt lat="47.7996370" lon="-122.3625970">
    <ele>115.9</ele>
    <time>2020-08-13T00:34:39Z</time>
   </trkpt>
   <trkpt lat="47.7996460" lon="-122.3625520">
    <ele>115.8</ele>
    <time>2020-08-13T00:34:40Z</time>
   </trkpt>
   <trkpt lat="47.7996520" lon="-122.3625030">
    <ele>115.8</ele>
    <time>2020-08-13T00:34:41Z</time>
   </trkpt>
   <trkpt lat="47.7996580" lon="-122.3624620">
    <ele>115.7</ele>
    <time>2020-08-13T00:34:42Z</time>
   </trkpt>
   <trkpt lat="47.7996590" lon="-122.3624130">
    <ele>115.6</ele>
    <time>2020-08-13T00:34:43Z</time>
   </trkpt>
   <trkpt lat="47.7996570" lon="-122.3623670">
    <ele>115.6</ele>
    <time>2020-08-13T00:34:44Z</time>
   </trkpt>
   <trkpt lat="47.7996550" lon="-122.3622710">
    <ele>115.4</ele>
    <time>2020-08-13T00:34:45Z</time>
   </trkpt>
   <trkpt lat="47.7996430" lon="-122.3622120">
    <ele>115.3</ele>
    <time>2020-08-13T00:34:46Z</time>
   </trkpt>
   <trkpt lat="47.7996460" lon="-122.3621610">
    <ele>115.3</ele>
    <time>2020-08-13T00:34:47Z</time>
   </trkpt>
   <trkpt lat="47.7996500" lon="-122.3621000">
    <ele>115.2</ele>
    <time>2020-08-13T00:34:48Z</time>
   </trkpt>
   <trkpt lat="47.7996380" lon="-122.3620500">
    <ele>115.2</ele>
    <time>2020-08-13T00:34:49Z</time>
   </trkpt>
   <trkpt lat="47.7996450" lon="-122.3619990">
    <ele>115.1</ele>
    <time>2020-08-13T00:34:50Z</time>
   </trkpt>
   <trkpt lat="47.7996370" lon="-122.3619570">
    <ele>115.0</ele>
    <time>2020-08-13T00:34:51Z</time>
   </trkpt>
   <trkpt lat="47.7996300" lon="-122.3619130">
    <ele>114.9</ele>
    <time>2020-08-13T00:34:52Z</time>
   </trkpt>
   <trkpt lat="47.7996280" lon="-122.3618610">
    <ele>114.8</ele>
    <time>2020-08-13T00:34:53Z</time>
   </trkpt>
   <trkpt lat="47.7996430" lon="-122.3618180">
    <ele>114.7</ele>
    <time>2020-08-13T00:34:54Z</time>
   </trkpt>
   <trkpt lat="47.7996400" lon="-122.3617740">
    <ele>114.7</ele>
    <time>2020-08-13T00:34:55Z</time>
   </trkpt>
   <trkpt lat="47.7996490" lon="-122.3617260">
    <ele>114.6</ele>
    <time>2020-08-13T00:34:56Z</time>
   </trkpt>
   <trkpt lat="47.7996500" lon="-122.3616840">
    <ele>114.5</ele>
    <time>2020-08-13T00:34:57Z</time>
   </trkpt>
   <trkpt lat="47.7996570" lon="-122.3616210">
    <ele>114.4</ele>
    <time>2020-08-13T00:34:58Z</time>
   </trkpt>
   <trkpt lat="47.7996600" lon="-122.3615940">
    <ele>114.3</ele>
    <time>2020-08-13T00:34:59Z</time>
   </trkpt>
   <trkpt lat="47.7996600" lon="-122.3615470">
    <ele>114.2</ele>
    <time>2020-08-13T00:35:00Z</time>
   </trkpt>
   <trkpt lat="47.7996550" lon="-122.3614990">
    <ele>114.0</ele>
    <time>2020-08-13T00:35:01Z</time>
   </trkpt>
   <trkpt lat="47.7996560" lon="-122.3614500">
    <ele>113.9</ele>
    <time>2020-08-13T00:35:02Z</time>
   </trkpt>
   <trkpt lat="47.7996440" lon="-122.3614110">
    <ele>113.8</ele>
    <time>2020-08-13T00:35:03Z</time>
   </trkpt>
   <trkpt lat="47.7996440" lon="-122.3613710">
    <ele>113.7</ele>
    <time>2020-08-13T00:35:04Z</time>
   </trkpt>
   <trkpt lat="47.7996550" lon="-122.3613150">
    <ele>113.5</ele>
    <time>2020-08-13T00:35:05Z</time>
   </trkpt>
   <trkpt lat="47.7996470" lon="-122.3612640">
    <ele>113.4</ele>
    <time>2020-08-13T00:35:06Z</time>
   </trkpt>
   <trkpt lat="47.7996420" lon="-122.3612120">
    <ele>113.3</ele>
    <time>2020-08-13T00:35:07Z</time>
   </trkpt>
   <trkpt lat="47.7996420" lon="-122.3611670">
    <ele>113.2</ele>
    <time>2020-08-13T00:35:08Z</time>
   </trkpt>
   <trkpt lat="47.7996400" lon="-122.3611100">
    <ele>113.0</ele>
    <time>2020-08-13T00:35:09Z</time>
   </trkpt>
   <trkpt lat="47.7996510" lon="-122.3610650">
    <ele>112.9</ele>
    <time>2020-08-13T00:35:10Z</time>
   </trkpt>
   <trkpt lat="47.7996480" lon="-122.3610160">
    <ele>112.8</ele>
    <time>2020-08-13T00:35:11Z</time>
   </trkpt>
   <trkpt lat="47.7996550" lon="-122.3609590">
    <ele>112.6</ele>
    <time>2020-08-13T00:35:12Z</time>
   </trkpt>
   <trkpt lat="47.7996570" lon="-122.3609150">
    <ele>112.5</ele>
    <time>2020-08-13T00:35:13Z</time>
   </trkpt>
   <trkpt lat="47.7996570" lon="-122.3608650">
    <ele>112.4</ele>
    <time>2020-08-13T00:35:14Z</time>
   </trkpt>
   <trkpt lat="47.7996740" lon="-122.3608220">
    <ele>112.3</ele>
    <time>2020-08-13T00:35:15Z</time>
   </trkpt>
   <trkpt lat="47.7996680" lon="-122.3607780">
    <ele>112.2</ele>
    <time>2020-08-13T00:35:16Z</time>
   </trkpt>
   <trkpt lat="47.7996700" lon="-122.3607180">
    <ele>112.1</ele>
    <time>2020-08-13T00:35:17Z</time>
   </trkpt>
   <trkpt lat="47.7996580" lon="-122.3606700">
    <ele>112.0</ele>
    <time>2020-08-13T00:35:18Z</time>
   </trkpt>
   <trkpt lat="47.7996460" lon="-122.3606100">
    <ele>111.9</ele>
    <time>2020-08-13T00:35:19Z</time>
   </trkpt>
   <trkpt lat="47.7996500" lon="-122.3605400">
    <ele>111.7</ele>
    <time>2020-08-13T00:35:20Z</time>
   </trkpt>
   <trkpt lat="47.7996520" lon="-122.3604950">
    <ele>111.6</ele>
    <time>2020-08-13T00:35:21Z</time>
   </trkpt>
   <trkpt lat="47.7996590" lon="-122.3604370">
    <ele>111.5</ele>
    <time>2020-08-13T00:35:22Z</time>
   </trkpt>
   <trkpt lat="47.7996540" lon="-122.3603850">
    <ele>111.4</ele>
    <time>2020-08-13T00:35:23Z</time>
   </trkpt>
   <trkpt lat="47.7996500" lon="-122.3603360">
    <ele>111.4</ele>
    <time>2020-08-13T00:35:24Z</time>
   </trkpt>
   <trkpt lat="47.7996510" lon="-122.3602850">
    <ele>111.3</ele>
    <time>2020-08-13T00:35:25Z</time>
   </trkpt>
   <trkpt lat="47.7996420" lon="-122.3602130">
    <ele>111.2</ele>
    <time>2020-08-13T00:35:26Z</time>
   </trkpt>
   <trkpt lat="47.7996410" lon="-122.3601780">
    <ele>111.2</ele>
    <time>2020-08-13T00:35:27Z</time>
   </trkpt>
   <trkpt lat="47.7996250" lon="-122.3601310">
    <ele>111.2</ele>
    <time>2020-08-13T00:35:28Z</time>
   </trkpt>
   <trkpt lat="47.7996240" lon="-122.3600570">
    <ele>111.2</ele>
    <time>2020-08-13T00:35:29Z</time>
   </trkpt>
   <trkpt lat="47.7996180" lon="-122.3600080">
    <ele>111.2</ele>
    <time>2020-08-13T00:35:30Z</time>
   </trkpt>
   <trkpt lat="47.7996250" lon="-122.3599570">
    <ele>111.3</ele>
    <time>2020-08-13T00:35:31Z</time>
   </trkpt>
   <trkpt lat="47.7996370" lon="-122.3599050">
    <ele>111.3</ele>
    <time>2020-08-13T00:35:32Z</time>
   </trkpt>
   <trkpt lat="47.7996350" lon="-122.3598560">
    <ele>111.3</ele>
    <time>2020-08-13T00:35:33Z</time>
   </trkpt>
   <trkpt lat="47.7996270" lon="-122.3597960">
    <ele>111.4</ele>
    <time>2020-08-13T00:35:34Z</time>
   </trkpt>
   <trkpt lat="47.7996240" lon="-122.3597430">
    <ele>111.4</ele>
    <time>2020-08-13T00:35:35Z</time>
   </trkpt>
   <trkpt lat="47.7996240" lon="-122.3596910">
    <ele>111.6</ele>
    <time>2020-08-13T00:35:36Z</time>
   </trkpt>
   <trkpt lat="47.7996300" lon="-122.3596360">
    <ele>111.7</ele>
    <time>2020-08-13T00:35:37Z</time>
   </trkpt>
   <trkpt lat="47.7996300" lon="-122.3595870">
    <ele>111.9</ele>
    <time>2020-08-13T00:35:38Z</time>
   </trkpt>
   <trkpt lat="47.7996280" lon="-122.3595290">
    <ele>112.1</ele>
    <time>2020-08-13T00:35:39Z</time>
   </trkpt>
   <trkpt lat="47.7996330" lon="-122.3594760">
    <ele>112.3</ele>
    <time>2020-08-13T00:35:40Z</time>
   </trkpt>
   <trkpt lat="47.7996340" lon="-122.3594240">
    <ele>112.5</ele>
    <time>2020-08-13T00:35:41Z</time>
   </trkpt>
   <trkpt lat="47.7996430" lon="-122.3593590">
    <ele>112.5</ele>
    <time>2020-08-13T00:35:42Z</time>
   </trkpt>
   <trkpt lat="47.7996340" lon="-122.3593120">
    <ele>112.3</ele>
    <time>2020-08-13T00:35:43Z</time>
   </trkpt>
   <trkpt lat="47.7996260" lon="-122.3592680">
    <ele>112.3</ele>
    <time>2020-08-13T00:35:44Z</time>
   </trkpt>
   <trkpt lat="47.7996230" lon="-122.3592110">
    <ele>112.4</ele>
    <time>2020-08-13T00:35:45Z</time>
   </trkpt>
   <trkpt lat="47.7996220" lon="-122.3591590">
    <ele>112.4</ele>
    <time>2020-08-13T00:35:46Z</time>
   </trkpt>
   <trkpt lat="47.7996240" lon="-122.3591040">
    <ele>112.4</ele>
    <time>2020-08-13T00:35:47Z</time>
   </trkpt>
   <trkpt lat="47.7996220" lon="-122.3590520">
    <ele>112.4</ele>
    <time>2020-08-13T00:35:48Z</time>
   </trkpt>
   <trkpt lat="47.7996230" lon="-122.3590040">
    <ele>112.5</ele>
    <time>2020-08-13T00:35:49Z</time>
   </trkpt>
   <trkpt lat="47.7996390" lon="-122.3589570">
    <ele>112.5</ele>
    <time>2020-08-13T00:35:50Z</time>
   </trkpt>
   <trkpt lat="47.7996180" lon="-122.3589090">
    <ele>112.6</ele>
    <time>2020-08-13T00:35:51Z</time>
   </trkpt>
   <trkpt lat="47.7996110" lon="-122.3588700">
    <ele>112.7</ele>
    <time>2020-08-13T00:35:52Z</time>
   </trkpt>
   <trkpt lat="47.7995980" lon="-122.3588260">
    <ele>112.8</ele>
    <time>2020-08-13T00:35:53Z</time>
   </trkpt>
   <trkpt lat="47.7996020" lon="-122.3587650">
    <ele>113.0</ele>
    <time>2020-08-13T00:35:54Z</time>
   </trkpt>
   <trkpt lat="47.7996000" lon="-122.3587030">
    <ele>113.3</ele>
    <time>2020-08-13T00:35:55Z</time>
   </trkpt>
   <trkpt lat="47.7996000" lon="-122.3586770">
    <ele>113.3</ele>
    <time>2020-08-13T00:35:56Z</time>
   </trkpt>
   <trkpt lat="47.7995890" lon="-122.3586340">
    <ele>113.5</ele>
    <time>2020-08-13T00:35:57Z</time>
   </trkpt>
   <trkpt lat="47.7995940" lon="-122.3585740">
    <ele>113.8</ele>
    <time>2020-08-13T00:35:58Z</time>
   </trkpt>
   <trkpt lat="47.7996020" lon="-122.3585150">
    <ele>114.0</ele>
    <time>2020-08-13T00:35:59Z</time>
   </trkpt>
   <trkpt lat="47.7996080" lon="-122.3584590">
    <ele>114.3</ele>
    <time>2020-08-13T00:36:00Z</time>
   </trkpt>
   <trkpt lat="47.7996140" lon="-122.3584360">
    <ele>114.4</ele>
    <time>2020-08-13T00:36:01Z</time>
   </trkpt>
   <trkpt lat="47.7996260" lon="-122.3583940">
    <ele>114.7</ele>
    <time>2020-08-13T00:36:02Z</time>
   </trkpt>
   <trkpt lat="47.7996310" lon="-122.3583350">
    <ele>115.0</ele>
    <time>2020-08-13T00:36:03Z</time>
   </trkpt>
   <trkpt lat="47.7996430" lon="-122.3582750">
    <ele>115.3</ele>
    <time>2020-08-13T00:36:04Z</time>
   </trkpt>
   <trkpt lat="47.7996370" lon="-122.3582240">
    <ele>115.7</ele>
    <time>2020-08-13T00:36:05Z</time>
   </trkpt>
   <trkpt lat="47.7996330" lon="-122.3581620">
    <ele>116.1</ele>
    <time>2020-08-13T00:36:06Z</time>
   </trkpt>
   <trkpt lat="47.7996310" lon="-122.3581170">
    <ele>116.4</ele>
    <time>2020-08-13T00:36:07Z</time>
   </trkpt>
   <trkpt lat="47.7996260" lon="-122.3580620">
    <ele>116.7</ele>
    <time>2020-08-13T00:36:08Z</time>
   </trkpt>
   <trkpt lat="47.7996270" lon="-122.3580060">
    <ele>117.1</ele>
    <time>2020-08-13T00:36:09Z</time>
   </trkpt>
   <trkpt lat="47.7996240" lon="-122.3579590">
    <ele>117.4</ele>
    <time>2020-08-13T00:36:10Z</time>
   </trkpt>
   <trkpt lat="47.7996140" lon="-122.3579130">
    <ele>117.7</ele>
    <time>2020-08-13T00:36:11Z</time>
   </trkpt>
   <trkpt lat="47.7996200" lon="-122.3578380">
    <ele>118.3</ele>
    <time>2020-08-13T00:36:12Z</time>
   </trkpt>
   <trkpt lat="47.7996230" lon="-122.3577780">
    <ele>118.7</ele>
    <time>2020-08-13T00:36:13Z</time>
   </trkpt>
   <trkpt lat="47.7996190" lon="-122.3577330">
    <ele>119.0</ele>
    <time>2020-08-13T00:36:14Z</time>
   </trkpt>
   <trkpt lat="47.7996200" lon="-122.3576890">
    <ele>119.3</ele>
    <time>2020-08-13T00:36:15Z</time>
   </trkpt>
   <trkpt lat="47.7996200" lon="-122.3576400">
    <ele>119.6</ele>
    <time>2020-08-13T00:36:16Z</time>
   </trkpt>
   <trkpt lat="47.7996120" lon="-122.3575940">
    <ele>120.0</ele>
    <time>2020-08-13T00:36:17Z</time>
   </trkpt>
   <trkpt lat="47.7996010" lon="-122.3575530">
    <ele>120.3</ele>
    <time>2020-08-13T00:36:18Z</time>
   </trkpt>
   <trkpt lat="47.7996030" lon="-122.3574980">
    <ele>120.7</ele>
    <time>2020-08-13T00:36:19Z</time>
   </trkpt>
   <trkpt lat="47.7996200" lon="-122.3574340">
    <ele>120.9</ele>
    <time>2020-08-13T00:36:20Z</time>
   </trkpt>
   <trkpt lat="47.7996230" lon="-122.3574030">
    <ele>120.9</ele>
    <time>2020-08-13T00:36:21Z</time>
   </trkpt>
   <trkpt lat="47.7996260" lon="-122.3573460">
    <ele>121.1</ele>
    <time>2020-08-13T00:36:22Z</time>
   </trkpt>
   <trkpt lat="47.7996330" lon="-122.3573140">
    <ele>121.2</ele>
    <time>2020-08-13T00:36:23Z</time>
   </trkpt>
   <trkpt lat="47.7996330" lon="-122.3572990">
    <ele>121.2</ele>
    <time>2020-08-13T00:36:24Z</time>
   </trkpt>
   <trkpt lat="47.7996700" lon="-122.3572570">
    <ele>121.4</ele>
    <time>2020-08-13T00:36:29Z</time>
   </trkpt>
   <trkpt lat="47.7996800" lon="-122.3572580">
    <ele>121.5</ele>
    <time>2020-08-13T00:36:30Z</time>
   </trkpt>
  </trkseg>
 </trk>
</gpx>
