<?xml version="1.0" encoding="UTF-8"?>
<gpx creator="StravaGPX" version="1.1" xmlns="http://www.topografix.com/GPX/1/1" xmlns:xsi="http://www.w3.org/2001/XMLSchema-instance" xsi:schemaLocation="http://www.topografix.com/GPX/1/1 http://www.topografix.com/GPX/1/1/gpx.xsd">
 <metadata>
  <time>2020-08-12T23:53:29Z</time>
 </metadata>
 <trk>
  <name>Exploring </name>
  <type>running</type>
  <trkseg>
   <trkpt lat="47.7995990" lon="-122.3578080">
    <ele>118.5</ele>
    <time>2020-08-12T23:53:29Z</time>
   </trkpt>
   <trkpt lat="47.7996200" lon="-122.3578180">
    <ele>118.3</ele>
    <time>2020-08-12T23:53:30Z</time>
   </trkpt>
   <trkpt lat="47.7996270" lon="-122.3578400">
    <ele>118.2</ele>
    <time>2020-08-12T23:53:31Z</time>
   </trkpt>
   <trkpt lat="47.7996330" lon="-122.3578610">
    <ele>118.0</ele>
    <time>2020-08-12T23:53:32Z</time>
   </trkpt>
   <trkpt lat="47.7996450" lon="-122.3578810">
    <ele>117.9</ele>
    <time>2020-08-12T23:53:33Z</time>
   </trkpt>
   <trkpt lat="47.7996480" lon="-122.3579030">
    <ele>117.8</ele>
    <time>2020-08-12T23:53:34Z</time>
   </trkpt>
   <trkpt lat="47.7996600" lon="-122.3579420">
    <ele>117.5</ele>
    <time>2020-08-12T23:53:35Z</time>
   </trkpt>
   <trkpt lat="47.7996790" lon="-122.3579910">
    <ele>117.2</ele>
    <time>2020-08-12T23:53:36Z</time>
   </trkpt>
   <trkpt lat="47.7996780" lon="-122.3580460">
    <ele>116.8</ele>
    <time>2020-08-12T23:53:37Z</time>
   </trkpt>
   <trkpt lat="47.7996700" lon="-122.3580970">
    <ele>116.4</ele>
    <time>2020-08-12T23:53:38Z</time>
   </trkpt>
   <trkpt lat="47.7996680" lon="-122.3581400">
    <ele>116.1</ele>
    <time>2020-08-12T23:53:39Z</time>
   </trkpt>
   <trkpt lat="47.7996710" lon="-122.3581890">
    <ele>115.8</ele>
    <time>2020-08-12T23:53:40Z</time>
   </trkpt>
   <trkpt lat="47.7996680" lon="-122.3582390">
    <ele>115.5</ele>
    <time>2020-08-12T23:53:41Z</time>
   </trkpt>
   <trkpt lat="47.7996550" lon="-122.3582890">
    <ele>115.2</ele>
    <time>2020-08-12T23:53:42Z</time>
   </trkpt>
   <trkpt lat="47.7996660" lon="-122.3583380">
    <ele>114.9</ele>
    <time>2020-08-12T23:53:43Z</time>
   </trkpt>
   <trkpt lat="47.7996700" lon="-122.3583810">
    <ele>114.7</ele>
    <time>2020-08-12T23:53:44Z</time>
   </trkpt>
   <trkpt lat="47.7996580" lon="-122.3584340">
    <ele>114.4</ele>
    <time>2020-08-12T23:53:45Z</time>
   </trkpt>
   <trkpt lat="47.7996650" lon="-122.3584910">
    <ele>114.1</ele>
    <time>2020-08-12T23:53:46Z</time>
   </trkpt>
   <trkpt lat="47.7996640" lon="-122.3585470">
    <ele>113.8</ele>
    <time>2020-08-12T23:53:47Z</time>
   </trkpt>
   <trkpt lat="47.7996700" lon="-122.3585980">
    <ele>113.6</ele>
    <time>2020-08-12T23:53:48Z</time>
   </trkpt>
   <trkpt lat="47.7996680" lon="-122.3586500">
    <ele>113.4</ele>
    <time>2020-08-12T23:53:49Z</time>
   </trkpt>
   <trkpt lat="47.7996770" lon="-122.3587020">
    <ele>113.2</ele>
    <time>2020-08-12T23:53:50Z</time>
   </trkpt>
   <trkpt lat="47.7996810" lon="-122.3587570">
    <ele>113.0</ele>
    <time>2020-08-12T23:53:51Z</time>
   </trkpt>
   <trkpt lat="47.7996730" lon="-122.3588130">
    <ele>112.8</ele>
    <time>2020-08-12T23:53:52Z</time>
   </trkpt>
   <trkpt lat="47.7996840" lon="-122.3588680">
    <ele>112.6</ele>
    <time>2020-08-12T23:53:53Z</time>
   </trkpt>
   <trkpt lat="47.7996690" lon="-122.3589200">
    <ele>112.6</ele>
    <time>2020-08-12T23:53:54Z</time>
   </trkpt>
   <trkpt lat="47.7996820" lon="-122.3589730">
    <ele>112.5</ele>
    <time>2020-08-12T23:53:55Z</time>
   </trkpt>
   <trkpt lat="47.7996820" lon="-122.3590200">
    <ele>112.5</ele>
    <time>2020-08-12T23:53:56Z</time>
   </trkpt>
   <trkpt lat="47.7996810" lon="-122.3590700">
    <ele>112.4</ele>
    <time>2020-08-12T23:53:57Z</time>
   </trkpt>
   <trkpt lat="47.7996760" lon="-122.3591130">
    <ele>112.4</ele>
    <time>2020-08-12T23:53:58Z</time>
   </trkpt>
   <trkpt lat="47.7996830" lon="-122.3591620">
    <ele>112.4</ele>
    <time>2020-08-12T23:53:59Z</time>
   </trkpt>
   <trkpt lat="47.7996980" lon="-122.3592380">
    <ele>112.3</ele>
    <time>2020-08-12T23:54:00Z</time>
   </trkpt>
   <trkpt lat="47.7997030" lon="-122.3592850">
    <ele>112.3</ele>
    <time>2020-08-12T23:54:01Z</time>
   </trkpt>
   <trkpt lat="47.7997010" lon="-122.3593480">
    <ele>112.4</ele>
    <time>2020-08-12T23:54:02Z</time>
   </trkpt>
   <trkpt lat="47.7996980" lon="-122.3594100">
    <ele>112.6</ele>
    <time>2020-08-12T23:54:03Z</time>
   </trkpt>
   <trkpt lat="47.7996940" lon="-122.3594630">
    <ele>112.3</ele>
    <time>2020-08-12T23:54:04Z</time>
   </trkpt>
   <trkpt lat="47.7996920" lon="-122.3595240">
    <ele>112.1</ele>
    <time>2020-08-12T23:54:05Z</time>
   </trkpt>
   <trkpt lat="47.7996900" lon="-122.3595780">
    <ele>111.9</ele>
    <time>2020-08-12T23:54:06Z</time>
   </trkpt>
   <trkpt lat="47.7996770" lon="-122.3596260">
    <ele>111.7</ele>
    <time>2020-08-12T23:54:07Z</time>
   </trkpt>
   <trkpt lat="47.7996820" lon="-122.3596820">
    <ele>111.6</ele>
    <time>2020-08-12T23:54:08Z</time>
   </trkpt>
   <trkpt lat="47.7996850" lon="-122.3597360">
    <ele>111.4</ele>
    <time>2020-08-12T23:54:09Z</time>
   </trkpt>
   <trkpt lat="47.7996840" lon="-122.3597890">
    <ele>111.4</ele>
    <time>2020-08-12T23:54:10Z</time>
   </trkpt>
   <trkpt lat="47.7996970" lon="-122.3598380">
    <ele>111.3</ele>
    <time>2020-08-12T23:54:11Z</time>
   </trkpt>
   <trkpt lat="47.7996850" lon="-122.3598840">
    <ele>111.3</ele>
    <time>2020-08-12T23:54:12Z</time>
   </trkpt>
   <trkpt lat="47.7996880" lon="-122.3599380">
    <ele>111.3</ele>
    <time>2020-08-12T23:54:13Z</time>
   </trkpt>
   <trkpt lat="47.7996890" lon="-122.3599870">
    <ele>111.2</ele>
    <time>2020-08-12T23:54:14Z</time>
   </trkpt>
   <trkpt lat="47.7996930" lon="-122.3600360">
    <ele>111.2</ele>
    <time>2020-08-12T23:54:15Z</time>
   </trkpt>
   <trkpt lat="47.7997100" lon="-122.3600770">
    <ele>111.2</ele>
    <time>2020-08-12T23:54:16Z</time>
   </trkpt>
   <trkpt lat="47.7997080" lon="-122.3601270">
    <ele>111.2</ele>
    <time>2020-08-12T23:54:17Z</time>
   </trkpt>
   <trkpt lat="47.7997040" lon="-122.3601940">
    <ele>111.2</ele>
    <time>2020-08-12T23:54:18Z</time>
   </trkpt>
   <trkpt lat="47.7996940" lon="-122.3602430">
    <ele>111.3</ele>
    <time>2020-08-12T23:54:19Z</time>
   </trkpt>
   <trkpt lat="47.7996760" lon="-122.3602960">
    <ele>111.3</ele>
    <time>2020-08-12T23:54:20Z</time>
   </trkpt>
   <trkpt lat="47.7996790" lon="-122.3603390">
    <ele>111.4</ele>
    <time>2020-08-12T23:54:21Z</time>
   </trkpt>
   <trkpt lat="47.7996770" lon="-122.3603920">
    <ele>111.4</ele>
    <time>2020-08-12T23:54:22Z</time>
   </trkpt>
   <trkpt lat="47.7996950" lon="-122.3604580">
    <ele>111.6</ele>
    <time>2020-08-12T23:54:23Z</time>
   </trkpt>
   <trkpt lat="47.7996970" lon="-122.3605030">
    <ele>111.6</ele>
    <time>2020-08-12T23:54:24Z</time>
   </trkpt>
   <trkpt lat="47.7996810" lon="-122.3605570">
    <ele>111.7</ele>
    <time>2020-08-12T23:54:25Z</time>
   </trkpt>
   <trkpt lat="47.7996670" lon="-122.3605950">
    <ele>111.8</ele>
    <time>2020-08-12T23:54:26Z</time>
   </trkpt>
   <trkpt lat="47.7996720" lon="-122.3606370">
    <ele>111.9</ele>
    <time>2020-08-12T23:54:27Z</time>
   </trkpt>
   <trkpt lat="47.7996740" lon="-122.3607000">
    <ele>112.0</ele>
    <time>2020-08-12T23:54:28Z</time>
   </trkpt>
   <trkpt lat="47.7996880" lon="-122.3607490">
    <ele>112.1</ele>
    <time>2020-08-12T23:54:29Z</time>
   </trkpt>
   <trkpt lat="47.7996890" lon="-122.3608040">
    <ele>112.2</ele>
    <time>2020-08-12T23:54:30Z</time>
   </trkpt>
   <trkpt lat="47.7996890" lon="-122.3608650">
    <ele>112.4</ele>
    <time>2020-08-12T23:54:31Z</time>
   </trkpt>
   <trkpt lat="47.7996930" lon="-122.3609160">
    <ele>112.5</ele>
    <time>2020-08-12T23:54:32Z</time>
   </trkpt>
   <trkpt lat="47.7997040" lon="-122.3609710">
    <ele>112.7</ele>
    <time>2020-08-12T23:54:33Z</time>
   </trkpt>
   <trkpt lat="47.7997100" lon="-122.3610290">
    <ele>112.8</ele>
    <time>2020-08-12T23:54:34Z</time>
   </trkpt>
   <trkpt lat="47.7997040" lon="-122.3610850">
    <ele>113.0</ele>
    <time>2020-08-12T23:54:35Z</time>
   </trkpt>
   <trkpt lat="47.7997100" lon="-122.3611290">
    <ele>113.1</ele>
    <time>2020-08-12T23:54:36Z</time>
   </trkpt>
   <trkpt lat="47.7997170" lon="-122.3611790">
    <ele>113.2</ele>
    <time>2020-08-12T23:54:37Z</time>
   </trkpt>
   <trkpt lat="47.7997090" lon="-122.3612220">
    <ele>113.3</ele>
    <time>2020-08-12T23:54:38Z</time>
   </trkpt>
   <trkpt lat="47.7997040" lon="-122.3612830">
    <ele>113.4</ele>
    <time>2020-08-12T23:54:39Z</time>
   </trkpt>
   <trkpt lat="47.7997010" lon="-122.3613380">
    <ele>113.6</ele>
    <time>2020-08-12T23:54:40Z</time>
   </trkpt>
   <trkpt lat="47.7997130" lon="-122.3613990">
    <ele>113.8</ele>
    <time>2020-08-12T23:54:41Z</time>
   </trkpt>
   <trkpt lat="47.7997190" lon="-122.3614420">
    <ele>114.4</ele>
    <time>2020-08-12T23:54:42Z</time>
   </trkpt>
   <trkpt lat="47.7997360" lon="-122.3614930">
    <ele>114.4</ele>
    <time>2020-08-12T23:54:43Z</time>
   </trkpt>
   <trkpt lat="47.7997730" lon="-122.3615200">
    <ele>114.4</ele>
    <time>2020-08-12T23:54:44Z</time>
   </trkpt>
   <trkpt lat="47.7998110" lon="-122.3615180">
    <ele>114.4</ele>
    <time>2020-08-12T23:54:45Z</time>
   </trkpt>
   <trkpt lat="47.7998510" lon="-122.3614950">
    <ele>114.3</ele>
    <time>2020-08-12T23:54:46Z</time>
   </trkpt>
   <trkpt lat="47.7998890" lon="-122.3614960">
    <ele>114.3</ele>
    <time>2020-08-12T23:54:47Z</time>
   </trkpt>
   <trkpt lat="47.7999040" lon="-122.3615120">
    <ele>114.3</ele>
    <time>2020-08-12T23:54:48Z</time>
   </trkpt>
   <trkpt lat="47.7999330" lon="-122.3615240">
    <ele>114.3</ele>
    <time>2020-08-12T23:54:49Z</time>
   </trkpt>
   <trkpt lat="47.7999470" lon="-122.3615950">
    <ele>114.2</ele>
    <time>2020-08-12T23:54:50Z</time>
   </trkpt>
   <trkpt lat="47.7999500" lon="-122.3616450">
    <ele>114.2</ele>
    <time>2020-08-12T23:54:51Z</time>
   </trkpt>
   <trkpt lat="47.8000460" lon="-122.3616440">
    <ele>114.1</ele>
    <time>2020-08-12T23:54:52Z</time>
   </trkpt>
   <trkpt lat="47.8000930" lon="-122.3616240">
    <ele>114.1</ele>
    <time>2020-08-12T23:54:53Z</time>
   </trkpt>
   <trkpt lat="47.8001300" lon="-122.3616180">
    <ele>114.1</ele>
    <time>2020-08-12T23:54:54Z</time>
   </trkpt>
   <trkpt lat="47.8001680" lon="-122.3616220">
    <ele>114.0</ele>
    <time>2020-08-12T23:54:55Z</time>
   </trkpt>
   <trkpt lat="47.8001970" lon="-122.3616030">
    <ele>114.0</ele>
    <time>2020-08-12T23:54:56Z</time>
   </trkpt>
   <trkpt lat="47.8002300" lon="-122.3616120">
    <ele>114.0</ele>
    <time>2020-08-12T23:54:57Z</time>
   </trkpt>
   <trkpt lat="47.8002600" lon="-122.3616100">
    <ele>114.0</ele>
    <time>2020-08-12T23:54:58Z</time>
   </trkpt>
   <trkpt lat="47.8003010" lon="-122.3616210">
    <ele>114.0</ele>
    <time>2020-08-12T23:54:59Z</time>
   </trkpt>
   <trkpt lat="47.8003430" lon="-122.3616470">
    <ele>114.0</ele>
    <time>2020-08-12T23:55:00Z</time>
   </trkpt>
   <trkpt lat="47.8003730" lon="-122.3616340">
    <ele>114.0</ele>
    <time>2020-08-12T23:55:01Z</time>
   </trkpt>
   <trkpt lat="47.8004140" lon="-122.3616330">
    <ele>114.0</ele>
    <time>2020-08-12T23:55:02Z</time>
   </trkpt>
   <trkpt lat="47.8004420" lon="-122.3616210">
    <ele>113.9</ele>
    <time>2020-08-12T23:55:03Z</time>
   </trkpt>
   <trkpt lat="47.8004720" lon="-122.3616300">
    <ele>113.9</ele>
    <time>2020-08-12T23:55:04Z</time>
   </trkpt>
   <trkpt lat="47.8005190" lon="-122.3616410">
    <ele>113.7</ele>
    <time>2020-08-12T23:55:05Z</time>
   </trkpt>
   <trkpt lat="47.8005510" lon="-122.3616340">
    <ele>113.7</ele>
    <time>2020-08-12T23:55:06Z</time>
   </trkpt>
   <trkpt lat="47.8005990" lon="-122.3616260">
    <ele>113.6</ele>
    <time>2020-08-12T23:55:07Z</time>
   </trkpt>
   <trkpt lat="47.8006390" lon="-122.3616100">
    <ele>113.6</ele>
    <time>2020-08-12T23:55:08Z</time>
   </trkpt>
   <trkpt lat="47.8006740" lon="-122.3615990">
    <ele>113.5</ele>
    <time>2020-08-12T23:55:09Z</time>
   </trkpt>
   <trkpt lat="47.8007130" lon="-122.3616160">
    <ele>113.5</ele>
    <time>2020-08-12T23:55:10Z</time>
   </trkpt>
   <trkpt lat="47.8007450" lon="-122.3616000">
    <ele>113.4</ele>
    <time>2020-08-12T23:55:11Z</time>
   </trkpt>
   <trkpt lat="47.8008000" lon="-122.3616010">
    <ele>113.4</ele>
    <time>2020-08-12T23:55:12Z</time>
   </trkpt>
   <trkpt lat="47.8008290" lon="-122.3616000">
    <ele>113.3</ele>
    <time>2020-08-12T23:55:13Z</time>
   </trkpt>
   <trkpt lat="47.8008670" lon="-122.3616130">
    <ele>113.3</ele>
    <time>2020-08-12T23:55:14Z</time>
   </trkpt>
   <trkpt lat="47.8009050" lon="-122.3616300">
    <ele>113.2</ele>
    <time>2020-08-12T23:55:15Z</time>
   </trkpt>
   <trkpt lat="47.8009380" lon="-122.3616220">
    <ele>113.2</ele>
    <time>2020-08-12T23:55:16Z</time>
   </trkpt>
   <trkpt lat="47.8009800" lon="-122.3616320">
    <ele>113.1</ele>
    <time>2020-08-12T23:55:17Z</time>
   </trkpt>
   <trkpt lat="47.8010190" lon="-122.3616220">
    <ele>113.1</ele>
    <time>2020-08-12T23:55:18Z</time>
   </trkpt>
   <trkpt lat="47.8010680" lon="-122.3616320">
    <ele>113.0</ele>
    <time>2020-08-12T23:55:19Z</time>
   </trkpt>
   <trkpt lat="47.8011110" lon="-122.3616220">
    <ele>113.0</ele>
    <time>2020-08-12T23:55:20Z</time>
   </trkpt>
   <trkpt lat="47.8011500" lon="-122.3616120">
    <ele>112.9</ele>
    <time>2020-08-12T23:55:21Z</time>
   </trkpt>
   <trkpt lat="47.8011860" lon="-122.3616080">
    <ele>112.9</ele>
    <time>2020-08-12T23:55:22Z</time>
   </trkpt>
   <trkpt lat="47.8012250" lon="-122.3616060">
    <ele>112.8</ele>
    <time>2020-08-12T23:55:23Z</time>
   </trkpt>
   <trkpt lat="47.8012660" lon="-122.3616190">
    <ele>112.7</ele>
    <time>2020-08-12T23:55:24Z</time>
   </trkpt>
   <trkpt lat="47.8013060" lon="-122.3616080">
    <ele>112.7</ele>
    <time>2020-08-12T23:55:25Z</time>
   </trkpt>
   <trkpt lat="47.8013420" lon="-122.3616070">
    <ele>112.6</ele>
    <time>2020-08-12T23:55:26Z</time>
   </trkpt>
   <trkpt lat="47.8013810" lon="-122.3616170">
    <ele>112.5</ele>
    <time>2020-08-12T23:55:27Z</time>
   </trkpt>
   <trkpt lat="47.8014160" lon="-122.3616180">
    <ele>112.5</ele>
    <time>2020-08-12T23:55:28Z</time>
   </trkpt>
   <trkpt lat="47.8014540" lon="-122.3616220">
    <ele>112.4</ele>
    <time>2020-08-12T23:55:29Z</time>
   </trkpt>
   <trkpt lat="47.8014920" lon="-122.3616340">
    <ele>112.3</ele>
    <time>2020-08-12T23:55:30Z</time>
   </trkpt>
   <trkpt lat="47.8015340" lon="-122.3616390">
    <ele>112.2</ele>
    <time>2020-08-12T23:55:31Z</time>
   </trkpt>
   <trkpt lat="47.8015740" lon="-122.3616290">
    <ele>112.1</ele>
    <time>2020-08-12T23:55:32Z</time>
   </trkpt>
   <trkpt lat="47.8016150" lon="-122.3616170">
    <ele>112.0</ele>
    <time>2020-08-12T23:55:33Z</time>
   </trkpt>
   <trkpt lat="47.8016440" lon="-122.3616400">
    <ele>112.0</ele>
    <time>2020-08-12T23:55:34Z</time>
   </trkpt>
   <trkpt lat="47.8016960" lon="-122.3616320">
    <ele>111.8</ele>
    <time>2020-08-12T23:55:35Z</time>
   </trkpt>
   <trkpt lat="47.8017350" lon="-122.3616300">
    <ele>111.7</ele>
    <time>2020-08-12T23:55:36Z</time>
   </trkpt>
   <trkpt lat="47.8017840" lon="-122.3616030">
    <ele>111.6</ele>
    <time>2020-08-12T23:55:37Z</time>
   </trkpt>
   <trkpt lat="47.8018180" lon="-122.3616060">
    <ele>111.5</ele>
    <time>2020-08-12T23:55:39Z</time>
   </trkpt>
   <trkpt lat="47.8018660" lon="-122.3616090">
    <ele>111.4</ele>
    <time>2020-08-12T23:55:40Z</time>
   </trkpt>
   <trkpt lat="47.8018990" lon="-122.3616190">
    <ele>111.3</ele>
    <time>2020-08-12T23:55:41Z</time>
   </trkpt>
   <trkpt lat="47.8019340" lon="-122.3616380">
    <ele>111.2</ele>
    <time>2020-08-12T23:55:42Z</time>
   </trkpt>
   <trkpt lat="47.8019750" lon="-122.3616350">
    <ele>111.1</ele>
    <time>2020-08-12T23:55:43Z</time>
   </trkpt>
   <trkpt lat="47.8020090" lon="-122.3616320">
    <ele>111.0</ele>
    <time>2020-08-12T23:55:44Z</time>
   </trkpt>
   <trkpt lat="47.8020510" lon="-122.3616110">
    <ele>110.9</ele>
    <time>2020-08-12T23:55:45Z</time>
   </trkpt>
   <trkpt lat="47.8020920" lon="-122.3615910">
    <ele>110.8</ele>
    <time>2020-08-12T23:55:46Z</time>
   </trkpt>
   <trkpt lat="47.8021330" lon="-122.3615970">
    <ele>110.6</ele>
    <time>2020-08-12T23:55:47Z</time>
   </trkpt>
   <trkpt lat="47.8021690" lon="-122.3615830">
    <ele>110.5</ele>
    <time>2020-08-12T23:55:48Z</time>
   </trkpt>
   <trkpt lat="47.8022170" lon="-122.3615870">
    <ele>110.4</ele>
    <time>2020-08-12T23:55:49Z</time>
   </trkpt>
   <trkpt lat="47.8022660" lon="-122.3615940">
    <ele>110.2</ele>
    <time>2020-08-12T23:55:50Z</time>
   </trkpt>
   <trkpt lat="47.8023090" lon="-122.3616130">
    <ele>110.1</ele>
    <time>2020-08-12T23:55:51Z</time>
   </trkpt>
   <trkpt lat="47.8023430" lon="-122.3616360">
    <ele>109.9</ele>
    <time>2020-08-12T23:55:52Z</time>
   </trkpt>
   <trkpt lat="47.8023770" lon="-122.3616240">
    <ele>109.8</ele>
    <time>2020-08-12T23:55:53Z</time>
   </trkpt>
   <trkpt lat="47.8024190" lon="-122.3616430">
    <ele>109.7</ele>
    <time>2020-08-12T23:55:54Z</time>
   </trkpt>
   <trkpt lat="47.8024370" lon="-122.3616440">
    <ele>109.7</ele>
    <time>2020-08-12T23:55:55Z</time>
   </trkpt>
   <trkpt lat="47.8025000" lon="-122.3616350">
    <ele>109.5</ele>
    <time>2020-08-12T23:55:56Z</time>
   </trkpt>
   <trkpt lat="47.8025420" lon="-122.3616390">
    <ele>109.5</ele>
    <time>2020-08-12T23:55:57Z</time>
   </trkpt>
   <trkpt lat="47.8025590" lon="-122.3616310">
    <ele>109.4</ele>
    <time>2020-08-12T23:55:58Z</time>
   </trkpt>
   <trkpt lat="47.8026150" lon="-122.3616250">
    <ele>109.3</ele>
    <time>2020-08-12T23:55:59Z</time>
   </trkpt>
   <trkpt lat="47.8026470" lon="-122.3616340">
    <ele>109.3</ele>
    <time>2020-08-12T23:56:00Z</time>
   </trkpt>
   <trkpt lat="47.8026880" lon="-122.3616350">
    <ele>109.2</ele>
    <time>2020-08-12T23:56:01Z</time>
   </trkpt>
   <trkpt lat="47.8027160" lon="-122.3616500">
    <ele>109.1</ele>
    <time>2020-08-12T23:56:02Z</time>
   </trkpt>
   <trkpt lat="47.8027520" lon="-122.3616370">
    <ele>109.0</ele>
    <time>2020-08-12T23:56:03Z</time>
   </trkpt>
   <trkpt lat="47.8027930" lon="-122.3616360">
    <ele>109.0</ele>
    <time>2020-08-12T23:56:04Z</time>
   </trkpt>
   <trkpt lat="47.8028280" lon="-122.3616330">
    <ele>108.9</ele>
    <time>2020-08-12T23:56:05Z</time>
   </trkpt>
   <trkpt lat="47.8028770" lon="-122.3616360">
    <ele>108.9</ele>
    <time>2020-08-12T23:56:06Z</time>
   </trkpt>
   <trkpt lat="47.8029210" lon="-122.3616370">
    <ele>108.7</ele>
    <time>2020-08-12T23:56:07Z</time>
   </trkpt>
   <trkpt lat="47.8029400" lon="-122.3616320">
    <ele>108.7</ele>
    <time>2020-08-12T23:56:08Z</time>
   </trkpt>
   <trkpt lat="47.8029750" lon="-122.3616660">
    <ele>108.6</ele>
    <time>2020-08-12T23:56:09Z</time>
   </trkpt>
   <trkpt lat="47.8030160" lon="-122.3616470">
    <ele>108.5</ele>
    <time>2020-08-12T23:56:10Z</time>
   </trkpt>
   <trkpt lat="47.8030560" lon="-122.3616480">
    <ele>108.4</ele>
    <time>2020-08-12T23:56:11Z</time>
   </trkpt>
   <trkpt lat="47.8031000" lon="-122.3616490">
    <ele>108.2</ele>
    <time>2020-08-12T23:56:12Z</time>
   </trkpt>
   <trkpt lat="47.8031180" lon="-122.3616410">
    <ele>108.2</ele>
    <time>2020-08-12T23:56:13Z</time>
   </trkpt>
   <trkpt lat="47.8031550" lon="-122.3616570">
    <ele>108.1</ele>
    <time>2020-08-12T23:56:14Z</time>
   </trkpt>
   <trkpt lat="47.8031910" lon="-122.3616280">
    <ele>108.0</ele>
    <time>2020-08-12T23:56:15Z</time>
   </trkpt>
   <trkpt lat="47.8032340" lon="-122.3616450">
    <ele>107.8</ele>
    <time>2020-08-12T23:56:16Z</time>
   </trkpt>
   <trkpt lat="47.8032670" lon="-122.3616680">
    <ele>107.8</ele>
    <time>2020-08-12T23:56:17Z</time>
   </trkpt>
   <trkpt lat="47.8033020" lon="-122.3616630">
    <ele>107.7</ele>
    <time>2020-08-12T23:56:18Z</time>
   </trkpt>
   <trkpt lat="47.8033420" lon="-122.3616410">
    <ele>107.6</ele>
    <time>2020-08-12T23:56:19Z</time>
   </trkpt>
   <trkpt lat="47.8033700" lon="-122.3616430">
    <ele>107.5</ele>
    <time>2020-08-12T23:56:20Z</time>
   </trkpt>
   <trkpt lat="47.8034030" lon="-122.3616600">
    <ele>107.4</ele>
    <time>2020-08-12T23:56:21Z</time>
   </trkpt>
   <trkpt lat="47.8034320" lon="-122.3616380">
    <ele>107.3</ele>
    <time>2020-08-12T23:56:22Z</time>
   </trkpt>
   <trkpt lat="47.8034680" lon="-122.3616310">
    <ele>107.2</ele>
    <time>2020-08-12T23:56:23Z</time>
   </trkpt>
   <trkpt lat="47.8035020" lon="-122.3616400">
    <ele>107.1</ele>
    <time>2020-08-12T23:56:24Z</time>
   </trkpt>
   <trkpt lat="47.8035280" lon="-122.3616550">
    <ele>107.0</ele>
    <time>2020-08-12T23:56:25Z</time>
   </trkpt>
   <trkpt lat="47.8035790" lon="-122.3616680">
    <ele>106.8</ele>
    <time>2020-08-12T23:56:26Z</time>
   </trkpt>
   <trkpt lat="47.8036170" lon="-122.3616870">
    <ele>106.7</ele>
    <time>2020-08-12T23:56:27Z</time>
   </trkpt>
   <trkpt lat="47.8036720" lon="-122.3616460">
    <ele>106.5</ele>
    <time>2020-08-12T23:56:28Z</time>
   </trkpt>
   <trkpt lat="47.8037070" lon="-122.3616320">
    <ele>106.5</ele>
    <time>2020-08-12T23:56:29Z</time>
   </trkpt>
   <trkpt lat="47.8037450" lon="-122.3616140">
    <ele>106.4</ele>
    <time>2020-08-12T23:56:30Z</time>
   </trkpt>
   <trkpt lat="47.8037860" lon="-122.3616290">
    <ele>106.3</ele>
    <time>2020-08-12T23:56:31Z</time>
   </trkpt>
   <trkpt lat="47.8038200" lon="-122.3616120">
    <ele>106.2</ele>
    <time>2020-08-12T23:56:32Z</time>
   </trkpt>
   <trkpt lat="47.8038550" lon="-122.3616110">
    <ele>106.1</ele>
    <time>2020-08-12T23:56:33Z</time>
   </trkpt>
   <trkpt lat="47.8039100" lon="-122.3616230">
    <ele>105.9</ele>
    <time>2020-08-12T23:56:34Z</time>
   </trkpt>
   <trkpt lat="47.8039500" lon="-122.3616240">
    <ele>105.7</ele>
    <time>2020-08-12T23:56:35Z</time>
   </trkpt>
   <trkpt lat="47.8039940" lon="-122.3616510">
    <ele>105.6</ele>
    <time>2020-08-12T23:56:36Z</time>
   </trkpt>
   <trkpt lat="47.8040260" lon="-122.3616340">
    <ele>105.4</ele>
    <time>2020-08-12T23:56:37Z</time>
   </trkpt>
   <trkpt lat="47.8040670" lon="-122.3616280">
    <ele>105.3</ele>
    <time>2020-08-12T23:56:38Z</time>
   </trkpt>
   <trkpt lat="47.8040980" lon="-122.3616390">
    <ele>105.2</ele>
    <time>2020-08-12T23:56:39Z</time>
   </trkpt>
   <trkpt lat="47.8041320" lon="-122.3616490">
    <ele>105.0</ele>
    <time>2020-08-12T23:56:40Z</time>
   </trkpt>
   <trkpt lat="47.8041790" lon="-122.3616680">
    <ele>104.9</ele>
    <time>2020-08-12T23:56:41Z</time>
   </trkpt>
   <trkpt lat="47.8042210" lon="-122.3616360">
    <ele>104.7</ele>
    <time>2020-08-12T23:56:42Z</time>
   </trkpt>
   <trkpt lat="47.8042610" lon="-122.3616370">
    <ele>104.5</ele>
    <time>2020-08-12T23:56:43Z</time>
   </trkpt>
   <trkpt lat="47.8042880" lon="-122.3616150">
    <ele>104.4</ele>
    <time>2020-08-12T23:56:44Z</time>
   </trkpt>
   <trkpt lat="47.8043160" lon="-122.3616110">
    <ele>104.3</ele>
    <time>2020-08-12T23:56:45Z</time>
   </trkpt>
   <trkpt lat="47.8043510" lon="-122.3616260">
    <ele>104.1</ele>
    <time>2020-08-12T23:56:46Z</time>
   </trkpt>
   <trkpt lat="47.8043870" lon="-122.3616170">
    <ele>103.9</ele>
    <time>2020-08-12T23:56:47Z</time>
   </trkpt>
   <trkpt lat="47.8044390" lon="-122.3616120">
    <ele>103.7</ele>
    <time>2020-08-12T23:56:48Z</time>
   </trkpt>
   <trkpt lat="47.8044760" lon="-122.3616100">
    <ele>103.5</ele>
    <time>2020-08-12T23:56:49Z</time>
   </trkpt>
   <trkpt lat="47.8045080" lon="-122.3616120">
    <ele>103.4</ele>
    <time>2020-08-12T23:56:50Z</time>
   </trkpt>
   <trkpt lat="47.8045470" lon="-122.3616140">
    <ele>103.2</ele>
    <time>2020-08-12T23:56:51Z</time>
   </trkpt>
   <trkpt lat="47.8045740" lon="-122.3616100">
    <ele>103.1</ele>
    <time>2020-08-12T23:56:52Z</time>
   </trkpt>
   <trkpt lat="47.8046020" lon="-122.3615930">
    <ele>102.9</ele>
    <time>2020-08-12T23:56:53Z</time>
   </trkpt>
   <trkpt lat="47.8046410" lon="-122.3615990">
    <ele>102.6</ele>
    <time>2020-08-12T23:56:54Z</time>
   </trkpt>
   <trkpt lat="47.8046550" lon="-122.3616010">
    <ele>102.5</ele>
    <time>2020-08-12T23:56:55Z</time>
   </trkpt>
   <trkpt lat="47.8046970" lon="-122.3616140">
    <ele>102.2</ele>
    <time>2020-08-12T23:56:56Z</time>
   </trkpt>
   <trkpt lat="47.8047130" lon="-122.3616200">
    <ele>102.1</ele>
    <time>2020-08-12T23:56:57Z</time>
   </trkpt>
   <trkpt lat="47.8047470" lon="-122.3616090">
    <ele>101.8</ele>
    <time>2020-08-12T23:56:58Z</time>
   </trkpt>
   <trkpt lat="47.8047850" lon="-122.3616020">
    <ele>101.5</ele>
    <time>2020-08-12T23:56:59Z</time>
   </trkpt>
   <trkpt lat="47.8048230" lon="-122.3616160">
    <ele>101.2</ele>
    <time>2020-08-12T23:57:00Z</time>
   </trkpt>
   <trkpt lat="47.8048600" lon="-122.3616360">
    <ele>100.9</ele>
    <time>2020-08-12T23:57:01Z</time>
   </trkpt>
   <trkpt lat="47.8048980" lon="-122.3616230">
    <ele>100.6</ele>
    <time>2020-08-12T23:57:02Z</time>
   </trkpt>
   <trkpt lat="47.8049310" lon="-122.3616150">
    <ele>100.4</ele>
    <time>2020-08-12T23:57:03Z</time>
   </trkpt>
   <trkpt lat="47.8050030" lon="-122.3615980">
    <ele>99.9</ele>
    <time>2020-08-12T23:57:04Z</time>
   </trkpt>
   <trkpt lat="47.8050390" lon="-122.3616000">
    <ele>99.7</ele>
    <time>2020-08-12T23:57:05Z</time>
   </trkpt>
   <trkpt lat="47.8050730" lon="-122.3615980">
    <ele>99.6</ele>
    <time>2020-08-12T23:57:06Z</time>
   </trkpt>
   <trkpt lat="47.8051130" lon="-122.3616040">
    <ele>99.4</ele>
    <time>2020-08-12T23:57:07Z</time>
   </trkpt>
   <trkpt lat="47.8051510" lon="-122.3615960">
    <ele>99.2</ele>
    <time>2020-08-12T23:57:08Z</time>
   </trkpt>
   <trkpt lat="47.8051850" lon="-122.3616030">
    <ele>99.1</ele>
    <time>2020-08-12T23:57:09Z</time>
   </trkpt>
   <trkpt lat="47.8052210" lon="-122.3616040">
    <ele>99.1</ele>
    <time>2020-08-12T23:57:10Z</time>
   </trkpt>
   <trkpt lat="47.8052270" lon="-122.3615950">
    <ele>99.1</ele>
    <time>2020-08-12T23:57:11Z</time>
   </trkpt>
   <trkpt lat="47.8052500" lon="-122.3615840">
    <ele>99.0</ele>
    <time>2020-08-12T23:57:12Z</time>
   </trkpt>
   <trkpt lat="47.8052830" lon="-122.3615690">
    <ele>98.9</ele>
    <time>2020-08-12T23:57:13Z</time>
   </trkpt>
   <trkpt lat="47.8052950" lon="-122.3615670">
    <ele>98.9</ele>
    <time>2020-08-12T23:57:14Z</time>
   </trkpt>
   <trkpt lat="47.8053290" lon="-122.3615610">
    <ele>98.8</ele>
    <time>2020-08-12T23:57:15Z</time>
   </trkpt>
   <trkpt lat="47.8053410" lon="-122.3615600">
    <ele>98.8</ele>
    <time>2020-08-12T23:57:16Z</time>
   </trkpt>
   <trkpt lat="47.8053780" lon="-122.3615440">
    <ele>98.8</ele>
    <time>2020-08-12T23:57:17Z</time>
   </trkpt>
   <trkpt lat="47.8053890" lon="-122.3615400">
    <ele>98.8</ele>
    <time>2020-08-12T23:57:18Z</time>
   </trkpt>
   <trkpt lat="47.8054140" lon="-122.3615610">
    <ele>98.7</ele>
    <time>2020-08-12T23:57:19Z</time>
   </trkpt>
   <trkpt lat="47.8054610" lon="-122.3615630">
    <ele>98.7</ele>
    <time>2020-08-12T23:57:20Z</time>
   </trkpt>
   <trkpt lat="47.8055000" lon="-122.3615620">
    <ele>98.6</ele>
    <time>2020-08-12T23:57:21Z</time>
   </trkpt>
   <trkpt lat="47.8055370" lon="-122.3615600">
    <ele>98.5</ele>
    <time>2020-08-12T23:57:22Z</time>
   </trkpt>
   <trkpt lat="47.8055750" lon="-122.3615550">
    <ele>98.5</ele>
    <time>2020-08-12T23:57:23Z</time>
   </trkpt>
   <trkpt lat="47.8056020" lon="-122.3615340">
    <ele>98.4</ele>
    <time>2020-08-12T23:57:24Z</time>
   </trkpt>
   <trkpt lat="47.8056140" lon="-122.3615250">
    <ele>98.4</ele>
    <time>2020-08-12T23:57:25Z</time>
   </trkpt>
   <trkpt lat="47.8056450" lon="-122.3615260">
    <ele>98.3</ele>
    <time>2020-08-12T23:57:26Z</time>
   </trkpt>
   <trkpt lat="47.8057020" lon="-122.3615460">
    <ele>98.2</ele>
    <time>2020-08-12T23:57:27Z</time>
   </trkpt>
   <trkpt lat="47.8057550" lon="-122.3615910">
    <ele>98.0</ele>
    <time>2020-08-12T23:57:28Z</time>
   </trkpt>
   <trkpt lat="47.8058000" lon="-122.3615860">
    <ele>97.9</ele>
    <time>2020-08-12T23:57:29Z</time>
   </trkpt>
   <trkpt lat="47.8058520" lon="-122.3615930">
    <ele>97.8</ele>
    <time>2020-08-12T23:57:30Z</time>
   </trkpt>
   <trkpt lat="47.8058920" lon="-122.3616110">
    <ele>97.8</ele>
    <time>2020-08-12T23:57:31Z</time>
   </trkpt>
   <trkpt lat="47.8059410" lon="-122.3616050">
    <ele>97.8</ele>
    <time>2020-08-12T23:57:32Z</time>
   </trkpt>
   <trkpt lat="47.8059850" lon="-122.3616170">
    <ele>97.8</ele>
    <time>2020-08-12T23:57:33Z</time>
   </trkpt>
   <trkpt lat="47.8060260" lon="-122.3616010">
    <ele>97.8</ele>
    <time>2020-08-12T23:57:34Z</time>
   </trkpt>
   <trkpt lat="47.8060890" lon="-122.3615780">
    <ele>97.7</ele>
    <time>2020-08-12T23:57:35Z</time>
   </trkpt>
   <trkpt lat="47.8061310" lon="-122.3615970">
    <ele>97.7</ele>
    <time>2020-08-12T23:57:36Z</time>
   </trkpt>
   <trkpt lat="47.8061700" lon="-122.3615820">
    <ele>97.7</ele>
    <time>2020-08-12T23:57:37Z</time>
   </trkpt>
   <trkpt lat="47.8062140" lon="-122.3615780">
    <ele>97.7</ele>
    <time>2020-08-12T23:57:38Z</time>
   </trkpt>
   <trkpt lat="47.8062440" lon="-122.3615720">
    <ele>97.7</ele>
    <time>2020-08-12T23:57:39Z</time>
   </trkpt>
   <trkpt lat="47.8062850" lon="-122.3615720">
    <ele>97.7</ele>
    <time>2020-08-12T23:57:40Z</time>
   </trkpt>
   <trkpt lat="47.8063280" lon="-122.3615790">
    <ele>97.6</ele>
    <time>2020-08-12T23:57:41Z</time>
   </trkpt>
   <trkpt lat="47.8063460" lon="-122.3615840">
    <ele>97.6</ele>
    <time>2020-08-12T23:57:42Z</time>
   </trkpt>
   <trkpt lat="47.8063650" lon="-122.3615770">
    <ele>97.6</ele>
    <time>2020-08-12T23:57:43Z</time>
   </trkpt>
   <trkpt lat="47.8063800" lon="-122.3616240">
    <ele>97.6</ele>
    <time>2020-08-12T23:57:45Z</time>
   </trkpt>
   <trkpt lat="47.8063980" lon="-122.3616620">
    <ele>97.6</ele>
    <time>2020-08-12T23:57:46Z</time>
   </trkpt>
   <trkpt lat="47.8064330" lon="-122.3616460">
    <ele>97.6</ele>
    <time>2020-08-12T23:57:47Z</time>
   </trkpt>
   <trkpt lat="47.8064480" lon="-122.3616060">
    <ele>97.7</ele>
    <time>2020-08-12T23:57:48Z</time>
   </trkpt>
   <trkpt lat="47.8064740" lon="-122.3615710">
    <ele>97.7</ele>
    <time>2020-08-12T23:57:49Z</time>
   </trkpt>
   <trkpt lat="47.8064900" lon="-122.3615690">
    <ele>97.7</ele>
    <time>2020-08-12T23:57:50Z</time>
   </trkpt>
   <trkpt lat="47.8065300" lon="-122.3615880">
    <ele>97.7</ele>
    <time>2020-08-12T23:57:51Z</time>
   </trkpt>
   <trkpt lat="47.8065710" lon="-122.3615910">
    <ele>97.7</ele>
    <time>2020-08-12T23:57:52Z</time>
   </trkpt>
   <trkpt lat="47.8066100" lon="-122.3615940">
    <ele>97.7</ele>
    <time>2020-08-12T23:57:53Z</time>
   </trkpt>
   <trkpt lat="47.8066550" lon="-122.3615880">
    <ele>97.6</ele>
    <time>2020-08-12T23:57:54Z</time>
   </trkpt>
   <trkpt lat="47.8066730" lon="-122.3615890">
    <ele>97.6</ele>
    <time>2020-08-12T23:57:55Z</time>
   </trkpt>
   <trkpt lat="47.8067130" lon="-122.3616000">
    <ele>97.6</ele>
    <time>2020-08-12T23:57:56Z</time>
   </trkpt>
   <trkpt lat="47.8067510" lon="-122.3615810">
    <ele>97.6</ele>
    <time>2020-08-12T23:57:57Z</time>
   </trkpt>
   <trkpt lat="47.8067820" lon="-122.3615960">
    <ele>97.5</ele>
    <time>2020-08-12T23:57:58Z</time>
   </trkpt>
   <trkpt lat="47.8068140" lon="-122.3616100">
    <ele>97.5</ele>
    <time>2020-08-12T23:57:59Z</time>
   </trkpt>
   <trkpt lat="47.8068570" lon="-122.3616100">
    <ele>97.4</ele>
    <time>2020-08-12T23:58:00Z</time>
   </trkpt>
   <trkpt lat="47.8068830" lon="-122.3616220">
    <ele>97.4</ele>
    <time>2020-08-12T23:58:01Z</time>
   </trkpt>
   <trkpt lat="47.8069230" lon="-122.3616280">
    <ele>97.4</ele>
    <time>2020-08-12T23:58:02Z</time>
   </trkpt>
   <trkpt lat="47.8069660" lon="-122.3616320">
    <ele>97.3</ele>
    <time>2020-08-12T23:58:03Z</time>
   </trkpt>
   <trkpt lat="47.8069830" lon="-122.3616330">
    <ele>97.3</ele>
    <time>2020-08-12T23:58:04Z</time>
   </trkpt>
   <trkpt lat="47.8070170" lon="-122.3616350">
    <ele>97.3</ele>
    <time>2020-08-12T23:58:05Z</time>
   </trkpt>
   <trkpt lat="47.8070300" lon="-122.3616380">
    <ele>97.3</ele>
    <time>2020-08-12T23:58:06Z</time>
   </trkpt>
   <trkpt lat="47.8070560" lon="-122.3616390">
    <ele>97.3</ele>
    <time>2020-08-12T23:58:07Z</time>
   </trkpt>
   <trkpt lat="47.8093330" lon="-122.3616710">
    <ele>75.2</ele>
    <time>2020-08-13T00:02:22Z</time>
   </trkpt>
   <trkpt lat="47.8093410" lon="-122.3616750">
    <ele>75.0</ele>
    <time>2020-08-13T00:02:23Z</time>
   </trkpt>
   <trkpt lat="47.8093530" lon="-122.3616790">
    <ele>74.8</ele>
    <time>2020-08-13T00:02:24Z</time>
   </trkpt>
   <trkpt lat="47.8093730" lon="-122.3616870">
    <ele>74.5</ele>
    <time>2020-08-13T00:02:25Z</time>
   </trkpt>
   <trkpt lat="47.8094120" lon="-122.3616880">
    <ele>73.8</ele>
    <time>2020-08-13T00:02:26Z</time>
   </trkpt>
   <trkpt lat="47.8094230" lon="-122.3616760">
    <ele>73.6</ele>
    <time>2020-08-13T00:02:27Z</time>
   </trkpt>
   <trkpt lat="47.8094400" lon="-122.3616650">
    <ele>73.2</ele>
    <time>2020-08-13T00:02:28Z</time>
   </trkpt>
   <trkpt lat="47.8094500" lon="-122.3616550">
    <ele>73.0</ele>
    <time>2020-08-13T00:02:29Z</time>
   </trkpt>
   <trkpt lat="47.8094690" lon="-122.3616370">
    <ele>72.7</ele>
    <time>2020-08-13T00:02:30Z</time>
   </trkpt>
   <trkpt lat="47.8095090" lon="-122.3616560">
    <ele>71.7</ele>
    <time>2020-08-13T00:02:31Z</time>
   </trkpt>
   <trkpt lat="47.8095230" lon="-122.3616690">
    <ele>71.3</ele>
    <time>2020-08-13T00:02:32Z</time>
   </trkpt>
   <trkpt lat="47.8095470" lon="-122.3616470">
    <ele>70.7</ele>
    <time>2020-08-13T00:02:33Z</time>
   </trkpt>
   <trkpt lat="47.8095570" lon="-122.3616420">
    <ele>70.4</ele>
    <time>2020-08-13T00:02:34Z</time>
   </trkpt>
   <trkpt lat="47.8095900" lon="-122.3616170">
    <ele>68.6</ele>
    <time>2020-08-13T00:02:35Z</time>
   </trkpt>
   <trkpt lat="47.8095980" lon="-122.3616050">
    <ele>68.1</ele>
    <time>2020-08-13T00:02:36Z</time>
   </trkpt>
   <trkpt lat="47.8096360" lon="-122.3616070">
    <ele>65.7</ele>
    <time>2020-08-13T00:02:37Z</time>
   </trkpt>
   <trkpt lat="47.8096490" lon="-122.3616110">
    <ele>65.7</ele>
    <time>2020-08-13T00:02:38Z</time>
   </trkpt>
   <trkpt lat="47.8096870" lon="-122.3616250">
    <ele>65.8</ele>
    <time>2020-08-13T00:02:39Z</time>
   </trkpt>
   <trkpt lat="47.8097250" lon="-122.3616120">
    <ele>65.9</ele>
    <time>2020-08-13T00:02:40Z</time>
   </trkpt>
   <trkpt lat="47.8097560" lon="-122.3616130">
    <ele>66.1</ele>
    <time>2020-08-13T00:02:41Z</time>
   </trkpt>
   <trkpt lat="47.8097860" lon="-122.3616480">
    <ele>66.2</ele>
    <time>2020-08-13T00:02:42Z</time>
   </trkpt>
   <trkpt lat="47.8098420" lon="-122.3616650">
    <ele>66.5</ele>
    <time>2020-08-13T00:02:43Z</time>
   </trkpt>
   <trkpt lat="47.8098780" lon="-122.3616750">
    <ele>66.8</ele>
    <time>2020-08-13T00:02:44Z</time>
   </trkpt>
   <trkpt lat="47.8099220" lon="-122.3616500">
    <ele>67.2</ele>
    <time>2020-08-13T00:02:45Z</time>
   </trkpt>
   <trkpt lat="47.8099650" lon="-122.3616410">
    <ele>67.6</ele>
    <time>2020-08-13T00:02:46Z</time>
   </trkpt>
   <trkpt lat="47.8100030" lon="-122.3616390">
    <ele>68.0</ele>
    <time>2020-08-13T00:02:47Z</time>
   </trkpt>
   <trkpt lat="47.8100420" lon="-122.3616240">
    <ele>68.4</ele>
    <time>2020-08-13T00:02:48Z</time>
   </trkpt>
   <trkpt lat="47.8100770" lon="-122.3616120">
    <ele>68.8</ele>
    <time>2020-08-13T00:02:49Z</time>
   </trkpt>
   <trkpt lat="47.8101200" lon="-122.3616140">
    <ele>69.3</ele>
    <time>2020-08-13T00:02:50Z</time>
   </trkpt>
   <trkpt lat="47.8101620" lon="-122.3616090">
    <ele>70.1</ele>
    <time>2020-08-13T00:02:51Z</time>
   </trkpt>
   <trkpt lat="47.8101970" lon="-122.3616150">
    <ele>70.4</ele>
    <time>2020-08-13T00:02:52Z</time>
   </trkpt>
   <trkpt lat="47.8102390" lon="-122.3616160">
    <ele>70.8</ele>
    <time>2020-08-13T00:02:53Z</time>
   </trkpt>
   <trkpt lat="47.8102730" lon="-122.3616200">
    <ele>71.0</ele>
    <time>2020-08-13T00:02:54Z</time>
   </trkpt>
   <trkpt lat="47.8103080" lon="-122.3616290">
    <ele>71.3</ele>
    <time>2020-08-13T00:02:55Z</time>
   </trkpt>
   <trkpt lat="47.8103450" lon="-122.3616410">
    <ele>71.7</ele>
    <time>2020-08-13T00:02:56Z</time>
   </trkpt>
   <trkpt lat="47.8103770" lon="-122.3616260">
    <ele>72.0</ele>
    <time>2020-08-13T00:02:57Z</time>
   </trkpt>
   <trkpt lat="47.8104160" lon="-122.3616520">
    <ele>72.3</ele>
    <time>2020-08-13T00:02:58Z</time>
   </trkpt>
   <trkpt lat="47.8104320" lon="-122.3617040">
    <ele>71.8</ele>
    <time>2020-08-13T00:02:59Z</time>
   </trkpt>
   <trkpt lat="47.8104430" lon="-122.3617730">
    <ele>71.2</ele>
    <time>2020-08-13T00:03:00Z</time>
   </trkpt>
   <trkpt lat="47.8104380" lon="-122.3618460">
    <ele>70.6</ele>
    <time>2020-08-13T00:03:01Z</time>
   </trkpt>
   <trkpt lat="47.8104420" lon="-122.3619160">
    <ele>70.0</ele>
    <time>2020-08-13T00:03:02Z</time>
   </trkpt>
   <trkpt lat="47.8104440" lon="-122.3619610">
    <ele>69.6</ele>
    <time>2020-08-13T00:03:03Z</time>
   </trkpt>
   <trkpt lat="47.8104470" lon="-122.3620160">
    <ele>69.1</ele>
    <time>2020-08-13T00:03:04Z</time>
   </trkpt>
   <trkpt lat="47.8104510" lon="-122.3620770">
    <ele>68.6</ele>
    <time>2020-08-13T00:03:05Z</time>
   </trkpt>
   <trkpt lat="47.8104590" lon="-122.3621410">
    <ele>68.0</ele>
    <time>2020-08-13T00:03:06Z</time>
   </trkpt>
   <trkpt lat="47.8104590" lon="-122.3622000">
    <ele>67.5</ele>
    <time>2020-08-13T00:03:07Z</time>
   </trkpt>
   <trkpt lat="47.8104670" lon="-122.3622710">
    <ele>67.0</ele>
    <time>2020-08-13T00:03:08Z</time>
   </trkpt>
   <trkpt lat="47.8104640" lon="-122.3623300">
    <ele>66.5</ele>
    <time>2020-08-13T00:03:09Z</time>
   </trkpt>
   <trkpt lat="47.8104640" lon="-122.3623860">
    <ele>66.1</ele>
    <time>2020-08-13T00:03:10Z</time>
   </trkpt>
   <trkpt lat="47.8104750" lon="-122.3624250">
    <ele>65.8</ele>
    <time>2020-08-13T00:03:11Z</time>
   </trkpt>
   <trkpt lat="47.8104780" lon="-122.3624950">
    <ele>65.2</ele>
    <time>2020-08-13T00:03:12Z</time>
   </trkpt>
   <trkpt lat="47.8104870" lon="-122.3625540">
    <ele>64.8</ele>
    <time>2020-08-13T00:03:13Z</time>
   </trkpt>
   <trkpt lat="47.8104940" lon="-122.3626680">
    <ele>64.0</ele>
    <time>2020-08-13T00:03:14Z</time>
   </trkpt>
   <trkpt lat="47.8104850" lon="-122.3627220">
    <ele>63.6</ele>
    <time>2020-08-13T00:03:16Z</time>
   </trkpt>
   <trkpt lat="47.8104840" lon="-122.3627880">
    <ele>63.1</ele>
    <time>2020-08-13T00:03:17Z</time>
   </trkpt>
   <trkpt lat="47.8104790" lon="-122.3628520">
    <ele>62.7</ele>
    <time>2020-08-13T00:03:18Z</time>
   </trkpt>
   <trkpt lat="47.8104980" lon="-122.3629100">
    <ele>62.2</ele>
    <time>2020-08-13T00:03:19Z</time>
   </trkpt>
   <trkpt lat="47.8104990" lon="-122.3629700">
    <ele>61.9</ele>
    <time>2020-08-13T00:03:20Z</time>
   </trkpt>
   <trkpt lat="47.8105030" lon="-122.3630300">
    <ele>61.5</ele>
    <time>2020-08-13T00:03:21Z</time>
   </trkpt>
   <trkpt lat="47.8105030" lon="-122.3630870">
    <ele>61.2</ele>
    <time>2020-08-13T00:03:22Z</time>
   </trkpt>
   <trkpt lat="47.8105030" lon="-122.3631500">
    <ele>60.9</ele>
    <time>2020-08-13T00:03:23Z</time>
   </trkpt>
   <trkpt lat="47.8104840" lon="-122.3632040">
    <ele>60.6</ele>
    <time>2020-08-13T00:03:24Z</time>
   </trkpt>
   <trkpt lat="47.8104820" lon="-122.3632530">
    <ele>60.4</ele>
    <time>2020-08-13T00:03:25Z</time>
   </trkpt>
   <trkpt lat="47.8104900" lon="-122.3633120">
    <ele>60.1</ele>
    <time>2020-08-13T00:03:26Z</time>
   </trkpt>
   <trkpt lat="47.8104980" lon="-122.3633610">
    <ele>59.9</ele>
    <time>2020-08-13T00:03:27Z</time>
   </trkpt>
   <trkpt lat="47.8104890" lon="-122.3634070">
    <ele>59.7</ele>
    <time>2020-08-13T00:03:28Z</time>
   </trkpt>
   <trkpt lat="47.8104850" lon="-122.3634710">
    <ele>59.5</ele>
    <time>2020-08-13T00:03:29Z</time>
   </trkpt>
   <trkpt lat="47.8104920" lon="-122.3635300">
    <ele>59.2</ele>
    <time>2020-08-13T00:03:30Z</time>
   </trkpt>
   <trkpt lat="47.8104750" lon="-122.3636000">
    <ele>59.0</ele>
    <time>2020-08-13T00:03:31Z</time>
   </trkpt>
   <trkpt lat="47.8104760" lon="-122.3636500">
    <ele>58.9</ele>
    <time>2020-08-13T00:03:32Z</time>
   </trkpt>
   <trkpt lat="47.8104850" lon="-122.3637080">
    <ele>58.7</ele>
    <time>2020-08-13T00:03:33Z</time>
   </trkpt>
   <trkpt lat="47.8104880" lon="-122.3637650">
    <ele>58.6</ele>
    <time>2020-08-13T00:03:34Z</time>
   </trkpt>
   <trkpt lat="47.8104910" lon="-122.3638310">
    <ele>58.4</ele>
    <time>2020-08-13T00:03:35Z</time>
   </trkpt>
   <trkpt lat="47.8104850" lon="-122.3638830">
    <ele>58.3</ele>
    <time>2020-08-13T00:03:36Z</time>
   </trkpt>
   <trkpt lat="47.8104940" lon="-122.3639330">
    <ele>58.2</ele>
    <time>2020-08-13T00:03:37Z</time>
   </trkpt>
   <trkpt lat="47.8104960" lon="-122.3639910">
    <ele>58.1</ele>
    <time>2020-08-13T00:03:38Z</time>
   </trkpt>
   <trkpt lat="47.8104930" lon="-122.3640570">
    <ele>58.1</ele>
    <time>2020-08-13T00:03:39Z</time>
   </trkpt>
   <trkpt lat="47.8105050" lon="-122.3641190">
    <ele>58.0</ele>
    <time>2020-08-13T00:03:40Z</time>
   </trkpt>
   <trkpt lat="47.8105150" lon="-122.3641850">
    <ele>57.9</ele>
    <time>2020-08-13T00:03:41Z</time>
   </trkpt>
   <trkpt lat="47.8105230" lon="-122.3642340">
    <ele>57.9</ele>
    <time>2020-08-13T00:03:42Z</time>
   </trkpt>
   <trkpt lat="47.8105260" lon="-122.3642810">
    <ele>57.9</ele>
    <time>2020-08-13T00:03:43Z</time>
   </trkpt>
   <trkpt lat="47.8105030" lon="-122.3643470">
    <ele>57.9</ele>
    <time>2020-08-13T00:03:44Z</time>
   </trkpt>
   <trkpt lat="47.8105010" lon="-122.3644050">
    <ele>57.9</ele>
    <time>2020-08-13T00:03:45Z</time>
   </trkpt>
   <trkpt lat="47.8104860" lon="-122.3644560">
    <ele>57.9</ele>
    <time>2020-08-13T00:03:46Z</time>
   </trkpt>
   <trkpt lat="47.8104970" lon="-122.3645120">
    <ele>58.0</ele>
    <time>2020-08-13T00:03:47Z</time>
   </trkpt>
   <trkpt lat="47.8105050" lon="-122.3645780">
    <ele>58.0</ele>
    <time>2020-08-13T00:03:48Z</time>
   </trkpt>
   <trkpt lat="47.8105060" lon="-122.3646310">
    <ele>58.0</ele>
    <time>2020-08-13T00:03:49Z</time>
   </trkpt>
   <trkpt lat="47.8105060" lon="-122.3647000">
    <ele>58.1</ele>
    <time>2020-08-13T00:03:50Z</time>
   </trkpt>
   <trkpt lat="47.8105090" lon="-122.3647550">
    <ele>58.2</ele>
    <time>2020-08-13T00:03:51Z</time>
   </trkpt>
   <trkpt lat="47.8105030" lon="-122.3648130">
    <ele>58.2</ele>
    <time>2020-08-13T00:03:52Z</time>
   </trkpt>
   <trkpt lat="47.8104900" lon="-122.3648890">
    <ele>58.3</ele>
    <time>2020-08-13T00:03:53Z</time>
   </trkpt>
   <trkpt lat="47.8104860" lon="-122.3649430">
    <ele>58.4</ele>
    <time>2020-08-13T00:03:54Z</time>
   </trkpt>
   <trkpt lat="47.8104710" lon="-122.3649870">
    <ele>58.4</ele>
    <time>2020-08-13T00:03:55Z</time>
   </trkpt>
   <trkpt lat="47.8104780" lon="-122.3650480">
    <ele>58.5</ele>
    <time>2020-08-13T00:03:56Z</time>
   </trkpt>
   <trkpt lat="47.8104790" lon="-122.3651070">
    <ele>58.5</ele>
    <time>2020-08-13T00:03:57Z</time>
   </trkpt>
   <trkpt lat="47.8104920" lon="-122.3651800">
    <ele>58.6</ele>
    <time>2020-08-13T00:03:58Z</time>
   </trkpt>
   <trkpt lat="47.8104950" lon="-122.3652180">
    <ele>58.6</ele>
    <time>2020-08-13T00:03:59Z</time>
   </trkpt>
   <trkpt lat="47.8104990" lon="-122.3652660">
    <ele>58.6</ele>
    <time>2020-08-13T00:04:00Z</time>
   </trkpt>
   <trkpt lat="47.8105070" lon="-122.3653220">
    <ele>58.7</ele>
    <time>2020-08-13T00:04:01Z</time>
   </trkpt>
   <trkpt lat="47.8104880" lon="-122.3653720">
    <ele>58.7</ele>
    <time>2020-08-13T00:04:02Z</time>
   </trkpt>
   <trkpt lat="47.8104800" lon="-122.3654240">
    <ele>58.8</ele>
    <time>2020-08-13T00:04:03Z</time>
   </trkpt>
   <trkpt lat="47.8104720" lon="-122.3654810">
    <ele>58.9</ele>
    <time>2020-08-13T00:04:04Z</time>
   </trkpt>
   <trkpt lat="47.8104680" lon="-122.3655440">
    <ele>59.0</ele>
    <time>2020-08-13T00:04:05Z</time>
   </trkpt>
   <trkpt lat="47.8104690" lon="-122.3656190">
    <ele>59.1</ele>
    <time>2020-08-13T00:04:06Z</time>
   </trkpt>
   <trkpt lat="47.8104680" lon="-122.3656540">
    <ele>59.2</ele>
    <time>2020-08-13T00:04:07Z</time>
   </trkpt>
   <trkpt lat="47.8104760" lon="-122.3657080">
    <ele>59.4</ele>
    <time>2020-08-13T00:04:08Z</time>
   </trkpt>
   <trkpt lat="47.8104870" lon="-122.3657650">
    <ele>59.6</ele>
    <time>2020-08-13T00:04:09Z</time>
   </trkpt>
   <trkpt lat="47.8104910" lon="-122.3658100">
    <ele>59.7</ele>
    <time>2020-08-13T00:04:10Z</time>
   </trkpt>
   <trkpt lat="47.8104970" lon="-122.3658570">
    <ele>59.9</ele>
    <time>2020-08-13T00:04:11Z</time>
   </trkpt>
   <trkpt lat="47.8104940" lon="-122.3659110">
    <ele>60.0</ele>
    <time>2020-08-13T00:04:12Z</time>
   </trkpt>
   <trkpt lat="47.8104890" lon="-122.3659580">
    <ele>60.2</ele>
    <time>2020-08-13T00:04:13Z</time>
   </trkpt>
   <trkpt lat="47.8104860" lon="-122.3660150">
    <ele>60.4</ele>
    <time>2020-08-13T00:04:14Z</time>
   </trkpt>
   <trkpt lat="47.8104930" lon="-122.3660750">
    <ele>60.6</ele>
    <time>2020-08-13T00:04:15Z</time>
   </trkpt>
   <trkpt lat="47.8105040" lon="-122.3661330">
    <ele>60.9</ele>
    <time>2020-08-13T00:04:16Z</time>
   </trkpt>
   <trkpt lat="47.8105020" lon="-122.3661850">
    <ele>61.1</ele>
    <time>2020-08-13T00:04:17Z</time>
   </trkpt>
   <trkpt lat="47.8104980" lon="-122.3662420">
    <ele>61.4</ele>
    <time>2020-08-13T00:04:18Z</time>
   </trkpt>
   <trkpt lat="47.8104940" lon="-122.3662980">
    <ele>61.6</ele>
    <time>2020-08-13T00:04:19Z</time>
   </trkpt>
   <trkpt lat="47.8105000" lon="-122.3663450">
    <ele>61.8</ele>
    <time>2020-08-13T00:04:20Z</time>
   </trkpt>
   <trkpt lat="47.8104990" lon="-122.3664090">
    <ele>62.1</ele>
    <time>2020-08-13T00:04:21Z</time>
   </trkpt>
   <trkpt lat="47.8104940" lon="-122.3664830">
    <ele>62.5</ele>
    <time>2020-08-13T00:04:22Z</time>
   </trkpt>
   <trkpt lat="47.8104920" lon="-122.3665260">
    <ele>62.7</ele>
    <time>2020-08-13T00:04:23Z</time>
   </trkpt>
   <trkpt lat="47.8104860" lon="-122.3665760">
    <ele>62.9</ele>
    <time>2020-08-13T00:04:24Z</time>
   </trkpt>
   <trkpt lat="47.8104860" lon="-122.3666300">
    <ele>63.2</ele>
    <time>2020-08-13T00:04:25Z</time>
   </trkpt>
   <trkpt lat="47.8105010" lon="-122.3666830">
    <ele>63.4</ele>
    <time>2020-08-13T00:04:26Z</time>
   </trkpt>
   <trkpt lat="47.8104950" lon="-122.3667400">
    <ele>63.6</ele>
    <time>2020-08-13T00:04:27Z</time>
   </trkpt>
   <trkpt lat="47.8104940" lon="-122.3667860">
    <ele>63.8</ele>
    <time>2020-08-13T00:04:28Z</time>
   </trkpt>
   <trkpt lat="47.8104890" lon="-122.3668370">
    <ele>63.9</ele>
    <time>2020-08-13T00:04:29Z</time>
   </trkpt>
   <trkpt lat="47.8104870" lon="-122.3668630">
    <ele>64.0</ele>
    <time>2020-08-13T00:04:30Z</time>
   </trkpt>
   <trkpt lat="47.8104870" lon="-122.3668810">
    <ele>64.0</ele>
    <time>2020-08-13T00:04:31Z</time>
   </trkpt>
   <trkpt lat="47.8104870" lon="-122.3669110">
    <ele>64.1</ele>
    <time>2020-08-13T00:04:32Z</time>
   </trkpt>
   <trkpt lat="47.8104840" lon="-122.3669230">
    <ele>64.1</ele>
    <time>2020-08-13T00:04:33Z</time>
   </trkpt>
   <trkpt lat="47.8104800" lon="-122.3669360">
    <ele>64.2</ele>
    <time>2020-08-13T00:04:34Z</time>
   </trkpt>
   <trkpt lat="47.8104770" lon="-122.3669480">
    <ele>64.2</ele>
    <time>2020-08-13T00:04:35Z</time>
   </trkpt>
   <trkpt lat="47.8104900" lon="-122.3670160">
    <ele>64.2</ele>
    <time>2020-08-13T00:04:36Z</time>
   </trkpt>
   <trkpt lat="47.8104850" lon="-122.3670660">
    <ele>64.1</ele>
    <time>2020-08-13T00:04:37Z</time>
   </trkpt>
   <trkpt lat="47.8104790" lon="-122.3671220">
    <ele>64.0</ele>
    <time>2020-08-13T00:04:38Z</time>
   </trkpt>
   <trkpt lat="47.8104500" lon="-122.3676550">
    <ele>62.9</ele>
    <time>2020-08-13T00:05:09Z</time>
   </trkpt>
   <trkpt lat="47.8104520" lon="-122.3676850">
    <ele>62.8</ele>
    <time>2020-08-13T00:05:10Z</time>
   </trkpt>
   <trkpt lat="47.8104550" lon="-122.3677140">
    <ele>62.8</ele>
    <time>2020-08-13T00:05:11Z</time>
   </trkpt>
   <trkpt lat="47.8104600" lon="-122.3677680">
    <ele>62.6</ele>
    <time>2020-08-13T00:05:12Z</time>
   </trkpt>
   <trkpt lat="47.8104570" lon="-122.3678230">
    <ele>62.5</ele>
    <time>2020-08-13T00:05:13Z</time>
   </trkpt>
   <trkpt lat="47.8104680" lon="-122.3678910">
    <ele>62.3</ele>
    <time>2020-08-13T00:05:14Z</time>
   </trkpt>
   <trkpt lat="47.8104700" lon="-122.3679370">
    <ele>62.1</ele>
    <time>2020-08-13T00:05:15Z</time>
   </trkpt>
   <trkpt lat="47.8104760" lon="-122.3679980">
    <ele>61.9</ele>
    <time>2020-08-13T00:05:16Z</time>
   </trkpt>
   <trkpt lat="47.8104780" lon="-122.3680380">
    <ele>61.8</ele>
    <time>2020-08-13T00:05:17Z</time>
   </trkpt>
   <trkpt lat="47.8104780" lon="-122.3681130">
    <ele>61.5</ele>
    <time>2020-08-13T00:05:18Z</time>
   </trkpt>
   <trkpt lat="47.8104740" lon="-122.3681750">
    <ele>61.2</ele>
    <time>2020-08-13T00:05:19Z</time>
   </trkpt>
   <trkpt lat="47.8104720" lon="-122.3681990">
    <ele>61.1</ele>
    <time>2020-08-13T00:05:20Z</time>
   </trkpt>
   <trkpt lat="47.8104670" lon="-122.3682640">
    <ele>60.7</ele>
    <time>2020-08-13T00:05:22Z</time>
   </trkpt>
   <trkpt lat="47.8104790" lon="-122.3683220">
    <ele>60.4</ele>
    <time>2020-08-13T00:05:23Z</time>
   </trkpt>
   <trkpt lat="47.8104710" lon="-122.3683900">
    <ele>60.0</ele>
    <time>2020-08-13T00:05:24Z</time>
   </trkpt>
   <trkpt lat="47.8104870" lon="-122.3684490">
    <ele>59.6</ele>
    <time>2020-08-13T00:05:25Z</time>
   </trkpt>
   <trkpt lat="47.8104920" lon="-122.3684750">
    <ele>59.5</ele>
    <time>2020-08-13T00:05:26Z</time>
   </trkpt>
   <trkpt lat="47.8104870" lon="-122.3685430">
    <ele>59.0</ele>
    <time>2020-08-13T00:05:27Z</time>
   </trkpt>
   <trkpt lat="47.8104910" lon="-122.3686120">
    <ele>58.6</ele>
    <time>2020-08-13T00:05:28Z</time>
   </trkpt>
   <trkpt lat="47.8104930" lon="-122.3686680">
    <ele>58.2</ele>
    <time>2020-08-13T00:05:29Z</time>
   </trkpt>
   <trkpt lat="47.8104940" lon="-122.3687370">
    <ele>57.7</ele>
    <time>2020-08-13T00:05:30Z</time>
   </trkpt>
   <trkpt lat="47.8104900" lon="-122.3687880">
    <ele>57.3</ele>
    <time>2020-08-13T00:05:31Z</time>
   </trkpt>
   <trkpt lat="47.8104920" lon="-122.3688450">
    <ele>56.9</ele>
    <time>2020-08-13T00:05:32Z</time>
   </trkpt>
   <trkpt lat="47.8104830" lon="-122.3688990">
    <ele>56.6</ele>
    <time>2020-08-13T00:05:33Z</time>
   </trkpt>
   <trkpt lat="47.8104840" lon="-122.3689450">
    <ele>56.2</ele>
    <time>2020-08-13T00:05:34Z</time>
   </trkpt>
   <trkpt lat="47.8104770" lon="-122.3690180">
    <ele>55.8</ele>
    <time>2020-08-13T00:05:35Z</time>
   </trkpt>
   <trkpt lat="47.8104760" lon="-122.3690690">
    <ele>55.4</ele>
    <time>2020-08-13T00:05:36Z</time>
   </trkpt>
   <trkpt lat="47.8104760" lon="-122.3691170">
    <ele>55.2</ele>
    <time>2020-08-13T00:05:37Z</time>
   </trkpt>
   <trkpt lat="47.8104750" lon="-122.3691770">
    <ele>54.8</ele>
    <time>2020-08-13T00:05:38Z</time>
   </trkpt>
   <trkpt lat="47.8104710" lon="-122.3692280">
    <ele>54.6</ele>
    <time>2020-08-13T00:05:39Z</time>
   </trkpt>
   <trkpt lat="47.8104750" lon="-122.3692870">
    <ele>54.2</ele>
    <time>2020-08-13T00:05:40Z</time>
   </trkpt>
   <trkpt lat="47.8104780" lon="-122.3693420">
    <ele>54.0</ele>
    <time>2020-08-13T00:05:41Z</time>
   </trkpt>
   <trkpt lat="47.8104790" lon="-122.3693910">
    <ele>53.8</ele>
    <time>2020-08-13T00:05:42Z</time>
   </trkpt>
   <trkpt lat="47.8104850" lon="-122.3694380">
    <ele>53.6</ele>
    <time>2020-08-13T00:05:43Z</time>
   </trkpt>
   <trkpt lat="47.8104830" lon="-122.3694810">
    <ele>53.4</ele>
    <time>2020-08-13T00:05:44Z</time>
   </trkpt>
   <trkpt lat="47.8104960" lon="-122.3695220">
    <ele>53.2</ele>
    <time>2020-08-13T00:05:45Z</time>
   </trkpt>
   <trkpt lat="47.8104980" lon="-122.3695770">
    <ele>53.0</ele>
    <time>2020-08-13T00:05:46Z</time>
   </trkpt>
   <trkpt lat="47.8104890" lon="-122.3696250">
    <ele>52.8</ele>
    <time>2020-08-13T00:05:47Z</time>
   </trkpt>
   <trkpt lat="47.8105090" lon="-122.3696620">
    <ele>52.6</ele>
    <time>2020-08-13T00:05:48Z</time>
   </trkpt>
   <trkpt lat="47.8105210" lon="-122.3696740">
    <ele>52.5</ele>
    <time>2020-08-13T00:05:49Z</time>
   </trkpt>
   <trkpt lat="47.8105610" lon="-122.3696710">
    <ele>52.3</ele>
    <time>2020-08-13T00:05:50Z</time>
   </trkpt>
   <trkpt lat="47.8105980" lon="-122.3696800">
    <ele>52.1</ele>
    <time>2020-08-13T00:05:51Z</time>
   </trkpt>
   <trkpt lat="47.8106220" lon="-122.3697100">
    <ele>51.9</ele>
    <time>2020-08-13T00:05:52Z</time>
   </trkpt>
   <trkpt lat="47.8106360" lon="-122.3697740">
    <ele>51.6</ele>
    <time>2020-08-13T00:05:53Z</time>
   </trkpt>
   <trkpt lat="47.8106360" lon="-122.3698090">
    <ele>51.4</ele>
    <time>2020-08-13T00:05:54Z</time>
   </trkpt>
   <trkpt lat="47.8106200" lon="-122.3698780">
    <ele>51.1</ele>
    <time>2020-08-13T00:05:55Z</time>
   </trkpt>
   <trkpt lat="47.8106320" lon="-122.3699290">
    <ele>50.9</ele>
    <time>2020-08-13T00:05:56Z</time>
   </trkpt>
   <trkpt lat="47.8106320" lon="-122.3699910">
    <ele>50.7</ele>
    <time>2020-08-13T00:05:57Z</time>
   </trkpt>
   <trkpt lat="47.8106380" lon="-122.3700510">
    <ele>50.4</ele>
    <time>2020-08-13T00:05:58Z</time>
   </trkpt>
   <trkpt lat="47.8106420" lon="-122.3700710">
    <ele>50.3</ele>
    <time>2020-08-13T00:05:59Z</time>
   </trkpt>
   <trkpt lat="47.8106340" lon="-122.3701260">
    <ele>50.1</ele>
    <time>2020-08-13T00:06:00Z</time>
   </trkpt>
   <trkpt lat="47.8106380" lon="-122.3701820">
    <ele>49.9</ele>
    <time>2020-08-13T00:06:01Z</time>
   </trkpt>
   <trkpt lat="47.8106420" lon="-122.3702340">
    <ele>49.6</ele>
    <time>2020-08-13T00:06:02Z</time>
   </trkpt>
   <trkpt lat="47.8106420" lon="-122.3702990">
    <ele>49.4</ele>
    <time>2020-08-13T00:06:03Z</time>
   </trkpt>
   <trkpt lat="47.8106400" lon="-122.3703540">
    <ele>49.2</ele>
    <time>2020-08-13T00:06:04Z</time>
   </trkpt>
   <trkpt lat="47.8106340" lon="-122.3704240">
    <ele>48.9</ele>
    <time>2020-08-13T00:06:05Z</time>
   </trkpt>
   <trkpt lat="47.8106290" lon="-122.3704810">
    <ele>48.6</ele>
    <time>2020-08-13T00:06:06Z</time>
   </trkpt>
   <trkpt lat="47.8106500" lon="-122.3705450">
    <ele>48.3</ele>
    <time>2020-08-13T00:06:07Z</time>
   </trkpt>
   <trkpt lat="47.8106550" lon="-122.3705990">
    <ele>48.1</ele>
    <time>2020-08-13T00:06:08Z</time>
   </trkpt>
   <trkpt lat="47.8106480" lon="-122.3706710">
    <ele>47.8</ele>
    <time>2020-08-13T00:06:09Z</time>
   </trkpt>
   <trkpt lat="47.8106360" lon="-122.3707360">
    <ele>47.6</ele>
    <time>2020-08-13T00:06:10Z</time>
   </trkpt>
   <trkpt lat="47.8106300" lon="-122.3707900">
    <ele>47.3</ele>
    <time>2020-08-13T00:06:11Z</time>
   </trkpt>
   <trkpt lat="47.8106390" lon="-122.3708420">
    <ele>47.1</ele>
    <time>2020-08-13T00:06:12Z</time>
   </trkpt>
   <trkpt lat="47.8106380" lon="-122.3709230">
    <ele>46.8</ele>
    <time>2020-08-13T00:06:13Z</time>
   </trkpt>
   <trkpt lat="47.8106240" lon="-122.3709750">
    <ele>46.6</ele>
    <time>2020-08-13T00:06:14Z</time>
   </trkpt>
   <trkpt lat="47.8106270" lon="-122.3710250">
    <ele>46.4</ele>
    <time>2020-08-13T00:06:15Z</time>
   </trkpt>
   <trkpt lat="47.8106340" lon="-122.3710750">
    <ele>46.2</ele>
    <time>2020-08-13T00:06:16Z</time>
   </trkpt>
   <trkpt lat="47.8106280" lon="-122.3711470">
    <ele>45.9</ele>
    <time>2020-08-13T00:06:17Z</time>
   </trkpt>
   <trkpt lat="47.8106330" lon="-122.3712020">
    <ele>45.7</ele>
    <time>2020-08-13T00:06:18Z</time>
   </trkpt>
   <trkpt lat="47.8106410" lon="-122.3712520">
    <ele>45.6</ele>
    <time>2020-08-13T00:06:19Z</time>
   </trkpt>
   <trkpt lat="47.8106510" lon="-122.3713030">
    <ele>45.5</ele>
    <time>2020-08-13T00:06:20Z</time>
   </trkpt>
   <trkpt lat="47.8106560" lon="-122.3713590">
    <ele>45.3</ele>
    <time>2020-08-13T00:06:21Z</time>
   </trkpt>
   <trkpt lat="47.8106610" lon="-122.3714280">
    <ele>45.1</ele>
    <time>2020-08-13T00:06:22Z</time>
   </trkpt>
   <trkpt lat="47.8106450" lon="-122.3715040">
    <ele>44.8</ele>
    <time>2020-08-13T00:06:23Z</time>
   </trkpt>
   <trkpt lat="47.8106480" lon="-122.3715640">
    <ele>44.6</ele>
    <time>2020-08-13T00:06:24Z</time>
   </trkpt>
   <trkpt lat="47.8106560" lon="-122.3716150">
    <ele>44.4</ele>
    <time>2020-08-13T00:06:25Z</time>
   </trkpt>
   <trkpt lat="47.8106390" lon="-122.3716740">
    <ele>44.2</ele>
    <time>2020-08-13T00:06:26Z</time>
   </trkpt>
   <trkpt lat="47.8106480" lon="-122.3717220">
    <ele>44.0</ele>
    <time>2020-08-13T00:06:27Z</time>
   </trkpt>
   <trkpt lat="47.8106440" lon="-122.3717730">
    <ele>43.9</ele>
    <time>2020-08-13T00:06:28Z</time>
   </trkpt>
   <trkpt lat="47.8106490" lon="-122.3718300">
    <ele>43.7</ele>
    <time>2020-08-13T00:06:29Z</time>
   </trkpt>
   <trkpt lat="47.8106430" lon="-122.3718700">
    <ele>43.6</ele>
    <time>2020-08-13T00:06:30Z</time>
   </trkpt>
   <trkpt lat="47.8106330" lon="-122.3719380">
    <ele>43.4</ele>
    <time>2020-08-13T00:06:31Z</time>
   </trkpt>
   <trkpt lat="47.8106410" lon="-122.3719970">
    <ele>43.2</ele>
    <time>2020-08-13T00:06:32Z</time>
   </trkpt>
   <trkpt lat="47.8106580" lon="-122.3720460">
    <ele>42.6</ele>
    <time>2020-08-13T00:06:33Z</time>
   </trkpt>
   <trkpt lat="47.8106500" lon="-122.3721080">
    <ele>42.6</ele>
    <time>2020-08-13T00:06:34Z</time>
   </trkpt>
   <trkpt lat="47.8106560" lon="-122.3721510">
    <ele>42.6</ele>
    <time>2020-08-13T00:06:35Z</time>
   </trkpt>
   <trkpt lat="47.8106670" lon="-122.3722010">
    <ele>42.5</ele>
    <time>2020-08-13T00:06:36Z</time>
   </trkpt>
   <trkpt lat="47.8106840" lon="-122.3722680">
    <ele>41.9</ele>
    <time>2020-08-13T00:06:37Z</time>
   </trkpt>
   <trkpt lat="47.8106780" lon="-122.3723210">
    <ele>41.6</ele>
    <time>2020-08-13T00:06:38Z</time>
   </trkpt>
   <trkpt lat="47.8106650" lon="-122.3723850">
    <ele>41.2</ele>
    <time>2020-08-13T00:06:39Z</time>
   </trkpt>
   <trkpt lat="47.8106540" lon="-122.3724380">
    <ele>40.8</ele>
    <time>2020-08-13T00:06:40Z</time>
   </trkpt>
   <trkpt lat="47.8106530" lon="-122.3724960">
    <ele>40.5</ele>
    <time>2020-08-13T00:06:41Z</time>
   </trkpt>
   <trkpt lat="47.8106520" lon="-122.3725670">
    <ele>40.0</ele>
    <time>2020-08-13T00:06:42Z</time>
   </trkpt>
   <trkpt lat="47.8106550" lon="-122.3726140">
    <ele>39.8</ele>
    <time>2020-08-13T00:06:43Z</time>
   </trkpt>
   <trkpt lat="47.8106660" lon="-122.3726640">
    <ele>39.4</ele>
    <time>2020-08-13T00:06:44Z</time>
   </trkpt>
   <trkpt lat="47.8106610" lon="-122.3727150">
    <ele>39.1</ele>
    <time>2020-08-13T00:06:45Z</time>
   </trkpt>
   <trkpt lat="47.8106620" lon="-122.3727550">
    <ele>38.9</ele>
    <time>2020-08-13T00:06:46Z</time>
   </trkpt>
   <trkpt lat="47.8106510" lon="-122.3728060">
    <ele>38.5</ele>
    <time>2020-08-13T00:06:47Z</time>
   </trkpt>
   <trkpt lat="47.8106510" lon="-122.3728720">
    <ele>38.1</ele>
    <time>2020-08-13T00:06:48Z</time>
   </trkpt>
   <trkpt lat="47.8106610" lon="-122.3729120">
    <ele>37.8</ele>
    <time>2020-08-13T00:06:49Z</time>
   </trkpt>
   <trkpt lat="47.8106540" lon="-122.3729740">
    <ele>37.4</ele>
    <time>2020-08-13T00:06:50Z</time>
   </trkpt>
   <trkpt lat="47.8106620" lon="-122.3730300">
    <ele>36.9</ele>
    <time>2020-08-13T00:06:51Z</time>
   </trkpt>
   <trkpt lat="47.8106640" lon="-122.3730770">
    <ele>36.6</ele>
    <time>2020-08-13T00:06:52Z</time>
   </trkpt>
   <trkpt lat="47.8106650" lon="-122.3731480">
    <ele>36.1</ele>
    <time>2020-08-13T00:06:53Z</time>
   </trkpt>
   <trkpt lat="47.8106660" lon="-122.3731990">
    <ele>35.7</ele>
    <time>2020-08-13T00:06:54Z</time>
   </trkpt>
   <trkpt lat="47.8106580" lon="-122.3732410">
    <ele>35.4</ele>
    <time>2020-08-13T00:06:55Z</time>
   </trkpt>
   <trkpt lat="47.8106530" lon="-122.3733540">
    <ele>34.6</ele>
    <time>2020-08-13T00:06:56Z</time>
   </trkpt>
   <trkpt lat="47.8106520" lon="-122.3734030">
    <ele>34.3</ele>
    <time>2020-08-13T00:06:57Z</time>
   </trkpt>
   <trkpt lat="47.8106510" lon="-122.3734620">
    <ele>33.9</ele>
    <time>2020-08-13T00:06:58Z</time>
   </trkpt>
   <trkpt lat="47.8106370" lon="-122.3735300">
    <ele>33.5</ele>
    <time>2020-08-13T00:06:59Z</time>
   </trkpt>
   <trkpt lat="47.8106370" lon="-122.3736030">
    <ele>33.1</ele>
    <time>2020-08-13T00:07:00Z</time>
   </trkpt>
   <trkpt lat="47.8106330" lon="-122.3736570">
    <ele>32.8</ele>
    <time>2020-08-13T00:07:01Z</time>
   </trkpt>
   <trkpt lat="47.8106490" lon="-122.3736950">
    <ele>32.6</ele>
    <time>2020-08-13T00:07:02Z</time>
   </trkpt>
   <trkpt lat="47.8106390" lon="-122.3737550">
    <ele>32.3</ele>
    <time>2020-08-13T00:07:03Z</time>
   </trkpt>
   <trkpt lat="47.8106340" lon="-122.3738120">
    <ele>32.0</ele>
    <time>2020-08-13T00:07:04Z</time>
   </trkpt>
   <trkpt lat="47.8106350" lon="-122.3738720">
    <ele>31.7</ele>
    <time>2020-08-13T00:07:05Z</time>
   </trkpt>
   <trkpt lat="47.8106430" lon="-122.3739190">
    <ele>31.5</ele>
    <time>2020-08-13T00:07:06Z</time>
   </trkpt>
   <trkpt lat="47.8106360" lon="-122.3739880">
    <ele>31.3</ele>
    <time>2020-08-13T00:07:07Z</time>
   </trkpt>
   <trkpt lat="47.8106430" lon="-122.3740320">
    <ele>31.1</ele>
    <time>2020-08-13T00:07:08Z</time>
   </trkpt>
   <trkpt lat="47.8106450" lon="-122.3741150">
    <ele>30.8</ele>
    <time>2020-08-13T00:07:09Z</time>
   </trkpt>
   <trkpt lat="47.8106410" lon="-122.3741710">
    <ele>30.6</ele>
    <time>2020-08-13T00:07:10Z</time>
   </trkpt>
   <trkpt lat="47.8106470" lon="-122.3742180">
    <ele>30.5</ele>
    <time>2020-08-13T00:07:11Z</time>
   </trkpt>
   <trkpt lat="47.8106470" lon="-122.3742880">
    <ele>30.2</ele>
    <time>2020-08-13T00:07:12Z</time>
   </trkpt>
   <trkpt lat="47.8106470" lon="-122.3743430">
    <ele>30.0</ele>
    <time>2020-08-13T00:07:13Z</time>
   </trkpt>
   <trkpt lat="47.8106370" lon="-122.3744060">
    <ele>29.7</ele>
    <time>2020-08-13T00:07:14Z</time>
   </trkpt>
   <trkpt lat="47.8106390" lon="-122.3744350">
    <ele>29.6</ele>
    <time>2020-08-13T00:07:15Z</time>
   </trkpt>
   <trkpt lat="47.8106540" lon="-122.3744840">
    <ele>29.4</ele>
    <time>2020-08-13T00:07:16Z</time>
   </trkpt>
   <trkpt lat="47.8106370" lon="-122.3745450">
    <ele>29.1</ele>
    <time>2020-08-13T00:07:17Z</time>
   </trkpt>
   <trkpt lat="47.8106370" lon="-122.3746010">
    <ele>28.9</ele>
    <time>2020-08-13T00:07:18Z</time>
   </trkpt>
   <trkpt lat="47.8106430" lon="-122.3746530">
    <ele>28.7</ele>
    <time>2020-08-13T00:07:19Z</time>
   </trkpt>
   <trkpt lat="47.8106440" lon="-122.3747110">
    <ele>28.5</ele>
    <time>2020-08-13T00:07:20Z</time>
   </trkpt>
   <trkpt lat="47.8106450" lon="-122.3747390">
    <ele>28.4</ele>
    <time>2020-08-13T00:07:21Z</time>
   </trkpt>
   <trkpt lat="47.8106380" lon="-122.3747560">
    <ele>28.3</ele>
    <time>2020-08-13T00:07:22Z</time>
   </trkpt>
   <trkpt lat="47.8106300" lon="-122.3747800">
    <ele>28.2</ele>
    <time>2020-08-13T00:07:23Z</time>
   </trkpt>
   <trkpt lat="47.8106270" lon="-122.3747940">
    <ele>28.2</ele>
    <time>2020-08-13T00:07:24Z</time>
   </trkpt>
   <trkpt lat="47.8106230" lon="-122.3748050">
    <ele>28.2</ele>
    <time>2020-08-13T00:07:25Z</time>
   </trkpt>
   <trkpt lat="47.8106260" lon="-122.3748050">
    <ele>28.2</ele>
    <time>2020-08-13T00:07:26Z</time>
   </trkpt>
   <trkpt lat="47.8106200" lon="-122.3748030">
    <ele>28.2</ele>
    <time>2020-08-13T00:07:28Z</time>
   </trkpt>
   <trkpt lat="47.8106120" lon="-122.3748030">
    <ele>28.1</ele>
    <time>2020-08-13T00:07:29Z</time>
   </trkpt>
   <trkpt lat="47.8106110" lon="-122.3748320">
    <ele>28.1</ele>
    <time>2020-08-13T00:07:30Z</time>
   </trkpt>
   <trkpt lat="47.8106160" lon="-122.3748800">
    <ele>28.0</ele>
    <time>2020-08-13T00:07:31Z</time>
   </trkpt>
   <trkpt lat="47.8106240" lon="-122.3749340">
    <ele>27.9</ele>
    <time>2020-08-13T00:07:32Z</time>
   </trkpt>
   <trkpt lat="47.8106170" lon="-122.3749860">
    <ele>27.9</ele>
    <time>2020-08-13T00:07:33Z</time>
   </trkpt>
   <trkpt lat="47.8106240" lon="-122.3750520">
    <ele>27.7</ele>
    <time>2020-08-13T00:07:34Z</time>
   </trkpt>
   <trkpt lat="47.8106180" lon="-122.3751120">
    <ele>27.4</ele>
    <time>2020-08-13T00:07:35Z</time>
   </trkpt>
   <trkpt lat="47.8106130" lon="-122.3751570">
    <ele>27.2</ele>
    <time>2020-08-13T00:07:36Z</time>
   </trkpt>
   <trkpt lat="47.8106020" lon="-122.3752170">
    <ele>26.8</ele>
    <time>2020-08-13T00:07:37Z</time>
   </trkpt>
   <trkpt lat="47.8106010" lon="-122.3752790">
    <ele>26.5</ele>
    <time>2020-08-13T00:07:38Z</time>
   </trkpt>
   <trkpt lat="47.8106130" lon="-122.3753310">
    <ele>26.3</ele>
    <time>2020-08-13T00:07:39Z</time>
   </trkpt>
   <trkpt lat="47.8106200" lon="-122.3753500">
    <ele>26.1</ele>
    <time>2020-08-13T00:07:40Z</time>
   </trkpt>
   <trkpt lat="47.8106260" lon="-122.3753930">
    <ele>25.9</ele>
    <time>2020-08-13T00:07:41Z</time>
   </trkpt>
   <trkpt lat="47.8106340" lon="-122.3754410">
    <ele>25.7</ele>
    <time>2020-08-13T00:07:42Z</time>
   </trkpt>
   <trkpt lat="47.8106290" lon="-122.3755080">
    <ele>25.4</ele>
    <time>2020-08-13T00:07:43Z</time>
   </trkpt>
   <trkpt lat="47.8106190" lon="-122.3755540">
    <ele>25.2</ele>
    <time>2020-08-13T00:07:44Z</time>
   </trkpt>
   <trkpt lat="47.8106140" lon="-122.3756130">
    <ele>25.0</ele>
    <time>2020-08-13T00:07:45Z</time>
   </trkpt>
   <trkpt lat="47.8106250" lon="-122.3756510">
    <ele>24.8</ele>
    <time>2020-08-13T00:07:46Z</time>
   </trkpt>
   <trkpt lat="47.8106410" lon="-122.3757060">
    <ele>24.6</ele>
    <time>2020-08-13T00:07:47Z</time>
   </trkpt>
   <trkpt lat="47.8106440" lon="-122.3757370">
    <ele>24.5</ele>
    <time>2020-08-13T00:07:48Z</time>
   </trkpt>
   <trkpt lat="47.8106490" lon="-122.3757830">
    <ele>24.3</ele>
    <time>2020-08-13T00:07:49Z</time>
   </trkpt>
   <trkpt lat="47.8106550" lon="-122.3758330">
    <ele>24.1</ele>
    <time>2020-08-13T00:07:50Z</time>
   </trkpt>
   <trkpt lat="47.8106380" lon="-122.3759070">
    <ele>23.7</ele>
    <time>2020-08-13T00:07:51Z</time>
   </trkpt>
   <trkpt lat="47.8106410" lon="-122.3759620">
    <ele>23.5</ele>
    <time>2020-08-13T00:07:52Z</time>
   </trkpt>
   <trkpt lat="47.8106350" lon="-122.3760200">
    <ele>23.3</ele>
    <time>2020-08-13T00:07:53Z</time>
   </trkpt>
   <trkpt lat="47.8106440" lon="-122.3760620">
    <ele>23.1</ele>
    <time>2020-08-13T00:07:54Z</time>
   </trkpt>
   <trkpt lat="47.8106600" lon="-122.3761200">
    <ele>22.9</ele>
    <time>2020-08-13T00:07:55Z</time>
   </trkpt>
   <trkpt lat="47.8106410" lon="-122.3761860">
    <ele>22.7</ele>
    <time>2020-08-13T00:07:56Z</time>
   </trkpt>
   <trkpt lat="47.8106440" lon="-122.3762280">
    <ele>22.5</ele>
    <time>2020-08-13T00:07:57Z</time>
   </trkpt>
   <trkpt lat="47.8106380" lon="-122.3762860">
    <ele>22.3</ele>
    <time>2020-08-13T00:07:58Z</time>
   </trkpt>
   <trkpt lat="47.8106360" lon="-122.3763400">
    <ele>22.2</ele>
    <time>2020-08-13T00:07:59Z</time>
   </trkpt>
   <trkpt lat="47.8106500" lon="-122.3764030">
    <ele>22.0</ele>
    <time>2020-08-13T00:08:00Z</time>
   </trkpt>
   <trkpt lat="47.8106540" lon="-122.3764650">
    <ele>21.8</ele>
    <time>2020-08-13T00:08:01Z</time>
   </trkpt>
   <trkpt lat="47.8106510" lon="-122.3764890">
    <ele>21.7</ele>
    <time>2020-08-13T00:08:02Z</time>
   </trkpt>
   <trkpt lat="47.8106420" lon="-122.3765350">
    <ele>21.6</ele>
    <time>2020-08-13T00:08:03Z</time>
   </trkpt>
   <trkpt lat="47.8106370" lon="-122.3765980">
    <ele>21.4</ele>
    <time>2020-08-13T00:08:04Z</time>
   </trkpt>
   <trkpt lat="47.8106320" lon="-122.3766580">
    <ele>21.2</ele>
    <time>2020-08-13T00:08:05Z</time>
   </trkpt>
   <trkpt lat="47.8106230" lon="-122.3767230">
    <ele>21.0</ele>
    <time>2020-08-13T00:08:06Z</time>
   </trkpt>
   <trkpt lat="47.8106140" lon="-122.3767530">
    <ele>20.9</ele>
    <time>2020-08-13T00:08:07Z</time>
   </trkpt>
   <trkpt lat="47.8106190" lon="-122.3767930">
    <ele>20.8</ele>
    <time>2020-08-13T00:08:08Z</time>
   </trkpt>
   <trkpt lat="47.8106170" lon="-122.3768530">
    <ele>20.7</ele>
    <time>2020-08-13T00:08:09Z</time>
   </trkpt>
   <trkpt lat="47.8106150" lon="-122.3769090">
    <ele>20.5</ele>
    <time>2020-08-13T00:08:10Z</time>
   </trkpt>
   <trkpt lat="47.8106070" lon="-122.3769600">
    <ele>20.4</ele>
    <time>2020-08-13T00:08:11Z</time>
   </trkpt>
   <trkpt lat="47.8106040" lon="-122.3770170">
    <ele>20.3</ele>
    <time>2020-08-13T00:08:12Z</time>
   </trkpt>
   <trkpt lat="47.8106080" lon="-122.3770690">
    <ele>20.2</ele>
    <time>2020-08-13T00:08:13Z</time>
   </trkpt>
   <trkpt lat="47.8106290" lon="-122.3771030">
    <ele>20.1</ele>
    <time>2020-08-13T00:08:14Z</time>
   </trkpt>
   <trkpt lat="47.8106440" lon="-122.3771410">
    <ele>20.0</ele>
    <time>2020-08-13T00:08:15Z</time>
   </trkpt>
   <trkpt lat="47.8106490" lon="-122.3771890">
    <ele>19.9</ele>
    <time>2020-08-13T00:08:16Z</time>
   </trkpt>
   <trkpt lat="47.8106480" lon="-122.3772070">
    <ele>19.8</ele>
    <time>2020-08-13T00:08:17Z</time>
   </trkpt>
   <trkpt lat="47.8106540" lon="-122.3772240">
    <ele>19.8</ele>
    <time>2020-08-13T00:08:18Z</time>
   </trkpt>
   <trkpt lat="47.8106380" lon="-122.3772480">
    <ele>19.7</ele>
    <time>2020-08-13T00:08:19Z</time>
   </trkpt>
   <trkpt lat="47.8106120" lon="-122.3772740">
    <ele>19.7</ele>
    <time>2020-08-13T00:08:20Z</time>
   </trkpt>
   <trkpt lat="47.8106060" lon="-122.3772810">
    <ele>19.7</ele>
    <time>2020-08-13T00:08:21Z</time>
   </trkpt>
   <trkpt lat="47.8105910" lon="-122.3773040">
    <ele>19.6</ele>
    <time>2020-08-13T00:08:22Z</time>
   </trkpt>
   <trkpt lat="47.8105850" lon="-122.3773250">
    <ele>19.6</ele>
    <time>2020-08-13T00:08:23Z</time>
   </trkpt>
   <trkpt lat="47.8097940" lon="-122.3803140">
    <ele>13.3</ele>
    <time>2020-08-13T00:11:13Z</time>
   </trkpt>
   <trkpt lat="47.8097940" lon="-122.3803360">
    <ele>13.3</ele>
    <time>2020-08-13T00:11:14Z</time>
   </trkpt>
   <trkpt lat="47.8097950" lon="-122.3803570">
    <ele>13.2</ele>
    <time>2020-08-13T00:11:15Z</time>
   </trkpt>
   <trkpt lat="47.8097840" lon="-122.3804060">
    <ele>12.7</ele>
    <time>2020-08-13T00:11:16Z</time>
   </trkpt>
   <trkpt lat="47.8097830" lon="-122.3804210">
    <ele>12.6</ele>
    <time>2020-08-13T00:11:17Z</time>
   </trkpt>
   <trkpt lat="47.8097780" lon="-122.3804750">
    <ele>12.3</ele>
    <time>2020-08-13T00:11:18Z</time>
   </trkpt>
   <trkpt lat="47.8097770" lon="-122.3804910">
    <ele>12.2</ele>
    <time>2020-08-13T00:11:19Z</time>
   </trkpt>
   <trkpt lat="47.8097800" lon="-122.3805390">
    <ele>12.0</ele>
    <time>2020-08-13T00:11:20Z</time>
   </trkpt>
   <trkpt lat="47.8097850" lon="-122.3805580">
    <ele>11.9</ele>
    <time>2020-08-13T00:11:21Z</time>
   </trkpt>
   <trkpt lat="47.8097730" lon="-122.3806100">
    <ele>11.7</ele>
    <time>2020-08-13T00:11:22Z</time>
   </trkpt>
   <trkpt lat="47.8097710" lon="-122.3806300">
    <ele>11.5</ele>
    <time>2020-08-13T00:11:23Z</time>
   </trkpt>
   <trkpt lat="47.8097750" lon="-122.3806830">
    <ele>11.2</ele>
    <time>2020-08-13T00:11:24Z</time>
   </trkpt>
   <trkpt lat="47.8097800" lon="-122.3807010">
    <ele>11.1</ele>
    <time>2020-08-13T00:11:25Z</time>
   </trkpt>
   <trkpt lat="47.8097750" lon="-122.3807470">
    <ele>10.9</ele>
    <time>2020-08-13T00:11:26Z</time>
   </trkpt>
   <trkpt lat="47.8097800" lon="-122.3808140">
    <ele>10.5</ele>
    <time>2020-08-13T00:11:27Z</time>
   </trkpt>
   <trkpt lat="47.8097920" lon="-122.3809050">
    <ele>10.0</ele>
    <time>2020-08-13T00:11:28Z</time>
   </trkpt>
   <trkpt lat="47.8097940" lon="-122.3809700">
    <ele>9.6</ele>
    <time>2020-08-13T00:11:29Z</time>
   </trkpt>
   <trkpt lat="47.8097910" lon="-122.3810500">
    <ele>9.1</ele>
    <time>2020-08-13T00:11:30Z</time>
   </trkpt>
   <trkpt lat="47.8097890" lon="-122.3811120">
    <ele>8.7</ele>
    <time>2020-08-13T00:11:31Z</time>
   </trkpt>
   <trkpt lat="47.8097930" lon="-122.3811820">
    <ele>8.3</ele>
    <time>2020-08-13T00:11:32Z</time>
   </trkpt>
   <trkpt lat="47.8097920" lon="-122.3812490">
    <ele>8.0</ele>
    <time>2020-08-13T00:11:33Z</time>
   </trkpt>
   <trkpt lat="47.8098000" lon="-122.3813100">
    <ele>7.7</ele>
    <time>2020-08-13T00:11:34Z</time>
   </trkpt>
   <trkpt lat="47.8098140" lon="-122.3813670">
    <ele>7.4</ele>
    <time>2020-08-13T00:11:35Z</time>
   </trkpt>
   <trkpt lat="47.8098110" lon="-122.3814380">
    <ele>7.0</ele>
    <time>2020-08-13T00:11:36Z</time>
   </trkpt>
   <trkpt lat="47.8098100" lon="-122.3814910">
    <ele>6.8</ele>
    <time>2020-08-13T00:11:37Z</time>
   </trkpt>
   <trkpt lat="47.8098200" lon="-122.3815590">
    <ele>6.5</ele>
    <time>2020-08-13T00:11:38Z</time>
   </trkpt>
   <trkpt lat="47.8098190" lon="-122.3816310">
    <ele>6.1</ele>
    <time>2020-08-13T00:11:40Z</time>
   </trkpt>
   <trkpt lat="47.8098410" lon="-122.3816910">
    <ele>5.8</ele>
    <time>2020-08-13T00:11:41Z</time>
   </trkpt>
   <trkpt lat="47.8098380" lon="-122.3817600">
    <ele>5.6</ele>
    <time>2020-08-13T00:11:42Z</time>
   </trkpt>
   <trkpt lat="47.8098320" lon="-122.3818220">
    <ele>5.3</ele>
    <time>2020-08-13T00:11:43Z</time>
   </trkpt>
   <trkpt lat="47.8098350" lon="-122.3818770">
    <ele>5.3</ele>
    <time>2020-08-13T00:11:44Z</time>
   </trkpt>
   <trkpt lat="47.8098330" lon="-122.3819310">
    <ele>5.2</ele>
    <time>2020-08-13T00:11:45Z</time>
   </trkpt>
   <trkpt lat="47.8098270" lon="-122.3819850">
    <ele>5.1</ele>
    <time>2020-08-13T00:11:46Z</time>
   </trkpt>
   <trkpt lat="47.8098330" lon="-122.3820370">
    <ele>5.0</ele>
    <time>2020-08-13T00:11:47Z</time>
   </trkpt>
   <trkpt lat="47.8098290" lon="-122.3820950">
    <ele>4.8</ele>
    <time>2020-08-13T00:11:48Z</time>
   </trkpt>
   <trkpt lat="47.8098170" lon="-122.3821470">
    <ele>4.7</ele>
    <time>2020-08-13T00:11:49Z</time>
   </trkpt>
   <trkpt lat="47.8098190" lon="-122.3822000">
    <ele>4.6</ele>
    <time>2020-08-13T00:11:50Z</time>
   </trkpt>
   <trkpt lat="47.8098240" lon="-122.3822540">
    <ele>4.5</ele>
    <time>2020-08-13T00:11:51Z</time>
   </trkpt>
   <trkpt lat="47.8098160" lon="-122.3823160">
    <ele>4.3</ele>
    <time>2020-08-13T00:11:52Z</time>
   </trkpt>
   <trkpt lat="47.8098180" lon="-122.3823660">
    <ele>4.2</ele>
    <time>2020-08-13T00:11:53Z</time>
   </trkpt>
   <trkpt lat="47.8098170" lon="-122.3824180">
    <ele>4.1</ele>
    <time>2020-08-13T00:11:54Z</time>
   </trkpt>
   <trkpt lat="47.8098260" lon="-122.3824670">
    <ele>4.0</ele>
    <time>2020-08-13T00:11:55Z</time>
   </trkpt>
   <trkpt lat="47.8098330" lon="-122.3825180">
    <ele>4.0</ele>
    <time>2020-08-13T00:11:56Z</time>
   </trkpt>
   <trkpt lat="47.8098490" lon="-122.3825620">
    <ele>3.9</ele>
    <time>2020-08-13T00:11:57Z</time>
   </trkpt>
   <trkpt lat="47.8098430" lon="-122.3826190">
    <ele>3.8</ele>
    <time>2020-08-13T00:11:58Z</time>
   </trkpt>
   <trkpt lat="47.8098570" lon="-122.3826870">
    <ele>3.8</ele>
    <time>2020-08-13T00:11:59Z</time>
   </trkpt>
   <trkpt lat="47.8098480" lon="-122.3827450">
    <ele>3.7</ele>
    <time>2020-08-13T00:12:00Z</time>
   </trkpt>
   <trkpt lat="47.8098460" lon="-122.3827930">
    <ele>3.7</ele>
    <time>2020-08-13T00:12:01Z</time>
   </trkpt>
   <trkpt lat="47.8098550" lon="-122.3828380">
    <ele>3.7</ele>
    <time>2020-08-13T00:12:02Z</time>
   </trkpt>
   <trkpt lat="47.8098530" lon="-122.3828860">
    <ele>3.7</ele>
    <time>2020-08-13T00:12:03Z</time>
   </trkpt>
   <trkpt lat="47.8098780" lon="-122.3829280">
    <ele>3.3</ele>
    <time>2020-08-13T00:12:04Z</time>
   </trkpt>
   <trkpt lat="47.8099100" lon="-122.3829520">
    <ele>3.3</ele>
    <time>2020-08-13T00:12:05Z</time>
   </trkpt>
   <trkpt lat="47.8099440" lon="-122.3829590">
    <ele>3.2</ele>
    <time>2020-08-13T00:12:06Z</time>
   </trkpt>
   <trkpt lat="47.8099730" lon="-122.3829750">
    <ele>3.2</ele>
    <time>2020-08-13T00:12:07Z</time>
   </trkpt>
   <trkpt lat="47.8100120" lon="-122.3829770">
    <ele>3.2</ele>
    <time>2020-08-13T00:12:08Z</time>
   </trkpt>
   <trkpt lat="47.8100420" lon="-122.3829990">
    <ele>3.2</ele>
    <time>2020-08-13T00:12:09Z</time>
   </trkpt>
   <trkpt lat="47.8100700" lon="-122.3829930">
    <ele>3.2</ele>
    <time>2020-08-13T00:12:10Z</time>
   </trkpt>
   <trkpt lat="47.8100790" lon="-122.3829880">
    <ele>3.2</ele>
    <time>2020-08-13T00:12:11Z</time>
   </trkpt>
   <trkpt lat="47.8100980" lon="-122.3830140">
    <ele>3.2</ele>
    <time>2020-08-13T00:12:12Z</time>
   </trkpt>
   <trkpt lat="47.8101070" lon="-122.3830230">
    <ele>3.2</ele>
    <time>2020-08-13T00:12:13Z</time>
   </trkpt>
   <trkpt lat="47.8101210" lon="-122.3830350">
    <ele>3.2</ele>
    <time>2020-08-13T00:12:14Z</time>
   </trkpt>
   <trkpt lat="47.8101370" lon="-122.3830490">
    <ele>3.2</ele>
    <time>2020-08-13T00:12:15Z</time>
   </trkpt>
   <trkpt lat="47.8101640" lon="-122.3830690">
    <ele>3.2</ele>
    <time>2020-08-13T00:12:16Z</time>
   </trkpt>
   <trkpt lat="47.8101740" lon="-122.3830720">
    <ele>3.2</ele>
    <time>2020-08-13T00:12:17Z</time>
   </trkpt>
   <trkpt lat="47.8101900" lon="-122.3830820">
    <ele>3.2</ele>
    <time>2020-08-13T00:12:18Z</time>
   </trkpt>
   <trkpt lat="47.8102060" lon="-122.3830770">
    <ele>3.2</ele>
    <time>2020-08-13T00:12:19Z</time>
   </trkpt>
   <trkpt lat="47.8102230" lon="-122.3830870">
    <ele>3.2</ele>
    <time>2020-08-13T00:12:20Z</time>
   </trkpt>
   <trkpt lat="47.8107970" lon="-122.3826850">
    <ele>3.4</ele>
    <time>2020-08-13T00:13:09Z</time>
   </trkpt>
   <trkpt lat="47.8108140" lon="-122.3826660">
    <ele>3.4</ele>
    <time>2020-08-13T00:13:10Z</time>
   </trkpt>
   <trkpt lat="47.8108380" lon="-122.3826420">
    <ele>3.4</ele>
    <time>2020-08-13T00:13:11Z</time>
   </trkpt>
   <trkpt lat="47.8108610" lon="-122.3826140">
    <ele>3.4</ele>
    <time>2020-08-13T00:13:12Z</time>
   </trkpt>
   <trkpt lat="47.8108690" lon="-122.3825970">
    <ele>3.4</ele>
    <time>2020-08-13T00:13:13Z</time>
   </trkpt>
   <trkpt lat="47.8108980" lon="-122.3825640">
    <ele>3.4</ele>
    <time>2020-08-13T00:13:14Z</time>
   </trkpt>
   <trkpt lat="47.8109160" lon="-122.3825230">
    <ele>3.4</ele>
    <time>2020-08-13T00:13:15Z</time>
   </trkpt>
   <trkpt lat="47.8109330" lon="-122.3824900">
    <ele>3.4</ele>
    <time>2020-08-13T00:13:16Z</time>
   </trkpt>
   <trkpt lat="47.8109520" lon="-122.3824560">
    <ele>3.4</ele>
    <time>2020-08-13T00:13:17Z</time>
   </trkpt>
   <trkpt lat="47.8109690" lon="-122.3824230">
    <ele>3.3</ele>
    <time>2020-08-13T00:13:18Z</time>
   </trkpt>
   <trkpt lat="47.8109910" lon="-122.3823980">
    <ele>3.3</ele>
    <time>2020-08-13T00:13:19Z</time>
   </trkpt>
   <trkpt lat="47.8110130" lon="-122.3823710">
    <ele>3.3</ele>
    <time>2020-08-13T00:13:20Z</time>
   </trkpt>
   <trkpt lat="47.8110570" lon="-122.3823470">
    <ele>3.3</ele>
    <time>2020-08-13T00:13:21Z</time>
   </trkpt>
   <trkpt lat="47.8110850" lon="-122.3823210">
    <ele>3.3</ele>
    <time>2020-08-13T00:13:22Z</time>
   </trkpt>
   <trkpt lat="47.8111060" lon="-122.3822930">
    <ele>3.3</ele>
    <time>2020-08-13T00:13:23Z</time>
   </trkpt>
   <trkpt lat="47.8111580" lon="-122.3822790">
    <ele>3.2</ele>
    <time>2020-08-13T00:13:24Z</time>
   </trkpt>
   <trkpt lat="47.8112210" lon="-122.3822400">
    <ele>3.3</ele>
    <time>2020-08-13T00:13:25Z</time>
   </trkpt>
   <trkpt lat="47.8112720" lon="-122.3822130">
    <ele>3.4</ele>
    <time>2020-08-13T00:13:26Z</time>
   </trkpt>
   <trkpt lat="47.8113180" lon="-122.3821760">
    <ele>3.4</ele>
    <time>2020-08-13T00:13:27Z</time>
   </trkpt>
   <trkpt lat="47.8113640" lon="-122.3821540">
    <ele>3.5</ele>
    <time>2020-08-13T00:13:28Z</time>
   </trkpt>
   <trkpt lat="47.8114180" lon="-122.3821360">
    <ele>3.6</ele>
    <time>2020-08-13T00:13:29Z</time>
   </trkpt>
   <trkpt lat="47.8114490" lon="-122.3820970">
    <ele>3.7</ele>
    <time>2020-08-13T00:13:30Z</time>
   </trkpt>
   <trkpt lat="47.8114820" lon="-122.3820720">
    <ele>3.8</ele>
    <time>2020-08-13T00:13:31Z</time>
   </trkpt>
   <trkpt lat="47.8115440" lon="-122.3820560">
    <ele>3.9</ele>
    <time>2020-08-13T00:13:32Z</time>
   </trkpt>
   <trkpt lat="47.8115740" lon="-122.3820230">
    <ele>4.0</ele>
    <time>2020-08-13T00:13:33Z</time>
   </trkpt>
   <trkpt lat="47.8116090" lon="-122.3820060">
    <ele>4.1</ele>
    <time>2020-08-13T00:13:34Z</time>
   </trkpt>
   <trkpt lat="47.8116370" lon="-122.3819840">
    <ele>4.2</ele>
    <time>2020-08-13T00:13:35Z</time>
   </trkpt>
   <trkpt lat="47.8116620" lon="-122.3819640">
    <ele>4.2</ele>
    <time>2020-08-13T00:13:36Z</time>
   </trkpt>
   <trkpt lat="47.8117040" lon="-122.3819360">
    <ele>4.4</ele>
    <time>2020-08-13T00:13:37Z</time>
   </trkpt>
   <trkpt lat="47.8117230" lon="-122.3819220">
    <ele>4.4</ele>
    <time>2020-08-13T00:13:38Z</time>
   </trkpt>
   <trkpt lat="47.8117610" lon="-122.3818900">
    <ele>4.5</ele>
    <time>2020-08-13T00:13:39Z</time>
   </trkpt>
   <trkpt lat="47.8117910" lon="-122.3818650">
    <ele>4.6</ele>
    <time>2020-08-13T00:13:40Z</time>
   </trkpt>
   <trkpt lat="47.8118300" lon="-122.3818380">
    <ele>4.8</ele>
    <time>2020-08-13T00:13:41Z</time>
   </trkpt>
   <trkpt lat="47.8118650" lon="-122.3818260">
    <ele>4.9</ele>
    <time>2020-08-13T00:13:42Z</time>
   </trkpt>
   <trkpt lat="47.8118960" lon="-122.3818270">
    <ele>5.0</ele>
    <time>2020-08-13T00:13:43Z</time>
   </trkpt>
   <trkpt lat="47.8119230" lon="-122.3817860">
    <ele>5.1</ele>
    <time>2020-08-13T00:13:44Z</time>
   </trkpt>
   <trkpt lat="47.8119660" lon="-122.3817750">
    <ele>5.3</ele>
    <time>2020-08-13T00:13:45Z</time>
   </trkpt>
   <trkpt lat="47.8119940" lon="-122.3817340">
    <ele>5.4</ele>
    <time>2020-08-13T00:13:46Z</time>
   </trkpt>
   <trkpt lat="47.8120240" lon="-122.3817120">
    <ele>5.6</ele>
    <time>2020-08-13T00:13:47Z</time>
   </trkpt>
   <trkpt lat="47.8120450" lon="-122.3816690">
    <ele>5.7</ele>
    <time>2020-08-13T00:13:48Z</time>
   </trkpt>
   <trkpt lat="47.8120750" lon="-122.3816590">
    <ele>5.8</ele>
    <time>2020-08-13T00:13:49Z</time>
   </trkpt>
   <trkpt lat="47.8120970" lon="-122.3816250">
    <ele>5.9</ele>
    <time>2020-08-13T00:13:50Z</time>
   </trkpt>
   <trkpt lat="47.8120740" lon="-122.3815890">
    <ele>6.2</ele>
    <time>2020-08-13T00:13:51Z</time>
   </trkpt>
   <trkpt lat="47.8120460" lon="-122.3815550">
    <ele>6.4</ele>
    <time>2020-08-13T00:13:52Z</time>
   </trkpt>
   <trkpt lat="47.8120160" lon="-122.3815280">
    <ele>6.6</ele>
    <time>2020-08-13T00:13:53Z</time>
   </trkpt>
   <trkpt lat="47.8120090" lon="-122.3815160">
    <ele>6.7</ele>
    <time>2020-08-13T00:13:54Z</time>
   </trkpt>
   <trkpt lat="47.8119980" lon="-122.3814950">
    <ele>6.8</ele>
    <time>2020-08-13T00:13:55Z</time>
   </trkpt>
   <trkpt lat="47.8119890" lon="-122.3814730">
    <ele>6.9</ele>
    <time>2020-08-13T00:13:56Z</time>
   </trkpt>
  </trkseg>
 </trk>
</gpx>
