<?xml version="1.0" encoding="UTF-8"?>
<gpx creator="StravaGPX" version="1.1" xmlns="http://www.topografix.com/GPX/1/1" xmlns:xsi="http://www.w3.org/2001/XMLSchema-instance" xsi:schemaLocation="http://www.topografix.com/GPX/1/1 http://www.topografix.com/GPX/1/1/gpx.xsd">
 <metadata>
  <time>2020-09-26T19:36:15Z</time>
 </metadata>
 <trk>
  <name>Hills BAYBEE</name>
  <type>running</type>
  <trkseg>
   <trkpt lat="47.8032760" lon="-122.3719900">
    <ele>55.1</ele>
    <time>2020-09-26T19:36:15Z</time>
   </trkpt>
   <trkpt lat="47.8032950" lon="-122.3719340">
    <ele>55.6</ele>
    <time>2020-09-26T19:36:16Z</time>
   </trkpt>
   <trkpt lat="47.8033070" lon="-122.3718160">
    <ele>56.7</ele>
    <time>2020-09-26T19:36:17Z</time>
   </trkpt>
   <trkpt lat="47.8033120" lon="-122.3717680">
    <ele>57.2</ele>
    <time>2020-09-26T19:36:18Z</time>
   </trkpt>
   <trkpt lat="47.8033150" lon="-122.3717060">
    <ele>57.8</ele>
    <time>2020-09-26T19:36:19Z</time>
   </trkpt>
   <trkpt lat="47.8033140" lon="-122.3716500">
    <ele>58.3</ele>
    <time>2020-09-26T19:36:20Z</time>
   </trkpt>
   <trkpt lat="47.8033140" lon="-122.3716020">
    <ele>58.7</ele>
    <time>2020-09-26T19:36:21Z</time>
   </trkpt>
   <trkpt lat="47.8033170" lon="-122.3715570">
    <ele>59.1</ele>
    <time>2020-09-26T19:36:22Z</time>
   </trkpt>
   <trkpt lat="47.8033180" lon="-122.3715110">
    <ele>59.5</ele>
    <time>2020-09-26T19:36:23Z</time>
   </trkpt>
   <trkpt lat="47.8033140" lon="-122.3714640">
    <ele>59.9</ele>
    <time>2020-09-26T19:36:24Z</time>
   </trkpt>
   <trkpt lat="47.8033150" lon="-122.3714150">
    <ele>60.3</ele>
    <time>2020-09-26T19:36:25Z</time>
   </trkpt>
   <trkpt lat="47.8033200" lon="-122.3713600">
    <ele>60.8</ele>
    <time>2020-09-26T19:36:26Z</time>
   </trkpt>
   <trkpt lat="47.8033260" lon="-122.3712910">
    <ele>61.3</ele>
    <time>2020-09-26T19:36:27Z</time>
   </trkpt>
   <trkpt lat="47.8033290" lon="-122.3712580">
    <ele>61.6</ele>
    <time>2020-09-26T19:36:28Z</time>
   </trkpt>
   <trkpt lat="47.8033280" lon="-122.3712030">
    <ele>62.0</ele>
    <time>2020-09-26T19:36:29Z</time>
   </trkpt>
   <trkpt lat="47.8033180" lon="-122.3711420">
    <ele>62.4</ele>
    <time>2020-09-26T19:36:30Z</time>
   </trkpt>
   <trkpt lat="47.8033110" lon="-122.3710860">
    <ele>62.9</ele>
    <time>2020-09-26T19:36:31Z</time>
   </trkpt>
   <trkpt lat="47.8033060" lon="-122.3710320">
    <ele>63.3</ele>
    <time>2020-09-26T19:36:32Z</time>
   </trkpt>
   <trkpt lat="47.8033190" lon="-122.3709820">
    <ele>63.7</ele>
    <time>2020-09-26T19:36:33Z</time>
   </trkpt>
   <trkpt lat="47.8033130" lon="-122.3709350">
    <ele>64.0</ele>
    <time>2020-09-26T19:36:34Z</time>
   </trkpt>
   <trkpt lat="47.8033180" lon="-122.3708860">
    <ele>64.4</ele>
    <time>2020-09-26T19:36:35Z</time>
   </trkpt>
   <trkpt lat="47.8033220" lon="-122.3708460">
    <ele>64.7</ele>
    <time>2020-09-26T19:36:36Z</time>
   </trkpt>
   <trkpt lat="47.8033230" lon="-122.3707910">
    <ele>65.2</ele>
    <time>2020-09-26T19:36:37Z</time>
   </trkpt>
   <trkpt lat="47.8033370" lon="-122.3707480">
    <ele>65.6</ele>
    <time>2020-09-26T19:36:38Z</time>
   </trkpt>
   <trkpt lat="47.8033370" lon="-122.3706990">
    <ele>66.1</ele>
    <time>2020-09-26T19:36:39Z</time>
   </trkpt>
   <trkpt lat="47.8033360" lon="-122.3706520">
    <ele>66.5</ele>
    <time>2020-09-26T19:36:40Z</time>
   </trkpt>
   <trkpt lat="47.8033340" lon="-122.3706010">
    <ele>66.9</ele>
    <time>2020-09-26T19:36:41Z</time>
   </trkpt>
   <trkpt lat="47.8033400" lon="-122.3705510">
    <ele>67.3</ele>
    <time>2020-09-26T19:36:42Z</time>
   </trkpt>
   <trkpt lat="47.8033370" lon="-122.3705000">
    <ele>67.8</ele>
    <time>2020-09-26T19:36:43Z</time>
   </trkpt>
   <trkpt lat="47.8033330" lon="-122.3704480">
    <ele>68.2</ele>
    <time>2020-09-26T19:36:44Z</time>
   </trkpt>
   <trkpt lat="47.8033320" lon="-122.3704030">
    <ele>68.6</ele>
    <time>2020-09-26T19:36:45Z</time>
   </trkpt>
   <trkpt lat="47.8033270" lon="-122.3703510">
    <ele>69.0</ele>
    <time>2020-09-26T19:36:46Z</time>
   </trkpt>
   <trkpt lat="47.8033340" lon="-122.3703090">
    <ele>69.3</ele>
    <time>2020-09-26T19:36:47Z</time>
   </trkpt>
   <trkpt lat="47.8033180" lon="-122.3702670">
    <ele>69.6</ele>
    <time>2020-09-26T19:36:48Z</time>
   </trkpt>
   <trkpt lat="47.8033250" lon="-122.3702160">
    <ele>70.0</ele>
    <time>2020-09-26T19:36:49Z</time>
   </trkpt>
   <trkpt lat="47.8033340" lon="-122.3701590">
    <ele>70.5</ele>
    <time>2020-09-26T19:36:50Z</time>
   </trkpt>
   <trkpt lat="47.8033380" lon="-122.3700980">
    <ele>71.0</ele>
    <time>2020-09-26T19:36:51Z</time>
   </trkpt>
   <trkpt lat="47.8033390" lon="-122.3700700">
    <ele>71.2</ele>
    <time>2020-09-26T19:36:52Z</time>
   </trkpt>
   <trkpt lat="47.8033400" lon="-122.3700120">
    <ele>71.7</ele>
    <time>2020-09-26T19:36:53Z</time>
   </trkpt>
   <trkpt lat="47.8033220" lon="-122.3699540">
    <ele>72.1</ele>
    <time>2020-09-26T19:36:54Z</time>
   </trkpt>
   <trkpt lat="47.8033230" lon="-122.3699050">
    <ele>72.5</ele>
    <time>2020-09-26T19:36:55Z</time>
   </trkpt>
   <trkpt lat="47.8033190" lon="-122.3698530">
    <ele>72.8</ele>
    <time>2020-09-26T19:36:56Z</time>
   </trkpt>
   <trkpt lat="47.8033250" lon="-122.3698010">
    <ele>73.2</ele>
    <time>2020-09-26T19:36:57Z</time>
   </trkpt>
   <trkpt lat="47.8033280" lon="-122.3697800">
    <ele>73.3</ele>
    <time>2020-09-26T19:36:58Z</time>
   </trkpt>
   <trkpt lat="47.8033320" lon="-122.3697230">
    <ele>73.7</ele>
    <time>2020-09-26T19:36:59Z</time>
   </trkpt>
   <trkpt lat="47.8033340" lon="-122.3696660">
    <ele>74.0</ele>
    <time>2020-09-26T19:37:00Z</time>
   </trkpt>
   <trkpt lat="47.8033380" lon="-122.3696220">
    <ele>74.3</ele>
    <time>2020-09-26T19:37:01Z</time>
   </trkpt>
   <trkpt lat="47.8033460" lon="-122.3695750">
    <ele>74.6</ele>
    <time>2020-09-26T19:37:02Z</time>
   </trkpt>
   <trkpt lat="47.8033540" lon="-122.3695180">
    <ele>74.9</ele>
    <time>2020-09-26T19:37:03Z</time>
   </trkpt>
   <trkpt lat="47.8033530" lon="-122.3694730">
    <ele>74.9</ele>
    <time>2020-09-26T19:37:04Z</time>
   </trkpt>
   <trkpt lat="47.8033370" lon="-122.3694170">
    <ele>75.0</ele>
    <time>2020-09-26T19:37:05Z</time>
   </trkpt>
   <trkpt lat="47.8033280" lon="-122.3693970">
    <ele>75.1</ele>
    <time>2020-09-26T19:37:06Z</time>
   </trkpt>
   <trkpt lat="47.8033210" lon="-122.3693440">
    <ele>75.2</ele>
    <time>2020-09-26T19:37:07Z</time>
   </trkpt>
   <trkpt lat="47.8032970" lon="-122.3693060">
    <ele>75.3</ele>
    <time>2020-09-26T19:37:08Z</time>
   </trkpt>
   <trkpt lat="47.8033160" lon="-122.3692530">
    <ele>75.5</ele>
    <time>2020-09-26T19:37:09Z</time>
   </trkpt>
   <trkpt lat="47.8033240" lon="-122.3692050">
    <ele>75.6</ele>
    <time>2020-09-26T19:37:10Z</time>
   </trkpt>
   <trkpt lat="47.8033370" lon="-122.3691320">
    <ele>75.8</ele>
    <time>2020-09-26T19:37:11Z</time>
   </trkpt>
   <trkpt lat="47.8033410" lon="-122.3690950">
    <ele>75.9</ele>
    <time>2020-09-26T19:37:12Z</time>
   </trkpt>
   <trkpt lat="47.8033420" lon="-122.3690390">
    <ele>76.1</ele>
    <time>2020-09-26T19:37:13Z</time>
   </trkpt>
   <trkpt lat="47.8033390" lon="-122.3690170">
    <ele>76.1</ele>
    <time>2020-09-26T19:37:14Z</time>
   </trkpt>
   <trkpt lat="47.8033210" lon="-122.3689720">
    <ele>76.3</ele>
    <time>2020-09-26T19:37:15Z</time>
   </trkpt>
   <trkpt lat="47.8033210" lon="-122.3689310">
    <ele>76.4</ele>
    <time>2020-09-26T19:37:16Z</time>
   </trkpt>
   <trkpt lat="47.8033140" lon="-122.3688800">
    <ele>76.7</ele>
    <time>2020-09-26T19:37:17Z</time>
   </trkpt>
   <trkpt lat="47.8033190" lon="-122.3688350">
    <ele>77.0</ele>
    <time>2020-09-26T19:37:18Z</time>
   </trkpt>
   <trkpt lat="47.8033220" lon="-122.3688160">
    <ele>77.1</ele>
    <time>2020-09-26T19:37:19Z</time>
   </trkpt>
   <trkpt lat="47.8033210" lon="-122.3687690">
    <ele>77.4</ele>
    <time>2020-09-26T19:37:20Z</time>
   </trkpt>
   <trkpt lat="47.8033170" lon="-122.3687280">
    <ele>77.7</ele>
    <time>2020-09-26T19:37:21Z</time>
   </trkpt>
   <trkpt lat="47.8033120" lon="-122.3687130">
    <ele>77.8</ele>
    <time>2020-09-26T19:37:22Z</time>
   </trkpt>
   <trkpt lat="47.8033190" lon="-122.3686600">
    <ele>78.1</ele>
    <time>2020-09-26T19:37:23Z</time>
   </trkpt>
   <trkpt lat="47.8033080" lon="-122.3686080">
    <ele>78.5</ele>
    <time>2020-09-26T19:37:24Z</time>
   </trkpt>
   <trkpt lat="47.8032990" lon="-122.3685820">
    <ele>78.6</ele>
    <time>2020-09-26T19:37:25Z</time>
   </trkpt>
   <trkpt lat="47.8033070" lon="-122.3685410">
    <ele>78.9</ele>
    <time>2020-09-26T19:37:26Z</time>
   </trkpt>
   <trkpt lat="47.8032980" lon="-122.3685000">
    <ele>79.2</ele>
    <time>2020-09-26T19:37:27Z</time>
   </trkpt>
   <trkpt lat="47.8032710" lon="-122.3684630">
    <ele>79.5</ele>
    <time>2020-09-26T19:37:28Z</time>
   </trkpt>
   <trkpt lat="47.8032520" lon="-122.3684190">
    <ele>79.9</ele>
    <time>2020-09-26T19:37:29Z</time>
   </trkpt>
   <trkpt lat="47.8032310" lon="-122.3683770">
    <ele>80.3</ele>
    <time>2020-09-26T19:37:30Z</time>
   </trkpt>
   <trkpt lat="47.8032260" lon="-122.3683140">
    <ele>80.8</ele>
    <time>2020-09-26T19:37:31Z</time>
   </trkpt>
   <trkpt lat="47.8032160" lon="-122.3682700">
    <ele>81.2</ele>
    <time>2020-09-26T19:37:32Z</time>
   </trkpt>
   <trkpt lat="47.8032070" lon="-122.3682310">
    <ele>81.7</ele>
    <time>2020-09-26T19:37:33Z</time>
   </trkpt>
   <trkpt lat="47.8032030" lon="-122.3681900">
    <ele>82.1</ele>
    <time>2020-09-26T19:37:34Z</time>
   </trkpt>
   <trkpt lat="47.8032090" lon="-122.3681500">
    <ele>82.6</ele>
    <time>2020-09-26T19:37:35Z</time>
   </trkpt>
   <trkpt lat="47.8032020" lon="-122.3681220">
    <ele>83.0</ele>
    <time>2020-09-26T19:37:36Z</time>
   </trkpt>
   <trkpt lat="47.8032060" lon="-122.3680990">
    <ele>83.3</ele>
    <time>2020-09-26T19:37:37Z</time>
   </trkpt>
   <trkpt lat="47.8032060" lon="-122.3680500">
    <ele>84.0</ele>
    <time>2020-09-26T19:37:38Z</time>
   </trkpt>
   <trkpt lat="47.8032030" lon="-122.3679930">
    <ele>84.7</ele>
    <time>2020-09-26T19:37:39Z</time>
   </trkpt>
   <trkpt lat="47.8032010" lon="-122.3679710">
    <ele>85.0</ele>
    <time>2020-09-26T19:37:40Z</time>
   </trkpt>
   <trkpt lat="47.8032120" lon="-122.3679280">
    <ele>85.7</ele>
    <time>2020-09-26T19:37:41Z</time>
   </trkpt>
   <trkpt lat="47.8032100" lon="-122.3679070">
    <ele>86.0</ele>
    <time>2020-09-26T19:37:42Z</time>
   </trkpt>
   <trkpt lat="47.8032220" lon="-122.3678690">
    <ele>86.6</ele>
    <time>2020-09-26T19:37:43Z</time>
   </trkpt>
   <trkpt lat="47.8032220" lon="-122.3678530">
    <ele>86.8</ele>
    <time>2020-09-26T19:37:44Z</time>
   </trkpt>
   <trkpt lat="47.8032120" lon="-122.3678090">
    <ele>87.5</ele>
    <time>2020-09-26T19:37:45Z</time>
   </trkpt>
   <trkpt lat="47.8032040" lon="-122.3677570">
    <ele>88.2</ele>
    <time>2020-09-26T19:37:46Z</time>
   </trkpt>
   <trkpt lat="47.8031970" lon="-122.3677430">
    <ele>88.4</ele>
    <time>2020-09-26T19:37:47Z</time>
   </trkpt>
   <trkpt lat="47.8032160" lon="-122.3677010">
    <ele>89.1</ele>
    <time>2020-09-26T19:37:48Z</time>
   </trkpt>
   <trkpt lat="47.8032300" lon="-122.3676530">
    <ele>89.8</ele>
    <time>2020-09-26T19:37:49Z</time>
   </trkpt>
   <trkpt lat="47.8032330" lon="-122.3676090">
    <ele>90.4</ele>
    <time>2020-09-26T19:37:50Z</time>
   </trkpt>
   <trkpt lat="47.8032310" lon="-122.3675660">
    <ele>90.9</ele>
    <time>2020-09-26T19:37:51Z</time>
   </trkpt>
   <trkpt lat="47.8032040" lon="-122.3675310">
    <ele>91.5</ele>
    <time>2020-09-26T19:37:52Z</time>
   </trkpt>
   <trkpt lat="47.8032080" lon="-122.3674700">
    <ele>92.2</ele>
    <time>2020-09-26T19:37:53Z</time>
   </trkpt>
   <trkpt lat="47.8032040" lon="-122.3674430">
    <ele>92.5</ele>
    <time>2020-09-26T19:37:54Z</time>
   </trkpt>
   <trkpt lat="47.8032100" lon="-122.3673990">
    <ele>93.0</ele>
    <time>2020-09-26T19:37:55Z</time>
   </trkpt>
   <trkpt lat="47.8032120" lon="-122.3673550">
    <ele>93.4</ele>
    <time>2020-09-26T19:37:56Z</time>
   </trkpt>
   <trkpt lat="47.8032310" lon="-122.3673240">
    <ele>93.8</ele>
    <time>2020-09-26T19:37:57Z</time>
   </trkpt>
   <trkpt lat="47.8032370" lon="-122.3672700">
    <ele>94.3</ele>
    <time>2020-09-26T19:37:58Z</time>
   </trkpt>
   <trkpt lat="47.8032380" lon="-122.3672510">
    <ele>94.4</ele>
    <time>2020-09-26T19:37:59Z</time>
   </trkpt>
   <trkpt lat="47.8032400" lon="-122.3672080">
    <ele>94.7</ele>
    <time>2020-09-26T19:38:00Z</time>
   </trkpt>
   <trkpt lat="47.8032350" lon="-122.3671600">
    <ele>95.1</ele>
    <time>2020-09-26T19:38:01Z</time>
   </trkpt>
   <trkpt lat="47.8032380" lon="-122.3671310">
    <ele>95.3</ele>
    <time>2020-09-26T19:38:02Z</time>
   </trkpt>
   <trkpt lat="47.8032350" lon="-122.3671180">
    <ele>95.4</ele>
    <time>2020-09-26T19:38:03Z</time>
   </trkpt>
   <trkpt lat="47.8032260" lon="-122.3670800">
    <ele>95.6</ele>
    <time>2020-09-26T19:38:04Z</time>
   </trkpt>
   <trkpt lat="47.8032170" lon="-122.3670710">
    <ele>95.7</ele>
    <time>2020-09-26T19:38:05Z</time>
   </trkpt>
   <trkpt lat="47.8031950" lon="-122.3670220">
    <ele>95.9</ele>
    <time>2020-09-26T19:38:06Z</time>
   </trkpt>
   <trkpt lat="47.8031760" lon="-122.3669720">
    <ele>96.5</ele>
    <time>2020-09-26T19:38:07Z</time>
   </trkpt>
   <trkpt lat="47.8031720" lon="-122.3669560">
    <ele>96.6</ele>
    <time>2020-09-26T19:38:08Z</time>
   </trkpt>
   <trkpt lat="47.8031480" lon="-122.3669370">
    <ele>96.6</ele>
    <time>2020-09-26T19:38:09Z</time>
   </trkpt>
   <trkpt lat="47.8031390" lon="-122.3669320">
    <ele>96.6</ele>
    <time>2020-09-26T19:38:10Z</time>
   </trkpt>
   <trkpt lat="47.8031050" lon="-122.3669440">
    <ele>96.7</ele>
    <time>2020-09-26T19:38:11Z</time>
   </trkpt>
   <trkpt lat="47.8030710" lon="-122.3669470">
    <ele>96.8</ele>
    <time>2020-09-26T19:38:12Z</time>
   </trkpt>
   <trkpt lat="47.8030610" lon="-122.3669470">
    <ele>96.8</ele>
    <time>2020-09-26T19:38:13Z</time>
   </trkpt>
   <trkpt lat="47.8030310" lon="-122.3669670">
    <ele>96.8</ele>
    <time>2020-09-26T19:38:14Z</time>
   </trkpt>
   <trkpt lat="47.8029920" lon="-122.3669770">
    <ele>96.9</ele>
    <time>2020-09-26T19:38:15Z</time>
   </trkpt>
   <trkpt lat="47.8029780" lon="-122.3669800">
    <ele>96.9</ele>
    <time>2020-09-26T19:38:16Z</time>
   </trkpt>
   <trkpt lat="47.8029500" lon="-122.3669860">
    <ele>97.0</ele>
    <time>2020-09-26T19:38:17Z</time>
   </trkpt>
   <trkpt lat="47.8029380" lon="-122.3669900">
    <ele>97.0</ele>
    <time>2020-09-26T19:38:18Z</time>
   </trkpt>
   <trkpt lat="47.8029040" lon="-122.3669800">
    <ele>97.1</ele>
    <time>2020-09-26T19:38:19Z</time>
   </trkpt>
   <trkpt lat="47.8028910" lon="-122.3669770">
    <ele>97.1</ele>
    <time>2020-09-26T19:38:20Z</time>
   </trkpt>
   <trkpt lat="47.8028590" lon="-122.3669840">
    <ele>97.2</ele>
    <time>2020-09-26T19:38:21Z</time>
   </trkpt>
   <trkpt lat="47.8028450" lon="-122.3669850">
    <ele>97.2</ele>
    <time>2020-09-26T19:38:22Z</time>
   </trkpt>
   <trkpt lat="47.8028160" lon="-122.3669940">
    <ele>97.3</ele>
    <time>2020-09-26T19:38:23Z</time>
   </trkpt>
   <trkpt lat="47.8027870" lon="-122.3669900">
    <ele>97.4</ele>
    <time>2020-09-26T19:38:24Z</time>
   </trkpt>
   <trkpt lat="47.8027570" lon="-122.3670030">
    <ele>97.5</ele>
    <time>2020-09-26T19:38:25Z</time>
   </trkpt>
   <trkpt lat="47.8027450" lon="-122.3670030">
    <ele>97.5</ele>
    <time>2020-09-26T19:38:26Z</time>
   </trkpt>
   <trkpt lat="47.8027120" lon="-122.3670100">
    <ele>97.6</ele>
    <time>2020-09-26T19:38:27Z</time>
   </trkpt>
   <trkpt lat="47.8026950" lon="-122.3670080">
    <ele>97.6</ele>
    <time>2020-09-26T19:38:28Z</time>
   </trkpt>
   <trkpt lat="47.8026570" lon="-122.3670020">
    <ele>97.7</ele>
    <time>2020-09-26T19:38:29Z</time>
   </trkpt>
   <trkpt lat="47.8026420" lon="-122.3670020">
    <ele>97.7</ele>
    <time>2020-09-26T19:38:30Z</time>
   </trkpt>
   <trkpt lat="47.8026030" lon="-122.3670070">
    <ele>97.8</ele>
    <time>2020-09-26T19:38:31Z</time>
   </trkpt>
   <trkpt lat="47.8025890" lon="-122.3670040">
    <ele>97.8</ele>
    <time>2020-09-26T19:38:32Z</time>
   </trkpt>
   <trkpt lat="47.8025660" lon="-122.3670260">
    <ele>97.8</ele>
    <time>2020-09-26T19:38:33Z</time>
   </trkpt>
   <trkpt lat="47.8025540" lon="-122.3670250">
    <ele>97.9</ele>
    <time>2020-09-26T19:38:34Z</time>
   </trkpt>
   <trkpt lat="47.8025180" lon="-122.3670060">
    <ele>97.9</ele>
    <time>2020-09-26T19:38:35Z</time>
   </trkpt>
   <trkpt lat="47.8024840" lon="-122.3669990">
    <ele>98.0</ele>
    <time>2020-09-26T19:38:36Z</time>
   </trkpt>
   <trkpt lat="47.8024470" lon="-122.3670080">
    <ele>98.0</ele>
    <time>2020-09-26T19:38:37Z</time>
   </trkpt>
   <trkpt lat="47.8024340" lon="-122.3670090">
    <ele>98.1</ele>
    <time>2020-09-26T19:38:38Z</time>
   </trkpt>
   <trkpt lat="47.8024020" lon="-122.3670080">
    <ele>98.1</ele>
    <time>2020-09-26T19:38:39Z</time>
   </trkpt>
   <trkpt lat="47.8023930" lon="-122.3670030">
    <ele>98.2</ele>
    <time>2020-09-26T19:38:40Z</time>
   </trkpt>
   <trkpt lat="47.8023670" lon="-122.3670020">
    <ele>98.2</ele>
    <time>2020-09-26T19:38:41Z</time>
   </trkpt>
   <trkpt lat="47.8023560" lon="-122.3669980">
    <ele>98.2</ele>
    <time>2020-09-26T19:38:42Z</time>
   </trkpt>
   <trkpt lat="47.8023230" lon="-122.3669950">
    <ele>98.3</ele>
    <time>2020-09-26T19:38:43Z</time>
   </trkpt>
   <trkpt lat="47.8022860" lon="-122.3669830">
    <ele>98.3</ele>
    <time>2020-09-26T19:38:44Z</time>
   </trkpt>
   <trkpt lat="47.8022720" lon="-122.3669870">
    <ele>98.3</ele>
    <time>2020-09-26T19:38:45Z</time>
   </trkpt>
   <trkpt lat="47.8022460" lon="-122.3669730">
    <ele>98.4</ele>
    <time>2020-09-26T19:38:46Z</time>
   </trkpt>
   <trkpt lat="47.8022130" lon="-122.3669940">
    <ele>98.4</ele>
    <time>2020-09-26T19:38:47Z</time>
   </trkpt>
   <trkpt lat="47.8021790" lon="-122.3670140">
    <ele>98.4</ele>
    <time>2020-09-26T19:38:48Z</time>
   </trkpt>
   <trkpt lat="47.8021440" lon="-122.3670040">
    <ele>98.5</ele>
    <time>2020-09-26T19:38:49Z</time>
   </trkpt>
   <trkpt lat="47.8021110" lon="-122.3669850">
    <ele>98.5</ele>
    <time>2020-09-26T19:38:50Z</time>
   </trkpt>
   <trkpt lat="47.8020990" lon="-122.3669720">
    <ele>98.5</ele>
    <time>2020-09-26T19:38:51Z</time>
   </trkpt>
   <trkpt lat="47.8020720" lon="-122.3669810">
    <ele>98.5</ele>
    <time>2020-09-26T19:38:52Z</time>
   </trkpt>
   <trkpt lat="47.8020400" lon="-122.3669970">
    <ele>98.6</ele>
    <time>2020-09-26T19:38:53Z</time>
   </trkpt>
   <trkpt lat="47.8020090" lon="-122.3669990">
    <ele>98.6</ele>
    <time>2020-09-26T19:38:54Z</time>
   </trkpt>
   <trkpt lat="47.8019760" lon="-122.3670050">
    <ele>98.6</ele>
    <time>2020-09-26T19:38:55Z</time>
   </trkpt>
   <trkpt lat="47.8019610" lon="-122.3669990">
    <ele>98.6</ele>
    <time>2020-09-26T19:38:56Z</time>
   </trkpt>
   <trkpt lat="47.8019340" lon="-122.3669860">
    <ele>98.6</ele>
    <time>2020-09-26T19:38:57Z</time>
   </trkpt>
   <trkpt lat="47.8018970" lon="-122.3669880">
    <ele>98.7</ele>
    <time>2020-09-26T19:38:58Z</time>
   </trkpt>
   <trkpt lat="47.8018840" lon="-122.3669870">
    <ele>98.7</ele>
    <time>2020-09-26T19:38:59Z</time>
   </trkpt>
   <trkpt lat="47.8018390" lon="-122.3670050">
    <ele>98.7</ele>
    <time>2020-09-26T19:39:00Z</time>
   </trkpt>
   <trkpt lat="47.8018150" lon="-122.3670280">
    <ele>98.7</ele>
    <time>2020-09-26T19:39:01Z</time>
   </trkpt>
   <trkpt lat="47.8017830" lon="-122.3670140">
    <ele>98.7</ele>
    <time>2020-09-26T19:39:02Z</time>
   </trkpt>
   <trkpt lat="47.8017530" lon="-122.3670260">
    <ele>98.7</ele>
    <time>2020-09-26T19:39:03Z</time>
   </trkpt>
   <trkpt lat="47.8017380" lon="-122.3670210">
    <ele>98.8</ele>
    <time>2020-09-26T19:39:04Z</time>
   </trkpt>
   <trkpt lat="47.8017100" lon="-122.3670200">
    <ele>98.8</ele>
    <time>2020-09-26T19:39:05Z</time>
   </trkpt>
   <trkpt lat="47.8016830" lon="-122.3670230">
    <ele>98.8</ele>
    <time>2020-09-26T19:39:06Z</time>
   </trkpt>
   <trkpt lat="47.8016490" lon="-122.3670170">
    <ele>98.8</ele>
    <time>2020-09-26T19:39:07Z</time>
   </trkpt>
   <trkpt lat="47.8016150" lon="-122.3670220">
    <ele>98.9</ele>
    <time>2020-09-26T19:39:08Z</time>
   </trkpt>
   <trkpt lat="47.8016040" lon="-122.3670290">
    <ele>98.9</ele>
    <time>2020-09-26T19:39:09Z</time>
   </trkpt>
   <trkpt lat="47.8015750" lon="-122.3670270">
    <ele>98.9</ele>
    <time>2020-09-26T19:39:10Z</time>
   </trkpt>
   <trkpt lat="47.8015340" lon="-122.3670170">
    <ele>99.0</ele>
    <time>2020-09-26T19:39:11Z</time>
   </trkpt>
   <trkpt lat="47.8015180" lon="-122.3670110">
    <ele>99.0</ele>
    <time>2020-09-26T19:39:12Z</time>
   </trkpt>
   <trkpt lat="47.8014820" lon="-122.3670240">
    <ele>99.0</ele>
    <time>2020-09-26T19:39:13Z</time>
   </trkpt>
   <trkpt lat="47.8014700" lon="-122.3670310">
    <ele>99.0</ele>
    <time>2020-09-26T19:39:14Z</time>
   </trkpt>
   <trkpt lat="47.8014390" lon="-122.3670280">
    <ele>99.1</ele>
    <time>2020-09-26T19:39:15Z</time>
   </trkpt>
   <trkpt lat="47.8014140" lon="-122.3670110">
    <ele>99.1</ele>
    <time>2020-09-26T19:39:16Z</time>
   </trkpt>
   <trkpt lat="47.8013750" lon="-122.3670060">
    <ele>99.2</ele>
    <time>2020-09-26T19:39:17Z</time>
   </trkpt>
   <trkpt lat="47.8013630" lon="-122.3669980">
    <ele>99.2</ele>
    <time>2020-09-26T19:39:18Z</time>
   </trkpt>
   <trkpt lat="47.8013310" lon="-122.3669830">
    <ele>99.3</ele>
    <time>2020-09-26T19:39:19Z</time>
   </trkpt>
   <trkpt lat="47.8012910" lon="-122.3669970">
    <ele>99.4</ele>
    <time>2020-09-26T19:39:20Z</time>
   </trkpt>
   <trkpt lat="47.8012750" lon="-122.3670020">
    <ele>99.4</ele>
    <time>2020-09-26T19:39:21Z</time>
   </trkpt>
   <trkpt lat="47.8012450" lon="-122.3670040">
    <ele>99.4</ele>
    <time>2020-09-26T19:39:22Z</time>
   </trkpt>
   <trkpt lat="47.8012010" lon="-122.3669940">
    <ele>99.5</ele>
    <time>2020-09-26T19:39:23Z</time>
   </trkpt>
   <trkpt lat="47.8011830" lon="-122.3669900">
    <ele>99.5</ele>
    <time>2020-09-26T19:39:24Z</time>
   </trkpt>
   <trkpt lat="47.8011470" lon="-122.3670110">
    <ele>99.5</ele>
    <time>2020-09-26T19:39:25Z</time>
   </trkpt>
   <trkpt lat="47.8011310" lon="-122.3670120">
    <ele>99.5</ele>
    <time>2020-09-26T19:39:26Z</time>
   </trkpt>
   <trkpt lat="47.8011010" lon="-122.3670080">
    <ele>99.5</ele>
    <time>2020-09-26T19:39:27Z</time>
   </trkpt>
   <trkpt lat="47.8010720" lon="-122.3670260">
    <ele>99.5</ele>
    <time>2020-09-26T19:39:28Z</time>
   </trkpt>
   <trkpt lat="47.8010330" lon="-122.3670170">
    <ele>99.5</ele>
    <time>2020-09-26T19:39:29Z</time>
   </trkpt>
   <trkpt lat="47.8010040" lon="-122.3670180">
    <ele>99.5</ele>
    <time>2020-09-26T19:39:30Z</time>
   </trkpt>
   <trkpt lat="47.8009690" lon="-122.3670180">
    <ele>99.4</ele>
    <time>2020-09-26T19:39:31Z</time>
   </trkpt>
   <trkpt lat="47.8009410" lon="-122.3670080">
    <ele>99.4</ele>
    <time>2020-09-26T19:39:32Z</time>
   </trkpt>
   <trkpt lat="47.8009130" lon="-122.3670150">
    <ele>99.4</ele>
    <time>2020-09-26T19:39:33Z</time>
   </trkpt>
   <trkpt lat="47.8008820" lon="-122.3670220">
    <ele>99.3</ele>
    <time>2020-09-26T19:39:34Z</time>
   </trkpt>
   <trkpt lat="47.8008490" lon="-122.3670160">
    <ele>99.3</ele>
    <time>2020-09-26T19:39:35Z</time>
   </trkpt>
   <trkpt lat="47.8008190" lon="-122.3670020">
    <ele>99.2</ele>
    <time>2020-09-26T19:39:36Z</time>
   </trkpt>
   <trkpt lat="47.8007800" lon="-122.3670010">
    <ele>99.1</ele>
    <time>2020-09-26T19:39:37Z</time>
   </trkpt>
   <trkpt lat="47.8007660" lon="-122.3670030">
    <ele>99.1</ele>
    <time>2020-09-26T19:39:38Z</time>
   </trkpt>
   <trkpt lat="47.8007340" lon="-122.3670040">
    <ele>99.0</ele>
    <time>2020-09-26T19:39:39Z</time>
   </trkpt>
   <trkpt lat="47.8007030" lon="-122.3670040">
    <ele>99.0</ele>
    <time>2020-09-26T19:39:40Z</time>
   </trkpt>
   <trkpt lat="47.8006630" lon="-122.3669950">
    <ele>98.9</ele>
    <time>2020-09-26T19:39:41Z</time>
   </trkpt>
   <trkpt lat="47.8006440" lon="-122.3669910">
    <ele>98.8</ele>
    <time>2020-09-26T19:39:42Z</time>
   </trkpt>
   <trkpt lat="47.8006130" lon="-122.3669910">
    <ele>98.7</ele>
    <time>2020-09-26T19:39:43Z</time>
   </trkpt>
   <trkpt lat="47.8005760" lon="-122.3669820">
    <ele>98.7</ele>
    <time>2020-09-26T19:39:44Z</time>
   </trkpt>
   <trkpt lat="47.8005620" lon="-122.3669740">
    <ele>98.6</ele>
    <time>2020-09-26T19:39:45Z</time>
   </trkpt>
   <trkpt lat="47.8005330" lon="-122.3669850">
    <ele>98.6</ele>
    <time>2020-09-26T19:39:46Z</time>
   </trkpt>
   <trkpt lat="47.8005080" lon="-122.3670100">
    <ele>98.5</ele>
    <time>2020-09-26T19:39:47Z</time>
   </trkpt>
   <trkpt lat="47.8004690" lon="-122.3670000">
    <ele>98.5</ele>
    <time>2020-09-26T19:39:48Z</time>
   </trkpt>
   <trkpt lat="47.8004350" lon="-122.3669950">
    <ele>98.5</ele>
    <time>2020-09-26T19:39:49Z</time>
   </trkpt>
   <trkpt lat="47.8004000" lon="-122.3669790">
    <ele>98.5</ele>
    <time>2020-09-26T19:39:50Z</time>
   </trkpt>
   <trkpt lat="47.8003620" lon="-122.3669960">
    <ele>98.4</ele>
    <time>2020-09-26T19:39:51Z</time>
   </trkpt>
   <trkpt lat="47.8003480" lon="-122.3669960">
    <ele>98.4</ele>
    <time>2020-09-26T19:39:52Z</time>
   </trkpt>
   <trkpt lat="47.8003110" lon="-122.3669880">
    <ele>98.4</ele>
    <time>2020-09-26T19:39:53Z</time>
   </trkpt>
   <trkpt lat="47.8002750" lon="-122.3669720">
    <ele>98.4</ele>
    <time>2020-09-26T19:39:54Z</time>
   </trkpt>
   <trkpt lat="47.8002480" lon="-122.3669710">
    <ele>98.4</ele>
    <time>2020-09-26T19:39:55Z</time>
   </trkpt>
   <trkpt lat="47.8002110" lon="-122.3669810">
    <ele>98.4</ele>
    <time>2020-09-26T19:39:56Z</time>
   </trkpt>
   <trkpt lat="47.8001970" lon="-122.3669820">
    <ele>98.5</ele>
    <time>2020-09-26T19:39:57Z</time>
   </trkpt>
   <trkpt lat="47.8001670" lon="-122.3669920">
    <ele>98.5</ele>
    <time>2020-09-26T19:39:58Z</time>
   </trkpt>
   <trkpt lat="47.8001380" lon="-122.3669820">
    <ele>98.5</ele>
    <time>2020-09-26T19:39:59Z</time>
   </trkpt>
   <trkpt lat="47.8001120" lon="-122.3669900">
    <ele>98.5</ele>
    <time>2020-09-26T19:40:00Z</time>
   </trkpt>
   <trkpt lat="47.8000690" lon="-122.3669810">
    <ele>98.6</ele>
    <time>2020-09-26T19:40:01Z</time>
   </trkpt>
   <trkpt lat="47.8000350" lon="-122.3669710">
    <ele>98.6</ele>
    <time>2020-09-26T19:40:02Z</time>
   </trkpt>
   <trkpt lat="47.7999970" lon="-122.3669770">
    <ele>98.7</ele>
    <time>2020-09-26T19:40:03Z</time>
   </trkpt>
   <trkpt lat="47.7999840" lon="-122.3669790">
    <ele>98.7</ele>
    <time>2020-09-26T19:40:04Z</time>
   </trkpt>
   <trkpt lat="47.7999510" lon="-122.3669880">
    <ele>98.8</ele>
    <time>2020-09-26T19:40:05Z</time>
   </trkpt>
   <trkpt lat="47.7999400" lon="-122.3669930">
    <ele>98.8</ele>
    <time>2020-09-26T19:40:06Z</time>
   </trkpt>
   <trkpt lat="47.7999140" lon="-122.3669750">
    <ele>98.9</ele>
    <time>2020-09-26T19:40:07Z</time>
   </trkpt>
   <trkpt lat="47.7998830" lon="-122.3669830">
    <ele>98.9</ele>
    <time>2020-09-26T19:40:08Z</time>
   </trkpt>
   <trkpt lat="47.7998710" lon="-122.3669810">
    <ele>99.0</ele>
    <time>2020-09-26T19:40:09Z</time>
   </trkpt>
   <trkpt lat="47.7998360" lon="-122.3669710">
    <ele>99.1</ele>
    <time>2020-09-26T19:40:10Z</time>
   </trkpt>
   <trkpt lat="47.7998230" lon="-122.3669750">
    <ele>99.1</ele>
    <time>2020-09-26T19:40:11Z</time>
   </trkpt>
   <trkpt lat="47.7997780" lon="-122.3668970">
    <ele>99.4</ele>
    <time>2020-09-26T19:40:12Z</time>
   </trkpt>
   <trkpt lat="47.7997530" lon="-122.3668210">
    <ele>99.6</ele>
    <time>2020-09-26T19:40:56Z</time>
   </trkpt>
   <trkpt lat="47.7997270" lon="-122.3667460">
    <ele>101.1</ele>
    <time>2020-09-26T19:40:57Z</time>
   </trkpt>
   <trkpt lat="47.7997020" lon="-122.3666700">
    <ele>101.4</ele>
    <time>2020-09-26T19:40:58Z</time>
   </trkpt>
   <trkpt lat="47.7996990" lon="-122.3666010">
    <ele>101.8</ele>
    <time>2020-09-26T19:40:59Z</time>
   </trkpt>
   <trkpt lat="47.7996970" lon="-122.3665720">
    <ele>102.0</ele>
    <time>2020-09-26T19:41:00Z</time>
   </trkpt>
   <trkpt lat="47.7996920" lon="-122.3665070">
    <ele>102.3</ele>
    <time>2020-09-26T19:41:01Z</time>
   </trkpt>
   <trkpt lat="47.7996930" lon="-122.3664290">
    <ele>102.8</ele>
    <time>2020-09-26T19:41:02Z</time>
   </trkpt>
   <trkpt lat="47.7996970" lon="-122.3663520">
    <ele>103.3</ele>
    <time>2020-09-26T19:41:03Z</time>
   </trkpt>
   <trkpt lat="47.7996850" lon="-122.3662990">
    <ele>103.7</ele>
    <time>2020-09-26T19:41:04Z</time>
   </trkpt>
   <trkpt lat="47.7996850" lon="-122.3662460">
    <ele>103.7</ele>
    <time>2020-09-26T19:41:05Z</time>
   </trkpt>
   <trkpt lat="47.7996880" lon="-122.3661890">
    <ele>103.9</ele>
    <time>2020-09-26T19:41:06Z</time>
   </trkpt>
   <trkpt lat="47.7996820" lon="-122.3661300">
    <ele>104.3</ele>
    <time>2020-09-26T19:41:07Z</time>
   </trkpt>
   <trkpt lat="47.7996770" lon="-122.3660620">
    <ele>104.7</ele>
    <time>2020-09-26T19:41:08Z</time>
   </trkpt>
   <trkpt lat="47.7996780" lon="-122.3660090">
    <ele>105.1</ele>
    <time>2020-09-26T19:41:09Z</time>
   </trkpt>
   <trkpt lat="47.7996830" lon="-122.3659450">
    <ele>105.6</ele>
    <time>2020-09-26T19:41:10Z</time>
   </trkpt>
   <trkpt lat="47.7996720" lon="-122.3658870">
    <ele>106.0</ele>
    <time>2020-09-26T19:41:11Z</time>
   </trkpt>
   <trkpt lat="47.7996700" lon="-122.3658360">
    <ele>106.4</ele>
    <time>2020-09-26T19:41:12Z</time>
   </trkpt>
   <trkpt lat="47.7996740" lon="-122.3657760">
    <ele>106.8</ele>
    <time>2020-09-26T19:41:13Z</time>
   </trkpt>
   <trkpt lat="47.7996680" lon="-122.3657170">
    <ele>107.3</ele>
    <time>2020-09-26T19:41:14Z</time>
   </trkpt>
   <trkpt lat="47.7996690" lon="-122.3656600">
    <ele>107.7</ele>
    <time>2020-09-26T19:41:15Z</time>
   </trkpt>
   <trkpt lat="47.7996790" lon="-122.3656170">
    <ele>108.0</ele>
    <time>2020-09-26T19:41:16Z</time>
   </trkpt>
   <trkpt lat="47.7996860" lon="-122.3655530">
    <ele>108.5</ele>
    <time>2020-09-26T19:41:17Z</time>
   </trkpt>
   <trkpt lat="47.7996810" lon="-122.3654900">
    <ele>109.0</ele>
    <time>2020-09-26T19:41:18Z</time>
   </trkpt>
   <trkpt lat="47.7996800" lon="-122.3654550">
    <ele>109.2</ele>
    <time>2020-09-26T19:41:19Z</time>
   </trkpt>
   <trkpt lat="47.7996880" lon="-122.3654170">
    <ele>109.5</ele>
    <time>2020-09-26T19:41:20Z</time>
   </trkpt>
   <trkpt lat="47.7996690" lon="-122.3653710">
    <ele>109.8</ele>
    <time>2020-09-26T19:41:21Z</time>
   </trkpt>
   <trkpt lat="47.7996790" lon="-122.3653340">
    <ele>110.1</ele>
    <time>2020-09-26T19:41:22Z</time>
   </trkpt>
   <trkpt lat="47.7996710" lon="-122.3652660">
    <ele>110.5</ele>
    <time>2020-09-26T19:41:23Z</time>
   </trkpt>
   <trkpt lat="47.7996690" lon="-122.3652130">
    <ele>110.8</ele>
    <time>2020-09-26T19:41:24Z</time>
   </trkpt>
   <trkpt lat="47.7996500" lon="-122.3651790">
    <ele>111.1</ele>
    <time>2020-09-26T19:41:25Z</time>
   </trkpt>
   <trkpt lat="47.7996650" lon="-122.3651240">
    <ele>111.4</ele>
    <time>2020-09-26T19:41:26Z</time>
   </trkpt>
   <trkpt lat="47.7996670" lon="-122.3651000">
    <ele>111.6</ele>
    <time>2020-09-26T19:41:27Z</time>
   </trkpt>
   <trkpt lat="47.7996750" lon="-122.3650560">
    <ele>111.8</ele>
    <time>2020-09-26T19:41:28Z</time>
   </trkpt>
   <trkpt lat="47.7996740" lon="-122.3649840">
    <ele>112.2</ele>
    <time>2020-09-26T19:41:29Z</time>
   </trkpt>
   <trkpt lat="47.7996740" lon="-122.3649500">
    <ele>112.4</ele>
    <time>2020-09-26T19:41:30Z</time>
   </trkpt>
   <trkpt lat="47.7996680" lon="-122.3648840">
    <ele>112.8</ele>
    <time>2020-09-26T19:41:31Z</time>
   </trkpt>
   <trkpt lat="47.7996780" lon="-122.3648420">
    <ele>113.0</ele>
    <time>2020-09-26T19:41:32Z</time>
   </trkpt>
   <trkpt lat="47.7996860" lon="-122.3648140">
    <ele>113.1</ele>
    <time>2020-09-26T19:41:33Z</time>
   </trkpt>
   <trkpt lat="47.7996930" lon="-122.3647920">
    <ele>113.2</ele>
    <time>2020-09-26T19:41:34Z</time>
   </trkpt>
   <trkpt lat="47.7997000" lon="-122.3647690">
    <ele>113.3</ele>
    <time>2020-09-26T19:41:35Z</time>
   </trkpt>
   <trkpt lat="47.7996960" lon="-122.3647200">
    <ele>113.5</ele>
    <time>2020-09-26T19:41:36Z</time>
   </trkpt>
   <trkpt lat="47.7996960" lon="-122.3646970">
    <ele>113.6</ele>
    <time>2020-09-26T19:41:37Z</time>
   </trkpt>
   <trkpt lat="47.7996980" lon="-122.3646350">
    <ele>113.8</ele>
    <time>2020-09-26T19:41:38Z</time>
   </trkpt>
   <trkpt lat="47.7996920" lon="-122.3646110">
    <ele>113.9</ele>
    <time>2020-09-26T19:41:39Z</time>
   </trkpt>
   <trkpt lat="47.7996890" lon="-122.3645580">
    <ele>114.1</ele>
    <time>2020-09-26T19:41:40Z</time>
   </trkpt>
   <trkpt lat="47.7996620" lon="-122.3645220">
    <ele>114.3</ele>
    <time>2020-09-26T19:41:41Z</time>
   </trkpt>
   <trkpt lat="47.7996710" lon="-122.3644690">
    <ele>114.4</ele>
    <time>2020-09-26T19:41:42Z</time>
   </trkpt>
   <trkpt lat="47.7996750" lon="-122.3644500">
    <ele>114.5</ele>
    <time>2020-09-26T19:41:43Z</time>
   </trkpt>
   <trkpt lat="47.7996650" lon="-122.3644060">
    <ele>114.6</ele>
    <time>2020-09-26T19:41:44Z</time>
   </trkpt>
   <trkpt lat="47.7996710" lon="-122.3643510">
    <ele>114.7</ele>
    <time>2020-09-26T19:41:45Z</time>
   </trkpt>
   <trkpt lat="47.7996770" lon="-122.3642940">
    <ele>114.9</ele>
    <time>2020-09-26T19:41:46Z</time>
   </trkpt>
   <trkpt lat="47.7996770" lon="-122.3642740">
    <ele>114.9</ele>
    <time>2020-09-26T19:41:47Z</time>
   </trkpt>
   <trkpt lat="47.7996820" lon="-122.3642140">
    <ele>115.0</ele>
    <time>2020-09-26T19:41:48Z</time>
   </trkpt>
   <trkpt lat="47.7996820" lon="-122.3641920">
    <ele>115.0</ele>
    <time>2020-09-26T19:41:49Z</time>
   </trkpt>
   <trkpt lat="47.7996820" lon="-122.3641330">
    <ele>115.1</ele>
    <time>2020-09-26T19:41:50Z</time>
   </trkpt>
   <trkpt lat="47.7996790" lon="-122.3641130">
    <ele>115.2</ele>
    <time>2020-09-26T19:41:51Z</time>
   </trkpt>
   <trkpt lat="47.7996540" lon="-122.3640650">
    <ele>115.3</ele>
    <time>2020-09-26T19:41:52Z</time>
   </trkpt>
   <trkpt lat="47.7996510" lon="-122.3640190">
    <ele>115.3</ele>
    <time>2020-09-26T19:41:53Z</time>
   </trkpt>
   <trkpt lat="47.7996540" lon="-122.3639680">
    <ele>115.4</ele>
    <time>2020-09-26T19:41:54Z</time>
   </trkpt>
   <trkpt lat="47.7996530" lon="-122.3639480">
    <ele>115.4</ele>
    <time>2020-09-26T19:41:55Z</time>
   </trkpt>
   <trkpt lat="47.7996590" lon="-122.3638920">
    <ele>115.5</ele>
    <time>2020-09-26T19:41:56Z</time>
   </trkpt>
   <trkpt lat="47.7996530" lon="-122.3638670">
    <ele>115.5</ele>
    <time>2020-09-26T19:41:57Z</time>
   </trkpt>
   <trkpt lat="47.7996480" lon="-122.3638090">
    <ele>115.5</ele>
    <time>2020-09-26T19:41:58Z</time>
   </trkpt>
   <trkpt lat="47.7996440" lon="-122.3637890">
    <ele>115.6</ele>
    <time>2020-09-26T19:41:59Z</time>
   </trkpt>
   <trkpt lat="47.7996460" lon="-122.3637410">
    <ele>115.6</ele>
    <time>2020-09-26T19:42:00Z</time>
   </trkpt>
   <trkpt lat="47.7996480" lon="-122.3636770">
    <ele>115.6</ele>
    <time>2020-09-26T19:42:01Z</time>
   </trkpt>
   <trkpt lat="47.7996480" lon="-122.3636530">
    <ele>115.7</ele>
    <time>2020-09-26T19:42:02Z</time>
   </trkpt>
   <trkpt lat="47.7996430" lon="-122.3636060">
    <ele>115.7</ele>
    <time>2020-09-26T19:42:03Z</time>
   </trkpt>
   <trkpt lat="47.7996400" lon="-122.3635510">
    <ele>115.7</ele>
    <time>2020-09-26T19:42:04Z</time>
   </trkpt>
   <trkpt lat="47.7996390" lon="-122.3635350">
    <ele>115.7</ele>
    <time>2020-09-26T19:42:05Z</time>
   </trkpt>
   <trkpt lat="47.7996470" lon="-122.3634960">
    <ele>115.8</ele>
    <time>2020-09-26T19:42:06Z</time>
   </trkpt>
   <trkpt lat="47.7996460" lon="-122.3634460">
    <ele>115.8</ele>
    <time>2020-09-26T19:42:07Z</time>
   </trkpt>
   <trkpt lat="47.7996460" lon="-122.3634010">
    <ele>115.8</ele>
    <time>2020-09-26T19:42:08Z</time>
   </trkpt>
   <trkpt lat="47.7996390" lon="-122.3633490">
    <ele>115.8</ele>
    <time>2020-09-26T19:42:09Z</time>
   </trkpt>
   <trkpt lat="47.7996460" lon="-122.3632980">
    <ele>115.9</ele>
    <time>2020-09-26T19:42:10Z</time>
   </trkpt>
   <trkpt lat="47.7996470" lon="-122.3632430">
    <ele>115.9</ele>
    <time>2020-09-26T19:42:11Z</time>
   </trkpt>
   <trkpt lat="47.7996430" lon="-122.3632250">
    <ele>115.9</ele>
    <time>2020-09-26T19:42:12Z</time>
   </trkpt>
   <trkpt lat="47.7996470" lon="-122.3631650">
    <ele>116.0</ele>
    <time>2020-09-26T19:42:13Z</time>
   </trkpt>
   <trkpt lat="47.7996430" lon="-122.3631440">
    <ele>116.0</ele>
    <time>2020-09-26T19:42:14Z</time>
   </trkpt>
   <trkpt lat="47.7996480" lon="-122.3630960">
    <ele>116.0</ele>
    <time>2020-09-26T19:42:15Z</time>
   </trkpt>
   <trkpt lat="47.7996430" lon="-122.3630400">
    <ele>116.0</ele>
    <time>2020-09-26T19:42:16Z</time>
   </trkpt>
   <trkpt lat="47.7996410" lon="-122.3630130">
    <ele>116.0</ele>
    <time>2020-09-26T19:42:17Z</time>
   </trkpt>
   <trkpt lat="47.7996480" lon="-122.3629570">
    <ele>116.0</ele>
    <time>2020-09-26T19:42:18Z</time>
   </trkpt>
   <trkpt lat="47.7996460" lon="-122.3629340">
    <ele>116.0</ele>
    <time>2020-09-26T19:42:19Z</time>
   </trkpt>
   <trkpt lat="47.7996520" lon="-122.3628830">
    <ele>116.0</ele>
    <time>2020-09-26T19:42:20Z</time>
   </trkpt>
   <trkpt lat="47.7996510" lon="-122.3628330">
    <ele>116.0</ele>
    <time>2020-09-26T19:42:21Z</time>
   </trkpt>
   <trkpt lat="47.7996540" lon="-122.3627870">
    <ele>116.0</ele>
    <time>2020-09-26T19:42:22Z</time>
   </trkpt>
   <trkpt lat="47.7996570" lon="-122.3627690">
    <ele>116.0</ele>
    <time>2020-09-26T19:42:23Z</time>
   </trkpt>
   <trkpt lat="47.7996520" lon="-122.3627180">
    <ele>116.0</ele>
    <time>2020-09-26T19:42:24Z</time>
   </trkpt>
   <trkpt lat="47.7996540" lon="-122.3626950">
    <ele>116.0</ele>
    <time>2020-09-26T19:42:25Z</time>
   </trkpt>
   <trkpt lat="47.7996540" lon="-122.3626340">
    <ele>115.9</ele>
    <time>2020-09-26T19:42:26Z</time>
   </trkpt>
   <trkpt lat="47.7996520" lon="-122.3626070">
    <ele>115.9</ele>
    <time>2020-09-26T19:42:27Z</time>
   </trkpt>
   <trkpt lat="47.7996630" lon="-122.3625590">
    <ele>115.8</ele>
    <time>2020-09-26T19:42:28Z</time>
   </trkpt>
   <trkpt lat="47.7996540" lon="-122.3625110">
    <ele>115.8</ele>
    <time>2020-09-26T19:42:29Z</time>
   </trkpt>
   <trkpt lat="47.7996640" lon="-122.3624690">
    <ele>115.7</ele>
    <time>2020-09-26T19:42:30Z</time>
   </trkpt>
   <trkpt lat="47.7996690" lon="-122.3624290">
    <ele>115.6</ele>
    <time>2020-09-26T19:42:31Z</time>
   </trkpt>
   <trkpt lat="47.7996730" lon="-122.3623850">
    <ele>115.6</ele>
    <time>2020-09-26T19:42:32Z</time>
   </trkpt>
   <trkpt lat="47.7996820" lon="-122.3623400">
    <ele>115.5</ele>
    <time>2020-09-26T19:42:33Z</time>
   </trkpt>
   <trkpt lat="47.7996820" lon="-122.3623230">
    <ele>115.5</ele>
    <time>2020-09-26T19:42:34Z</time>
   </trkpt>
   <trkpt lat="47.7996790" lon="-122.3622640">
    <ele>115.4</ele>
    <time>2020-09-26T19:42:35Z</time>
   </trkpt>
   <trkpt lat="47.7996770" lon="-122.3622050">
    <ele>115.3</ele>
    <time>2020-09-26T19:42:36Z</time>
   </trkpt>
   <trkpt lat="47.7996750" lon="-122.3621850">
    <ele>115.3</ele>
    <time>2020-09-26T19:42:37Z</time>
   </trkpt>
   <trkpt lat="47.7996810" lon="-122.3621270">
    <ele>115.2</ele>
    <time>2020-09-26T19:42:38Z</time>
   </trkpt>
   <trkpt lat="47.7996730" lon="-122.3620810">
    <ele>115.2</ele>
    <time>2020-09-26T19:42:39Z</time>
   </trkpt>
   <trkpt lat="47.7996750" lon="-122.3620350">
    <ele>115.1</ele>
    <time>2020-09-26T19:42:40Z</time>
   </trkpt>
   <trkpt lat="47.7996750" lon="-122.3619840">
    <ele>115.1</ele>
    <time>2020-09-26T19:42:41Z</time>
   </trkpt>
   <trkpt lat="47.7996660" lon="-122.3619400">
    <ele>115.0</ele>
    <time>2020-09-26T19:42:42Z</time>
   </trkpt>
   <trkpt lat="47.7996660" lon="-122.3618880">
    <ele>114.9</ele>
    <time>2020-09-26T19:42:43Z</time>
   </trkpt>
   <trkpt lat="47.7996650" lon="-122.3618410">
    <ele>114.8</ele>
    <time>2020-09-26T19:42:44Z</time>
   </trkpt>
   <trkpt lat="47.7996640" lon="-122.3617850">
    <ele>114.7</ele>
    <time>2020-09-26T19:42:45Z</time>
   </trkpt>
   <trkpt lat="47.7996680" lon="-122.3617640">
    <ele>114.7</ele>
    <time>2020-09-26T19:42:46Z</time>
   </trkpt>
   <trkpt lat="47.7996680" lon="-122.3617100">
    <ele>114.6</ele>
    <time>2020-09-26T19:42:47Z</time>
   </trkpt>
   <trkpt lat="47.7996660" lon="-122.3616930">
    <ele>114.5</ele>
    <time>2020-09-26T19:42:48Z</time>
   </trkpt>
   <trkpt lat="47.7996800" lon="-122.3616390">
    <ele>114.4</ele>
    <time>2020-09-26T19:42:49Z</time>
   </trkpt>
   <trkpt lat="47.7996860" lon="-122.3615710">
    <ele>114.2</ele>
    <time>2020-09-26T19:42:50Z</time>
   </trkpt>
   <trkpt lat="47.7996830" lon="-122.3615400">
    <ele>114.2</ele>
    <time>2020-09-26T19:42:51Z</time>
   </trkpt>
   <trkpt lat="47.7996870" lon="-122.3614950">
    <ele>114.0</ele>
    <time>2020-09-26T19:42:52Z</time>
   </trkpt>
   <trkpt lat="47.7996760" lon="-122.3614580">
    <ele>113.9</ele>
    <time>2020-09-26T19:42:53Z</time>
   </trkpt>
   <trkpt lat="47.7996850" lon="-122.3614160">
    <ele>113.8</ele>
    <time>2020-09-26T19:42:54Z</time>
   </trkpt>
   <trkpt lat="47.7996780" lon="-122.3613710">
    <ele>113.7</ele>
    <time>2020-09-26T19:42:55Z</time>
   </trkpt>
   <trkpt lat="47.7996690" lon="-122.3613260">
    <ele>113.6</ele>
    <time>2020-09-26T19:42:56Z</time>
   </trkpt>
   <trkpt lat="47.7996800" lon="-122.3612660">
    <ele>113.4</ele>
    <time>2020-09-26T19:42:57Z</time>
   </trkpt>
   <trkpt lat="47.7996730" lon="-122.3612170">
    <ele>113.3</ele>
    <time>2020-09-26T19:42:58Z</time>
   </trkpt>
   <trkpt lat="47.7996770" lon="-122.3611740">
    <ele>113.2</ele>
    <time>2020-09-26T19:42:59Z</time>
   </trkpt>
   <trkpt lat="47.7996710" lon="-122.3611240">
    <ele>113.0</ele>
    <time>2020-09-26T19:43:00Z</time>
   </trkpt>
   <trkpt lat="47.7996710" lon="-122.3610800">
    <ele>112.9</ele>
    <time>2020-09-26T19:43:01Z</time>
   </trkpt>
   <trkpt lat="47.7996840" lon="-122.3610320">
    <ele>112.8</ele>
    <time>2020-09-26T19:43:02Z</time>
   </trkpt>
   <trkpt lat="47.7996910" lon="-122.3609820">
    <ele>112.7</ele>
    <time>2020-09-26T19:43:03Z</time>
   </trkpt>
   <trkpt lat="47.7996830" lon="-122.3609300">
    <ele>112.6</ele>
    <time>2020-09-26T19:43:04Z</time>
   </trkpt>
   <trkpt lat="47.7996640" lon="-122.3608810">
    <ele>112.4</ele>
    <time>2020-09-26T19:43:05Z</time>
   </trkpt>
   <trkpt lat="47.7996630" lon="-122.3608220">
    <ele>112.3</ele>
    <time>2020-09-26T19:43:06Z</time>
   </trkpt>
   <trkpt lat="47.7996650" lon="-122.3608000">
    <ele>112.2</ele>
    <time>2020-09-26T19:43:07Z</time>
   </trkpt>
   <trkpt lat="47.7996660" lon="-122.3607530">
    <ele>112.1</ele>
    <time>2020-09-26T19:43:08Z</time>
   </trkpt>
   <trkpt lat="47.7996670" lon="-122.3606910">
    <ele>112.0</ele>
    <time>2020-09-26T19:43:09Z</time>
   </trkpt>
   <trkpt lat="47.7996700" lon="-122.3606680">
    <ele>112.0</ele>
    <time>2020-09-26T19:43:10Z</time>
   </trkpt>
   <trkpt lat="47.7996610" lon="-122.3606170">
    <ele>111.9</ele>
    <time>2020-09-26T19:43:11Z</time>
   </trkpt>
   <trkpt lat="47.7996490" lon="-122.3605580">
    <ele>111.7</ele>
    <time>2020-09-26T19:43:12Z</time>
   </trkpt>
   <trkpt lat="47.7996590" lon="-122.3605020">
    <ele>111.6</ele>
    <time>2020-09-26T19:43:13Z</time>
   </trkpt>
   <trkpt lat="47.7996640" lon="-122.3604530">
    <ele>111.5</ele>
    <time>2020-09-26T19:43:14Z</time>
   </trkpt>
   <trkpt lat="47.7996670" lon="-122.3604130">
    <ele>111.5</ele>
    <time>2020-09-26T19:43:15Z</time>
   </trkpt>
   <trkpt lat="47.7996660" lon="-122.3603530">
    <ele>111.4</ele>
    <time>2020-09-26T19:43:16Z</time>
   </trkpt>
   <trkpt lat="47.7996690" lon="-122.3603290">
    <ele>111.4</ele>
    <time>2020-09-26T19:43:17Z</time>
   </trkpt>
   <trkpt lat="47.7996720" lon="-122.3602830">
    <ele>111.3</ele>
    <time>2020-09-26T19:43:18Z</time>
   </trkpt>
   <trkpt lat="47.7996730" lon="-122.3602280">
    <ele>111.2</ele>
    <time>2020-09-26T19:43:19Z</time>
   </trkpt>
   <trkpt lat="47.7996760" lon="-122.3601580">
    <ele>111.2</ele>
    <time>2020-09-26T19:43:20Z</time>
   </trkpt>
   <trkpt lat="47.7996800" lon="-122.3601180">
    <ele>111.2</ele>
    <time>2020-09-26T19:43:21Z</time>
   </trkpt>
   <trkpt lat="47.7996770" lon="-122.3600630">
    <ele>111.2</ele>
    <time>2020-09-26T19:43:22Z</time>
   </trkpt>
   <trkpt lat="47.7996690" lon="-122.3600210">
    <ele>111.2</ele>
    <time>2020-09-26T19:43:23Z</time>
   </trkpt>
   <trkpt lat="47.7996580" lon="-122.3599740">
    <ele>111.3</ele>
    <time>2020-09-26T19:43:24Z</time>
   </trkpt>
   <trkpt lat="47.7996660" lon="-122.3599280">
    <ele>111.3</ele>
    <time>2020-09-26T19:43:25Z</time>
   </trkpt>
   <trkpt lat="47.7996650" lon="-122.3598880">
    <ele>111.3</ele>
    <time>2020-09-26T19:43:26Z</time>
   </trkpt>
   <trkpt lat="47.7996640" lon="-122.3598480">
    <ele>111.3</ele>
    <time>2020-09-26T19:43:27Z</time>
   </trkpt>
   <trkpt lat="47.7996640" lon="-122.3598000">
    <ele>111.4</ele>
    <time>2020-09-26T19:43:28Z</time>
   </trkpt>
   <trkpt lat="47.7996500" lon="-122.3597540">
    <ele>111.4</ele>
    <time>2020-09-26T19:43:29Z</time>
   </trkpt>
   <trkpt lat="47.7996560" lon="-122.3596920">
    <ele>111.6</ele>
    <time>2020-09-26T19:43:30Z</time>
   </trkpt>
   <trkpt lat="47.7996630" lon="-122.3596480">
    <ele>111.7</ele>
    <time>2020-09-26T19:43:31Z</time>
   </trkpt>
   <trkpt lat="47.7996530" lon="-122.3595960">
    <ele>111.8</ele>
    <time>2020-09-26T19:43:32Z</time>
   </trkpt>
   <trkpt lat="47.7996540" lon="-122.3595530">
    <ele>112.0</ele>
    <time>2020-09-26T19:43:33Z</time>
   </trkpt>
   <trkpt lat="47.7996610" lon="-122.3595010">
    <ele>112.2</ele>
    <time>2020-09-26T19:43:34Z</time>
   </trkpt>
   <trkpt lat="47.7996620" lon="-122.3594800">
    <ele>112.3</ele>
    <time>2020-09-26T19:43:35Z</time>
   </trkpt>
   <trkpt lat="47.7996660" lon="-122.3594160">
    <ele>112.5</ele>
    <time>2020-09-26T19:43:36Z</time>
   </trkpt>
   <trkpt lat="47.7996640" lon="-122.3593900">
    <ele>112.5</ele>
    <time>2020-09-26T19:43:37Z</time>
   </trkpt>
   <trkpt lat="47.7996650" lon="-122.3593350">
    <ele>112.4</ele>
    <time>2020-09-26T19:43:38Z</time>
   </trkpt>
   <trkpt lat="47.7996700" lon="-122.3592730">
    <ele>112.3</ele>
    <time>2020-09-26T19:43:39Z</time>
   </trkpt>
   <trkpt lat="47.7996570" lon="-122.3592350">
    <ele>112.3</ele>
    <time>2020-09-26T19:43:40Z</time>
   </trkpt>
   <trkpt lat="47.7996610" lon="-122.3591850">
    <ele>112.4</ele>
    <time>2020-09-26T19:43:41Z</time>
   </trkpt>
   <trkpt lat="47.7996620" lon="-122.3591600">
    <ele>112.4</ele>
    <time>2020-09-26T19:43:42Z</time>
   </trkpt>
   <trkpt lat="47.7996780" lon="-122.3591160">
    <ele>112.4</ele>
    <time>2020-09-26T19:43:43Z</time>
   </trkpt>
   <trkpt lat="47.7996690" lon="-122.3590540">
    <ele>112.5</ele>
    <time>2020-09-26T19:43:44Z</time>
   </trkpt>
   <trkpt lat="47.7996630" lon="-122.3590280">
    <ele>112.5</ele>
    <time>2020-09-26T19:43:45Z</time>
   </trkpt>
   <trkpt lat="47.7996660" lon="-122.3589860">
    <ele>112.5</ele>
    <time>2020-09-26T19:43:46Z</time>
   </trkpt>
   <trkpt lat="47.7996600" lon="-122.3589400">
    <ele>112.6</ele>
    <time>2020-09-26T19:43:47Z</time>
   </trkpt>
   <trkpt lat="47.7996640" lon="-122.3588950">
    <ele>112.6</ele>
    <time>2020-09-26T19:43:48Z</time>
   </trkpt>
   <trkpt lat="47.7996660" lon="-122.3588330">
    <ele>112.8</ele>
    <time>2020-09-26T19:43:49Z</time>
   </trkpt>
   <trkpt lat="47.7996740" lon="-122.3587970">
    <ele>112.9</ele>
    <time>2020-09-26T19:43:50Z</time>
   </trkpt>
   <trkpt lat="47.7996650" lon="-122.3587400">
    <ele>113.1</ele>
    <time>2020-09-26T19:43:51Z</time>
   </trkpt>
   <trkpt lat="47.7996630" lon="-122.3586990">
    <ele>113.3</ele>
    <time>2020-09-26T19:43:52Z</time>
   </trkpt>
   <trkpt lat="47.7996510" lon="-122.3586580">
    <ele>113.4</ele>
    <time>2020-09-26T19:43:53Z</time>
   </trkpt>
   <trkpt lat="47.7996530" lon="-122.3586130">
    <ele>113.6</ele>
    <time>2020-09-26T19:43:54Z</time>
   </trkpt>
   <trkpt lat="47.7996540" lon="-122.3585560">
    <ele>113.8</ele>
    <time>2020-09-26T19:43:55Z</time>
   </trkpt>
   <trkpt lat="47.7996570" lon="-122.3584980">
    <ele>114.1</ele>
    <time>2020-09-26T19:43:56Z</time>
   </trkpt>
   <trkpt lat="47.7996710" lon="-122.3584480">
    <ele>114.4</ele>
    <time>2020-09-26T19:43:57Z</time>
   </trkpt>
   <trkpt lat="47.7996660" lon="-122.3584080">
    <ele>114.6</ele>
    <time>2020-09-26T19:43:58Z</time>
   </trkpt>
   <trkpt lat="47.7996670" lon="-122.3583590">
    <ele>114.8</ele>
    <time>2020-09-26T19:43:59Z</time>
   </trkpt>
   <trkpt lat="47.7996820" lon="-122.3583220">
    <ele>115.0</ele>
    <time>2020-09-26T19:44:00Z</time>
   </trkpt>
   <trkpt lat="47.7996730" lon="-122.3582460">
    <ele>115.5</ele>
    <time>2020-09-26T19:44:01Z</time>
   </trkpt>
   <trkpt lat="47.7996680" lon="-122.3581890">
    <ele>115.9</ele>
    <time>2020-09-26T19:44:02Z</time>
   </trkpt>
   <trkpt lat="47.7996620" lon="-122.3581360">
    <ele>116.2</ele>
    <time>2020-09-26T19:44:03Z</time>
   </trkpt>
   <trkpt lat="47.7996540" lon="-122.3580810">
    <ele>116.6</ele>
    <time>2020-09-26T19:44:04Z</time>
   </trkpt>
   <trkpt lat="47.7996580" lon="-122.3580160">
    <ele>117.1</ele>
    <time>2020-09-26T19:44:05Z</time>
   </trkpt>
   <trkpt lat="47.7996640" lon="-122.3579700">
    <ele>117.3</ele>
    <time>2020-09-26T19:44:06Z</time>
   </trkpt>
   <trkpt lat="47.7996480" lon="-122.3579170">
    <ele>117.7</ele>
    <time>2020-09-26T19:44:07Z</time>
   </trkpt>
   <trkpt lat="47.7996440" lon="-122.3578490">
    <ele>118.2</ele>
    <time>2020-09-26T19:44:08Z</time>
   </trkpt>
   <trkpt lat="47.7996420" lon="-122.3578200">
    <ele>118.4</ele>
    <time>2020-09-26T19:44:09Z</time>
   </trkpt>
   <trkpt lat="47.7996530" lon="-122.3577450">
    <ele>118.9</ele>
    <time>2020-09-26T19:44:10Z</time>
   </trkpt>
   <trkpt lat="47.7996500" lon="-122.3576680">
    <ele>119.4</ele>
    <time>2020-09-26T19:44:11Z</time>
   </trkpt>
   <trkpt lat="47.7996550" lon="-122.3576110">
    <ele>119.8</ele>
    <time>2020-09-26T19:44:12Z</time>
   </trkpt>
   <trkpt lat="47.7996400" lon="-122.3575640">
    <ele>120.2</ele>
    <time>2020-09-26T19:44:13Z</time>
   </trkpt>
   <trkpt lat="47.7996470" lon="-122.3575180">
    <ele>120.5</ele>
    <time>2020-09-26T19:44:14Z</time>
   </trkpt>
   <trkpt lat="47.7996420" lon="-122.3574510">
    <ele>120.8</ele>
    <time>2020-09-26T19:44:15Z</time>
   </trkpt>
   <trkpt lat="47.7996480" lon="-122.3574080">
    <ele>121.0</ele>
    <time>2020-09-26T19:44:16Z</time>
   </trkpt>
   <trkpt lat="47.7996440" lon="-122.3573610">
    <ele>121.1</ele>
    <time>2020-09-26T19:44:17Z</time>
   </trkpt>
   <trkpt lat="47.7996470" lon="-122.3573280">
    <ele>121.2</ele>
    <time>2020-09-26T19:44:18Z</time>
   </trkpt>
  </trkseg>
 </trk>
</gpx>
