<?xml version="1.0" encoding="UTF-8"?>
<gpx creator="StravaGPX" version="1.1" xmlns="http://www.topografix.com/GPX/1/1" xmlns:xsi="http://www.w3.org/2001/XMLSchema-instance" xsi:schemaLocation="http://www.topografix.com/GPX/1/1 http://www.topografix.com/GPX/1/1/gpx.xsd">
 <metadata>
  <time>2020-12-07T22:30:25Z</time>
 </metadata>
 <trk>
  <name>Mondayyyy</name>
  <type>running</type>
  <trkseg>
   <trkpt lat="47.3802630" lon="-122.0376190">
    <ele>150.1</ele>
    <time>2020-12-07T22:30:25Z</time>
   </trkpt>
   <trkpt lat="47.3802390" lon="-122.0377530">
    <ele>150.0</ele>
    <time>2020-12-07T22:30:26Z</time>
   </trkpt>
   <trkpt lat="47.3802410" lon="-122.0377870">
    <ele>150.0</ele>
    <time>2020-12-07T22:30:27Z</time>
   </trkpt>
   <trkpt lat="47.3802570" lon="-122.0378930">
    <ele>149.9</ele>
    <time>2020-12-07T22:30:28Z</time>
   </trkpt>
   <trkpt lat="47.3803130" lon="-122.0380240">
    <ele>149.7</ele>
    <time>2020-12-07T22:30:29Z</time>
   </trkpt>
   <trkpt lat="47.3803870" lon="-122.0381340">
    <ele>149.5</ele>
    <time>2020-12-07T22:30:30Z</time>
   </trkpt>
   <trkpt lat="47.3804250" lon="-122.0382350">
    <ele>149.3</ele>
    <time>2020-12-07T22:30:31Z</time>
   </trkpt>
   <trkpt lat="47.3804710" lon="-122.0382520">
    <ele>149.3</ele>
    <time>2020-12-07T22:30:32Z</time>
   </trkpt>
   <trkpt lat="47.3805110" lon="-122.0383170">
    <ele>149.2</ele>
    <time>2020-12-07T22:30:33Z</time>
   </trkpt>
   <trkpt lat="47.3805380" lon="-122.0383560">
    <ele>149.1</ele>
    <time>2020-12-07T22:30:34Z</time>
   </trkpt>
   <trkpt lat="47.3805570" lon="-122.0383870">
    <ele>149.0</ele>
    <time>2020-12-07T22:30:35Z</time>
   </trkpt>
   <trkpt lat="47.3805640" lon="-122.0384290">
    <ele>149.0</ele>
    <time>2020-12-07T22:30:36Z</time>
   </trkpt>
   <trkpt lat="47.3806010" lon="-122.0384570">
    <ele>148.9</ele>
    <time>2020-12-07T22:30:37Z</time>
   </trkpt>
   <trkpt lat="47.3805980" lon="-122.0385300">
    <ele>148.8</ele>
    <time>2020-12-07T22:30:38Z</time>
   </trkpt>
   <trkpt lat="47.3806010" lon="-122.0386200">
    <ele>148.7</ele>
    <time>2020-12-07T22:30:39Z</time>
   </trkpt>
   <trkpt lat="47.3806100" lon="-122.0386600">
    <ele>148.6</ele>
    <time>2020-12-07T22:30:40Z</time>
   </trkpt>
   <trkpt lat="47.3806170" lon="-122.0386850">
    <ele>148.6</ele>
    <time>2020-12-07T22:30:41Z</time>
   </trkpt>
   <trkpt lat="47.3806270" lon="-122.0387620">
    <ele>148.5</ele>
    <time>2020-12-07T22:30:42Z</time>
   </trkpt>
   <trkpt lat="47.3806370" lon="-122.0388270">
    <ele>148.5</ele>
    <time>2020-12-07T22:30:43Z</time>
   </trkpt>
   <trkpt lat="47.3806450" lon="-122.0388820">
    <ele>148.4</ele>
    <time>2020-12-07T22:30:44Z</time>
   </trkpt>
   <trkpt lat="47.3806580" lon="-122.0389480">
    <ele>148.3</ele>
    <time>2020-12-07T22:30:45Z</time>
   </trkpt>
   <trkpt lat="47.3806790" lon="-122.0390100">
    <ele>148.3</ele>
    <time>2020-12-07T22:30:46Z</time>
   </trkpt>
   <trkpt lat="47.3806920" lon="-122.0390670">
    <ele>148.2</ele>
    <time>2020-12-07T22:30:47Z</time>
   </trkpt>
   <trkpt lat="47.3806980" lon="-122.0391170">
    <ele>148.2</ele>
    <time>2020-12-07T22:30:48Z</time>
   </trkpt>
   <trkpt lat="47.3806990" lon="-122.0391860">
    <ele>148.1</ele>
    <time>2020-12-07T22:30:49Z</time>
   </trkpt>
   <trkpt lat="47.3807080" lon="-122.0392780">
    <ele>148.0</ele>
    <time>2020-12-07T22:30:50Z</time>
   </trkpt>
   <trkpt lat="47.3807150" lon="-122.0393340">
    <ele>148.0</ele>
    <time>2020-12-07T22:30:51Z</time>
   </trkpt>
   <trkpt lat="47.3807130" lon="-122.0393900">
    <ele>147.9</ele>
    <time>2020-12-07T22:30:52Z</time>
   </trkpt>
   <trkpt lat="47.3807200" lon="-122.0394480">
    <ele>147.9</ele>
    <time>2020-12-07T22:30:53Z</time>
   </trkpt>
   <trkpt lat="47.3807240" lon="-122.0395010">
    <ele>147.9</ele>
    <time>2020-12-07T22:30:54Z</time>
   </trkpt>
   <trkpt lat="47.3807360" lon="-122.0395500">
    <ele>147.8</ele>
    <time>2020-12-07T22:30:55Z</time>
   </trkpt>
   <trkpt lat="47.3807370" lon="-122.0396030">
    <ele>147.8</ele>
    <time>2020-12-07T22:30:56Z</time>
   </trkpt>
   <trkpt lat="47.3807330" lon="-122.0396600">
    <ele>147.8</ele>
    <time>2020-12-07T22:30:57Z</time>
   </trkpt>
   <trkpt lat="47.3807390" lon="-122.0397170">
    <ele>147.7</ele>
    <time>2020-12-07T22:30:58Z</time>
   </trkpt>
   <trkpt lat="47.3807470" lon="-122.0397600">
    <ele>147.7</ele>
    <time>2020-12-07T22:30:59Z</time>
   </trkpt>
   <trkpt lat="47.3807600" lon="-122.0397990">
    <ele>147.7</ele>
    <time>2020-12-07T22:31:00Z</time>
   </trkpt>
   <trkpt lat="47.3807600" lon="-122.0398580">
    <ele>147.6</ele>
    <time>2020-12-07T22:31:01Z</time>
   </trkpt>
   <trkpt lat="47.3807550" lon="-122.0398790">
    <ele>147.6</ele>
    <time>2020-12-07T22:31:02Z</time>
   </trkpt>
   <trkpt lat="47.3807630" lon="-122.0399520">
    <ele>147.5</ele>
    <time>2020-12-07T22:31:03Z</time>
   </trkpt>
   <trkpt lat="47.3807610" lon="-122.0400190">
    <ele>147.5</ele>
    <time>2020-12-07T22:31:04Z</time>
   </trkpt>
   <trkpt lat="47.3807610" lon="-122.0400810">
    <ele>147.4</ele>
    <time>2020-12-07T22:31:05Z</time>
   </trkpt>
   <trkpt lat="47.3807480" lon="-122.0402110">
    <ele>147.2</ele>
    <time>2020-12-07T22:31:06Z</time>
   </trkpt>
   <trkpt lat="47.3807440" lon="-122.0402700">
    <ele>147.2</ele>
    <time>2020-12-07T22:31:07Z</time>
   </trkpt>
   <trkpt lat="47.3807520" lon="-122.0403260">
    <ele>147.1</ele>
    <time>2020-12-07T22:31:08Z</time>
   </trkpt>
   <trkpt lat="47.3807480" lon="-122.0403920">
    <ele>147.0</ele>
    <time>2020-12-07T22:31:09Z</time>
   </trkpt>
   <trkpt lat="47.3807560" lon="-122.0404600">
    <ele>147.0</ele>
    <time>2020-12-07T22:31:10Z</time>
   </trkpt>
   <trkpt lat="47.3807620" lon="-122.0405470">
    <ele>147.0</ele>
    <time>2020-12-07T22:31:11Z</time>
   </trkpt>
   <trkpt lat="47.3807660" lon="-122.0406250">
    <ele>147.0</ele>
    <time>2020-12-07T22:31:12Z</time>
   </trkpt>
   <trkpt lat="47.3807830" lon="-122.0407050">
    <ele>147.0</ele>
    <time>2020-12-07T22:31:13Z</time>
   </trkpt>
   <trkpt lat="47.3807980" lon="-122.0407650">
    <ele>146.9</ele>
    <time>2020-12-07T22:31:14Z</time>
   </trkpt>
   <trkpt lat="47.3808070" lon="-122.0408330">
    <ele>146.9</ele>
    <time>2020-12-07T22:31:15Z</time>
   </trkpt>
   <trkpt lat="47.3808120" lon="-122.0409030">
    <ele>146.9</ele>
    <time>2020-12-07T22:31:16Z</time>
   </trkpt>
   <trkpt lat="47.3808280" lon="-122.0409830">
    <ele>146.9</ele>
    <time>2020-12-07T22:31:17Z</time>
   </trkpt>
   <trkpt lat="47.3808400" lon="-122.0410560">
    <ele>146.9</ele>
    <time>2020-12-07T22:31:18Z</time>
   </trkpt>
   <trkpt lat="47.3808490" lon="-122.0411180">
    <ele>146.8</ele>
    <time>2020-12-07T22:31:19Z</time>
   </trkpt>
   <trkpt lat="47.3808620" lon="-122.0412110">
    <ele>146.8</ele>
    <time>2020-12-07T22:31:20Z</time>
   </trkpt>
   <trkpt lat="47.3808720" lon="-122.0412740">
    <ele>146.8</ele>
    <time>2020-12-07T22:31:21Z</time>
   </trkpt>
   <trkpt lat="47.3808890" lon="-122.0413420">
    <ele>146.7</ele>
    <time>2020-12-07T22:31:22Z</time>
   </trkpt>
   <trkpt lat="47.3808920" lon="-122.0414080">
    <ele>146.7</ele>
    <time>2020-12-07T22:31:23Z</time>
   </trkpt>
   <trkpt lat="47.3808910" lon="-122.0414750">
    <ele>146.6</ele>
    <time>2020-12-07T22:31:24Z</time>
   </trkpt>
   <trkpt lat="47.3808820" lon="-122.0415430">
    <ele>146.6</ele>
    <time>2020-12-07T22:31:25Z</time>
   </trkpt>
   <trkpt lat="47.3808860" lon="-122.0415980">
    <ele>146.5</ele>
    <time>2020-12-07T22:31:26Z</time>
   </trkpt>
   <trkpt lat="47.3808890" lon="-122.0416640">
    <ele>146.5</ele>
    <time>2020-12-07T22:31:27Z</time>
   </trkpt>
   <trkpt lat="47.3808860" lon="-122.0417350">
    <ele>146.5</ele>
    <time>2020-12-07T22:31:28Z</time>
   </trkpt>
   <trkpt lat="47.3808970" lon="-122.0417970">
    <ele>146.4</ele>
    <time>2020-12-07T22:31:29Z</time>
   </trkpt>
   <trkpt lat="47.3809100" lon="-122.0418610">
    <ele>146.4</ele>
    <time>2020-12-07T22:31:30Z</time>
   </trkpt>
   <trkpt lat="47.3809340" lon="-122.0419200">
    <ele>146.3</ele>
    <time>2020-12-07T22:31:31Z</time>
   </trkpt>
   <trkpt lat="47.3809470" lon="-122.0420090">
    <ele>146.3</ele>
    <time>2020-12-07T22:31:32Z</time>
   </trkpt>
   <trkpt lat="47.3809540" lon="-122.0420730">
    <ele>146.2</ele>
    <time>2020-12-07T22:31:33Z</time>
   </trkpt>
   <trkpt lat="47.3809490" lon="-122.0421430">
    <ele>146.2</ele>
    <time>2020-12-07T22:31:34Z</time>
   </trkpt>
   <trkpt lat="47.3809520" lon="-122.0422150">
    <ele>146.1</ele>
    <time>2020-12-07T22:31:35Z</time>
   </trkpt>
   <trkpt lat="47.3809550" lon="-122.0422870">
    <ele>146.0</ele>
    <time>2020-12-07T22:31:36Z</time>
   </trkpt>
   <trkpt lat="47.3809600" lon="-122.0423450">
    <ele>146.0</ele>
    <time>2020-12-07T22:31:37Z</time>
   </trkpt>
   <trkpt lat="47.3809610" lon="-122.0424140">
    <ele>145.9</ele>
    <time>2020-12-07T22:31:38Z</time>
   </trkpt>
   <trkpt lat="47.3809580" lon="-122.0424670">
    <ele>145.9</ele>
    <time>2020-12-07T22:31:39Z</time>
   </trkpt>
   <trkpt lat="47.3809550" lon="-122.0425220">
    <ele>145.9</ele>
    <time>2020-12-07T22:31:40Z</time>
   </trkpt>
   <trkpt lat="47.3809550" lon="-122.0425770">
    <ele>145.8</ele>
    <time>2020-12-07T22:31:41Z</time>
   </trkpt>
   <trkpt lat="47.3809500" lon="-122.0426390">
    <ele>145.8</ele>
    <time>2020-12-07T22:31:42Z</time>
   </trkpt>
   <trkpt lat="47.3809530" lon="-122.0426950">
    <ele>145.8</ele>
    <time>2020-12-07T22:31:43Z</time>
   </trkpt>
   <trkpt lat="47.3809530" lon="-122.0427630">
    <ele>145.8</ele>
    <time>2020-12-07T22:31:44Z</time>
   </trkpt>
   <trkpt lat="47.3809610" lon="-122.0428310">
    <ele>145.7</ele>
    <time>2020-12-07T22:31:45Z</time>
   </trkpt>
   <trkpt lat="47.3809680" lon="-122.0428930">
    <ele>145.7</ele>
    <time>2020-12-07T22:31:46Z</time>
   </trkpt>
   <trkpt lat="47.3809690" lon="-122.0429490">
    <ele>145.6</ele>
    <time>2020-12-07T22:31:47Z</time>
   </trkpt>
   <trkpt lat="47.3809730" lon="-122.0430100">
    <ele>145.6</ele>
    <time>2020-12-07T22:31:48Z</time>
   </trkpt>
   <trkpt lat="47.3809710" lon="-122.0430690">
    <ele>145.6</ele>
    <time>2020-12-07T22:31:49Z</time>
   </trkpt>
   <trkpt lat="47.3809660" lon="-122.0431250">
    <ele>145.5</ele>
    <time>2020-12-07T22:31:50Z</time>
   </trkpt>
   <trkpt lat="47.3809620" lon="-122.0431720">
    <ele>145.5</ele>
    <time>2020-12-07T22:31:51Z</time>
   </trkpt>
   <trkpt lat="47.3809680" lon="-122.0432330">
    <ele>145.5</ele>
    <time>2020-12-07T22:31:52Z</time>
   </trkpt>
   <trkpt lat="47.3809770" lon="-122.0432940">
    <ele>145.4</ele>
    <time>2020-12-07T22:31:53Z</time>
   </trkpt>
   <trkpt lat="47.3809850" lon="-122.0433450">
    <ele>145.4</ele>
    <time>2020-12-07T22:31:54Z</time>
   </trkpt>
   <trkpt lat="47.3809870" lon="-122.0433950">
    <ele>145.4</ele>
    <time>2020-12-07T22:31:55Z</time>
   </trkpt>
   <trkpt lat="47.3809880" lon="-122.0434570">
    <ele>145.3</ele>
    <time>2020-12-07T22:31:56Z</time>
   </trkpt>
   <trkpt lat="47.3809840" lon="-122.0434810">
    <ele>145.3</ele>
    <time>2020-12-07T22:31:57Z</time>
   </trkpt>
   <trkpt lat="47.3809740" lon="-122.0435380">
    <ele>145.3</ele>
    <time>2020-12-07T22:31:58Z</time>
   </trkpt>
   <trkpt lat="47.3809700" lon="-122.0436010">
    <ele>145.2</ele>
    <time>2020-12-07T22:31:59Z</time>
   </trkpt>
   <trkpt lat="47.3809690" lon="-122.0436630">
    <ele>145.2</ele>
    <time>2020-12-07T22:32:00Z</time>
   </trkpt>
   <trkpt lat="47.3809730" lon="-122.0437250">
    <ele>145.1</ele>
    <time>2020-12-07T22:32:01Z</time>
   </trkpt>
   <trkpt lat="47.3809670" lon="-122.0437780">
    <ele>145.0</ele>
    <time>2020-12-07T22:32:02Z</time>
   </trkpt>
   <trkpt lat="47.3809620" lon="-122.0438330">
    <ele>145.0</ele>
    <time>2020-12-07T22:32:03Z</time>
   </trkpt>
   <trkpt lat="47.3809650" lon="-122.0438960">
    <ele>144.9</ele>
    <time>2020-12-07T22:32:04Z</time>
   </trkpt>
   <trkpt lat="47.3809720" lon="-122.0439570">
    <ele>144.9</ele>
    <time>2020-12-07T22:32:05Z</time>
   </trkpt>
   <trkpt lat="47.3809760" lon="-122.0440190">
    <ele>144.8</ele>
    <time>2020-12-07T22:32:06Z</time>
   </trkpt>
   <trkpt lat="47.3809790" lon="-122.0440900">
    <ele>144.8</ele>
    <time>2020-12-07T22:32:07Z</time>
   </trkpt>
   <trkpt lat="47.3809790" lon="-122.0441310">
    <ele>144.7</ele>
    <time>2020-12-07T22:32:08Z</time>
   </trkpt>
   <trkpt lat="47.3809770" lon="-122.0441860">
    <ele>144.7</ele>
    <time>2020-12-07T22:32:09Z</time>
   </trkpt>
   <trkpt lat="47.3809860" lon="-122.0442460">
    <ele>144.6</ele>
    <time>2020-12-07T22:32:10Z</time>
   </trkpt>
   <trkpt lat="47.3809970" lon="-122.0443070">
    <ele>144.6</ele>
    <time>2020-12-07T22:32:11Z</time>
   </trkpt>
   <trkpt lat="47.3810060" lon="-122.0443610">
    <ele>144.5</ele>
    <time>2020-12-07T22:32:12Z</time>
   </trkpt>
   <trkpt lat="47.3810150" lon="-122.0444200">
    <ele>144.5</ele>
    <time>2020-12-07T22:32:13Z</time>
   </trkpt>
   <trkpt lat="47.3810140" lon="-122.0444720">
    <ele>144.4</ele>
    <time>2020-12-07T22:32:14Z</time>
   </trkpt>
   <trkpt lat="47.3810170" lon="-122.0445210">
    <ele>144.4</ele>
    <time>2020-12-07T22:32:15Z</time>
   </trkpt>
   <trkpt lat="47.3810260" lon="-122.0445780">
    <ele>144.3</ele>
    <time>2020-12-07T22:32:16Z</time>
   </trkpt>
   <trkpt lat="47.3810260" lon="-122.0446390">
    <ele>144.3</ele>
    <time>2020-12-07T22:32:17Z</time>
   </trkpt>
   <trkpt lat="47.3810330" lon="-122.0446820">
    <ele>144.3</ele>
    <time>2020-12-07T22:32:18Z</time>
   </trkpt>
   <trkpt lat="47.3810390" lon="-122.0447290">
    <ele>144.2</ele>
    <time>2020-12-07T22:32:19Z</time>
   </trkpt>
   <trkpt lat="47.3810410" lon="-122.0447820">
    <ele>144.2</ele>
    <time>2020-12-07T22:32:20Z</time>
   </trkpt>
   <trkpt lat="47.3810640" lon="-122.0448410">
    <ele>144.1</ele>
    <time>2020-12-07T22:32:21Z</time>
   </trkpt>
   <trkpt lat="47.3810760" lon="-122.0448880">
    <ele>144.1</ele>
    <time>2020-12-07T22:32:22Z</time>
   </trkpt>
   <trkpt lat="47.3810880" lon="-122.0449410">
    <ele>144.0</ele>
    <time>2020-12-07T22:32:23Z</time>
   </trkpt>
   <trkpt lat="47.3810990" lon="-122.0449870">
    <ele>144.0</ele>
    <time>2020-12-07T22:32:24Z</time>
   </trkpt>
   <trkpt lat="47.3811020" lon="-122.0450390">
    <ele>144.0</ele>
    <time>2020-12-07T22:32:25Z</time>
   </trkpt>
   <trkpt lat="47.3811050" lon="-122.0450840">
    <ele>143.9</ele>
    <time>2020-12-07T22:32:26Z</time>
   </trkpt>
   <trkpt lat="47.3811020" lon="-122.0451350">
    <ele>143.9</ele>
    <time>2020-12-07T22:32:27Z</time>
   </trkpt>
   <trkpt lat="47.3811000" lon="-122.0451870">
    <ele>143.8</ele>
    <time>2020-12-07T22:32:28Z</time>
   </trkpt>
   <trkpt lat="47.3811020" lon="-122.0452350">
    <ele>143.8</ele>
    <time>2020-12-07T22:32:29Z</time>
   </trkpt>
   <trkpt lat="47.3811000" lon="-122.0452770">
    <ele>143.7</ele>
    <time>2020-12-07T22:32:30Z</time>
   </trkpt>
   <trkpt lat="47.3811000" lon="-122.0453290">
    <ele>143.7</ele>
    <time>2020-12-07T22:32:31Z</time>
   </trkpt>
   <trkpt lat="47.3810990" lon="-122.0453450">
    <ele>143.7</ele>
    <time>2020-12-07T22:32:32Z</time>
   </trkpt>
   <trkpt lat="47.3811040" lon="-122.0454000">
    <ele>143.6</ele>
    <time>2020-12-07T22:32:33Z</time>
   </trkpt>
   <trkpt lat="47.3811120" lon="-122.0454600">
    <ele>143.6</ele>
    <time>2020-12-07T22:32:34Z</time>
   </trkpt>
   <trkpt lat="47.3811160" lon="-122.0454850">
    <ele>143.5</ele>
    <time>2020-12-07T22:32:35Z</time>
   </trkpt>
   <trkpt lat="47.3811180" lon="-122.0455500">
    <ele>143.5</ele>
    <time>2020-12-07T22:32:36Z</time>
   </trkpt>
   <trkpt lat="47.3811180" lon="-122.0455760">
    <ele>143.5</ele>
    <time>2020-12-07T22:32:37Z</time>
   </trkpt>
   <trkpt lat="47.3811180" lon="-122.0456250">
    <ele>143.4</ele>
    <time>2020-12-07T22:32:38Z</time>
   </trkpt>
   <trkpt lat="47.3811210" lon="-122.0456830">
    <ele>143.4</ele>
    <time>2020-12-07T22:32:39Z</time>
   </trkpt>
   <trkpt lat="47.3811310" lon="-122.0457280">
    <ele>143.3</ele>
    <time>2020-12-07T22:32:40Z</time>
   </trkpt>
   <trkpt lat="47.3811370" lon="-122.0457720">
    <ele>143.3</ele>
    <time>2020-12-07T22:32:41Z</time>
   </trkpt>
   <trkpt lat="47.3811440" lon="-122.0458130">
    <ele>143.3</ele>
    <time>2020-12-07T22:32:42Z</time>
   </trkpt>
   <trkpt lat="47.3811480" lon="-122.0458610">
    <ele>143.2</ele>
    <time>2020-12-07T22:32:43Z</time>
   </trkpt>
   <trkpt lat="47.3811550" lon="-122.0459100">
    <ele>143.2</ele>
    <time>2020-12-07T22:32:44Z</time>
   </trkpt>
   <trkpt lat="47.3811700" lon="-122.0459770">
    <ele>143.1</ele>
    <time>2020-12-07T22:32:45Z</time>
   </trkpt>
   <trkpt lat="47.3811900" lon="-122.0460450">
    <ele>143.0</ele>
    <time>2020-12-07T22:32:46Z</time>
   </trkpt>
   <trkpt lat="47.3812150" lon="-122.0461110">
    <ele>143.0</ele>
    <time>2020-12-07T22:32:47Z</time>
   </trkpt>
   <trkpt lat="47.3812440" lon="-122.0461650">
    <ele>142.9</ele>
    <time>2020-12-07T22:32:48Z</time>
   </trkpt>
   <trkpt lat="47.3812740" lon="-122.0462130">
    <ele>142.9</ele>
    <time>2020-12-07T22:32:49Z</time>
   </trkpt>
   <trkpt lat="47.3813060" lon="-122.0462730">
    <ele>142.8</ele>
    <time>2020-12-07T22:32:50Z</time>
   </trkpt>
   <trkpt lat="47.3813520" lon="-122.0463320">
    <ele>142.8</ele>
    <time>2020-12-07T22:32:51Z</time>
   </trkpt>
   <trkpt lat="47.3813730" lon="-122.0463840">
    <ele>142.7</ele>
    <time>2020-12-07T22:32:52Z</time>
   </trkpt>
   <trkpt lat="47.3813970" lon="-122.0464270">
    <ele>142.7</ele>
    <time>2020-12-07T22:32:53Z</time>
   </trkpt>
   <trkpt lat="47.3814180" lon="-122.0464850">
    <ele>142.6</ele>
    <time>2020-12-07T22:32:54Z</time>
   </trkpt>
   <trkpt lat="47.3814390" lon="-122.0465490">
    <ele>142.6</ele>
    <time>2020-12-07T22:32:55Z</time>
   </trkpt>
   <trkpt lat="47.3814610" lon="-122.0466160">
    <ele>142.5</ele>
    <time>2020-12-07T22:32:56Z</time>
   </trkpt>
   <trkpt lat="47.3814840" lon="-122.0466710">
    <ele>142.4</ele>
    <time>2020-12-07T22:32:57Z</time>
   </trkpt>
   <trkpt lat="47.3815070" lon="-122.0467190">
    <ele>142.4</ele>
    <time>2020-12-07T22:32:58Z</time>
   </trkpt>
   <trkpt lat="47.3815230" lon="-122.0467720">
    <ele>142.3</ele>
    <time>2020-12-07T22:32:59Z</time>
   </trkpt>
   <trkpt lat="47.3815360" lon="-122.0468200">
    <ele>142.3</ele>
    <time>2020-12-07T22:33:00Z</time>
   </trkpt>
   <trkpt lat="47.3815510" lon="-122.0468640">
    <ele>142.2</ele>
    <time>2020-12-07T22:33:01Z</time>
   </trkpt>
   <trkpt lat="47.3815700" lon="-122.0469080">
    <ele>142.2</ele>
    <time>2020-12-07T22:33:02Z</time>
   </trkpt>
   <trkpt lat="47.3816010" lon="-122.0469470">
    <ele>142.1</ele>
    <time>2020-12-07T22:33:03Z</time>
   </trkpt>
   <trkpt lat="47.3816370" lon="-122.0469880">
    <ele>142.1</ele>
    <time>2020-12-07T22:33:04Z</time>
   </trkpt>
   <trkpt lat="47.3816690" lon="-122.0470280">
    <ele>142.1</ele>
    <time>2020-12-07T22:33:05Z</time>
   </trkpt>
   <trkpt lat="47.3816910" lon="-122.0470870">
    <ele>142.0</ele>
    <time>2020-12-07T22:33:06Z</time>
   </trkpt>
   <trkpt lat="47.3817030" lon="-122.0471460">
    <ele>142.0</ele>
    <time>2020-12-07T22:33:07Z</time>
   </trkpt>
   <trkpt lat="47.3817240" lon="-122.0471780">
    <ele>142.0</ele>
    <time>2020-12-07T22:33:08Z</time>
   </trkpt>
   <trkpt lat="47.3817490" lon="-122.0472260">
    <ele>141.9</ele>
    <time>2020-12-07T22:33:09Z</time>
   </trkpt>
   <trkpt lat="47.3817600" lon="-122.0472640">
    <ele>141.9</ele>
    <time>2020-12-07T22:33:10Z</time>
   </trkpt>
   <trkpt lat="47.3817730" lon="-122.0473080">
    <ele>141.9</ele>
    <time>2020-12-07T22:33:11Z</time>
   </trkpt>
   <trkpt lat="47.3817830" lon="-122.0473520">
    <ele>141.9</ele>
    <time>2020-12-07T22:33:12Z</time>
   </trkpt>
   <trkpt lat="47.3817970" lon="-122.0473950">
    <ele>141.9</ele>
    <time>2020-12-07T22:33:13Z</time>
   </trkpt>
   <trkpt lat="47.3818150" lon="-122.0474300">
    <ele>141.8</ele>
    <time>2020-12-07T22:33:14Z</time>
   </trkpt>
   <trkpt lat="47.3818340" lon="-122.0474710">
    <ele>141.8</ele>
    <time>2020-12-07T22:33:15Z</time>
   </trkpt>
   <trkpt lat="47.3818550" lon="-122.0475240">
    <ele>141.9</ele>
    <time>2020-12-07T22:33:16Z</time>
   </trkpt>
   <trkpt lat="47.3818770" lon="-122.0475730">
    <ele>141.9</ele>
    <time>2020-12-07T22:33:17Z</time>
   </trkpt>
   <trkpt lat="47.3818990" lon="-122.0476100">
    <ele>141.9</ele>
    <time>2020-12-07T22:33:18Z</time>
   </trkpt>
   <trkpt lat="47.3819180" lon="-122.0476610">
    <ele>141.9</ele>
    <time>2020-12-07T22:33:19Z</time>
   </trkpt>
   <trkpt lat="47.3819380" lon="-122.0476930">
    <ele>141.9</ele>
    <time>2020-12-07T22:33:20Z</time>
   </trkpt>
   <trkpt lat="47.3819440" lon="-122.0477130">
    <ele>141.9</ele>
    <time>2020-12-07T22:33:21Z</time>
   </trkpt>
   <trkpt lat="47.3819520" lon="-122.0477590">
    <ele>141.9</ele>
    <time>2020-12-07T22:33:22Z</time>
   </trkpt>
   <trkpt lat="47.3819590" lon="-122.0478020">
    <ele>141.9</ele>
    <time>2020-12-07T22:33:23Z</time>
   </trkpt>
   <trkpt lat="47.3819820" lon="-122.0478390">
    <ele>141.9</ele>
    <time>2020-12-07T22:33:24Z</time>
   </trkpt>
   <trkpt lat="47.3820050" lon="-122.0478650">
    <ele>141.9</ele>
    <time>2020-12-07T22:33:25Z</time>
   </trkpt>
   <trkpt lat="47.3820230" lon="-122.0478980">
    <ele>141.9</ele>
    <time>2020-12-07T22:33:26Z</time>
   </trkpt>
   <trkpt lat="47.3820460" lon="-122.0479320">
    <ele>141.9</ele>
    <time>2020-12-07T22:33:27Z</time>
   </trkpt>
   <trkpt lat="47.3820660" lon="-122.0479710">
    <ele>141.8</ele>
    <time>2020-12-07T22:33:28Z</time>
   </trkpt>
   <trkpt lat="47.3820840" lon="-122.0480130">
    <ele>141.8</ele>
    <time>2020-12-07T22:33:29Z</time>
   </trkpt>
   <trkpt lat="47.3820980" lon="-122.0480620">
    <ele>141.8</ele>
    <time>2020-12-07T22:33:30Z</time>
   </trkpt>
   <trkpt lat="47.3821130" lon="-122.0481100">
    <ele>141.7</ele>
    <time>2020-12-07T22:33:31Z</time>
   </trkpt>
   <trkpt lat="47.3821320" lon="-122.0481480">
    <ele>141.7</ele>
    <time>2020-12-07T22:33:32Z</time>
   </trkpt>
   <trkpt lat="47.3821420" lon="-122.0481990">
    <ele>141.7</ele>
    <time>2020-12-07T22:33:33Z</time>
   </trkpt>
   <trkpt lat="47.3821550" lon="-122.0482400">
    <ele>141.6</ele>
    <time>2020-12-07T22:33:34Z</time>
   </trkpt>
   <trkpt lat="47.3821890" lon="-122.0482820">
    <ele>141.5</ele>
    <time>2020-12-07T22:33:35Z</time>
   </trkpt>
   <trkpt lat="47.3823150" lon="-122.0483390">
    <ele>141.3</ele>
    <time>2020-12-07T22:33:36Z</time>
   </trkpt>
   <trkpt lat="47.3823650" lon="-122.0483580">
    <ele>141.2</ele>
    <time>2020-12-07T22:33:37Z</time>
   </trkpt>
   <trkpt lat="47.3823920" lon="-122.0483900">
    <ele>141.2</ele>
    <time>2020-12-07T22:33:38Z</time>
   </trkpt>
   <trkpt lat="47.3824090" lon="-122.0484240">
    <ele>141.1</ele>
    <time>2020-12-07T22:33:39Z</time>
   </trkpt>
   <trkpt lat="47.3824380" lon="-122.0484630">
    <ele>141.1</ele>
    <time>2020-12-07T22:33:40Z</time>
   </trkpt>
   <trkpt lat="47.3824660" lon="-122.0484980">
    <ele>141.0</ele>
    <time>2020-12-07T22:33:41Z</time>
   </trkpt>
   <trkpt lat="47.3824930" lon="-122.0485260">
    <ele>140.9</ele>
    <time>2020-12-07T22:33:42Z</time>
   </trkpt>
   <trkpt lat="47.3825130" lon="-122.0485520">
    <ele>140.9</ele>
    <time>2020-12-07T22:33:43Z</time>
   </trkpt>
   <trkpt lat="47.3825460" lon="-122.0485890">
    <ele>140.8</ele>
    <time>2020-12-07T22:33:44Z</time>
   </trkpt>
   <trkpt lat="47.3825580" lon="-122.0486070">
    <ele>140.8</ele>
    <time>2020-12-07T22:33:45Z</time>
   </trkpt>
   <trkpt lat="47.3825870" lon="-122.0486280">
    <ele>140.7</ele>
    <time>2020-12-07T22:33:46Z</time>
   </trkpt>
   <trkpt lat="47.3826150" lon="-122.0486600">
    <ele>140.7</ele>
    <time>2020-12-07T22:33:47Z</time>
   </trkpt>
   <trkpt lat="47.3826510" lon="-122.0486890">
    <ele>140.6</ele>
    <time>2020-12-07T22:33:48Z</time>
   </trkpt>
   <trkpt lat="47.3826770" lon="-122.0487260">
    <ele>140.6</ele>
    <time>2020-12-07T22:33:49Z</time>
   </trkpt>
   <trkpt lat="47.3827040" lon="-122.0487520">
    <ele>140.5</ele>
    <time>2020-12-07T22:33:50Z</time>
   </trkpt>
   <trkpt lat="47.3827350" lon="-122.0487850">
    <ele>140.4</ele>
    <time>2020-12-07T22:33:51Z</time>
   </trkpt>
   <trkpt lat="47.3827640" lon="-122.0488090">
    <ele>140.4</ele>
    <time>2020-12-07T22:33:52Z</time>
   </trkpt>
   <trkpt lat="47.3827870" lon="-122.0488370">
    <ele>140.3</ele>
    <time>2020-12-07T22:33:53Z</time>
   </trkpt>
   <trkpt lat="47.3828190" lon="-122.0488690">
    <ele>140.3</ele>
    <time>2020-12-07T22:33:54Z</time>
   </trkpt>
   <trkpt lat="47.3828310" lon="-122.0488800">
    <ele>140.2</ele>
    <time>2020-12-07T22:33:55Z</time>
   </trkpt>
   <trkpt lat="47.3828720" lon="-122.0489110">
    <ele>140.2</ele>
    <time>2020-12-07T22:33:56Z</time>
   </trkpt>
   <trkpt lat="47.3828900" lon="-122.0489280">
    <ele>140.1</ele>
    <time>2020-12-07T22:33:57Z</time>
   </trkpt>
   <trkpt lat="47.3829200" lon="-122.0489440">
    <ele>140.1</ele>
    <time>2020-12-07T22:33:58Z</time>
   </trkpt>
   <trkpt lat="47.3829490" lon="-122.0489760">
    <ele>140.0</ele>
    <time>2020-12-07T22:33:59Z</time>
   </trkpt>
   <trkpt lat="47.3829710" lon="-122.0490170">
    <ele>139.9</ele>
    <time>2020-12-07T22:34:00Z</time>
   </trkpt>
   <trkpt lat="47.3830030" lon="-122.0490460">
    <ele>139.9</ele>
    <time>2020-12-07T22:34:01Z</time>
   </trkpt>
   <trkpt lat="47.3830320" lon="-122.0490720">
    <ele>139.8</ele>
    <time>2020-12-07T22:34:02Z</time>
   </trkpt>
   <trkpt lat="47.3830540" lon="-122.0491000">
    <ele>139.8</ele>
    <time>2020-12-07T22:34:03Z</time>
   </trkpt>
   <trkpt lat="47.3830860" lon="-122.0491180">
    <ele>139.7</ele>
    <time>2020-12-07T22:34:04Z</time>
   </trkpt>
   <trkpt lat="47.3831240" lon="-122.0491410">
    <ele>139.6</ele>
    <time>2020-12-07T22:34:05Z</time>
   </trkpt>
   <trkpt lat="47.3831610" lon="-122.0491560">
    <ele>139.5</ele>
    <time>2020-12-07T22:34:06Z</time>
   </trkpt>
   <trkpt lat="47.3831940" lon="-122.0491710">
    <ele>139.5</ele>
    <time>2020-12-07T22:34:07Z</time>
   </trkpt>
   <trkpt lat="47.3832290" lon="-122.0491990">
    <ele>139.4</ele>
    <time>2020-12-07T22:34:08Z</time>
   </trkpt>
   <trkpt lat="47.3832610" lon="-122.0492190">
    <ele>139.3</ele>
    <time>2020-12-07T22:34:09Z</time>
   </trkpt>
   <trkpt lat="47.3832860" lon="-122.0492400">
    <ele>139.3</ele>
    <time>2020-12-07T22:34:10Z</time>
   </trkpt>
   <trkpt lat="47.3833150" lon="-122.0492540">
    <ele>139.2</ele>
    <time>2020-12-07T22:34:11Z</time>
   </trkpt>
   <trkpt lat="47.3833420" lon="-122.0492850">
    <ele>139.2</ele>
    <time>2020-12-07T22:34:12Z</time>
   </trkpt>
   <trkpt lat="47.3833840" lon="-122.0493140">
    <ele>139.1</ele>
    <time>2020-12-07T22:34:13Z</time>
   </trkpt>
   <trkpt lat="47.3834110" lon="-122.0493370">
    <ele>139.1</ele>
    <time>2020-12-07T22:34:14Z</time>
   </trkpt>
   <trkpt lat="47.3834570" lon="-122.0493510">
    <ele>139.0</ele>
    <time>2020-12-07T22:34:15Z</time>
   </trkpt>
   <trkpt lat="47.3834780" lon="-122.0493560">
    <ele>139.0</ele>
    <time>2020-12-07T22:34:16Z</time>
   </trkpt>
   <trkpt lat="47.3835150" lon="-122.0493790">
    <ele>139.0</ele>
    <time>2020-12-07T22:34:17Z</time>
   </trkpt>
   <trkpt lat="47.3835480" lon="-122.0494060">
    <ele>138.9</ele>
    <time>2020-12-07T22:34:18Z</time>
   </trkpt>
   <trkpt lat="47.3835810" lon="-122.0494240">
    <ele>138.9</ele>
    <time>2020-12-07T22:34:19Z</time>
   </trkpt>
   <trkpt lat="47.3836170" lon="-122.0494440">
    <ele>138.8</ele>
    <time>2020-12-07T22:34:20Z</time>
   </trkpt>
   <trkpt lat="47.3836530" lon="-122.0494610">
    <ele>138.8</ele>
    <time>2020-12-07T22:34:21Z</time>
   </trkpt>
   <trkpt lat="47.3836840" lon="-122.0494740">
    <ele>138.7</ele>
    <time>2020-12-07T22:34:22Z</time>
   </trkpt>
   <trkpt lat="47.3837120" lon="-122.0494920">
    <ele>138.7</ele>
    <time>2020-12-07T22:34:23Z</time>
   </trkpt>
   <trkpt lat="47.3837390" lon="-122.0495090">
    <ele>138.6</ele>
    <time>2020-12-07T22:34:24Z</time>
   </trkpt>
   <trkpt lat="47.3837800" lon="-122.0495380">
    <ele>138.5</ele>
    <time>2020-12-07T22:34:25Z</time>
   </trkpt>
   <trkpt lat="47.3838070" lon="-122.0495540">
    <ele>138.4</ele>
    <time>2020-12-07T22:34:26Z</time>
   </trkpt>
   <trkpt lat="47.3838420" lon="-122.0495630">
    <ele>138.4</ele>
    <time>2020-12-07T22:34:27Z</time>
   </trkpt>
   <trkpt lat="47.3838770" lon="-122.0495760">
    <ele>138.3</ele>
    <time>2020-12-07T22:34:28Z</time>
   </trkpt>
   <trkpt lat="47.3839200" lon="-122.0495930">
    <ele>138.2</ele>
    <time>2020-12-07T22:34:29Z</time>
   </trkpt>
   <trkpt lat="47.3839600" lon="-122.0496100">
    <ele>138.1</ele>
    <time>2020-12-07T22:34:30Z</time>
   </trkpt>
   <trkpt lat="47.3840010" lon="-122.0496270">
    <ele>138.0</ele>
    <time>2020-12-07T22:34:31Z</time>
   </trkpt>
   <trkpt lat="47.3840320" lon="-122.0496550">
    <ele>137.9</ele>
    <time>2020-12-07T22:34:32Z</time>
   </trkpt>
   <trkpt lat="47.3840750" lon="-122.0496770">
    <ele>137.8</ele>
    <time>2020-12-07T22:34:33Z</time>
   </trkpt>
   <trkpt lat="47.3841120" lon="-122.0496740">
    <ele>137.7</ele>
    <time>2020-12-07T22:34:34Z</time>
   </trkpt>
   <trkpt lat="47.3841460" lon="-122.0496910">
    <ele>137.6</ele>
    <time>2020-12-07T22:34:35Z</time>
   </trkpt>
   <trkpt lat="47.3841730" lon="-122.0497020">
    <ele>137.6</ele>
    <time>2020-12-07T22:34:36Z</time>
   </trkpt>
   <trkpt lat="47.3842040" lon="-122.0497210">
    <ele>137.5</ele>
    <time>2020-12-07T22:34:37Z</time>
   </trkpt>
   <trkpt lat="47.3842480" lon="-122.0497350">
    <ele>137.5</ele>
    <time>2020-12-07T22:34:38Z</time>
   </trkpt>
   <trkpt lat="47.3842660" lon="-122.0497450">
    <ele>137.5</ele>
    <time>2020-12-07T22:34:39Z</time>
   </trkpt>
   <trkpt lat="47.3842990" lon="-122.0497540">
    <ele>137.4</ele>
    <time>2020-12-07T22:34:40Z</time>
   </trkpt>
   <trkpt lat="47.3843330" lon="-122.0497740">
    <ele>137.4</ele>
    <time>2020-12-07T22:34:42Z</time>
   </trkpt>
   <trkpt lat="47.3843610" lon="-122.0497820">
    <ele>137.4</ele>
    <time>2020-12-07T22:34:43Z</time>
   </trkpt>
   <trkpt lat="47.3843980" lon="-122.0497890">
    <ele>137.3</ele>
    <time>2020-12-07T22:34:44Z</time>
   </trkpt>
   <trkpt lat="47.3844360" lon="-122.0498040">
    <ele>137.3</ele>
    <time>2020-12-07T22:34:45Z</time>
   </trkpt>
   <trkpt lat="47.3844820" lon="-122.0498180">
    <ele>137.2</ele>
    <time>2020-12-07T22:34:46Z</time>
   </trkpt>
   <trkpt lat="47.3845180" lon="-122.0498190">
    <ele>137.2</ele>
    <time>2020-12-07T22:34:47Z</time>
   </trkpt>
   <trkpt lat="47.3845500" lon="-122.0498270">
    <ele>137.1</ele>
    <time>2020-12-07T22:34:48Z</time>
   </trkpt>
   <trkpt lat="47.3845800" lon="-122.0498260">
    <ele>137.1</ele>
    <time>2020-12-07T22:34:49Z</time>
   </trkpt>
   <trkpt lat="47.3846120" lon="-122.0498310">
    <ele>137.1</ele>
    <time>2020-12-07T22:34:50Z</time>
   </trkpt>
   <trkpt lat="47.3846510" lon="-122.0498340">
    <ele>137.0</ele>
    <time>2020-12-07T22:34:51Z</time>
   </trkpt>
   <trkpt lat="47.3846870" lon="-122.0498440">
    <ele>136.9</ele>
    <time>2020-12-07T22:34:52Z</time>
   </trkpt>
   <trkpt lat="47.3847220" lon="-122.0498440">
    <ele>136.9</ele>
    <time>2020-12-07T22:34:53Z</time>
   </trkpt>
   <trkpt lat="47.3847610" lon="-122.0498530">
    <ele>136.8</ele>
    <time>2020-12-07T22:34:54Z</time>
   </trkpt>
   <trkpt lat="47.3848040" lon="-122.0498440">
    <ele>136.7</ele>
    <time>2020-12-07T22:34:55Z</time>
   </trkpt>
   <trkpt lat="47.3848380" lon="-122.0498420">
    <ele>136.6</ele>
    <time>2020-12-07T22:34:56Z</time>
   </trkpt>
   <trkpt lat="47.3848810" lon="-122.0498500">
    <ele>136.5</ele>
    <time>2020-12-07T22:34:57Z</time>
   </trkpt>
   <trkpt lat="47.3849260" lon="-122.0498490">
    <ele>136.4</ele>
    <time>2020-12-07T22:34:58Z</time>
   </trkpt>
   <trkpt lat="47.3849670" lon="-122.0498530">
    <ele>136.3</ele>
    <time>2020-12-07T22:34:59Z</time>
   </trkpt>
   <trkpt lat="47.3849980" lon="-122.0498730">
    <ele>136.2</ele>
    <time>2020-12-07T22:35:00Z</time>
   </trkpt>
   <trkpt lat="47.3850350" lon="-122.0498770">
    <ele>136.2</ele>
    <time>2020-12-07T22:35:01Z</time>
   </trkpt>
   <trkpt lat="47.3850740" lon="-122.0498830">
    <ele>136.1</ele>
    <time>2020-12-07T22:35:02Z</time>
   </trkpt>
   <trkpt lat="47.3851050" lon="-122.0498950">
    <ele>136.1</ele>
    <time>2020-12-07T22:35:03Z</time>
   </trkpt>
   <trkpt lat="47.3851420" lon="-122.0499000">
    <ele>136.0</ele>
    <time>2020-12-07T22:35:04Z</time>
   </trkpt>
   <trkpt lat="47.3851750" lon="-122.0498810">
    <ele>135.9</ele>
    <time>2020-12-07T22:35:05Z</time>
   </trkpt>
   <trkpt lat="47.3852110" lon="-122.0498980">
    <ele>135.9</ele>
    <time>2020-12-07T22:35:06Z</time>
   </trkpt>
   <trkpt lat="47.3852470" lon="-122.0498890">
    <ele>135.8</ele>
    <time>2020-12-07T22:35:07Z</time>
   </trkpt>
   <trkpt lat="47.3852810" lon="-122.0498940">
    <ele>135.8</ele>
    <time>2020-12-07T22:35:08Z</time>
   </trkpt>
   <trkpt lat="47.3853170" lon="-122.0498890">
    <ele>135.7</ele>
    <time>2020-12-07T22:35:09Z</time>
   </trkpt>
   <trkpt lat="47.3853530" lon="-122.0498770">
    <ele>135.7</ele>
    <time>2020-12-07T22:35:10Z</time>
   </trkpt>
   <trkpt lat="47.3853920" lon="-122.0498800">
    <ele>135.6</ele>
    <time>2020-12-07T22:35:11Z</time>
   </trkpt>
   <trkpt lat="47.3854390" lon="-122.0498690">
    <ele>135.5</ele>
    <time>2020-12-07T22:35:12Z</time>
   </trkpt>
   <trkpt lat="47.3854810" lon="-122.0498580">
    <ele>135.5</ele>
    <time>2020-12-07T22:35:13Z</time>
   </trkpt>
   <trkpt lat="47.3855190" lon="-122.0498790">
    <ele>135.4</ele>
    <time>2020-12-07T22:35:14Z</time>
   </trkpt>
   <trkpt lat="47.3855530" lon="-122.0498710">
    <ele>135.4</ele>
    <time>2020-12-07T22:35:15Z</time>
   </trkpt>
   <trkpt lat="47.3855910" lon="-122.0498730">
    <ele>135.3</ele>
    <time>2020-12-07T22:35:16Z</time>
   </trkpt>
   <trkpt lat="47.3856350" lon="-122.0498600">
    <ele>135.2</ele>
    <time>2020-12-07T22:35:17Z</time>
   </trkpt>
   <trkpt lat="47.3856730" lon="-122.0498470">
    <ele>135.2</ele>
    <time>2020-12-07T22:35:18Z</time>
   </trkpt>
   <trkpt lat="47.3857210" lon="-122.0498450">
    <ele>135.1</ele>
    <time>2020-12-07T22:35:19Z</time>
   </trkpt>
   <trkpt lat="47.3857420" lon="-122.0498400">
    <ele>135.1</ele>
    <time>2020-12-07T22:35:20Z</time>
   </trkpt>
   <trkpt lat="47.3857720" lon="-122.0498430">
    <ele>135.1</ele>
    <time>2020-12-07T22:35:21Z</time>
   </trkpt>
   <trkpt lat="47.3858100" lon="-122.0498420">
    <ele>135.0</ele>
    <time>2020-12-07T22:35:22Z</time>
   </trkpt>
   <trkpt lat="47.3858420" lon="-122.0498320">
    <ele>135.0</ele>
    <time>2020-12-07T22:35:23Z</time>
   </trkpt>
   <trkpt lat="47.3858730" lon="-122.0498230">
    <ele>135.0</ele>
    <time>2020-12-07T22:35:24Z</time>
   </trkpt>
   <trkpt lat="47.3859020" lon="-122.0498100">
    <ele>134.9</ele>
    <time>2020-12-07T22:35:25Z</time>
   </trkpt>
   <trkpt lat="47.3859350" lon="-122.0498090">
    <ele>134.9</ele>
    <time>2020-12-07T22:35:26Z</time>
   </trkpt>
   <trkpt lat="47.3859700" lon="-122.0498090">
    <ele>134.8</ele>
    <time>2020-12-07T22:35:27Z</time>
   </trkpt>
   <trkpt lat="47.3860040" lon="-122.0497910">
    <ele>134.8</ele>
    <time>2020-12-07T22:35:28Z</time>
   </trkpt>
   <trkpt lat="47.3860380" lon="-122.0497690">
    <ele>134.8</ele>
    <time>2020-12-07T22:35:29Z</time>
   </trkpt>
   <trkpt lat="47.3860720" lon="-122.0497650">
    <ele>134.7</ele>
    <time>2020-12-07T22:35:30Z</time>
   </trkpt>
   <trkpt lat="47.3861200" lon="-122.0497540">
    <ele>134.7</ele>
    <time>2020-12-07T22:35:31Z</time>
   </trkpt>
   <trkpt lat="47.3861610" lon="-122.0497300">
    <ele>134.6</ele>
    <time>2020-12-07T22:35:32Z</time>
   </trkpt>
   <trkpt lat="47.3861930" lon="-122.0497140">
    <ele>134.6</ele>
    <time>2020-12-07T22:35:33Z</time>
   </trkpt>
   <trkpt lat="47.3862390" lon="-122.0496960">
    <ele>134.6</ele>
    <time>2020-12-07T22:35:34Z</time>
   </trkpt>
   <trkpt lat="47.3862580" lon="-122.0496880">
    <ele>134.6</ele>
    <time>2020-12-07T22:35:35Z</time>
   </trkpt>
   <trkpt lat="47.3863040" lon="-122.0496620">
    <ele>134.6</ele>
    <time>2020-12-07T22:35:36Z</time>
   </trkpt>
   <trkpt lat="47.3863430" lon="-122.0496440">
    <ele>134.5</ele>
    <time>2020-12-07T22:35:37Z</time>
   </trkpt>
   <trkpt lat="47.3863810" lon="-122.0496290">
    <ele>134.5</ele>
    <time>2020-12-07T22:35:38Z</time>
   </trkpt>
   <trkpt lat="47.3864180" lon="-122.0496160">
    <ele>134.5</ele>
    <time>2020-12-07T22:35:39Z</time>
   </trkpt>
   <trkpt lat="47.3864600" lon="-122.0495980">
    <ele>134.5</ele>
    <time>2020-12-07T22:35:40Z</time>
   </trkpt>
   <trkpt lat="47.3864980" lon="-122.0495880">
    <ele>134.4</ele>
    <time>2020-12-07T22:35:41Z</time>
   </trkpt>
   <trkpt lat="47.3865260" lon="-122.0495790">
    <ele>134.4</ele>
    <time>2020-12-07T22:35:42Z</time>
   </trkpt>
   <trkpt lat="47.3865650" lon="-122.0495670">
    <ele>134.4</ele>
    <time>2020-12-07T22:35:43Z</time>
   </trkpt>
   <trkpt lat="47.3866070" lon="-122.0495640">
    <ele>134.4</ele>
    <time>2020-12-07T22:35:44Z</time>
   </trkpt>
   <trkpt lat="47.3866490" lon="-122.0495650">
    <ele>134.3</ele>
    <time>2020-12-07T22:35:45Z</time>
   </trkpt>
   <trkpt lat="47.3866820" lon="-122.0495590">
    <ele>134.3</ele>
    <time>2020-12-07T22:35:46Z</time>
   </trkpt>
   <trkpt lat="47.3867110" lon="-122.0495490">
    <ele>134.3</ele>
    <time>2020-12-07T22:35:47Z</time>
   </trkpt>
   <trkpt lat="47.3867580" lon="-122.0495450">
    <ele>134.3</ele>
    <time>2020-12-07T22:35:48Z</time>
   </trkpt>
   <trkpt lat="47.3867930" lon="-122.0495250">
    <ele>134.3</ele>
    <time>2020-12-07T22:35:49Z</time>
   </trkpt>
   <trkpt lat="47.3868210" lon="-122.0495060">
    <ele>134.2</ele>
    <time>2020-12-07T22:35:50Z</time>
   </trkpt>
   <trkpt lat="47.3868500" lon="-122.0494960">
    <ele>134.2</ele>
    <time>2020-12-07T22:35:51Z</time>
   </trkpt>
   <trkpt lat="47.3868890" lon="-122.0494840">
    <ele>134.2</ele>
    <time>2020-12-07T22:35:52Z</time>
   </trkpt>
   <trkpt lat="47.3869290" lon="-122.0494580">
    <ele>134.2</ele>
    <time>2020-12-07T22:35:53Z</time>
   </trkpt>
   <trkpt lat="47.3869610" lon="-122.0494360">
    <ele>134.1</ele>
    <time>2020-12-07T22:35:54Z</time>
   </trkpt>
   <trkpt lat="47.3870030" lon="-122.0494040">
    <ele>134.1</ele>
    <time>2020-12-07T22:35:55Z</time>
   </trkpt>
   <trkpt lat="47.3870350" lon="-122.0493860">
    <ele>134.1</ele>
    <time>2020-12-07T22:35:56Z</time>
   </trkpt>
   <trkpt lat="47.3870700" lon="-122.0493590">
    <ele>134.0</ele>
    <time>2020-12-07T22:35:57Z</time>
   </trkpt>
   <trkpt lat="47.3871040" lon="-122.0493430">
    <ele>134.0</ele>
    <time>2020-12-07T22:35:58Z</time>
   </trkpt>
   <trkpt lat="47.3871300" lon="-122.0493300">
    <ele>133.9</ele>
    <time>2020-12-07T22:35:59Z</time>
   </trkpt>
   <trkpt lat="47.3872060" lon="-122.0493550">
    <ele>133.8</ele>
    <time>2020-12-07T22:36:14Z</time>
   </trkpt>
   <trkpt lat="47.3871960" lon="-122.0493470">
    <ele>133.7</ele>
    <time>2020-12-07T22:36:15Z</time>
   </trkpt>
   <trkpt lat="47.3871860" lon="-122.0493400">
    <ele>133.7</ele>
    <time>2020-12-07T22:36:16Z</time>
   </trkpt>
   <trkpt lat="47.3872420" lon="-122.0492960">
    <ele>133.6</ele>
    <time>2020-12-07T22:36:17Z</time>
   </trkpt>
   <trkpt lat="47.3873040" lon="-122.0492700">
    <ele>133.5</ele>
    <time>2020-12-07T22:36:18Z</time>
   </trkpt>
   <trkpt lat="47.3873540" lon="-122.0492500">
    <ele>133.4</ele>
    <time>2020-12-07T22:36:19Z</time>
   </trkpt>
   <trkpt lat="47.3873750" lon="-122.0492190">
    <ele>133.3</ele>
    <time>2020-12-07T22:36:20Z</time>
   </trkpt>
   <trkpt lat="47.3874370" lon="-122.0491670">
    <ele>133.2</ele>
    <time>2020-12-07T22:36:21Z</time>
   </trkpt>
   <trkpt lat="47.3874760" lon="-122.0491340">
    <ele>133.1</ele>
    <time>2020-12-07T22:36:22Z</time>
   </trkpt>
   <trkpt lat="47.3875180" lon="-122.0490890">
    <ele>133.1</ele>
    <time>2020-12-07T22:36:23Z</time>
   </trkpt>
   <trkpt lat="47.3875440" lon="-122.0490540">
    <ele>133.0</ele>
    <time>2020-12-07T22:36:24Z</time>
   </trkpt>
   <trkpt lat="47.3875810" lon="-122.0490280">
    <ele>132.9</ele>
    <time>2020-12-07T22:36:25Z</time>
   </trkpt>
   <trkpt lat="47.3876360" lon="-122.0489950">
    <ele>132.8</ele>
    <time>2020-12-07T22:36:26Z</time>
   </trkpt>
   <trkpt lat="47.3876640" lon="-122.0489450">
    <ele>132.7</ele>
    <time>2020-12-07T22:36:27Z</time>
   </trkpt>
   <trkpt lat="47.3877080" lon="-122.0489180">
    <ele>132.6</ele>
    <time>2020-12-07T22:36:28Z</time>
   </trkpt>
   <trkpt lat="47.3877470" lon="-122.0488770">
    <ele>132.5</ele>
    <time>2020-12-07T22:36:29Z</time>
   </trkpt>
   <trkpt lat="47.3877840" lon="-122.0488480">
    <ele>132.4</ele>
    <time>2020-12-07T22:36:30Z</time>
   </trkpt>
   <trkpt lat="47.3878210" lon="-122.0488140">
    <ele>132.3</ele>
    <time>2020-12-07T22:36:31Z</time>
   </trkpt>
   <trkpt lat="47.3878440" lon="-122.0487770">
    <ele>132.2</ele>
    <time>2020-12-07T22:36:32Z</time>
   </trkpt>
   <trkpt lat="47.3878780" lon="-122.0487460">
    <ele>132.1</ele>
    <time>2020-12-07T22:36:33Z</time>
   </trkpt>
   <trkpt lat="47.3879020" lon="-122.0487020">
    <ele>132.1</ele>
    <time>2020-12-07T22:36:34Z</time>
   </trkpt>
   <trkpt lat="47.3879370" lon="-122.0486740">
    <ele>132.0</ele>
    <time>2020-12-07T22:36:35Z</time>
   </trkpt>
   <trkpt lat="47.3879670" lon="-122.0486200">
    <ele>131.9</ele>
    <time>2020-12-07T22:36:36Z</time>
   </trkpt>
   <trkpt lat="47.3880060" lon="-122.0485830">
    <ele>131.8</ele>
    <time>2020-12-07T22:36:37Z</time>
   </trkpt>
   <trkpt lat="47.3880380" lon="-122.0485640">
    <ele>131.8</ele>
    <time>2020-12-07T22:36:38Z</time>
   </trkpt>
   <trkpt lat="47.3880530" lon="-122.0485130">
    <ele>131.7</ele>
    <time>2020-12-07T22:36:39Z</time>
   </trkpt>
   <trkpt lat="47.3880860" lon="-122.0484550">
    <ele>131.6</ele>
    <time>2020-12-07T22:36:40Z</time>
   </trkpt>
   <trkpt lat="47.3881110" lon="-122.0484230">
    <ele>131.6</ele>
    <time>2020-12-07T22:36:41Z</time>
   </trkpt>
   <trkpt lat="47.3881460" lon="-122.0483660">
    <ele>131.5</ele>
    <time>2020-12-07T22:36:42Z</time>
   </trkpt>
   <trkpt lat="47.3881870" lon="-122.0483280">
    <ele>131.5</ele>
    <time>2020-12-07T22:36:43Z</time>
   </trkpt>
   <trkpt lat="47.3882120" lon="-122.0482920">
    <ele>131.4</ele>
    <time>2020-12-07T22:36:44Z</time>
   </trkpt>
   <trkpt lat="47.3882410" lon="-122.0482490">
    <ele>131.4</ele>
    <time>2020-12-07T22:36:45Z</time>
   </trkpt>
   <trkpt lat="47.3882670" lon="-122.0482330">
    <ele>131.3</ele>
    <time>2020-12-07T22:36:46Z</time>
   </trkpt>
   <trkpt lat="47.3882990" lon="-122.0482100">
    <ele>131.3</ele>
    <time>2020-12-07T22:36:47Z</time>
   </trkpt>
   <trkpt lat="47.3883410" lon="-122.0481690">
    <ele>131.2</ele>
    <time>2020-12-07T22:36:48Z</time>
   </trkpt>
   <trkpt lat="47.3883610" lon="-122.0481510">
    <ele>131.2</ele>
    <time>2020-12-07T22:36:49Z</time>
   </trkpt>
   <trkpt lat="47.3883860" lon="-122.0481360">
    <ele>131.1</ele>
    <time>2020-12-07T22:36:50Z</time>
   </trkpt>
   <trkpt lat="47.3884170" lon="-122.0480930">
    <ele>131.1</ele>
    <time>2020-12-07T22:36:51Z</time>
   </trkpt>
   <trkpt lat="47.3884650" lon="-122.0480710">
    <ele>131.0</ele>
    <time>2020-12-07T22:36:52Z</time>
   </trkpt>
   <trkpt lat="47.3884930" lon="-122.0480120">
    <ele>130.9</ele>
    <time>2020-12-07T22:36:53Z</time>
   </trkpt>
   <trkpt lat="47.3885330" lon="-122.0479670">
    <ele>130.9</ele>
    <time>2020-12-07T22:36:54Z</time>
   </trkpt>
   <trkpt lat="47.3885560" lon="-122.0479340">
    <ele>130.8</ele>
    <time>2020-12-07T22:36:55Z</time>
   </trkpt>
   <trkpt lat="47.3885770" lon="-122.0478910">
    <ele>130.8</ele>
    <time>2020-12-07T22:36:56Z</time>
   </trkpt>
   <trkpt lat="47.3886040" lon="-122.0478480">
    <ele>130.7</ele>
    <time>2020-12-07T22:36:57Z</time>
   </trkpt>
   <trkpt lat="47.3886490" lon="-122.0478330">
    <ele>130.6</ele>
    <time>2020-12-07T22:36:58Z</time>
   </trkpt>
   <trkpt lat="47.3886920" lon="-122.0477980">
    <ele>130.6</ele>
    <time>2020-12-07T22:36:59Z</time>
   </trkpt>
   <trkpt lat="47.3887180" lon="-122.0477570">
    <ele>130.5</ele>
    <time>2020-12-07T22:37:00Z</time>
   </trkpt>
   <trkpt lat="47.3887550" lon="-122.0477240">
    <ele>130.4</ele>
    <time>2020-12-07T22:37:01Z</time>
   </trkpt>
   <trkpt lat="47.3887820" lon="-122.0476940">
    <ele>130.4</ele>
    <time>2020-12-07T22:37:02Z</time>
   </trkpt>
   <trkpt lat="47.3888190" lon="-122.0476670">
    <ele>130.4</ele>
    <time>2020-12-07T22:37:03Z</time>
   </trkpt>
   <trkpt lat="47.3888470" lon="-122.0476350">
    <ele>130.3</ele>
    <time>2020-12-07T22:37:04Z</time>
   </trkpt>
   <trkpt lat="47.3888730" lon="-122.0475760">
    <ele>130.3</ele>
    <time>2020-12-07T22:37:05Z</time>
   </trkpt>
   <trkpt lat="47.3889210" lon="-122.0475560">
    <ele>130.2</ele>
    <time>2020-12-07T22:37:06Z</time>
   </trkpt>
   <trkpt lat="47.3889520" lon="-122.0475130">
    <ele>130.2</ele>
    <time>2020-12-07T22:37:07Z</time>
   </trkpt>
   <trkpt lat="47.3889850" lon="-122.0474700">
    <ele>130.1</ele>
    <time>2020-12-07T22:37:08Z</time>
   </trkpt>
   <trkpt lat="47.3890060" lon="-122.0474430">
    <ele>130.1</ele>
    <time>2020-12-07T22:37:09Z</time>
   </trkpt>
   <trkpt lat="47.3890460" lon="-122.0473860">
    <ele>130.1</ele>
    <time>2020-12-07T22:37:10Z</time>
   </trkpt>
   <trkpt lat="47.3890870" lon="-122.0473620">
    <ele>130.0</ele>
    <time>2020-12-07T22:37:11Z</time>
   </trkpt>
   <trkpt lat="47.3891260" lon="-122.0473150">
    <ele>130.0</ele>
    <time>2020-12-07T22:37:12Z</time>
   </trkpt>
   <trkpt lat="47.3891620" lon="-122.0472720">
    <ele>130.0</ele>
    <time>2020-12-07T22:37:13Z</time>
   </trkpt>
   <trkpt lat="47.3891900" lon="-122.0472440">
    <ele>130.0</ele>
    <time>2020-12-07T22:37:14Z</time>
   </trkpt>
   <trkpt lat="47.3892340" lon="-122.0472180">
    <ele>130.0</ele>
    <time>2020-12-07T22:37:15Z</time>
   </trkpt>
   <trkpt lat="47.3892610" lon="-122.0471730">
    <ele>130.0</ele>
    <time>2020-12-07T22:37:16Z</time>
   </trkpt>
   <trkpt lat="47.3892960" lon="-122.0471360">
    <ele>130.0</ele>
    <time>2020-12-07T22:37:17Z</time>
   </trkpt>
   <trkpt lat="47.3893230" lon="-122.0470970">
    <ele>130.0</ele>
    <time>2020-12-07T22:37:18Z</time>
   </trkpt>
   <trkpt lat="47.3893590" lon="-122.0470480">
    <ele>129.9</ele>
    <time>2020-12-07T22:37:19Z</time>
   </trkpt>
   <trkpt lat="47.3893850" lon="-122.0470260">
    <ele>129.9</ele>
    <time>2020-12-07T22:37:20Z</time>
   </trkpt>
   <trkpt lat="47.3894250" lon="-122.0469970">
    <ele>129.9</ele>
    <time>2020-12-07T22:37:21Z</time>
   </trkpt>
   <trkpt lat="47.3894660" lon="-122.0469580">
    <ele>129.8</ele>
    <time>2020-12-07T22:37:22Z</time>
   </trkpt>
   <trkpt lat="47.3894880" lon="-122.0469040">
    <ele>129.8</ele>
    <time>2020-12-07T22:37:23Z</time>
   </trkpt>
   <trkpt lat="47.3895290" lon="-122.0468730">
    <ele>129.7</ele>
    <time>2020-12-07T22:37:24Z</time>
   </trkpt>
   <trkpt lat="47.3895530" lon="-122.0468450">
    <ele>129.7</ele>
    <time>2020-12-07T22:37:25Z</time>
   </trkpt>
   <trkpt lat="47.3895780" lon="-122.0468040">
    <ele>129.6</ele>
    <time>2020-12-07T22:37:26Z</time>
   </trkpt>
   <trkpt lat="47.3896140" lon="-122.0467740">
    <ele>129.6</ele>
    <time>2020-12-07T22:37:27Z</time>
   </trkpt>
   <trkpt lat="47.3896490" lon="-122.0467370">
    <ele>129.6</ele>
    <time>2020-12-07T22:37:28Z</time>
   </trkpt>
   <trkpt lat="47.3896980" lon="-122.0467030">
    <ele>129.5</ele>
    <time>2020-12-07T22:37:29Z</time>
   </trkpt>
   <trkpt lat="47.3897170" lon="-122.0466410">
    <ele>129.4</ele>
    <time>2020-12-07T22:37:30Z</time>
   </trkpt>
   <trkpt lat="47.3897450" lon="-122.0466050">
    <ele>129.4</ele>
    <time>2020-12-07T22:37:31Z</time>
   </trkpt>
   <trkpt lat="47.3897970" lon="-122.0465990">
    <ele>129.3</ele>
    <time>2020-12-07T22:37:32Z</time>
   </trkpt>
   <trkpt lat="47.3898140" lon="-122.0465510">
    <ele>129.3</ele>
    <time>2020-12-07T22:37:33Z</time>
   </trkpt>
   <trkpt lat="47.3898480" lon="-122.0465260">
    <ele>129.2</ele>
    <time>2020-12-07T22:37:34Z</time>
   </trkpt>
   <trkpt lat="47.3898670" lon="-122.0464710">
    <ele>129.2</ele>
    <time>2020-12-07T22:37:35Z</time>
   </trkpt>
   <trkpt lat="47.3898880" lon="-122.0464490">
    <ele>129.1</ele>
    <time>2020-12-07T22:37:36Z</time>
   </trkpt>
   <trkpt lat="47.3898470" lon="-122.0465930">
    <ele>129.3</ele>
    <time>2020-12-07T22:38:58Z</time>
   </trkpt>
   <trkpt lat="47.3898540" lon="-122.0465820">
    <ele>129.3</ele>
    <time>2020-12-07T22:38:59Z</time>
   </trkpt>
   <trkpt lat="47.3898430" lon="-122.0465780">
    <ele>129.3</ele>
    <time>2020-12-07T22:39:00Z</time>
   </trkpt>
   <trkpt lat="47.3898160" lon="-122.0466000">
    <ele>129.3</ele>
    <time>2020-12-07T22:39:01Z</time>
   </trkpt>
   <trkpt lat="47.3897800" lon="-122.0466380">
    <ele>129.4</ele>
    <time>2020-12-07T22:39:02Z</time>
   </trkpt>
   <trkpt lat="47.3897250" lon="-122.0466890">
    <ele>129.5</ele>
    <time>2020-12-07T22:39:03Z</time>
   </trkpt>
   <trkpt lat="47.3896990" lon="-122.0467000">
    <ele>129.5</ele>
    <time>2020-12-07T22:39:04Z</time>
   </trkpt>
   <trkpt lat="47.3896820" lon="-122.0467160">
    <ele>129.5</ele>
    <time>2020-12-07T22:39:05Z</time>
   </trkpt>
   <trkpt lat="47.3896520" lon="-122.0467350">
    <ele>129.6</ele>
    <time>2020-12-07T22:39:06Z</time>
   </trkpt>
   <trkpt lat="47.3896290" lon="-122.0467760">
    <ele>129.6</ele>
    <time>2020-12-07T22:39:07Z</time>
   </trkpt>
   <trkpt lat="47.3895940" lon="-122.0468390">
    <ele>129.7</ele>
    <time>2020-12-07T22:39:08Z</time>
   </trkpt>
   <trkpt lat="47.3895650" lon="-122.0468680">
    <ele>129.7</ele>
    <time>2020-12-07T22:39:09Z</time>
   </trkpt>
   <trkpt lat="47.3895310" lon="-122.0469030">
    <ele>129.7</ele>
    <time>2020-12-07T22:39:10Z</time>
   </trkpt>
   <trkpt lat="47.3895170" lon="-122.0469450">
    <ele>129.8</ele>
    <time>2020-12-07T22:39:11Z</time>
   </trkpt>
   <trkpt lat="47.3894810" lon="-122.0469820">
    <ele>129.8</ele>
    <time>2020-12-07T22:39:12Z</time>
   </trkpt>
   <trkpt lat="47.3894500" lon="-122.0470130">
    <ele>129.8</ele>
    <time>2020-12-07T22:39:13Z</time>
   </trkpt>
   <trkpt lat="47.3894120" lon="-122.0470370">
    <ele>129.9</ele>
    <time>2020-12-07T22:39:14Z</time>
   </trkpt>
   <trkpt lat="47.3893710" lon="-122.0470650">
    <ele>129.9</ele>
    <time>2020-12-07T22:39:15Z</time>
   </trkpt>
   <trkpt lat="47.3893550" lon="-122.0470770">
    <ele>129.9</ele>
    <time>2020-12-07T22:39:16Z</time>
   </trkpt>
   <trkpt lat="47.3893270" lon="-122.0471240">
    <ele>130.0</ele>
    <time>2020-12-07T22:39:17Z</time>
   </trkpt>
   <trkpt lat="47.3893030" lon="-122.0471600">
    <ele>130.0</ele>
    <time>2020-12-07T22:39:18Z</time>
   </trkpt>
   <trkpt lat="47.3892690" lon="-122.0472010">
    <ele>130.0</ele>
    <time>2020-12-07T22:39:19Z</time>
   </trkpt>
   <trkpt lat="47.3892330" lon="-122.0472330">
    <ele>130.0</ele>
    <time>2020-12-07T22:39:20Z</time>
   </trkpt>
   <trkpt lat="47.3891990" lon="-122.0472750">
    <ele>130.0</ele>
    <time>2020-12-07T22:39:21Z</time>
   </trkpt>
   <trkpt lat="47.3891760" lon="-122.0473090">
    <ele>130.0</ele>
    <time>2020-12-07T22:39:22Z</time>
   </trkpt>
   <trkpt lat="47.3891400" lon="-122.0473440">
    <ele>130.0</ele>
    <time>2020-12-07T22:39:23Z</time>
   </trkpt>
   <trkpt lat="47.3891040" lon="-122.0473580">
    <ele>130.0</ele>
    <time>2020-12-07T22:39:24Z</time>
   </trkpt>
   <trkpt lat="47.3890630" lon="-122.0473850">
    <ele>130.1</ele>
    <time>2020-12-07T22:39:25Z</time>
   </trkpt>
   <trkpt lat="47.3890350" lon="-122.0474320">
    <ele>130.1</ele>
    <time>2020-12-07T22:39:26Z</time>
   </trkpt>
   <trkpt lat="47.3890030" lon="-122.0474730">
    <ele>130.1</ele>
    <time>2020-12-07T22:39:27Z</time>
   </trkpt>
   <trkpt lat="47.3889700" lon="-122.0474990">
    <ele>130.2</ele>
    <time>2020-12-07T22:39:28Z</time>
   </trkpt>
   <trkpt lat="47.3889370" lon="-122.0475290">
    <ele>130.2</ele>
    <time>2020-12-07T22:39:29Z</time>
   </trkpt>
   <trkpt lat="47.3889120" lon="-122.0475690">
    <ele>130.2</ele>
    <time>2020-12-07T22:39:30Z</time>
   </trkpt>
   <trkpt lat="47.3888910" lon="-122.0476100">
    <ele>130.3</ele>
    <time>2020-12-07T22:39:31Z</time>
   </trkpt>
   <trkpt lat="47.3888580" lon="-122.0476420">
    <ele>130.3</ele>
    <time>2020-12-07T22:39:32Z</time>
   </trkpt>
   <trkpt lat="47.3888250" lon="-122.0476740">
    <ele>130.4</ele>
    <time>2020-12-07T22:39:33Z</time>
   </trkpt>
   <trkpt lat="47.3887910" lon="-122.0476960">
    <ele>130.4</ele>
    <time>2020-12-07T22:39:34Z</time>
   </trkpt>
   <trkpt lat="47.3887560" lon="-122.0477250">
    <ele>130.5</ele>
    <time>2020-12-07T22:39:35Z</time>
   </trkpt>
   <trkpt lat="47.3887150" lon="-122.0477650">
    <ele>130.5</ele>
    <time>2020-12-07T22:39:36Z</time>
   </trkpt>
   <trkpt lat="47.3886880" lon="-122.0478050">
    <ele>130.6</ele>
    <time>2020-12-07T22:39:37Z</time>
   </trkpt>
   <trkpt lat="47.3886590" lon="-122.0478520">
    <ele>130.6</ele>
    <time>2020-12-07T22:39:38Z</time>
   </trkpt>
   <trkpt lat="47.3886260" lon="-122.0478820">
    <ele>130.7</ele>
    <time>2020-12-07T22:39:39Z</time>
   </trkpt>
   <trkpt lat="47.3885910" lon="-122.0479030">
    <ele>130.8</ele>
    <time>2020-12-07T22:39:40Z</time>
   </trkpt>
   <trkpt lat="47.3885580" lon="-122.0479380">
    <ele>130.8</ele>
    <time>2020-12-07T22:39:41Z</time>
   </trkpt>
   <trkpt lat="47.3885290" lon="-122.0479870">
    <ele>130.9</ele>
    <time>2020-12-07T22:39:42Z</time>
   </trkpt>
   <trkpt lat="47.3884940" lon="-122.0480400">
    <ele>131.0</ele>
    <time>2020-12-07T22:39:43Z</time>
   </trkpt>
   <trkpt lat="47.3884600" lon="-122.0480380">
    <ele>131.0</ele>
    <time>2020-12-07T22:39:44Z</time>
   </trkpt>
   <trkpt lat="47.3884280" lon="-122.0480800">
    <ele>131.1</ele>
    <time>2020-12-07T22:39:45Z</time>
   </trkpt>
   <trkpt lat="47.3884200" lon="-122.0481450">
    <ele>131.1</ele>
    <time>2020-12-07T22:39:46Z</time>
   </trkpt>
   <trkpt lat="47.3883840" lon="-122.0481700">
    <ele>131.2</ele>
    <time>2020-12-07T22:39:47Z</time>
   </trkpt>
   <trkpt lat="47.3883620" lon="-122.0482180">
    <ele>131.2</ele>
    <time>2020-12-07T22:39:48Z</time>
   </trkpt>
   <trkpt lat="47.3883280" lon="-122.0482540">
    <ele>131.3</ele>
    <time>2020-12-07T22:39:49Z</time>
   </trkpt>
   <trkpt lat="47.3882860" lon="-122.0482780">
    <ele>131.4</ele>
    <time>2020-12-07T22:39:50Z</time>
   </trkpt>
   <trkpt lat="47.3882560" lon="-122.0483180">
    <ele>131.4</ele>
    <time>2020-12-07T22:39:51Z</time>
   </trkpt>
   <trkpt lat="47.3882230" lon="-122.0483580">
    <ele>131.5</ele>
    <time>2020-12-07T22:39:52Z</time>
   </trkpt>
   <trkpt lat="47.3881950" lon="-122.0483850">
    <ele>131.5</ele>
    <time>2020-12-07T22:39:53Z</time>
   </trkpt>
   <trkpt lat="47.3881550" lon="-122.0484250">
    <ele>131.6</ele>
    <time>2020-12-07T22:39:54Z</time>
   </trkpt>
   <trkpt lat="47.3881260" lon="-122.0484650">
    <ele>131.6</ele>
    <time>2020-12-07T22:39:55Z</time>
   </trkpt>
   <trkpt lat="47.3880940" lon="-122.0484990">
    <ele>131.7</ele>
    <time>2020-12-07T22:39:56Z</time>
   </trkpt>
   <trkpt lat="47.3880400" lon="-122.0485750">
    <ele>131.8</ele>
    <time>2020-12-07T22:39:57Z</time>
   </trkpt>
   <trkpt lat="47.3880070" lon="-122.0486100">
    <ele>131.9</ele>
    <time>2020-12-07T22:39:58Z</time>
   </trkpt>
   <trkpt lat="47.3879860" lon="-122.0486460">
    <ele>132.0</ele>
    <time>2020-12-07T22:39:59Z</time>
   </trkpt>
   <trkpt lat="47.3879460" lon="-122.0486900">
    <ele>132.0</ele>
    <time>2020-12-07T22:40:00Z</time>
   </trkpt>
   <trkpt lat="47.3879170" lon="-122.0487340">
    <ele>132.1</ele>
    <time>2020-12-07T22:40:01Z</time>
   </trkpt>
   <trkpt lat="47.3878760" lon="-122.0487490">
    <ele>132.2</ele>
    <time>2020-12-07T22:40:02Z</time>
   </trkpt>
   <trkpt lat="47.3878450" lon="-122.0487740">
    <ele>132.3</ele>
    <time>2020-12-07T22:40:03Z</time>
   </trkpt>
   <trkpt lat="47.3878200" lon="-122.0487870">
    <ele>132.4</ele>
    <time>2020-12-07T22:40:04Z</time>
   </trkpt>
   <trkpt lat="47.3878110" lon="-122.0487930">
    <ele>132.4</ele>
    <time>2020-12-07T22:40:05Z</time>
   </trkpt>
   <trkpt lat="47.3877220" lon="-122.0489250">
    <ele>132.7</ele>
    <time>2020-12-07T22:41:22Z</time>
   </trkpt>
   <trkpt lat="47.3877120" lon="-122.0489360">
    <ele>132.7</ele>
    <time>2020-12-07T22:41:23Z</time>
   </trkpt>
   <trkpt lat="47.3877010" lon="-122.0489460">
    <ele>132.7</ele>
    <time>2020-12-07T22:41:24Z</time>
   </trkpt>
   <trkpt lat="47.3876640" lon="-122.0489760">
    <ele>132.8</ele>
    <time>2020-12-07T22:41:25Z</time>
   </trkpt>
   <trkpt lat="47.3876320" lon="-122.0490020">
    <ele>132.9</ele>
    <time>2020-12-07T22:41:26Z</time>
   </trkpt>
   <trkpt lat="47.3876080" lon="-122.0490210">
    <ele>133.0</ele>
    <time>2020-12-07T22:41:27Z</time>
   </trkpt>
   <trkpt lat="47.3875720" lon="-122.0490570">
    <ele>133.0</ele>
    <time>2020-12-07T22:41:28Z</time>
   </trkpt>
   <trkpt lat="47.3875370" lon="-122.0490870">
    <ele>133.1</ele>
    <time>2020-12-07T22:41:29Z</time>
   </trkpt>
   <trkpt lat="47.3875080" lon="-122.0491320">
    <ele>133.2</ele>
    <time>2020-12-07T22:41:30Z</time>
   </trkpt>
   <trkpt lat="47.3874690" lon="-122.0491600">
    <ele>133.2</ele>
    <time>2020-12-07T22:41:31Z</time>
   </trkpt>
   <trkpt lat="47.3874410" lon="-122.0491970">
    <ele>133.3</ele>
    <time>2020-12-07T22:41:32Z</time>
   </trkpt>
   <trkpt lat="47.3874070" lon="-122.0492210">
    <ele>133.3</ele>
    <time>2020-12-07T22:41:33Z</time>
   </trkpt>
   <trkpt lat="47.3873750" lon="-122.0492430">
    <ele>133.4</ele>
    <time>2020-12-07T22:41:34Z</time>
   </trkpt>
   <trkpt lat="47.3873400" lon="-122.0492820">
    <ele>133.5</ele>
    <time>2020-12-07T22:41:35Z</time>
   </trkpt>
   <trkpt lat="47.3872970" lon="-122.0493080">
    <ele>133.6</ele>
    <time>2020-12-07T22:41:36Z</time>
   </trkpt>
   <trkpt lat="47.3872680" lon="-122.0493420">
    <ele>133.7</ele>
    <time>2020-12-07T22:41:37Z</time>
   </trkpt>
   <trkpt lat="47.3872330" lon="-122.0493670">
    <ele>133.7</ele>
    <time>2020-12-07T22:41:38Z</time>
   </trkpt>
   <trkpt lat="47.3872000" lon="-122.0493840">
    <ele>133.8</ele>
    <time>2020-12-07T22:41:39Z</time>
   </trkpt>
   <trkpt lat="47.3871600" lon="-122.0494080">
    <ele>133.9</ele>
    <time>2020-12-07T22:41:40Z</time>
   </trkpt>
   <trkpt lat="47.3871220" lon="-122.0494190">
    <ele>134.0</ele>
    <time>2020-12-07T22:41:41Z</time>
   </trkpt>
   <trkpt lat="47.3870880" lon="-122.0494400">
    <ele>134.0</ele>
    <time>2020-12-07T22:41:42Z</time>
   </trkpt>
   <trkpt lat="47.3870480" lon="-122.0494700">
    <ele>134.1</ele>
    <time>2020-12-07T22:41:43Z</time>
   </trkpt>
   <trkpt lat="47.3870090" lon="-122.0494970">
    <ele>134.1</ele>
    <time>2020-12-07T22:41:44Z</time>
   </trkpt>
   <trkpt lat="47.3869620" lon="-122.0495230">
    <ele>134.1</ele>
    <time>2020-12-07T22:41:45Z</time>
   </trkpt>
   <trkpt lat="47.3869240" lon="-122.0495690">
    <ele>134.2</ele>
    <time>2020-12-07T22:41:46Z</time>
   </trkpt>
   <trkpt lat="47.3868650" lon="-122.0495640">
    <ele>134.2</ele>
    <time>2020-12-07T22:41:47Z</time>
   </trkpt>
   <trkpt lat="47.3868250" lon="-122.0495940">
    <ele>134.2</ele>
    <time>2020-12-07T22:41:48Z</time>
   </trkpt>
   <trkpt lat="47.3867870" lon="-122.0496120">
    <ele>134.3</ele>
    <time>2020-12-07T22:41:49Z</time>
   </trkpt>
   <trkpt lat="47.3867490" lon="-122.0496090">
    <ele>134.3</ele>
    <time>2020-12-07T22:41:50Z</time>
   </trkpt>
   <trkpt lat="47.3867100" lon="-122.0496210">
    <ele>134.3</ele>
    <time>2020-12-07T22:41:51Z</time>
   </trkpt>
   <trkpt lat="47.3866770" lon="-122.0496570">
    <ele>134.3</ele>
    <time>2020-12-07T22:41:52Z</time>
   </trkpt>
   <trkpt lat="47.3866390" lon="-122.0496770">
    <ele>134.4</ele>
    <time>2020-12-07T22:41:53Z</time>
   </trkpt>
   <trkpt lat="47.3865970" lon="-122.0496820">
    <ele>134.4</ele>
    <time>2020-12-07T22:41:54Z</time>
   </trkpt>
   <trkpt lat="47.3865640" lon="-122.0496990">
    <ele>134.4</ele>
    <time>2020-12-07T22:41:55Z</time>
   </trkpt>
   <trkpt lat="47.3865190" lon="-122.0497020">
    <ele>134.4</ele>
    <time>2020-12-07T22:41:56Z</time>
   </trkpt>
   <trkpt lat="47.3864860" lon="-122.0497170">
    <ele>134.5</ele>
    <time>2020-12-07T22:41:57Z</time>
   </trkpt>
   <trkpt lat="47.3864420" lon="-122.0497270">
    <ele>134.5</ele>
    <time>2020-12-07T22:41:58Z</time>
   </trkpt>
   <trkpt lat="47.3864090" lon="-122.0497470">
    <ele>134.5</ele>
    <time>2020-12-07T22:41:59Z</time>
   </trkpt>
   <trkpt lat="47.3863650" lon="-122.0497680">
    <ele>134.5</ele>
    <time>2020-12-07T22:42:00Z</time>
   </trkpt>
   <trkpt lat="47.3863270" lon="-122.0497800">
    <ele>134.6</ele>
    <time>2020-12-07T22:42:01Z</time>
   </trkpt>
   <trkpt lat="47.3862940" lon="-122.0497830">
    <ele>134.6</ele>
    <time>2020-12-07T22:42:02Z</time>
   </trkpt>
   <trkpt lat="47.3862500" lon="-122.0497840">
    <ele>134.6</ele>
    <time>2020-12-07T22:42:03Z</time>
   </trkpt>
   <trkpt lat="47.3862170" lon="-122.0498070">
    <ele>134.6</ele>
    <time>2020-12-07T22:42:04Z</time>
   </trkpt>
   <trkpt lat="47.3861910" lon="-122.0498240">
    <ele>134.6</ele>
    <time>2020-12-07T22:42:05Z</time>
   </trkpt>
   <trkpt lat="47.3860670" lon="-122.0497910">
    <ele>134.7</ele>
    <time>2020-12-07T22:42:32Z</time>
   </trkpt>
   <trkpt lat="47.3860480" lon="-122.0497990">
    <ele>134.8</ele>
    <time>2020-12-07T22:42:33Z</time>
   </trkpt>
   <trkpt lat="47.3860300" lon="-122.0498080">
    <ele>134.8</ele>
    <time>2020-12-07T22:42:34Z</time>
   </trkpt>
   <trkpt lat="47.3859910" lon="-122.0498070">
    <ele>134.8</ele>
    <time>2020-12-07T22:42:35Z</time>
   </trkpt>
   <trkpt lat="47.3859520" lon="-122.0498200">
    <ele>134.9</ele>
    <time>2020-12-07T22:42:36Z</time>
   </trkpt>
   <trkpt lat="47.3859210" lon="-122.0498340">
    <ele>134.9</ele>
    <time>2020-12-07T22:42:37Z</time>
   </trkpt>
   <trkpt lat="47.3858940" lon="-122.0498630">
    <ele>134.9</ele>
    <time>2020-12-07T22:42:38Z</time>
   </trkpt>
   <trkpt lat="47.3858620" lon="-122.0498560">
    <ele>135.0</ele>
    <time>2020-12-07T22:42:39Z</time>
   </trkpt>
   <trkpt lat="47.3858130" lon="-122.0498760">
    <ele>135.0</ele>
    <time>2020-12-07T22:42:40Z</time>
   </trkpt>
   <trkpt lat="47.3857880" lon="-122.0498780">
    <ele>135.1</ele>
    <time>2020-12-07T22:42:41Z</time>
   </trkpt>
   <trkpt lat="47.3857500" lon="-122.0499170">
    <ele>135.1</ele>
    <time>2020-12-07T22:42:42Z</time>
   </trkpt>
   <trkpt lat="47.3857150" lon="-122.0499340">
    <ele>135.2</ele>
    <time>2020-12-07T22:42:43Z</time>
   </trkpt>
   <trkpt lat="47.3856730" lon="-122.0499410">
    <ele>135.2</ele>
    <time>2020-12-07T22:42:44Z</time>
   </trkpt>
   <trkpt lat="47.3856350" lon="-122.0499640">
    <ele>135.3</ele>
    <time>2020-12-07T22:42:45Z</time>
   </trkpt>
   <trkpt lat="47.3855910" lon="-122.0499730">
    <ele>135.3</ele>
    <time>2020-12-07T22:42:46Z</time>
   </trkpt>
   <trkpt lat="47.3855460" lon="-122.0499740">
    <ele>135.4</ele>
    <time>2020-12-07T22:42:47Z</time>
   </trkpt>
   <trkpt lat="47.3855050" lon="-122.0499680">
    <ele>135.5</ele>
    <time>2020-12-07T22:42:48Z</time>
   </trkpt>
   <trkpt lat="47.3854560" lon="-122.0499760">
    <ele>135.5</ele>
    <time>2020-12-07T22:42:49Z</time>
   </trkpt>
   <trkpt lat="47.3854130" lon="-122.0499730">
    <ele>135.6</ele>
    <time>2020-12-07T22:42:50Z</time>
   </trkpt>
   <trkpt lat="47.3853620" lon="-122.0499770">
    <ele>135.7</ele>
    <time>2020-12-07T22:42:51Z</time>
   </trkpt>
   <trkpt lat="47.3853220" lon="-122.0499710">
    <ele>135.7</ele>
    <time>2020-12-07T22:42:52Z</time>
   </trkpt>
   <trkpt lat="47.3852880" lon="-122.0499710">
    <ele>135.8</ele>
    <time>2020-12-07T22:42:53Z</time>
   </trkpt>
   <trkpt lat="47.3852470" lon="-122.0499850">
    <ele>135.8</ele>
    <time>2020-12-07T22:42:54Z</time>
   </trkpt>
   <trkpt lat="47.3852100" lon="-122.0499840">
    <ele>135.9</ele>
    <time>2020-12-07T22:42:55Z</time>
   </trkpt>
   <trkpt lat="47.3851580" lon="-122.0499850">
    <ele>136.0</ele>
    <time>2020-12-07T22:42:56Z</time>
   </trkpt>
   <trkpt lat="47.3851260" lon="-122.0499740">
    <ele>136.0</ele>
    <time>2020-12-07T22:42:57Z</time>
   </trkpt>
   <trkpt lat="47.3850940" lon="-122.0499800">
    <ele>136.1</ele>
    <time>2020-12-07T22:42:58Z</time>
   </trkpt>
   <trkpt lat="47.3850550" lon="-122.0499690">
    <ele>136.1</ele>
    <time>2020-12-07T22:42:59Z</time>
   </trkpt>
   <trkpt lat="47.3850130" lon="-122.0499620">
    <ele>136.2</ele>
    <time>2020-12-07T22:43:00Z</time>
   </trkpt>
   <trkpt lat="47.3849730" lon="-122.0499580">
    <ele>136.3</ele>
    <time>2020-12-07T22:43:01Z</time>
   </trkpt>
   <trkpt lat="47.3849380" lon="-122.0499410">
    <ele>136.4</ele>
    <time>2020-12-07T22:43:02Z</time>
   </trkpt>
   <trkpt lat="47.3848940" lon="-122.0499410">
    <ele>136.5</ele>
    <time>2020-12-07T22:43:03Z</time>
   </trkpt>
   <trkpt lat="47.3848560" lon="-122.0499400">
    <ele>136.6</ele>
    <time>2020-12-07T22:43:04Z</time>
   </trkpt>
   <trkpt lat="47.3848240" lon="-122.0499620">
    <ele>136.6</ele>
    <time>2020-12-07T22:43:05Z</time>
   </trkpt>
   <trkpt lat="47.3847940" lon="-122.0499690">
    <ele>136.7</ele>
    <time>2020-12-07T22:43:06Z</time>
   </trkpt>
   <trkpt lat="47.3847520" lon="-122.0499570">
    <ele>136.8</ele>
    <time>2020-12-07T22:43:07Z</time>
   </trkpt>
   <trkpt lat="47.3847350" lon="-122.0499520">
    <ele>136.8</ele>
    <time>2020-12-07T22:43:08Z</time>
   </trkpt>
   <trkpt lat="47.3846960" lon="-122.0499340">
    <ele>136.9</ele>
    <time>2020-12-07T22:43:09Z</time>
   </trkpt>
   <trkpt lat="47.3846600" lon="-122.0499390">
    <ele>137.0</ele>
    <time>2020-12-07T22:43:10Z</time>
   </trkpt>
   <trkpt lat="47.3846210" lon="-122.0499290">
    <ele>137.0</ele>
    <time>2020-12-07T22:43:11Z</time>
   </trkpt>
   <trkpt lat="47.3845860" lon="-122.0499260">
    <ele>137.1</ele>
    <time>2020-12-07T22:43:12Z</time>
   </trkpt>
   <trkpt lat="47.3845460" lon="-122.0499080">
    <ele>137.1</ele>
    <time>2020-12-07T22:43:13Z</time>
   </trkpt>
   <trkpt lat="47.3844970" lon="-122.0498940">
    <ele>137.2</ele>
    <time>2020-12-07T22:43:14Z</time>
   </trkpt>
   <trkpt lat="47.3844580" lon="-122.0498780">
    <ele>137.2</ele>
    <time>2020-12-07T22:43:15Z</time>
   </trkpt>
   <trkpt lat="47.3844160" lon="-122.0498580">
    <ele>137.3</ele>
    <time>2020-12-07T22:43:16Z</time>
   </trkpt>
   <trkpt lat="47.3843780" lon="-122.0498510">
    <ele>137.3</ele>
    <time>2020-12-07T22:43:17Z</time>
   </trkpt>
   <trkpt lat="47.3843400" lon="-122.0498350">
    <ele>137.4</ele>
    <time>2020-12-07T22:43:18Z</time>
   </trkpt>
   <trkpt lat="47.3843060" lon="-122.0498360">
    <ele>137.4</ele>
    <time>2020-12-07T22:43:19Z</time>
   </trkpt>
   <trkpt lat="47.3842730" lon="-122.0498220">
    <ele>137.4</ele>
    <time>2020-12-07T22:43:20Z</time>
   </trkpt>
   <trkpt lat="47.3842300" lon="-122.0498110">
    <ele>137.5</ele>
    <time>2020-12-07T22:43:21Z</time>
   </trkpt>
   <trkpt lat="47.3841960" lon="-122.0497870">
    <ele>137.5</ele>
    <time>2020-12-07T22:43:22Z</time>
   </trkpt>
   <trkpt lat="47.3841480" lon="-122.0497850">
    <ele>137.6</ele>
    <time>2020-12-07T22:43:23Z</time>
   </trkpt>
   <trkpt lat="47.3841090" lon="-122.0497800">
    <ele>137.7</ele>
    <time>2020-12-07T22:43:24Z</time>
   </trkpt>
   <trkpt lat="47.3840710" lon="-122.0497680">
    <ele>137.8</ele>
    <time>2020-12-07T22:43:25Z</time>
   </trkpt>
   <trkpt lat="47.3840300" lon="-122.0497660">
    <ele>137.8</ele>
    <time>2020-12-07T22:43:26Z</time>
   </trkpt>
   <trkpt lat="47.3839990" lon="-122.0497360">
    <ele>137.9</ele>
    <time>2020-12-07T22:43:27Z</time>
   </trkpt>
   <trkpt lat="47.3839470" lon="-122.0497190">
    <ele>138.0</ele>
    <time>2020-12-07T22:43:28Z</time>
   </trkpt>
   <trkpt lat="47.3839120" lon="-122.0497040">
    <ele>138.1</ele>
    <time>2020-12-07T22:43:29Z</time>
   </trkpt>
   <trkpt lat="47.3838810" lon="-122.0496830">
    <ele>138.2</ele>
    <time>2020-12-07T22:43:30Z</time>
   </trkpt>
   <trkpt lat="47.3838390" lon="-122.0496540">
    <ele>138.3</ele>
    <time>2020-12-07T22:43:31Z</time>
   </trkpt>
   <trkpt lat="47.3838010" lon="-122.0496350">
    <ele>138.4</ele>
    <time>2020-12-07T22:43:32Z</time>
   </trkpt>
   <trkpt lat="47.3837590" lon="-122.0496300">
    <ele>138.5</ele>
    <time>2020-12-07T22:43:33Z</time>
   </trkpt>
   <trkpt lat="47.3837350" lon="-122.0496010">
    <ele>138.6</ele>
    <time>2020-12-07T22:43:34Z</time>
   </trkpt>
   <trkpt lat="47.3836960" lon="-122.0495880">
    <ele>138.7</ele>
    <time>2020-12-07T22:43:35Z</time>
   </trkpt>
   <trkpt lat="47.3836570" lon="-122.0495660">
    <ele>138.7</ele>
    <time>2020-12-07T22:43:36Z</time>
   </trkpt>
   <trkpt lat="47.3836080" lon="-122.0495420">
    <ele>138.8</ele>
    <time>2020-12-07T22:43:37Z</time>
   </trkpt>
   <trkpt lat="47.3835680" lon="-122.0495250">
    <ele>138.9</ele>
    <time>2020-12-07T22:43:38Z</time>
   </trkpt>
   <trkpt lat="47.3835320" lon="-122.0495060">
    <ele>138.9</ele>
    <time>2020-12-07T22:43:39Z</time>
   </trkpt>
   <trkpt lat="47.3834930" lon="-122.0494990">
    <ele>139.0</ele>
    <time>2020-12-07T22:43:40Z</time>
   </trkpt>
   <trkpt lat="47.3834580" lon="-122.0494750">
    <ele>139.0</ele>
    <time>2020-12-07T22:43:41Z</time>
   </trkpt>
   <trkpt lat="47.3834300" lon="-122.0494670">
    <ele>139.0</ele>
    <time>2020-12-07T22:43:42Z</time>
   </trkpt>
   <trkpt lat="47.3833900" lon="-122.0494330">
    <ele>139.1</ele>
    <time>2020-12-07T22:43:43Z</time>
   </trkpt>
   <trkpt lat="47.3833720" lon="-122.0494170">
    <ele>139.1</ele>
    <time>2020-12-07T22:43:44Z</time>
   </trkpt>
   <trkpt lat="47.3833410" lon="-122.0494010">
    <ele>139.1</ele>
    <time>2020-12-07T22:43:45Z</time>
   </trkpt>
   <trkpt lat="47.3833160" lon="-122.0493730">
    <ele>139.2</ele>
    <time>2020-12-07T22:43:46Z</time>
   </trkpt>
   <trkpt lat="47.3832810" lon="-122.0493510">
    <ele>139.2</ele>
    <time>2020-12-07T22:43:47Z</time>
   </trkpt>
   <trkpt lat="47.3832570" lon="-122.0493190">
    <ele>139.3</ele>
    <time>2020-12-07T22:43:48Z</time>
   </trkpt>
   <trkpt lat="47.3832200" lon="-122.0492980">
    <ele>139.4</ele>
    <time>2020-12-07T22:43:49Z</time>
   </trkpt>
   <trkpt lat="47.3831890" lon="-122.0492790">
    <ele>139.4</ele>
    <time>2020-12-07T22:43:50Z</time>
   </trkpt>
   <trkpt lat="47.3831580" lon="-122.0492600">
    <ele>139.5</ele>
    <time>2020-12-07T22:43:51Z</time>
   </trkpt>
   <trkpt lat="47.3831320" lon="-122.0492450">
    <ele>139.5</ele>
    <time>2020-12-07T22:43:52Z</time>
   </trkpt>
   <trkpt lat="47.3830970" lon="-122.0492180">
    <ele>139.6</ele>
    <time>2020-12-07T22:43:53Z</time>
   </trkpt>
   <trkpt lat="47.3830600" lon="-122.0491780">
    <ele>139.7</ele>
    <time>2020-12-07T22:43:54Z</time>
   </trkpt>
   <trkpt lat="47.3830450" lon="-122.0491590">
    <ele>139.7</ele>
    <time>2020-12-07T22:43:55Z</time>
   </trkpt>
   <trkpt lat="47.3830150" lon="-122.0491380">
    <ele>139.8</ele>
    <time>2020-12-07T22:43:56Z</time>
   </trkpt>
   <trkpt lat="47.3829860" lon="-122.0491170">
    <ele>139.9</ele>
    <time>2020-12-07T22:43:57Z</time>
   </trkpt>
   <trkpt lat="47.3829560" lon="-122.0490880">
    <ele>139.9</ele>
    <time>2020-12-07T22:43:58Z</time>
   </trkpt>
   <trkpt lat="47.3829270" lon="-122.0490580">
    <ele>140.0</ele>
    <time>2020-12-07T22:43:59Z</time>
   </trkpt>
   <trkpt lat="47.3829010" lon="-122.0490160">
    <ele>140.1</ele>
    <time>2020-12-07T22:44:00Z</time>
   </trkpt>
   <trkpt lat="47.3828740" lon="-122.0489720">
    <ele>140.1</ele>
    <time>2020-12-07T22:44:01Z</time>
   </trkpt>
   <trkpt lat="47.3828440" lon="-122.0489380">
    <ele>140.2</ele>
    <time>2020-12-07T22:44:02Z</time>
   </trkpt>
   <trkpt lat="47.3828120" lon="-122.0489060">
    <ele>140.3</ele>
    <time>2020-12-07T22:44:03Z</time>
   </trkpt>
   <trkpt lat="47.3827840" lon="-122.0488870">
    <ele>140.3</ele>
    <time>2020-12-07T22:44:04Z</time>
   </trkpt>
   <trkpt lat="47.3827610" lon="-122.0488550">
    <ele>140.4</ele>
    <time>2020-12-07T22:44:05Z</time>
   </trkpt>
   <trkpt lat="47.3827280" lon="-122.0488380">
    <ele>140.4</ele>
    <time>2020-12-07T22:44:06Z</time>
   </trkpt>
   <trkpt lat="47.3826960" lon="-122.0488090">
    <ele>140.5</ele>
    <time>2020-12-07T22:44:07Z</time>
   </trkpt>
   <trkpt lat="47.3826770" lon="-122.0487730">
    <ele>140.5</ele>
    <time>2020-12-07T22:44:08Z</time>
   </trkpt>
   <trkpt lat="47.3826440" lon="-122.0487410">
    <ele>140.6</ele>
    <time>2020-12-07T22:44:09Z</time>
   </trkpt>
   <trkpt lat="47.3826150" lon="-122.0487150">
    <ele>140.6</ele>
    <time>2020-12-07T22:44:10Z</time>
   </trkpt>
   <trkpt lat="47.3826090" lon="-122.0487100">
    <ele>140.6</ele>
    <time>2020-12-07T22:44:11Z</time>
   </trkpt>
   <trkpt lat="47.3825190" lon="-122.0485140">
    <ele>140.9</ele>
    <time>2020-12-07T22:44:36Z</time>
   </trkpt>
   <trkpt lat="47.3824770" lon="-122.0484920">
    <ele>141.0</ele>
    <time>2020-12-07T22:44:37Z</time>
   </trkpt>
   <trkpt lat="47.3824460" lon="-122.0484750">
    <ele>141.0</ele>
    <time>2020-12-07T22:44:38Z</time>
   </trkpt>
   <trkpt lat="47.3824100" lon="-122.0484460">
    <ele>141.1</ele>
    <time>2020-12-07T22:44:39Z</time>
   </trkpt>
   <trkpt lat="47.3823670" lon="-122.0484260">
    <ele>141.2</ele>
    <time>2020-12-07T22:44:40Z</time>
   </trkpt>
   <trkpt lat="47.3823480" lon="-122.0484210">
    <ele>141.2</ele>
    <time>2020-12-07T22:44:41Z</time>
   </trkpt>
   <trkpt lat="47.3823160" lon="-122.0483860">
    <ele>141.3</ele>
    <time>2020-12-07T22:44:42Z</time>
   </trkpt>
   <trkpt lat="47.3823030" lon="-122.0483800">
    <ele>141.3</ele>
    <time>2020-12-07T22:44:43Z</time>
   </trkpt>
   <trkpt lat="47.3822740" lon="-122.0483360">
    <ele>141.4</ele>
    <time>2020-12-07T22:44:44Z</time>
   </trkpt>
   <trkpt lat="47.3822570" lon="-122.0483190">
    <ele>141.4</ele>
    <time>2020-12-07T22:44:45Z</time>
   </trkpt>
   <trkpt lat="47.3822320" lon="-122.0482950">
    <ele>141.5</ele>
    <time>2020-12-07T22:44:46Z</time>
   </trkpt>
   <trkpt lat="47.3822040" lon="-122.0482680">
    <ele>141.5</ele>
    <time>2020-12-07T22:44:47Z</time>
   </trkpt>
   <trkpt lat="47.3821820" lon="-122.0482420">
    <ele>141.5</ele>
    <time>2020-12-07T22:44:48Z</time>
   </trkpt>
   <trkpt lat="47.3821690" lon="-122.0481860">
    <ele>141.6</ele>
    <time>2020-12-07T22:44:49Z</time>
   </trkpt>
   <trkpt lat="47.3821670" lon="-122.0481590">
    <ele>141.6</ele>
    <time>2020-12-07T22:44:50Z</time>
   </trkpt>
   <trkpt lat="47.3821480" lon="-122.0481180">
    <ele>141.7</ele>
    <time>2020-12-07T22:44:51Z</time>
   </trkpt>
   <trkpt lat="47.3821300" lon="-122.0480670">
    <ele>141.7</ele>
    <time>2020-12-07T22:44:52Z</time>
   </trkpt>
   <trkpt lat="47.3821160" lon="-122.0480070">
    <ele>141.8</ele>
    <time>2020-12-07T22:44:53Z</time>
   </trkpt>
   <trkpt lat="47.3820550" lon="-122.0479800">
    <ele>141.8</ele>
    <time>2020-12-07T22:44:55Z</time>
   </trkpt>
   <trkpt lat="47.3820210" lon="-122.0479830">
    <ele>141.8</ele>
    <time>2020-12-07T22:44:56Z</time>
   </trkpt>
   <trkpt lat="47.3819870" lon="-122.0479530">
    <ele>141.8</ele>
    <time>2020-12-07T22:44:57Z</time>
   </trkpt>
   <trkpt lat="47.3820180" lon="-122.0478730">
    <ele>141.9</ele>
    <time>2020-12-07T22:44:58Z</time>
   </trkpt>
   <trkpt lat="47.3818670" lon="-122.0477330">
    <ele>141.9</ele>
    <time>2020-12-07T22:48:09Z</time>
   </trkpt>
   <trkpt lat="47.3818590" lon="-122.0477170">
    <ele>141.9</ele>
    <time>2020-12-07T22:48:10Z</time>
   </trkpt>
   <trkpt lat="47.3818300" lon="-122.0476890">
    <ele>141.9</ele>
    <time>2020-12-07T22:48:11Z</time>
   </trkpt>
   <trkpt lat="47.3817990" lon="-122.0476240">
    <ele>141.9</ele>
    <time>2020-12-07T22:48:12Z</time>
   </trkpt>
   <trkpt lat="47.3817670" lon="-122.0475850">
    <ele>141.8</ele>
    <time>2020-12-07T22:48:13Z</time>
   </trkpt>
   <trkpt lat="47.3817520" lon="-122.0475680">
    <ele>141.8</ele>
    <time>2020-12-07T22:48:14Z</time>
   </trkpt>
   <trkpt lat="47.3817230" lon="-122.0475200">
    <ele>141.9</ele>
    <time>2020-12-07T22:48:15Z</time>
   </trkpt>
   <trkpt lat="47.3817100" lon="-122.0474850">
    <ele>141.9</ele>
    <time>2020-12-07T22:48:16Z</time>
   </trkpt>
   <trkpt lat="47.3816920" lon="-122.0474230">
    <ele>141.9</ele>
    <time>2020-12-07T22:48:17Z</time>
   </trkpt>
   <trkpt lat="47.3816640" lon="-122.0473780">
    <ele>141.9</ele>
    <time>2020-12-07T22:48:18Z</time>
   </trkpt>
   <trkpt lat="47.3816350" lon="-122.0473190">
    <ele>142.0</ele>
    <time>2020-12-07T22:48:19Z</time>
   </trkpt>
   <trkpt lat="47.3816080" lon="-122.0472740">
    <ele>142.0</ele>
    <time>2020-12-07T22:48:20Z</time>
   </trkpt>
   <trkpt lat="47.3815960" lon="-122.0472590">
    <ele>142.0</ele>
    <time>2020-12-07T22:48:21Z</time>
   </trkpt>
   <trkpt lat="47.3815810" lon="-122.0472160">
    <ele>142.0</ele>
    <time>2020-12-07T22:48:22Z</time>
   </trkpt>
   <trkpt lat="47.3815500" lon="-122.0471750">
    <ele>142.1</ele>
    <time>2020-12-07T22:48:23Z</time>
   </trkpt>
   <trkpt lat="47.3815350" lon="-122.0471230">
    <ele>142.1</ele>
    <time>2020-12-07T22:48:24Z</time>
   </trkpt>
   <trkpt lat="47.3815200" lon="-122.0470720">
    <ele>142.1</ele>
    <time>2020-12-07T22:48:25Z</time>
   </trkpt>
   <trkpt lat="47.3815030" lon="-122.0470150">
    <ele>142.2</ele>
    <time>2020-12-07T22:48:26Z</time>
   </trkpt>
   <trkpt lat="47.3814790" lon="-122.0469640">
    <ele>142.2</ele>
    <time>2020-12-07T22:48:27Z</time>
   </trkpt>
   <trkpt lat="47.3814560" lon="-122.0469180">
    <ele>142.3</ele>
    <time>2020-12-07T22:48:28Z</time>
   </trkpt>
   <trkpt lat="47.3814370" lon="-122.0468670">
    <ele>142.3</ele>
    <time>2020-12-07T22:48:29Z</time>
   </trkpt>
   <trkpt lat="47.3814220" lon="-122.0468230">
    <ele>142.4</ele>
    <time>2020-12-07T22:48:30Z</time>
   </trkpt>
   <trkpt lat="47.3814050" lon="-122.0467570">
    <ele>142.4</ele>
    <time>2020-12-07T22:48:31Z</time>
   </trkpt>
   <trkpt lat="47.3813880" lon="-122.0467210">
    <ele>142.5</ele>
    <time>2020-12-07T22:48:32Z</time>
   </trkpt>
   <trkpt lat="47.3813610" lon="-122.0466800">
    <ele>142.5</ele>
    <time>2020-12-07T22:48:33Z</time>
   </trkpt>
   <trkpt lat="47.3813430" lon="-122.0466300">
    <ele>142.6</ele>
    <time>2020-12-07T22:48:34Z</time>
   </trkpt>
   <trkpt lat="47.3813310" lon="-122.0465700">
    <ele>142.6</ele>
    <time>2020-12-07T22:48:35Z</time>
   </trkpt>
   <trkpt lat="47.3813210" lon="-122.0465140">
    <ele>142.7</ele>
    <time>2020-12-07T22:48:36Z</time>
   </trkpt>
   <trkpt lat="47.3813050" lon="-122.0464660">
    <ele>142.7</ele>
    <time>2020-12-07T22:48:37Z</time>
   </trkpt>
   <trkpt lat="47.3813020" lon="-122.0464100">
    <ele>142.8</ele>
    <time>2020-12-07T22:48:38Z</time>
   </trkpt>
   <trkpt lat="47.3812920" lon="-122.0463650">
    <ele>142.8</ele>
    <time>2020-12-07T22:48:39Z</time>
   </trkpt>
   <trkpt lat="47.3812800" lon="-122.0463140">
    <ele>142.8</ele>
    <time>2020-12-07T22:48:40Z</time>
   </trkpt>
   <trkpt lat="47.3812690" lon="-122.0462580">
    <ele>142.9</ele>
    <time>2020-12-07T22:48:41Z</time>
   </trkpt>
   <trkpt lat="47.3812410" lon="-122.0462020">
    <ele>142.9</ele>
    <time>2020-12-07T22:48:42Z</time>
   </trkpt>
   <trkpt lat="47.3812320" lon="-122.0461470">
    <ele>142.9</ele>
    <time>2020-12-07T22:48:43Z</time>
   </trkpt>
   <trkpt lat="47.3812150" lon="-122.0461050">
    <ele>143.0</ele>
    <time>2020-12-07T22:48:44Z</time>
   </trkpt>
   <trkpt lat="47.3812120" lon="-122.0460480">
    <ele>143.0</ele>
    <time>2020-12-07T22:48:45Z</time>
   </trkpt>
   <trkpt lat="47.3811940" lon="-122.0460010">
    <ele>143.1</ele>
    <time>2020-12-07T22:48:46Z</time>
   </trkpt>
   <trkpt lat="47.3811970" lon="-122.0459340">
    <ele>143.1</ele>
    <time>2020-12-07T22:48:47Z</time>
   </trkpt>
   <trkpt lat="47.3811780" lon="-122.0458850">
    <ele>143.2</ele>
    <time>2020-12-07T22:48:48Z</time>
   </trkpt>
   <trkpt lat="47.3811560" lon="-122.0458220">
    <ele>143.2</ele>
    <time>2020-12-07T22:48:49Z</time>
   </trkpt>
   <trkpt lat="47.3811360" lon="-122.0457670">
    <ele>143.3</ele>
    <time>2020-12-07T22:48:50Z</time>
   </trkpt>
   <trkpt lat="47.3811100" lon="-122.0457140">
    <ele>143.4</ele>
    <time>2020-12-07T22:48:51Z</time>
   </trkpt>
   <trkpt lat="47.3811040" lon="-122.0456590">
    <ele>143.4</ele>
    <time>2020-12-07T22:48:52Z</time>
   </trkpt>
   <trkpt lat="47.3811050" lon="-122.0456010">
    <ele>143.5</ele>
    <time>2020-12-07T22:48:53Z</time>
   </trkpt>
   <trkpt lat="47.3811080" lon="-122.0455360">
    <ele>143.5</ele>
    <time>2020-12-07T22:48:54Z</time>
   </trkpt>
   <trkpt lat="47.3811010" lon="-122.0454750">
    <ele>143.6</ele>
    <time>2020-12-07T22:48:55Z</time>
   </trkpt>
   <trkpt lat="47.3810920" lon="-122.0454110">
    <ele>143.6</ele>
    <time>2020-12-07T22:48:56Z</time>
   </trkpt>
   <trkpt lat="47.3810720" lon="-122.0453720">
    <ele>143.7</ele>
    <time>2020-12-07T22:48:57Z</time>
   </trkpt>
   <trkpt lat="47.3810600" lon="-122.0453140">
    <ele>143.7</ele>
    <time>2020-12-07T22:48:58Z</time>
   </trkpt>
   <trkpt lat="47.3810440" lon="-122.0452620">
    <ele>143.8</ele>
    <time>2020-12-07T22:48:59Z</time>
   </trkpt>
   <trkpt lat="47.3810370" lon="-122.0452160">
    <ele>143.8</ele>
    <time>2020-12-07T22:49:00Z</time>
   </trkpt>
   <trkpt lat="47.3810240" lon="-122.0451590">
    <ele>143.9</ele>
    <time>2020-12-07T22:49:01Z</time>
   </trkpt>
   <trkpt lat="47.3810180" lon="-122.0450970">
    <ele>143.9</ele>
    <time>2020-12-07T22:49:02Z</time>
   </trkpt>
   <trkpt lat="47.3810110" lon="-122.0450450">
    <ele>144.0</ele>
    <time>2020-12-07T22:49:03Z</time>
   </trkpt>
   <trkpt lat="47.3810050" lon="-122.0449910">
    <ele>144.0</ele>
    <time>2020-12-07T22:49:04Z</time>
   </trkpt>
   <trkpt lat="47.3809940" lon="-122.0449300">
    <ele>144.1</ele>
    <time>2020-12-07T22:49:05Z</time>
   </trkpt>
   <trkpt lat="47.3809730" lon="-122.0448780">
    <ele>144.1</ele>
    <time>2020-12-07T22:49:06Z</time>
   </trkpt>
   <trkpt lat="47.3809600" lon="-122.0448130">
    <ele>144.2</ele>
    <time>2020-12-07T22:49:07Z</time>
   </trkpt>
   <trkpt lat="47.3809400" lon="-122.0447570">
    <ele>144.2</ele>
    <time>2020-12-07T22:49:08Z</time>
   </trkpt>
   <trkpt lat="47.3809450" lon="-122.0447030">
    <ele>144.3</ele>
    <time>2020-12-07T22:49:09Z</time>
   </trkpt>
   <trkpt lat="47.3809340" lon="-122.0446490">
    <ele>144.3</ele>
    <time>2020-12-07T22:49:10Z</time>
   </trkpt>
   <trkpt lat="47.3809320" lon="-122.0445810">
    <ele>144.4</ele>
    <time>2020-12-07T22:49:11Z</time>
   </trkpt>
   <trkpt lat="47.3809370" lon="-122.0445380">
    <ele>144.4</ele>
    <time>2020-12-07T22:49:12Z</time>
   </trkpt>
   <trkpt lat="47.3809280" lon="-122.0444800">
    <ele>144.4</ele>
    <time>2020-12-07T22:49:13Z</time>
   </trkpt>
   <trkpt lat="47.3809340" lon="-122.0444210">
    <ele>144.5</ele>
    <time>2020-12-07T22:49:14Z</time>
   </trkpt>
   <trkpt lat="47.3809220" lon="-122.0443710">
    <ele>144.5</ele>
    <time>2020-12-07T22:49:15Z</time>
   </trkpt>
   <trkpt lat="47.3809290" lon="-122.0443060">
    <ele>144.6</ele>
    <time>2020-12-07T22:49:16Z</time>
   </trkpt>
   <trkpt lat="47.3809250" lon="-122.0442580">
    <ele>144.6</ele>
    <time>2020-12-07T22:49:17Z</time>
   </trkpt>
   <trkpt lat="47.3809240" lon="-122.0441980">
    <ele>144.7</ele>
    <time>2020-12-07T22:49:18Z</time>
   </trkpt>
   <trkpt lat="47.3809300" lon="-122.0441470">
    <ele>144.7</ele>
    <time>2020-12-07T22:49:19Z</time>
   </trkpt>
   <trkpt lat="47.3809200" lon="-122.0440910">
    <ele>144.8</ele>
    <time>2020-12-07T22:49:20Z</time>
   </trkpt>
   <trkpt lat="47.3809160" lon="-122.0440340">
    <ele>144.8</ele>
    <time>2020-12-07T22:49:21Z</time>
   </trkpt>
   <trkpt lat="47.3808990" lon="-122.0439680">
    <ele>144.9</ele>
    <time>2020-12-07T22:49:22Z</time>
   </trkpt>
   <trkpt lat="47.3809000" lon="-122.0439170">
    <ele>144.9</ele>
    <time>2020-12-07T22:49:23Z</time>
   </trkpt>
   <trkpt lat="47.3809000" lon="-122.0438620">
    <ele>145.0</ele>
    <time>2020-12-07T22:49:24Z</time>
   </trkpt>
   <trkpt lat="47.3808960" lon="-122.0438070">
    <ele>145.0</ele>
    <time>2020-12-07T22:49:25Z</time>
   </trkpt>
   <trkpt lat="47.3808940" lon="-122.0437440">
    <ele>145.1</ele>
    <time>2020-12-07T22:49:26Z</time>
   </trkpt>
   <trkpt lat="47.3808960" lon="-122.0436950">
    <ele>145.1</ele>
    <time>2020-12-07T22:49:27Z</time>
   </trkpt>
   <trkpt lat="47.3808930" lon="-122.0436430">
    <ele>145.2</ele>
    <time>2020-12-07T22:49:28Z</time>
   </trkpt>
   <trkpt lat="47.3809000" lon="-122.0435950">
    <ele>145.2</ele>
    <time>2020-12-07T22:49:29Z</time>
   </trkpt>
   <trkpt lat="47.3808940" lon="-122.0435320">
    <ele>145.3</ele>
    <time>2020-12-07T22:49:30Z</time>
   </trkpt>
   <trkpt lat="47.3808890" lon="-122.0434840">
    <ele>145.3</ele>
    <time>2020-12-07T22:49:31Z</time>
   </trkpt>
   <trkpt lat="47.3808840" lon="-122.0434270">
    <ele>145.4</ele>
    <time>2020-12-07T22:49:32Z</time>
   </trkpt>
   <trkpt lat="47.3808770" lon="-122.0433770">
    <ele>145.4</ele>
    <time>2020-12-07T22:49:33Z</time>
   </trkpt>
   <trkpt lat="47.3808740" lon="-122.0433290">
    <ele>145.4</ele>
    <time>2020-12-07T22:49:34Z</time>
   </trkpt>
   <trkpt lat="47.3808640" lon="-122.0432780">
    <ele>145.5</ele>
    <time>2020-12-07T22:49:35Z</time>
   </trkpt>
   <trkpt lat="47.3808660" lon="-122.0432100">
    <ele>145.5</ele>
    <time>2020-12-07T22:49:36Z</time>
   </trkpt>
   <trkpt lat="47.3808640" lon="-122.0431820">
    <ele>145.5</ele>
    <time>2020-12-07T22:49:37Z</time>
   </trkpt>
   <trkpt lat="47.3808760" lon="-122.0431360">
    <ele>145.5</ele>
    <time>2020-12-07T22:49:38Z</time>
   </trkpt>
   <trkpt lat="47.3808860" lon="-122.0430860">
    <ele>145.6</ele>
    <time>2020-12-07T22:49:39Z</time>
   </trkpt>
   <trkpt lat="47.3808890" lon="-122.0430340">
    <ele>145.6</ele>
    <time>2020-12-07T22:49:40Z</time>
   </trkpt>
   <trkpt lat="47.3808840" lon="-122.0429870">
    <ele>145.6</ele>
    <time>2020-12-07T22:49:41Z</time>
   </trkpt>
   <trkpt lat="47.3808790" lon="-122.0429360">
    <ele>145.7</ele>
    <time>2020-12-07T22:49:42Z</time>
   </trkpt>
   <trkpt lat="47.3808780" lon="-122.0428850">
    <ele>145.7</ele>
    <time>2020-12-07T22:49:43Z</time>
   </trkpt>
   <trkpt lat="47.3808950" lon="-122.0428300">
    <ele>145.7</ele>
    <time>2020-12-07T22:49:44Z</time>
   </trkpt>
   <trkpt lat="47.3808920" lon="-122.0427830">
    <ele>145.7</ele>
    <time>2020-12-07T22:49:45Z</time>
   </trkpt>
   <trkpt lat="47.3808960" lon="-122.0427430">
    <ele>145.8</ele>
    <time>2020-12-07T22:49:46Z</time>
   </trkpt>
   <trkpt lat="47.3808980" lon="-122.0426920">
    <ele>145.8</ele>
    <time>2020-12-07T22:49:47Z</time>
   </trkpt>
   <trkpt lat="47.3808920" lon="-122.0426440">
    <ele>145.8</ele>
    <time>2020-12-07T22:49:48Z</time>
   </trkpt>
   <trkpt lat="47.3808900" lon="-122.0425950">
    <ele>145.8</ele>
    <time>2020-12-07T22:49:49Z</time>
   </trkpt>
   <trkpt lat="47.3808900" lon="-122.0425440">
    <ele>145.9</ele>
    <time>2020-12-07T22:49:50Z</time>
   </trkpt>
   <trkpt lat="47.3808960" lon="-122.0424910">
    <ele>145.9</ele>
    <time>2020-12-07T22:49:51Z</time>
   </trkpt>
   <trkpt lat="47.3808860" lon="-122.0424410">
    <ele>145.9</ele>
    <time>2020-12-07T22:49:52Z</time>
   </trkpt>
   <trkpt lat="47.3808840" lon="-122.0423890">
    <ele>146.0</ele>
    <time>2020-12-07T22:49:53Z</time>
   </trkpt>
   <trkpt lat="47.3808910" lon="-122.0423310">
    <ele>146.0</ele>
    <time>2020-12-07T22:49:54Z</time>
   </trkpt>
   <trkpt lat="47.3808890" lon="-122.0422840">
    <ele>146.0</ele>
    <time>2020-12-07T22:49:55Z</time>
   </trkpt>
   <trkpt lat="47.3808830" lon="-122.0422380">
    <ele>146.1</ele>
    <time>2020-12-07T22:49:56Z</time>
   </trkpt>
   <trkpt lat="47.3808700" lon="-122.0421980">
    <ele>146.1</ele>
    <time>2020-12-07T22:49:57Z</time>
   </trkpt>
   <trkpt lat="47.3808680" lon="-122.0421550">
    <ele>146.2</ele>
    <time>2020-12-07T22:49:58Z</time>
   </trkpt>
   <trkpt lat="47.3808770" lon="-122.0421100">
    <ele>146.2</ele>
    <time>2020-12-07T22:49:59Z</time>
   </trkpt>
   <trkpt lat="47.3808770" lon="-122.0420670">
    <ele>146.2</ele>
    <time>2020-12-07T22:50:00Z</time>
   </trkpt>
   <trkpt lat="47.3808720" lon="-122.0420170">
    <ele>146.3</ele>
    <time>2020-12-07T22:50:01Z</time>
   </trkpt>
   <trkpt lat="47.3808780" lon="-122.0419700">
    <ele>146.3</ele>
    <time>2020-12-07T22:50:02Z</time>
   </trkpt>
   <trkpt lat="47.3808820" lon="-122.0419120">
    <ele>146.4</ele>
    <time>2020-12-07T22:50:03Z</time>
   </trkpt>
   <trkpt lat="47.3808820" lon="-122.0418900">
    <ele>146.4</ele>
    <time>2020-12-07T22:50:04Z</time>
   </trkpt>
   <trkpt lat="47.3808760" lon="-122.0418460">
    <ele>146.4</ele>
    <time>2020-12-07T22:50:05Z</time>
   </trkpt>
   <trkpt lat="47.3808830" lon="-122.0417920">
    <ele>146.4</ele>
    <time>2020-12-07T22:50:06Z</time>
   </trkpt>
   <trkpt lat="47.3808940" lon="-122.0417510">
    <ele>146.5</ele>
    <time>2020-12-07T22:50:07Z</time>
   </trkpt>
   <trkpt lat="47.3808870" lon="-122.0417020">
    <ele>146.5</ele>
    <time>2020-12-07T22:50:08Z</time>
   </trkpt>
   <trkpt lat="47.3808870" lon="-122.0416580">
    <ele>146.5</ele>
    <time>2020-12-07T22:50:09Z</time>
   </trkpt>
   <trkpt lat="47.3808830" lon="-122.0416040">
    <ele>146.5</ele>
    <time>2020-12-07T22:50:10Z</time>
   </trkpt>
   <trkpt lat="47.3808760" lon="-122.0415870">
    <ele>146.6</ele>
    <time>2020-12-07T22:50:11Z</time>
   </trkpt>
   <trkpt lat="47.3808710" lon="-122.0415390">
    <ele>146.6</ele>
    <time>2020-12-07T22:50:12Z</time>
   </trkpt>
   <trkpt lat="47.3808650" lon="-122.0414930">
    <ele>146.6</ele>
    <time>2020-12-07T22:50:13Z</time>
   </trkpt>
   <trkpt lat="47.3808630" lon="-122.0414380">
    <ele>146.7</ele>
    <time>2020-12-07T22:50:14Z</time>
   </trkpt>
   <trkpt lat="47.3808590" lon="-122.0413920">
    <ele>146.7</ele>
    <time>2020-12-07T22:50:15Z</time>
   </trkpt>
   <trkpt lat="47.3808560" lon="-122.0413460">
    <ele>146.7</ele>
    <time>2020-12-07T22:50:16Z</time>
   </trkpt>
   <trkpt lat="47.3808450" lon="-122.0412910">
    <ele>146.8</ele>
    <time>2020-12-07T22:50:17Z</time>
   </trkpt>
   <trkpt lat="47.3808390" lon="-122.0412450">
    <ele>146.8</ele>
    <time>2020-12-07T22:50:18Z</time>
   </trkpt>
   <trkpt lat="47.3808430" lon="-122.0411960">
    <ele>146.8</ele>
    <time>2020-12-07T22:50:19Z</time>
   </trkpt>
   <trkpt lat="47.3808420" lon="-122.0411550">
    <ele>146.8</ele>
    <time>2020-12-07T22:50:20Z</time>
   </trkpt>
   <trkpt lat="47.3808380" lon="-122.0411130">
    <ele>146.8</ele>
    <time>2020-12-07T22:50:21Z</time>
   </trkpt>
   <trkpt lat="47.3808350" lon="-122.0410650">
    <ele>146.9</ele>
    <time>2020-12-07T22:50:22Z</time>
   </trkpt>
   <trkpt lat="47.3808250" lon="-122.0410160">
    <ele>146.9</ele>
    <time>2020-12-07T22:50:23Z</time>
   </trkpt>
   <trkpt lat="47.3808250" lon="-122.0409660">
    <ele>146.9</ele>
    <time>2020-12-07T22:50:24Z</time>
   </trkpt>
   <trkpt lat="47.3808190" lon="-122.0409190">
    <ele>146.9</ele>
    <time>2020-12-07T22:50:25Z</time>
   </trkpt>
   <trkpt lat="47.3808210" lon="-122.0408600">
    <ele>146.9</ele>
    <time>2020-12-07T22:50:26Z</time>
   </trkpt>
   <trkpt lat="47.3808280" lon="-122.0408040">
    <ele>146.9</ele>
    <time>2020-12-07T22:50:27Z</time>
   </trkpt>
   <trkpt lat="47.3808340" lon="-122.0407500">
    <ele>146.9</ele>
    <time>2020-12-07T22:50:28Z</time>
   </trkpt>
   <trkpt lat="47.3808360" lon="-122.0407020">
    <ele>147.0</ele>
    <time>2020-12-07T22:50:29Z</time>
   </trkpt>
   <trkpt lat="47.3808340" lon="-122.0406530">
    <ele>147.0</ele>
    <time>2020-12-07T22:50:30Z</time>
   </trkpt>
   <trkpt lat="47.3808300" lon="-122.0406010">
    <ele>147.0</ele>
    <time>2020-12-07T22:50:31Z</time>
   </trkpt>
   <trkpt lat="47.3808340" lon="-122.0405330">
    <ele>147.0</ele>
    <time>2020-12-07T22:50:32Z</time>
   </trkpt>
   <trkpt lat="47.3808310" lon="-122.0404770">
    <ele>147.0</ele>
    <time>2020-12-07T22:50:33Z</time>
   </trkpt>
   <trkpt lat="47.3808250" lon="-122.0404210">
    <ele>147.0</ele>
    <time>2020-12-07T22:50:34Z</time>
   </trkpt>
   <trkpt lat="47.3808170" lon="-122.0403630">
    <ele>147.0</ele>
    <time>2020-12-07T22:50:35Z</time>
   </trkpt>
   <trkpt lat="47.3808050" lon="-122.0403040">
    <ele>147.1</ele>
    <time>2020-12-07T22:50:36Z</time>
   </trkpt>
   <trkpt lat="47.3808010" lon="-122.0402770">
    <ele>147.1</ele>
    <time>2020-12-07T22:50:37Z</time>
   </trkpt>
   <trkpt lat="47.3807990" lon="-122.0402280">
    <ele>147.2</ele>
    <time>2020-12-07T22:50:38Z</time>
   </trkpt>
   <trkpt lat="47.3807980" lon="-122.0401760">
    <ele>147.3</ele>
    <time>2020-12-07T22:50:39Z</time>
   </trkpt>
   <trkpt lat="47.3807890" lon="-122.0401320">
    <ele>147.3</ele>
    <time>2020-12-07T22:50:40Z</time>
   </trkpt>
   <trkpt lat="47.3807850" lon="-122.0400760">
    <ele>147.4</ele>
    <time>2020-12-07T22:50:41Z</time>
   </trkpt>
   <trkpt lat="47.3807780" lon="-122.0400200">
    <ele>147.5</ele>
    <time>2020-12-07T22:50:42Z</time>
   </trkpt>
   <trkpt lat="47.3807680" lon="-122.0399680">
    <ele>147.5</ele>
    <time>2020-12-07T22:50:43Z</time>
   </trkpt>
   <trkpt lat="47.3807610" lon="-122.0399170">
    <ele>147.6</ele>
    <time>2020-12-07T22:50:44Z</time>
   </trkpt>
   <trkpt lat="47.3807510" lon="-122.0398730">
    <ele>147.6</ele>
    <time>2020-12-07T22:50:45Z</time>
   </trkpt>
   <trkpt lat="47.3807500" lon="-122.0398280">
    <ele>147.7</ele>
    <time>2020-12-07T22:50:46Z</time>
   </trkpt>
   <trkpt lat="47.3807510" lon="-122.0397770">
    <ele>147.7</ele>
    <time>2020-12-07T22:50:47Z</time>
   </trkpt>
   <trkpt lat="47.3807380" lon="-122.0397220">
    <ele>147.7</ele>
    <time>2020-12-07T22:50:48Z</time>
   </trkpt>
   <trkpt lat="47.3807310" lon="-122.0396660">
    <ele>147.8</ele>
    <time>2020-12-07T22:50:49Z</time>
   </trkpt>
   <trkpt lat="47.3807200" lon="-122.0396160">
    <ele>147.8</ele>
    <time>2020-12-07T22:50:50Z</time>
   </trkpt>
   <trkpt lat="47.3807230" lon="-122.0395580">
    <ele>147.9</ele>
    <time>2020-12-07T22:50:51Z</time>
   </trkpt>
   <trkpt lat="47.3807130" lon="-122.0395130">
    <ele>147.9</ele>
    <time>2020-12-07T22:50:52Z</time>
   </trkpt>
   <trkpt lat="47.3807150" lon="-122.0394470">
    <ele>147.9</ele>
    <time>2020-12-07T22:50:53Z</time>
   </trkpt>
   <trkpt lat="47.3807020" lon="-122.0394020">
    <ele>148.0</ele>
    <time>2020-12-07T22:50:54Z</time>
   </trkpt>
   <trkpt lat="47.3806950" lon="-122.0393510">
    <ele>148.0</ele>
    <time>2020-12-07T22:50:55Z</time>
   </trkpt>
   <trkpt lat="47.3806810" lon="-122.0393080">
    <ele>148.0</ele>
    <time>2020-12-07T22:50:56Z</time>
   </trkpt>
   <trkpt lat="47.3806580" lon="-122.0392540">
    <ele>148.1</ele>
    <time>2020-12-07T22:50:57Z</time>
   </trkpt>
   <trkpt lat="47.3806560" lon="-122.0392050">
    <ele>148.1</ele>
    <time>2020-12-07T22:50:58Z</time>
   </trkpt>
   <trkpt lat="47.3806410" lon="-122.0391570">
    <ele>148.2</ele>
    <time>2020-12-07T22:50:59Z</time>
   </trkpt>
   <trkpt lat="47.3806290" lon="-122.0390890">
    <ele>148.2</ele>
    <time>2020-12-07T22:51:00Z</time>
   </trkpt>
   <trkpt lat="47.3806220" lon="-122.0390380">
    <ele>148.3</ele>
    <time>2020-12-07T22:51:01Z</time>
   </trkpt>
   <trkpt lat="47.3806150" lon="-122.0389730">
    <ele>148.3</ele>
    <time>2020-12-07T22:51:02Z</time>
   </trkpt>
   <trkpt lat="47.3806060" lon="-122.0389350">
    <ele>148.4</ele>
    <time>2020-12-07T22:51:03Z</time>
   </trkpt>
   <trkpt lat="47.3805910" lon="-122.0388880">
    <ele>148.4</ele>
    <time>2020-12-07T22:51:04Z</time>
   </trkpt>
   <trkpt lat="47.3805800" lon="-122.0388370">
    <ele>148.5</ele>
    <time>2020-12-07T22:51:05Z</time>
   </trkpt>
   <trkpt lat="47.3805630" lon="-122.0388030">
    <ele>148.6</ele>
    <time>2020-12-07T22:51:06Z</time>
   </trkpt>
   <trkpt lat="47.3805540" lon="-122.0387530">
    <ele>148.6</ele>
    <time>2020-12-07T22:51:07Z</time>
   </trkpt>
   <trkpt lat="47.3805420" lon="-122.0387160">
    <ele>148.7</ele>
    <time>2020-12-07T22:51:08Z</time>
   </trkpt>
   <trkpt lat="47.3805350" lon="-122.0386630">
    <ele>148.7</ele>
    <time>2020-12-07T22:51:09Z</time>
   </trkpt>
   <trkpt lat="47.3805200" lon="-122.0386100">
    <ele>148.8</ele>
    <time>2020-12-07T22:51:10Z</time>
   </trkpt>
   <trkpt lat="47.3805050" lon="-122.0385670">
    <ele>148.9</ele>
    <time>2020-12-07T22:51:11Z</time>
   </trkpt>
   <trkpt lat="47.3804950" lon="-122.0385130">
    <ele>148.9</ele>
    <time>2020-12-07T22:51:12Z</time>
   </trkpt>
   <trkpt lat="47.3804790" lon="-122.0384740">
    <ele>149.0</ele>
    <time>2020-12-07T22:51:13Z</time>
   </trkpt>
   <trkpt lat="47.3804700" lon="-122.0384440">
    <ele>149.1</ele>
    <time>2020-12-07T22:51:14Z</time>
   </trkpt>
  </trkseg>
 </trk>
</gpx>
