<?xml version="1.0" encoding="UTF-8"?>
<gpx creator="StravaGPX" version="1.1" xmlns="http://www.topografix.com/GPX/1/1" xmlns:xsi="http://www.w3.org/2001/XMLSchema-instance" xsi:schemaLocation="http://www.topografix.com/GPX/1/1 http://www.topografix.com/GPX/1/1/gpx.xsd">
 <metadata>
  <time>2021-01-28T23:43:46Z</time>
 </metadata>
 <trk>
  <name>Didnt push resume after stoplight 😞</name>
  <type>running</type>
  <trkseg>
   <trkpt lat="47.3812060" lon="-122.0421650">
    <ele>146.1</ele>
    <time>2021-01-28T23:43:46Z</time>
   </trkpt>
   <trkpt lat="47.3811810" lon="-122.0421350">
    <ele>146.2</ele>
    <time>2021-01-28T23:43:47Z</time>
   </trkpt>
   <trkpt lat="47.3811580" lon="-122.0421080">
    <ele>146.2</ele>
    <time>2021-01-28T23:43:48Z</time>
   </trkpt>
   <trkpt lat="47.3811270" lon="-122.0420760">
    <ele>146.2</ele>
    <time>2021-01-28T23:43:49Z</time>
   </trkpt>
   <trkpt lat="47.3811130" lon="-122.0420300">
    <ele>146.3</ele>
    <time>2021-01-28T23:43:50Z</time>
   </trkpt>
   <trkpt lat="47.3811010" lon="-122.0420130">
    <ele>146.3</ele>
    <time>2021-01-28T23:43:51Z</time>
   </trkpt>
   <trkpt lat="47.3810640" lon="-122.0419840">
    <ele>146.3</ele>
    <time>2021-01-28T23:43:52Z</time>
   </trkpt>
   <trkpt lat="47.3810430" lon="-122.0419430">
    <ele>146.3</ele>
    <time>2021-01-28T23:43:53Z</time>
   </trkpt>
   <trkpt lat="47.3810160" lon="-122.0418720">
    <ele>146.4</ele>
    <time>2021-01-28T23:43:54Z</time>
   </trkpt>
   <trkpt lat="47.3809810" lon="-122.0417780">
    <ele>146.4</ele>
    <time>2021-01-28T23:43:55Z</time>
   </trkpt>
   <trkpt lat="47.3809700" lon="-122.0417320">
    <ele>146.5</ele>
    <time>2021-01-28T23:43:56Z</time>
   </trkpt>
   <trkpt lat="47.3809640" lon="-122.0416790">
    <ele>146.5</ele>
    <time>2021-01-28T23:43:57Z</time>
   </trkpt>
   <trkpt lat="47.3809440" lon="-122.0416280">
    <ele>146.5</ele>
    <time>2021-01-28T23:43:58Z</time>
   </trkpt>
   <trkpt lat="47.3809380" lon="-122.0415780">
    <ele>146.6</ele>
    <time>2021-01-28T23:43:59Z</time>
   </trkpt>
   <trkpt lat="47.3809200" lon="-122.0415240">
    <ele>146.6</ele>
    <time>2021-01-28T23:44:00Z</time>
   </trkpt>
   <trkpt lat="47.3809060" lon="-122.0414510">
    <ele>146.7</ele>
    <time>2021-01-28T23:44:01Z</time>
   </trkpt>
   <trkpt lat="47.3809030" lon="-122.0413920">
    <ele>146.7</ele>
    <time>2021-01-28T23:44:02Z</time>
   </trkpt>
   <trkpt lat="47.3808880" lon="-122.0413370">
    <ele>146.7</ele>
    <time>2021-01-28T23:44:03Z</time>
   </trkpt>
   <trkpt lat="47.3808850" lon="-122.0412900">
    <ele>146.8</ele>
    <time>2021-01-28T23:44:04Z</time>
   </trkpt>
   <trkpt lat="47.3808840" lon="-122.0412420">
    <ele>146.8</ele>
    <time>2021-01-28T23:44:05Z</time>
   </trkpt>
   <trkpt lat="47.3808810" lon="-122.0411800">
    <ele>146.8</ele>
    <time>2021-01-28T23:44:06Z</time>
   </trkpt>
   <trkpt lat="47.3808660" lon="-122.0411090">
    <ele>146.9</ele>
    <time>2021-01-28T23:44:07Z</time>
   </trkpt>
   <trkpt lat="47.3808660" lon="-122.0410340">
    <ele>146.9</ele>
    <time>2021-01-28T23:44:08Z</time>
   </trkpt>
   <trkpt lat="47.3808760" lon="-122.0409870">
    <ele>146.9</ele>
    <time>2021-01-28T23:44:09Z</time>
   </trkpt>
   <trkpt lat="47.3808730" lon="-122.0409290">
    <ele>146.9</ele>
    <time>2021-01-28T23:44:10Z</time>
   </trkpt>
   <trkpt lat="47.3808740" lon="-122.0408720">
    <ele>146.9</ele>
    <time>2021-01-28T23:44:11Z</time>
   </trkpt>
   <trkpt lat="47.3808580" lon="-122.0408140">
    <ele>146.9</ele>
    <time>2021-01-28T23:44:12Z</time>
   </trkpt>
   <trkpt lat="47.3808550" lon="-122.0407570">
    <ele>146.9</ele>
    <time>2021-01-28T23:44:13Z</time>
   </trkpt>
   <trkpt lat="47.3808540" lon="-122.0406990">
    <ele>147.0</ele>
    <time>2021-01-28T23:44:14Z</time>
   </trkpt>
   <trkpt lat="47.3808550" lon="-122.0406710">
    <ele>147.0</ele>
    <time>2021-01-28T23:44:15Z</time>
   </trkpt>
   <trkpt lat="47.3808550" lon="-122.0406160">
    <ele>147.0</ele>
    <time>2021-01-28T23:44:16Z</time>
   </trkpt>
   <trkpt lat="47.3808550" lon="-122.0405480">
    <ele>147.0</ele>
    <time>2021-01-28T23:44:17Z</time>
   </trkpt>
   <trkpt lat="47.3808520" lon="-122.0404920">
    <ele>147.0</ele>
    <time>2021-01-28T23:44:18Z</time>
   </trkpt>
   <trkpt lat="47.3808440" lon="-122.0404370">
    <ele>147.0</ele>
    <time>2021-01-28T23:44:19Z</time>
   </trkpt>
   <trkpt lat="47.3808390" lon="-122.0403760">
    <ele>147.0</ele>
    <time>2021-01-28T23:44:20Z</time>
   </trkpt>
   <trkpt lat="47.3808320" lon="-122.0403120">
    <ele>147.1</ele>
    <time>2021-01-28T23:44:21Z</time>
   </trkpt>
   <trkpt lat="47.3808370" lon="-122.0402600">
    <ele>147.1</ele>
    <time>2021-01-28T23:44:22Z</time>
   </trkpt>
   <trkpt lat="47.3808320" lon="-122.0402190">
    <ele>147.2</ele>
    <time>2021-01-28T23:44:23Z</time>
   </trkpt>
   <trkpt lat="47.3808220" lon="-122.0401720">
    <ele>147.3</ele>
    <time>2021-01-28T23:44:24Z</time>
   </trkpt>
   <trkpt lat="47.3808100" lon="-122.0400970">
    <ele>147.4</ele>
    <time>2021-01-28T23:44:25Z</time>
   </trkpt>
   <trkpt lat="47.3807860" lon="-122.0400390">
    <ele>147.4</ele>
    <time>2021-01-28T23:44:26Z</time>
   </trkpt>
   <trkpt lat="47.3807830" lon="-122.0399730">
    <ele>147.5</ele>
    <time>2021-01-28T23:44:27Z</time>
   </trkpt>
   <trkpt lat="47.3807780" lon="-122.0399170">
    <ele>147.6</ele>
    <time>2021-01-28T23:44:28Z</time>
   </trkpt>
   <trkpt lat="47.3807710" lon="-122.0398500">
    <ele>147.6</ele>
    <time>2021-01-28T23:44:29Z</time>
   </trkpt>
   <trkpt lat="47.3807720" lon="-122.0397900">
    <ele>147.7</ele>
    <time>2021-01-28T23:44:30Z</time>
   </trkpt>
   <trkpt lat="47.3807540" lon="-122.0397170">
    <ele>147.8</ele>
    <time>2021-01-28T23:44:31Z</time>
   </trkpt>
   <trkpt lat="47.3807380" lon="-122.0396370">
    <ele>147.8</ele>
    <time>2021-01-28T23:44:32Z</time>
   </trkpt>
   <trkpt lat="47.3807280" lon="-122.0395930">
    <ele>147.8</ele>
    <time>2021-01-28T23:44:33Z</time>
   </trkpt>
   <trkpt lat="47.3807290" lon="-122.0395430">
    <ele>147.9</ele>
    <time>2021-01-28T23:44:34Z</time>
   </trkpt>
   <trkpt lat="47.3807230" lon="-122.0394790">
    <ele>147.9</ele>
    <time>2021-01-28T23:44:35Z</time>
   </trkpt>
   <trkpt lat="47.3807190" lon="-122.0394470">
    <ele>147.9</ele>
    <time>2021-01-28T23:44:36Z</time>
   </trkpt>
   <trkpt lat="47.3807030" lon="-122.0393930">
    <ele>148.0</ele>
    <time>2021-01-28T23:44:37Z</time>
   </trkpt>
   <trkpt lat="47.3806940" lon="-122.0393240">
    <ele>148.0</ele>
    <time>2021-01-28T23:44:38Z</time>
   </trkpt>
   <trkpt lat="47.3806790" lon="-122.0392780">
    <ele>148.1</ele>
    <time>2021-01-28T23:44:39Z</time>
   </trkpt>
   <trkpt lat="47.3806590" lon="-122.0392220">
    <ele>148.1</ele>
    <time>2021-01-28T23:44:40Z</time>
   </trkpt>
   <trkpt lat="47.3806530" lon="-122.0391610">
    <ele>148.2</ele>
    <time>2021-01-28T23:44:41Z</time>
   </trkpt>
   <trkpt lat="47.3806380" lon="-122.0390900">
    <ele>148.2</ele>
    <time>2021-01-28T23:44:42Z</time>
   </trkpt>
   <trkpt lat="47.3806290" lon="-122.0390310">
    <ele>148.3</ele>
    <time>2021-01-28T23:44:43Z</time>
   </trkpt>
   <trkpt lat="47.3806040" lon="-122.0389800">
    <ele>148.3</ele>
    <time>2021-01-28T23:44:44Z</time>
   </trkpt>
   <trkpt lat="47.3805960" lon="-122.0389200">
    <ele>148.4</ele>
    <time>2021-01-28T23:44:45Z</time>
   </trkpt>
   <trkpt lat="47.3805760" lon="-122.0388580">
    <ele>148.5</ele>
    <time>2021-01-28T23:44:46Z</time>
   </trkpt>
   <trkpt lat="47.3805470" lon="-122.0388050">
    <ele>148.6</ele>
    <time>2021-01-28T23:44:47Z</time>
   </trkpt>
   <trkpt lat="47.3805360" lon="-122.0387460">
    <ele>148.6</ele>
    <time>2021-01-28T23:44:48Z</time>
   </trkpt>
   <trkpt lat="47.3805130" lon="-122.0386760">
    <ele>148.7</ele>
    <time>2021-01-28T23:44:49Z</time>
   </trkpt>
   <trkpt lat="47.3805030" lon="-122.0386090">
    <ele>148.8</ele>
    <time>2021-01-28T23:44:50Z</time>
   </trkpt>
   <trkpt lat="47.3804880" lon="-122.0385330">
    <ele>148.9</ele>
    <time>2021-01-28T23:44:51Z</time>
   </trkpt>
   <trkpt lat="47.3804760" lon="-122.0384820">
    <ele>149.0</ele>
    <time>2021-01-28T23:44:52Z</time>
   </trkpt>
   <trkpt lat="47.3804630" lon="-122.0384290">
    <ele>149.1</ele>
    <time>2021-01-28T23:44:53Z</time>
   </trkpt>
   <trkpt lat="47.3804470" lon="-122.0383710">
    <ele>149.2</ele>
    <time>2021-01-28T23:44:54Z</time>
   </trkpt>
   <trkpt lat="47.3804330" lon="-122.0383180">
    <ele>149.2</ele>
    <time>2021-01-28T23:44:55Z</time>
   </trkpt>
   <trkpt lat="47.3804170" lon="-122.0382620">
    <ele>149.3</ele>
    <time>2021-01-28T23:44:56Z</time>
   </trkpt>
   <trkpt lat="47.3804100" lon="-122.0382150">
    <ele>149.4</ele>
    <time>2021-01-28T23:44:57Z</time>
   </trkpt>
   <trkpt lat="47.3803790" lon="-122.0381680">
    <ele>149.5</ele>
    <time>2021-01-28T23:44:58Z</time>
   </trkpt>
   <trkpt lat="47.3803710" lon="-122.0381070">
    <ele>149.6</ele>
    <time>2021-01-28T23:44:59Z</time>
   </trkpt>
   <trkpt lat="47.3803380" lon="-122.0380670">
    <ele>149.6</ele>
    <time>2021-01-28T23:45:00Z</time>
   </trkpt>
   <trkpt lat="47.3803190" lon="-122.0380040">
    <ele>149.7</ele>
    <time>2021-01-28T23:45:01Z</time>
   </trkpt>
   <trkpt lat="47.3803010" lon="-122.0379610">
    <ele>149.8</ele>
    <time>2021-01-28T23:45:02Z</time>
   </trkpt>
   <trkpt lat="47.3802680" lon="-122.0379190">
    <ele>149.9</ele>
    <time>2021-01-28T23:45:03Z</time>
   </trkpt>
   <trkpt lat="47.3802450" lon="-122.0378820">
    <ele>149.9</ele>
    <time>2021-01-28T23:45:04Z</time>
   </trkpt>
   <trkpt lat="47.3802240" lon="-122.0378310">
    <ele>150.0</ele>
    <time>2021-01-28T23:45:05Z</time>
   </trkpt>
   <trkpt lat="47.3802020" lon="-122.0377780">
    <ele>150.0</ele>
    <time>2021-01-28T23:45:06Z</time>
   </trkpt>
   <trkpt lat="47.3801780" lon="-122.0377300">
    <ele>150.1</ele>
    <time>2021-01-28T23:45:07Z</time>
   </trkpt>
   <trkpt lat="47.3801660" lon="-122.0376730">
    <ele>150.2</ele>
    <time>2021-01-28T23:45:08Z</time>
   </trkpt>
   <trkpt lat="47.3801460" lon="-122.0376290">
    <ele>150.2</ele>
    <time>2021-01-28T23:45:09Z</time>
   </trkpt>
   <trkpt lat="47.3801220" lon="-122.0375850">
    <ele>150.3</ele>
    <time>2021-01-28T23:45:10Z</time>
   </trkpt>
   <trkpt lat="47.3800940" lon="-122.0375420">
    <ele>150.3</ele>
    <time>2021-01-28T23:45:11Z</time>
   </trkpt>
   <trkpt lat="47.3800680" lon="-122.0375030">
    <ele>150.4</ele>
    <time>2021-01-28T23:45:12Z</time>
   </trkpt>
   <trkpt lat="47.3800630" lon="-122.0374430">
    <ele>150.4</ele>
    <time>2021-01-28T23:45:13Z</time>
   </trkpt>
   <trkpt lat="47.3800300" lon="-122.0374000">
    <ele>150.5</ele>
    <time>2021-01-28T23:45:14Z</time>
   </trkpt>
   <trkpt lat="47.3800090" lon="-122.0373540">
    <ele>150.6</ele>
    <time>2021-01-28T23:45:15Z</time>
   </trkpt>
   <trkpt lat="47.3799910" lon="-122.0373030">
    <ele>150.6</ele>
    <time>2021-01-28T23:45:16Z</time>
   </trkpt>
   <trkpt lat="47.3799640" lon="-122.0372680">
    <ele>150.7</ele>
    <time>2021-01-28T23:45:17Z</time>
   </trkpt>
   <trkpt lat="47.3799520" lon="-122.0372160">
    <ele>150.7</ele>
    <time>2021-01-28T23:45:18Z</time>
   </trkpt>
   <trkpt lat="47.3799190" lon="-122.0371830">
    <ele>150.8</ele>
    <time>2021-01-28T23:45:19Z</time>
   </trkpt>
   <trkpt lat="47.3799000" lon="-122.0371210">
    <ele>150.8</ele>
    <time>2021-01-28T23:45:20Z</time>
   </trkpt>
   <trkpt lat="47.3798780" lon="-122.0370960">
    <ele>150.9</ele>
    <time>2021-01-28T23:45:21Z</time>
   </trkpt>
   <trkpt lat="47.3798640" lon="-122.0370420">
    <ele>150.9</ele>
    <time>2021-01-28T23:45:22Z</time>
   </trkpt>
   <trkpt lat="47.3798570" lon="-122.0369980">
    <ele>151.0</ele>
    <time>2021-01-28T23:45:23Z</time>
   </trkpt>
   <trkpt lat="47.3798330" lon="-122.0369660">
    <ele>151.0</ele>
    <time>2021-01-28T23:45:24Z</time>
   </trkpt>
   <trkpt lat="47.3798200" lon="-122.0369220">
    <ele>151.1</ele>
    <time>2021-01-28T23:45:25Z</time>
   </trkpt>
   <trkpt lat="47.3798040" lon="-122.0368750">
    <ele>151.1</ele>
    <time>2021-01-28T23:45:26Z</time>
   </trkpt>
   <trkpt lat="47.3797820" lon="-122.0368250">
    <ele>151.1</ele>
    <time>2021-01-28T23:45:27Z</time>
   </trkpt>
   <trkpt lat="47.3797490" lon="-122.0367940">
    <ele>151.2</ele>
    <time>2021-01-28T23:45:28Z</time>
   </trkpt>
   <trkpt lat="47.3797140" lon="-122.0367700">
    <ele>151.2</ele>
    <time>2021-01-28T23:45:29Z</time>
   </trkpt>
   <trkpt lat="47.3796930" lon="-122.0367280">
    <ele>151.3</ele>
    <time>2021-01-28T23:45:30Z</time>
   </trkpt>
   <trkpt lat="47.3796550" lon="-122.0367000">
    <ele>151.3</ele>
    <time>2021-01-28T23:45:31Z</time>
   </trkpt>
   <trkpt lat="47.3796320" lon="-122.0366650">
    <ele>151.3</ele>
    <time>2021-01-28T23:45:32Z</time>
   </trkpt>
   <trkpt lat="47.3796070" lon="-122.0366380">
    <ele>151.4</ele>
    <time>2021-01-28T23:45:33Z</time>
   </trkpt>
   <trkpt lat="47.3795780" lon="-122.0365970">
    <ele>151.4</ele>
    <time>2021-01-28T23:45:34Z</time>
   </trkpt>
   <trkpt lat="47.3795490" lon="-122.0365700">
    <ele>151.4</ele>
    <time>2021-01-28T23:45:35Z</time>
   </trkpt>
   <trkpt lat="47.3795250" lon="-122.0365320">
    <ele>151.5</ele>
    <time>2021-01-28T23:45:36Z</time>
   </trkpt>
   <trkpt lat="47.3794970" lon="-122.0365020">
    <ele>151.5</ele>
    <time>2021-01-28T23:45:37Z</time>
   </trkpt>
   <trkpt lat="47.3794720" lon="-122.0364700">
    <ele>151.6</ele>
    <time>2021-01-28T23:45:38Z</time>
   </trkpt>
   <trkpt lat="47.3794440" lon="-122.0364420">
    <ele>151.6</ele>
    <time>2021-01-28T23:45:39Z</time>
   </trkpt>
   <trkpt lat="47.3794210" lon="-122.0363990">
    <ele>151.7</ele>
    <time>2021-01-28T23:45:40Z</time>
   </trkpt>
   <trkpt lat="47.3793810" lon="-122.0363720">
    <ele>151.7</ele>
    <time>2021-01-28T23:45:41Z</time>
   </trkpt>
   <trkpt lat="47.3793590" lon="-122.0363190">
    <ele>151.8</ele>
    <time>2021-01-28T23:45:42Z</time>
   </trkpt>
   <trkpt lat="47.3793270" lon="-122.0363000">
    <ele>151.9</ele>
    <time>2021-01-28T23:45:43Z</time>
   </trkpt>
   <trkpt lat="47.3793030" lon="-122.0362710">
    <ele>151.9</ele>
    <time>2021-01-28T23:45:44Z</time>
   </trkpt>
   <trkpt lat="47.3792700" lon="-122.0362530">
    <ele>152.0</ele>
    <time>2021-01-28T23:45:45Z</time>
   </trkpt>
   <trkpt lat="47.3792320" lon="-122.0362040">
    <ele>152.0</ele>
    <time>2021-01-28T23:45:46Z</time>
   </trkpt>
   <trkpt lat="47.3792060" lon="-122.0361760">
    <ele>152.1</ele>
    <time>2021-01-28T23:45:47Z</time>
   </trkpt>
   <trkpt lat="47.3791770" lon="-122.0361340">
    <ele>152.1</ele>
    <time>2021-01-28T23:45:48Z</time>
   </trkpt>
   <trkpt lat="47.3791400" lon="-122.0360960">
    <ele>152.2</ele>
    <time>2021-01-28T23:45:49Z</time>
   </trkpt>
   <trkpt lat="47.3791100" lon="-122.0360580">
    <ele>152.3</ele>
    <time>2021-01-28T23:45:50Z</time>
   </trkpt>
   <trkpt lat="47.3790870" lon="-122.0360120">
    <ele>152.3</ele>
    <time>2021-01-28T23:45:51Z</time>
   </trkpt>
   <trkpt lat="47.3790630" lon="-122.0359760">
    <ele>152.4</ele>
    <time>2021-01-28T23:45:52Z</time>
   </trkpt>
   <trkpt lat="47.3790310" lon="-122.0359420">
    <ele>152.5</ele>
    <time>2021-01-28T23:45:53Z</time>
   </trkpt>
   <trkpt lat="47.3790160" lon="-122.0358970">
    <ele>152.5</ele>
    <time>2021-01-28T23:45:54Z</time>
   </trkpt>
   <trkpt lat="47.3789830" lon="-122.0358640">
    <ele>152.6</ele>
    <time>2021-01-28T23:45:55Z</time>
   </trkpt>
   <trkpt lat="47.3789610" lon="-122.0358260">
    <ele>152.6</ele>
    <time>2021-01-28T23:45:56Z</time>
   </trkpt>
   <trkpt lat="47.3789310" lon="-122.0358080">
    <ele>152.7</ele>
    <time>2021-01-28T23:45:57Z</time>
   </trkpt>
   <trkpt lat="47.3789010" lon="-122.0357770">
    <ele>152.7</ele>
    <time>2021-01-28T23:45:58Z</time>
   </trkpt>
   <trkpt lat="47.3788690" lon="-122.0357500">
    <ele>152.8</ele>
    <time>2021-01-28T23:45:59Z</time>
   </trkpt>
   <trkpt lat="47.3788320" lon="-122.0357170">
    <ele>152.9</ele>
    <time>2021-01-28T23:46:00Z</time>
   </trkpt>
   <trkpt lat="47.3788180" lon="-122.0356800">
    <ele>152.9</ele>
    <time>2021-01-28T23:46:01Z</time>
   </trkpt>
   <trkpt lat="47.3787840" lon="-122.0356580">
    <ele>153.0</ele>
    <time>2021-01-28T23:46:02Z</time>
   </trkpt>
   <trkpt lat="47.3787570" lon="-122.0356180">
    <ele>153.0</ele>
    <time>2021-01-28T23:46:03Z</time>
   </trkpt>
   <trkpt lat="47.3787260" lon="-122.0355970">
    <ele>153.1</ele>
    <time>2021-01-28T23:46:04Z</time>
   </trkpt>
   <trkpt lat="47.3786890" lon="-122.0355730">
    <ele>153.1</ele>
    <time>2021-01-28T23:46:05Z</time>
   </trkpt>
   <trkpt lat="47.3786640" lon="-122.0355430">
    <ele>153.2</ele>
    <time>2021-01-28T23:46:06Z</time>
   </trkpt>
   <trkpt lat="47.3786340" lon="-122.0355230">
    <ele>153.2</ele>
    <time>2021-01-28T23:46:07Z</time>
   </trkpt>
   <trkpt lat="47.3786060" lon="-122.0354960">
    <ele>153.2</ele>
    <time>2021-01-28T23:46:08Z</time>
   </trkpt>
   <trkpt lat="47.3785810" lon="-122.0354750">
    <ele>153.3</ele>
    <time>2021-01-28T23:46:09Z</time>
   </trkpt>
   <trkpt lat="47.3785560" lon="-122.0354410">
    <ele>153.3</ele>
    <time>2021-01-28T23:46:10Z</time>
   </trkpt>
   <trkpt lat="47.3785240" lon="-122.0354250">
    <ele>153.4</ele>
    <time>2021-01-28T23:46:11Z</time>
   </trkpt>
   <trkpt lat="47.3784970" lon="-122.0354080">
    <ele>153.4</ele>
    <time>2021-01-28T23:46:12Z</time>
   </trkpt>
   <trkpt lat="47.3784720" lon="-122.0353720">
    <ele>153.4</ele>
    <time>2021-01-28T23:46:13Z</time>
   </trkpt>
   <trkpt lat="47.3784420" lon="-122.0353440">
    <ele>153.5</ele>
    <time>2021-01-28T23:46:14Z</time>
   </trkpt>
   <trkpt lat="47.3784100" lon="-122.0353210">
    <ele>153.5</ele>
    <time>2021-01-28T23:46:15Z</time>
   </trkpt>
   <trkpt lat="47.3783910" lon="-122.0352840">
    <ele>153.5</ele>
    <time>2021-01-28T23:46:16Z</time>
   </trkpt>
   <trkpt lat="47.3783600" lon="-122.0352540">
    <ele>153.5</ele>
    <time>2021-01-28T23:46:17Z</time>
   </trkpt>
   <trkpt lat="47.3783310" lon="-122.0352200">
    <ele>153.6</ele>
    <time>2021-01-28T23:46:18Z</time>
   </trkpt>
   <trkpt lat="47.3783200" lon="-122.0352050">
    <ele>153.6</ele>
    <time>2021-01-28T23:46:19Z</time>
   </trkpt>
   <trkpt lat="47.3782770" lon="-122.0351920">
    <ele>153.6</ele>
    <time>2021-01-28T23:46:20Z</time>
   </trkpt>
   <trkpt lat="47.3782570" lon="-122.0351590">
    <ele>153.6</ele>
    <time>2021-01-28T23:46:21Z</time>
   </trkpt>
   <trkpt lat="47.3782250" lon="-122.0351420">
    <ele>153.7</ele>
    <time>2021-01-28T23:46:22Z</time>
   </trkpt>
   <trkpt lat="47.3781970" lon="-122.0351190">
    <ele>153.7</ele>
    <time>2021-01-28T23:46:23Z</time>
   </trkpt>
   <trkpt lat="47.3781740" lon="-122.0350850">
    <ele>153.7</ele>
    <time>2021-01-28T23:46:24Z</time>
   </trkpt>
   <trkpt lat="47.3781390" lon="-122.0350650">
    <ele>153.7</ele>
    <time>2021-01-28T23:46:25Z</time>
   </trkpt>
   <trkpt lat="47.3781130" lon="-122.0350260">
    <ele>153.8</ele>
    <time>2021-01-28T23:46:26Z</time>
   </trkpt>
   <trkpt lat="47.3780740" lon="-122.0350150">
    <ele>153.8</ele>
    <time>2021-01-28T23:46:27Z</time>
   </trkpt>
   <trkpt lat="47.3780440" lon="-122.0349680">
    <ele>153.9</ele>
    <time>2021-01-28T23:46:28Z</time>
   </trkpt>
   <trkpt lat="47.3780220" lon="-122.0349450">
    <ele>153.9</ele>
    <time>2021-01-28T23:46:29Z</time>
   </trkpt>
   <trkpt lat="47.3779950" lon="-122.0349210">
    <ele>153.9</ele>
    <time>2021-01-28T23:46:30Z</time>
   </trkpt>
   <trkpt lat="47.3779650" lon="-122.0349010">
    <ele>154.0</ele>
    <time>2021-01-28T23:46:31Z</time>
   </trkpt>
   <trkpt lat="47.3779350" lon="-122.0348840">
    <ele>154.0</ele>
    <time>2021-01-28T23:46:32Z</time>
   </trkpt>
   <trkpt lat="47.3779040" lon="-122.0348600">
    <ele>154.1</ele>
    <time>2021-01-28T23:46:33Z</time>
   </trkpt>
   <trkpt lat="47.3778790" lon="-122.0348450">
    <ele>154.1</ele>
    <time>2021-01-28T23:46:34Z</time>
   </trkpt>
   <trkpt lat="47.3778450" lon="-122.0348340">
    <ele>154.2</ele>
    <time>2021-01-28T23:46:35Z</time>
   </trkpt>
   <trkpt lat="47.3778150" lon="-122.0348230">
    <ele>154.2</ele>
    <time>2021-01-28T23:46:36Z</time>
   </trkpt>
   <trkpt lat="47.3777930" lon="-122.0347970">
    <ele>154.3</ele>
    <time>2021-01-28T23:46:37Z</time>
   </trkpt>
   <trkpt lat="47.3777620" lon="-122.0347770">
    <ele>154.3</ele>
    <time>2021-01-28T23:46:38Z</time>
   </trkpt>
   <trkpt lat="47.3777360" lon="-122.0347400">
    <ele>154.4</ele>
    <time>2021-01-28T23:46:39Z</time>
   </trkpt>
   <trkpt lat="47.3776930" lon="-122.0347350">
    <ele>154.5</ele>
    <time>2021-01-28T23:46:40Z</time>
   </trkpt>
   <trkpt lat="47.3776650" lon="-122.0346900">
    <ele>154.5</ele>
    <time>2021-01-28T23:46:41Z</time>
   </trkpt>
   <trkpt lat="47.3776360" lon="-122.0346650">
    <ele>154.6</ele>
    <time>2021-01-28T23:46:42Z</time>
   </trkpt>
   <trkpt lat="47.3776070" lon="-122.0346510">
    <ele>154.7</ele>
    <time>2021-01-28T23:46:43Z</time>
   </trkpt>
   <trkpt lat="47.3775730" lon="-122.0346020">
    <ele>154.7</ele>
    <time>2021-01-28T23:46:44Z</time>
   </trkpt>
   <trkpt lat="47.3775600" lon="-122.0345760">
    <ele>154.8</ele>
    <time>2021-01-28T23:46:45Z</time>
   </trkpt>
   <trkpt lat="47.3775400" lon="-122.0345330">
    <ele>154.8</ele>
    <time>2021-01-28T23:46:46Z</time>
   </trkpt>
   <trkpt lat="47.3775150" lon="-122.0345030">
    <ele>154.9</ele>
    <time>2021-01-28T23:46:47Z</time>
   </trkpt>
   <trkpt lat="47.3774870" lon="-122.0344710">
    <ele>154.9</ele>
    <time>2021-01-28T23:46:48Z</time>
   </trkpt>
   <trkpt lat="47.3774620" lon="-122.0344420">
    <ele>155.0</ele>
    <time>2021-01-28T23:46:49Z</time>
   </trkpt>
   <trkpt lat="47.3774230" lon="-122.0344250">
    <ele>155.0</ele>
    <time>2021-01-28T23:46:50Z</time>
   </trkpt>
   <trkpt lat="47.3773980" lon="-122.0343810">
    <ele>155.1</ele>
    <time>2021-01-28T23:46:51Z</time>
   </trkpt>
   <trkpt lat="47.3773660" lon="-122.0343650">
    <ele>155.1</ele>
    <time>2021-01-28T23:46:52Z</time>
   </trkpt>
   <trkpt lat="47.3773430" lon="-122.0343120">
    <ele>155.2</ele>
    <time>2021-01-28T23:46:53Z</time>
   </trkpt>
   <trkpt lat="47.3773100" lon="-122.0342720">
    <ele>155.2</ele>
    <time>2021-01-28T23:46:54Z</time>
   </trkpt>
   <trkpt lat="47.3772990" lon="-122.0342500">
    <ele>155.3</ele>
    <time>2021-01-28T23:46:55Z</time>
   </trkpt>
   <trkpt lat="47.3772790" lon="-122.0342150">
    <ele>155.3</ele>
    <time>2021-01-28T23:46:56Z</time>
   </trkpt>
   <trkpt lat="47.3772590" lon="-122.0341830">
    <ele>155.3</ele>
    <time>2021-01-28T23:46:57Z</time>
   </trkpt>
   <trkpt lat="47.3772400" lon="-122.0341400">
    <ele>155.4</ele>
    <time>2021-01-28T23:46:58Z</time>
   </trkpt>
   <trkpt lat="47.3772250" lon="-122.0341040">
    <ele>155.4</ele>
    <time>2021-01-28T23:46:59Z</time>
   </trkpt>
   <trkpt lat="47.3772000" lon="-122.0340700">
    <ele>155.4</ele>
    <time>2021-01-28T23:47:00Z</time>
   </trkpt>
   <trkpt lat="47.3771790" lon="-122.0340400">
    <ele>155.5</ele>
    <time>2021-01-28T23:47:01Z</time>
   </trkpt>
   <trkpt lat="47.3771600" lon="-122.0340100">
    <ele>155.5</ele>
    <time>2021-01-28T23:47:02Z</time>
   </trkpt>
   <trkpt lat="47.3771380" lon="-122.0339830">
    <ele>155.5</ele>
    <time>2021-01-28T23:47:03Z</time>
   </trkpt>
   <trkpt lat="47.3771070" lon="-122.0339410">
    <ele>155.6</ele>
    <time>2021-01-28T23:47:04Z</time>
   </trkpt>
   <trkpt lat="47.3770930" lon="-122.0339280">
    <ele>155.6</ele>
    <time>2021-01-28T23:47:05Z</time>
   </trkpt>
   <trkpt lat="47.3770610" lon="-122.0339050">
    <ele>155.6</ele>
    <time>2021-01-28T23:47:06Z</time>
   </trkpt>
   <trkpt lat="47.3770410" lon="-122.0338620">
    <ele>155.7</ele>
    <time>2021-01-28T23:47:07Z</time>
   </trkpt>
   <trkpt lat="47.3770070" lon="-122.0338260">
    <ele>155.7</ele>
    <time>2021-01-28T23:47:08Z</time>
   </trkpt>
   <trkpt lat="47.3769830" lon="-122.0337760">
    <ele>155.7</ele>
    <time>2021-01-28T23:47:09Z</time>
   </trkpt>
   <trkpt lat="47.3769470" lon="-122.0337460">
    <ele>155.8</ele>
    <time>2021-01-28T23:47:10Z</time>
   </trkpt>
   <trkpt lat="47.3769350" lon="-122.0336910">
    <ele>155.8</ele>
    <time>2021-01-28T23:47:11Z</time>
   </trkpt>
   <trkpt lat="47.3769120" lon="-122.0336640">
    <ele>155.9</ele>
    <time>2021-01-28T23:47:12Z</time>
   </trkpt>
   <trkpt lat="47.3768900" lon="-122.0336330">
    <ele>155.9</ele>
    <time>2021-01-28T23:47:13Z</time>
   </trkpt>
   <trkpt lat="47.3768630" lon="-122.0335970">
    <ele>155.9</ele>
    <time>2021-01-28T23:47:14Z</time>
   </trkpt>
   <trkpt lat="47.3768330" lon="-122.0335640">
    <ele>156.0</ele>
    <time>2021-01-28T23:47:15Z</time>
   </trkpt>
   <trkpt lat="47.3768040" lon="-122.0335280">
    <ele>156.0</ele>
    <time>2021-01-28T23:47:16Z</time>
   </trkpt>
   <trkpt lat="47.3767790" lon="-122.0334910">
    <ele>156.0</ele>
    <time>2021-01-28T23:47:17Z</time>
   </trkpt>
   <trkpt lat="47.3767480" lon="-122.0334480">
    <ele>156.1</ele>
    <time>2021-01-28T23:47:18Z</time>
   </trkpt>
   <trkpt lat="47.3767160" lon="-122.0334240">
    <ele>156.1</ele>
    <time>2021-01-28T23:47:19Z</time>
   </trkpt>
   <trkpt lat="47.3766860" lon="-122.0333900">
    <ele>156.2</ele>
    <time>2021-01-28T23:47:20Z</time>
   </trkpt>
   <trkpt lat="47.3766540" lon="-122.0333680">
    <ele>156.2</ele>
    <time>2021-01-28T23:47:21Z</time>
   </trkpt>
   <trkpt lat="47.3766310" lon="-122.0333400">
    <ele>156.3</ele>
    <time>2021-01-28T23:47:22Z</time>
   </trkpt>
   <trkpt lat="47.3765990" lon="-122.0333040">
    <ele>156.4</ele>
    <time>2021-01-28T23:47:23Z</time>
   </trkpt>
   <trkpt lat="47.3765730" lon="-122.0332680">
    <ele>156.4</ele>
    <time>2021-01-28T23:47:24Z</time>
   </trkpt>
   <trkpt lat="47.3765470" lon="-122.0332350">
    <ele>156.5</ele>
    <time>2021-01-28T23:47:25Z</time>
   </trkpt>
   <trkpt lat="47.3765280" lon="-122.0332000">
    <ele>156.5</ele>
    <time>2021-01-28T23:47:26Z</time>
   </trkpt>
   <trkpt lat="47.3764970" lon="-122.0331830">
    <ele>156.6</ele>
    <time>2021-01-28T23:47:27Z</time>
   </trkpt>
   <trkpt lat="47.3764680" lon="-122.0331580">
    <ele>156.6</ele>
    <time>2021-01-28T23:47:28Z</time>
   </trkpt>
   <trkpt lat="47.3764310" lon="-122.0331210">
    <ele>156.7</ele>
    <time>2021-01-28T23:47:29Z</time>
   </trkpt>
   <trkpt lat="47.3764160" lon="-122.0331060">
    <ele>156.7</ele>
    <time>2021-01-28T23:47:30Z</time>
   </trkpt>
   <trkpt lat="47.3763890" lon="-122.0330770">
    <ele>156.8</ele>
    <time>2021-01-28T23:47:31Z</time>
   </trkpt>
   <trkpt lat="47.3763710" lon="-122.0330370">
    <ele>156.8</ele>
    <time>2021-01-28T23:47:32Z</time>
   </trkpt>
   <trkpt lat="47.3763480" lon="-122.0330030">
    <ele>156.8</ele>
    <time>2021-01-28T23:47:33Z</time>
   </trkpt>
   <trkpt lat="47.3763270" lon="-122.0329660">
    <ele>156.9</ele>
    <time>2021-01-28T23:47:34Z</time>
   </trkpt>
   <trkpt lat="47.3762920" lon="-122.0329550">
    <ele>156.9</ele>
    <time>2021-01-28T23:47:35Z</time>
   </trkpt>
   <trkpt lat="47.3762650" lon="-122.0329190">
    <ele>156.9</ele>
    <time>2021-01-28T23:47:36Z</time>
   </trkpt>
   <trkpt lat="47.3762360" lon="-122.0329000">
    <ele>157.0</ele>
    <time>2021-01-28T23:47:37Z</time>
   </trkpt>
   <trkpt lat="47.3762070" lon="-122.0328720">
    <ele>157.0</ele>
    <time>2021-01-28T23:47:38Z</time>
   </trkpt>
   <trkpt lat="47.3761840" lon="-122.0328440">
    <ele>157.0</ele>
    <time>2021-01-28T23:47:39Z</time>
   </trkpt>
   <trkpt lat="47.3761500" lon="-122.0328300">
    <ele>157.0</ele>
    <time>2021-01-28T23:47:40Z</time>
   </trkpt>
   <trkpt lat="47.3761190" lon="-122.0327870">
    <ele>157.1</ele>
    <time>2021-01-28T23:47:41Z</time>
   </trkpt>
   <trkpt lat="47.3760840" lon="-122.0327600">
    <ele>157.1</ele>
    <time>2021-01-28T23:47:42Z</time>
   </trkpt>
   <trkpt lat="47.3760670" lon="-122.0327510">
    <ele>157.1</ele>
    <time>2021-01-28T23:47:43Z</time>
   </trkpt>
   <trkpt lat="47.3760340" lon="-122.0327280">
    <ele>157.1</ele>
    <time>2021-01-28T23:47:44Z</time>
   </trkpt>
   <trkpt lat="47.3760030" lon="-122.0327170">
    <ele>157.1</ele>
    <time>2021-01-28T23:47:45Z</time>
   </trkpt>
   <trkpt lat="47.3759700" lon="-122.0326840">
    <ele>157.1</ele>
    <time>2021-01-28T23:47:46Z</time>
   </trkpt>
   <trkpt lat="47.3759400" lon="-122.0326670">
    <ele>157.1</ele>
    <time>2021-01-28T23:47:47Z</time>
   </trkpt>
   <trkpt lat="47.3759090" lon="-122.0326410">
    <ele>157.1</ele>
    <time>2021-01-28T23:47:48Z</time>
   </trkpt>
   <trkpt lat="47.3758790" lon="-122.0326220">
    <ele>157.1</ele>
    <time>2021-01-28T23:47:49Z</time>
   </trkpt>
   <trkpt lat="47.3758480" lon="-122.0326080">
    <ele>157.2</ele>
    <time>2021-01-28T23:47:50Z</time>
   </trkpt>
   <trkpt lat="47.3758170" lon="-122.0325740">
    <ele>157.2</ele>
    <time>2021-01-28T23:47:51Z</time>
   </trkpt>
   <trkpt lat="47.3757830" lon="-122.0325590">
    <ele>157.2</ele>
    <time>2021-01-28T23:47:52Z</time>
   </trkpt>
   <trkpt lat="47.3757530" lon="-122.0325550">
    <ele>157.2</ele>
    <time>2021-01-28T23:47:53Z</time>
   </trkpt>
   <trkpt lat="47.3757230" lon="-122.0325330">
    <ele>157.2</ele>
    <time>2021-01-28T23:47:54Z</time>
   </trkpt>
   <trkpt lat="47.3756900" lon="-122.0325240">
    <ele>157.2</ele>
    <time>2021-01-28T23:47:55Z</time>
   </trkpt>
   <trkpt lat="47.3756630" lon="-122.0325150">
    <ele>157.2</ele>
    <time>2021-01-28T23:47:56Z</time>
   </trkpt>
   <trkpt lat="47.3756220" lon="-122.0325020">
    <ele>157.3</ele>
    <time>2021-01-28T23:47:57Z</time>
   </trkpt>
   <trkpt lat="47.3755930" lon="-122.0324850">
    <ele>157.3</ele>
    <time>2021-01-28T23:47:58Z</time>
   </trkpt>
   <trkpt lat="47.3755550" lon="-122.0324530">
    <ele>157.4</ele>
    <time>2021-01-28T23:47:59Z</time>
   </trkpt>
   <trkpt lat="47.3755210" lon="-122.0324630">
    <ele>157.4</ele>
    <time>2021-01-28T23:48:00Z</time>
   </trkpt>
   <trkpt lat="47.3754890" lon="-122.0324540">
    <ele>157.4</ele>
    <time>2021-01-28T23:48:01Z</time>
   </trkpt>
   <trkpt lat="47.3754570" lon="-122.0324480">
    <ele>157.5</ele>
    <time>2021-01-28T23:48:02Z</time>
   </trkpt>
   <trkpt lat="47.3754280" lon="-122.0324490">
    <ele>157.5</ele>
    <time>2021-01-28T23:48:03Z</time>
   </trkpt>
   <trkpt lat="47.3753900" lon="-122.0324370">
    <ele>157.6</ele>
    <time>2021-01-28T23:48:04Z</time>
   </trkpt>
   <trkpt lat="47.3753590" lon="-122.0324360">
    <ele>157.6</ele>
    <time>2021-01-28T23:48:05Z</time>
   </trkpt>
   <trkpt lat="47.3753290" lon="-122.0324280">
    <ele>157.7</ele>
    <time>2021-01-28T23:48:06Z</time>
   </trkpt>
   <trkpt lat="47.3753020" lon="-122.0324230">
    <ele>157.7</ele>
    <time>2021-01-28T23:48:07Z</time>
   </trkpt>
   <trkpt lat="47.3752750" lon="-122.0324120">
    <ele>157.7</ele>
    <time>2021-01-28T23:48:08Z</time>
   </trkpt>
   <trkpt lat="47.3752430" lon="-122.0324080">
    <ele>157.7</ele>
    <time>2021-01-28T23:48:09Z</time>
   </trkpt>
   <trkpt lat="47.3752140" lon="-122.0323960">
    <ele>157.8</ele>
    <time>2021-01-28T23:48:10Z</time>
   </trkpt>
   <trkpt lat="47.3751840" lon="-122.0323980">
    <ele>157.8</ele>
    <time>2021-01-28T23:48:11Z</time>
   </trkpt>
   <trkpt lat="47.3751550" lon="-122.0323920">
    <ele>157.8</ele>
    <time>2021-01-28T23:48:12Z</time>
   </trkpt>
   <trkpt lat="47.3751270" lon="-122.0323960">
    <ele>157.9</ele>
    <time>2021-01-28T23:48:13Z</time>
   </trkpt>
   <trkpt lat="47.3750960" lon="-122.0323960">
    <ele>157.9</ele>
    <time>2021-01-28T23:48:14Z</time>
   </trkpt>
   <trkpt lat="47.3750590" lon="-122.0323810">
    <ele>158.0</ele>
    <time>2021-01-28T23:48:15Z</time>
   </trkpt>
   <trkpt lat="47.3750450" lon="-122.0323810">
    <ele>158.0</ele>
    <time>2021-01-28T23:48:16Z</time>
   </trkpt>
   <trkpt lat="47.3750130" lon="-122.0323800">
    <ele>158.0</ele>
    <time>2021-01-28T23:48:17Z</time>
   </trkpt>
   <trkpt lat="47.3749830" lon="-122.0323850">
    <ele>158.1</ele>
    <time>2021-01-28T23:48:18Z</time>
   </trkpt>
   <trkpt lat="47.3749460" lon="-122.0323790">
    <ele>158.1</ele>
    <time>2021-01-28T23:48:19Z</time>
   </trkpt>
   <trkpt lat="47.3749080" lon="-122.0323800">
    <ele>158.2</ele>
    <time>2021-01-28T23:48:20Z</time>
   </trkpt>
   <trkpt lat="47.3748940" lon="-122.0323810">
    <ele>158.2</ele>
    <time>2021-01-28T23:48:21Z</time>
   </trkpt>
   <trkpt lat="47.3748580" lon="-122.0323730">
    <ele>158.3</ele>
    <time>2021-01-28T23:48:22Z</time>
   </trkpt>
   <trkpt lat="47.3748300" lon="-122.0323790">
    <ele>158.3</ele>
    <time>2021-01-28T23:48:23Z</time>
   </trkpt>
   <trkpt lat="47.3747920" lon="-122.0323760">
    <ele>158.3</ele>
    <time>2021-01-28T23:48:24Z</time>
   </trkpt>
   <trkpt lat="47.3747600" lon="-122.0323830">
    <ele>158.4</ele>
    <time>2021-01-28T23:48:25Z</time>
   </trkpt>
   <trkpt lat="47.3747260" lon="-122.0323810">
    <ele>158.4</ele>
    <time>2021-01-28T23:48:26Z</time>
   </trkpt>
   <trkpt lat="47.3746890" lon="-122.0323670">
    <ele>158.5</ele>
    <time>2021-01-28T23:48:27Z</time>
   </trkpt>
   <trkpt lat="47.3746530" lon="-122.0323730">
    <ele>158.5</ele>
    <time>2021-01-28T23:48:28Z</time>
   </trkpt>
   <trkpt lat="47.3746180" lon="-122.0323770">
    <ele>158.6</ele>
    <time>2021-01-28T23:48:29Z</time>
   </trkpt>
   <trkpt lat="47.3745890" lon="-122.0323810">
    <ele>158.6</ele>
    <time>2021-01-28T23:48:30Z</time>
   </trkpt>
   <trkpt lat="47.3745510" lon="-122.0323820">
    <ele>158.7</ele>
    <time>2021-01-28T23:48:31Z</time>
   </trkpt>
   <trkpt lat="47.3745100" lon="-122.0323760">
    <ele>158.7</ele>
    <time>2021-01-28T23:48:32Z</time>
   </trkpt>
   <trkpt lat="47.3744770" lon="-122.0323740">
    <ele>158.7</ele>
    <time>2021-01-28T23:48:33Z</time>
   </trkpt>
   <trkpt lat="47.3744410" lon="-122.0323620">
    <ele>158.8</ele>
    <time>2021-01-28T23:48:34Z</time>
   </trkpt>
   <trkpt lat="47.3744030" lon="-122.0323620">
    <ele>158.8</ele>
    <time>2021-01-28T23:48:35Z</time>
   </trkpt>
   <trkpt lat="47.3743640" lon="-122.0323720">
    <ele>158.9</ele>
    <time>2021-01-28T23:48:36Z</time>
   </trkpt>
   <trkpt lat="47.3743270" lon="-122.0323620">
    <ele>158.9</ele>
    <time>2021-01-28T23:48:37Z</time>
   </trkpt>
   <trkpt lat="47.3742970" lon="-122.0323540">
    <ele>159.0</ele>
    <time>2021-01-28T23:48:38Z</time>
   </trkpt>
   <trkpt lat="47.3742590" lon="-122.0323520">
    <ele>159.0</ele>
    <time>2021-01-28T23:48:39Z</time>
   </trkpt>
   <trkpt lat="47.3742320" lon="-122.0323640">
    <ele>159.1</ele>
    <time>2021-01-28T23:48:40Z</time>
   </trkpt>
   <trkpt lat="47.3741980" lon="-122.0323580">
    <ele>159.1</ele>
    <time>2021-01-28T23:48:41Z</time>
   </trkpt>
   <trkpt lat="47.3741660" lon="-122.0323590">
    <ele>159.2</ele>
    <time>2021-01-28T23:48:42Z</time>
   </trkpt>
   <trkpt lat="47.3741370" lon="-122.0323550">
    <ele>159.2</ele>
    <time>2021-01-28T23:48:43Z</time>
   </trkpt>
   <trkpt lat="47.3741030" lon="-122.0323480">
    <ele>159.2</ele>
    <time>2021-01-28T23:48:44Z</time>
   </trkpt>
   <trkpt lat="47.3740750" lon="-122.0323690">
    <ele>159.3</ele>
    <time>2021-01-28T23:48:45Z</time>
   </trkpt>
   <trkpt lat="47.3740490" lon="-122.0323820">
    <ele>159.3</ele>
    <time>2021-01-28T23:48:46Z</time>
   </trkpt>
   <trkpt lat="47.3740060" lon="-122.0323680">
    <ele>159.4</ele>
    <time>2021-01-28T23:48:47Z</time>
   </trkpt>
   <trkpt lat="47.3739780" lon="-122.0323590">
    <ele>159.4</ele>
    <time>2021-01-28T23:48:48Z</time>
   </trkpt>
   <trkpt lat="47.3739400" lon="-122.0323510">
    <ele>159.5</ele>
    <time>2021-01-28T23:48:49Z</time>
   </trkpt>
   <trkpt lat="47.3739090" lon="-122.0323520">
    <ele>159.5</ele>
    <time>2021-01-28T23:48:50Z</time>
   </trkpt>
   <trkpt lat="47.3738820" lon="-122.0323440">
    <ele>159.6</ele>
    <time>2021-01-28T23:48:51Z</time>
   </trkpt>
   <trkpt lat="47.3738400" lon="-122.0323570">
    <ele>159.6</ele>
    <time>2021-01-28T23:48:52Z</time>
   </trkpt>
   <trkpt lat="47.3738240" lon="-122.0323630">
    <ele>159.7</ele>
    <time>2021-01-28T23:48:53Z</time>
   </trkpt>
   <trkpt lat="47.3737840" lon="-122.0323490">
    <ele>159.7</ele>
    <time>2021-01-28T23:48:54Z</time>
   </trkpt>
   <trkpt lat="47.3737490" lon="-122.0323510">
    <ele>159.8</ele>
    <time>2021-01-28T23:48:55Z</time>
   </trkpt>
   <trkpt lat="47.3737170" lon="-122.0323500">
    <ele>159.8</ele>
    <time>2021-01-28T23:48:56Z</time>
   </trkpt>
   <trkpt lat="47.3736830" lon="-122.0323530">
    <ele>159.9</ele>
    <time>2021-01-28T23:48:57Z</time>
   </trkpt>
   <trkpt lat="47.3736480" lon="-122.0323470">
    <ele>160.0</ele>
    <time>2021-01-28T23:48:58Z</time>
   </trkpt>
   <trkpt lat="47.3736030" lon="-122.0323410">
    <ele>160.0</ele>
    <time>2021-01-28T23:48:59Z</time>
   </trkpt>
   <trkpt lat="47.3735590" lon="-122.0323270">
    <ele>160.1</ele>
    <time>2021-01-28T23:49:00Z</time>
   </trkpt>
   <trkpt lat="47.3735410" lon="-122.0323190">
    <ele>160.1</ele>
    <time>2021-01-28T23:49:01Z</time>
   </trkpt>
   <trkpt lat="47.3735060" lon="-122.0323230">
    <ele>160.1</ele>
    <time>2021-01-28T23:49:02Z</time>
   </trkpt>
   <trkpt lat="47.3734780" lon="-122.0323250">
    <ele>160.2</ele>
    <time>2021-01-28T23:49:03Z</time>
   </trkpt>
   <trkpt lat="47.3734410" lon="-122.0323150">
    <ele>160.2</ele>
    <time>2021-01-28T23:49:04Z</time>
   </trkpt>
   <trkpt lat="47.3734140" lon="-122.0323120">
    <ele>160.2</ele>
    <time>2021-01-28T23:49:05Z</time>
   </trkpt>
   <trkpt lat="47.3733840" lon="-122.0323170">
    <ele>160.3</ele>
    <time>2021-01-28T23:49:06Z</time>
   </trkpt>
   <trkpt lat="47.3733480" lon="-122.0323180">
    <ele>160.3</ele>
    <time>2021-01-28T23:49:07Z</time>
   </trkpt>
   <trkpt lat="47.3733340" lon="-122.0323210">
    <ele>160.3</ele>
    <time>2021-01-28T23:49:08Z</time>
   </trkpt>
   <trkpt lat="47.3732970" lon="-122.0323080">
    <ele>160.4</ele>
    <time>2021-01-28T23:49:09Z</time>
   </trkpt>
   <trkpt lat="47.3732700" lon="-122.0323210">
    <ele>160.4</ele>
    <time>2021-01-28T23:49:10Z</time>
   </trkpt>
   <trkpt lat="47.3732320" lon="-122.0323200">
    <ele>160.4</ele>
    <time>2021-01-28T23:49:11Z</time>
   </trkpt>
   <trkpt lat="47.3731940" lon="-122.0323070">
    <ele>160.4</ele>
    <time>2021-01-28T23:49:12Z</time>
   </trkpt>
   <trkpt lat="47.3731640" lon="-122.0323110">
    <ele>160.4</ele>
    <time>2021-01-28T23:49:13Z</time>
   </trkpt>
   <trkpt lat="47.3731260" lon="-122.0323060">
    <ele>160.4</ele>
    <time>2021-01-28T23:49:14Z</time>
   </trkpt>
   <trkpt lat="47.3730940" lon="-122.0323160">
    <ele>160.4</ele>
    <time>2021-01-28T23:49:15Z</time>
   </trkpt>
   <trkpt lat="47.3730550" lon="-122.0323110">
    <ele>160.4</ele>
    <time>2021-01-28T23:49:16Z</time>
   </trkpt>
   <trkpt lat="47.3730210" lon="-122.0323160">
    <ele>160.4</ele>
    <time>2021-01-28T23:49:17Z</time>
   </trkpt>
   <trkpt lat="47.3729840" lon="-122.0323160">
    <ele>160.4</ele>
    <time>2021-01-28T23:49:18Z</time>
   </trkpt>
   <trkpt lat="47.3729490" lon="-122.0322970">
    <ele>160.4</ele>
    <time>2021-01-28T23:49:19Z</time>
   </trkpt>
   <trkpt lat="47.3729170" lon="-122.0323040">
    <ele>160.4</ele>
    <time>2021-01-28T23:49:20Z</time>
   </trkpt>
   <trkpt lat="47.3728750" lon="-122.0322830">
    <ele>160.4</ele>
    <time>2021-01-28T23:49:21Z</time>
   </trkpt>
   <trkpt lat="47.3728440" lon="-122.0322810">
    <ele>160.4</ele>
    <time>2021-01-28T23:49:22Z</time>
   </trkpt>
   <trkpt lat="47.3728160" lon="-122.0322810">
    <ele>160.4</ele>
    <time>2021-01-28T23:49:23Z</time>
   </trkpt>
   <trkpt lat="47.3727740" lon="-122.0322770">
    <ele>160.4</ele>
    <time>2021-01-28T23:49:24Z</time>
   </trkpt>
   <trkpt lat="47.3727320" lon="-122.0322770">
    <ele>160.4</ele>
    <time>2021-01-28T23:49:25Z</time>
   </trkpt>
   <trkpt lat="47.3726930" lon="-122.0322600">
    <ele>160.5</ele>
    <time>2021-01-28T23:49:26Z</time>
   </trkpt>
   <trkpt lat="47.3726620" lon="-122.0322520">
    <ele>160.5</ele>
    <time>2021-01-28T23:49:27Z</time>
   </trkpt>
   <trkpt lat="47.3726280" lon="-122.0322420">
    <ele>160.6</ele>
    <time>2021-01-28T23:49:28Z</time>
   </trkpt>
   <trkpt lat="47.3725990" lon="-122.0322310">
    <ele>160.6</ele>
    <time>2021-01-28T23:49:29Z</time>
   </trkpt>
   <trkpt lat="47.3725700" lon="-122.0322220">
    <ele>160.7</ele>
    <time>2021-01-28T23:49:30Z</time>
   </trkpt>
   <trkpt lat="47.3725390" lon="-122.0322220">
    <ele>160.7</ele>
    <time>2021-01-28T23:49:31Z</time>
   </trkpt>
   <trkpt lat="47.3725030" lon="-122.0322290">
    <ele>160.8</ele>
    <time>2021-01-28T23:49:32Z</time>
   </trkpt>
   <trkpt lat="47.3724640" lon="-122.0322150">
    <ele>160.8</ele>
    <time>2021-01-28T23:49:33Z</time>
   </trkpt>
   <trkpt lat="47.3724330" lon="-122.0321960">
    <ele>160.8</ele>
    <time>2021-01-28T23:49:34Z</time>
   </trkpt>
   <trkpt lat="47.3723990" lon="-122.0321850">
    <ele>160.9</ele>
    <time>2021-01-28T23:49:35Z</time>
   </trkpt>
   <trkpt lat="47.3723640" lon="-122.0321760">
    <ele>160.9</ele>
    <time>2021-01-28T23:49:36Z</time>
   </trkpt>
   <trkpt lat="47.3723230" lon="-122.0321530">
    <ele>161.0</ele>
    <time>2021-01-28T23:49:37Z</time>
   </trkpt>
   <trkpt lat="47.3723050" lon="-122.0321430">
    <ele>161.0</ele>
    <time>2021-01-28T23:49:38Z</time>
   </trkpt>
   <trkpt lat="47.3722670" lon="-122.0321210">
    <ele>161.1</ele>
    <time>2021-01-28T23:49:39Z</time>
   </trkpt>
   <trkpt lat="47.3722390" lon="-122.0321140">
    <ele>161.1</ele>
    <time>2021-01-28T23:49:40Z</time>
   </trkpt>
   <trkpt lat="47.3722030" lon="-122.0321010">
    <ele>161.2</ele>
    <time>2021-01-28T23:49:41Z</time>
   </trkpt>
   <trkpt lat="47.3721730" lon="-122.0320950">
    <ele>161.2</ele>
    <time>2021-01-28T23:49:42Z</time>
   </trkpt>
   <trkpt lat="47.3721370" lon="-122.0320780">
    <ele>161.3</ele>
    <time>2021-01-28T23:49:43Z</time>
   </trkpt>
   <trkpt lat="47.3721070" lon="-122.0320600">
    <ele>161.3</ele>
    <time>2021-01-28T23:49:44Z</time>
   </trkpt>
   <trkpt lat="47.3720740" lon="-122.0320480">
    <ele>161.4</ele>
    <time>2021-01-28T23:49:45Z</time>
   </trkpt>
   <trkpt lat="47.3720450" lon="-122.0320420">
    <ele>161.4</ele>
    <time>2021-01-28T23:49:46Z</time>
   </trkpt>
   <trkpt lat="47.3720190" lon="-122.0320480">
    <ele>161.5</ele>
    <time>2021-01-28T23:49:47Z</time>
   </trkpt>
   <trkpt lat="47.3719830" lon="-122.0320250">
    <ele>161.5</ele>
    <time>2021-01-28T23:49:48Z</time>
   </trkpt>
   <trkpt lat="47.3719490" lon="-122.0320100">
    <ele>161.6</ele>
    <time>2021-01-28T23:49:49Z</time>
   </trkpt>
   <trkpt lat="47.3719090" lon="-122.0319940">
    <ele>161.6</ele>
    <time>2021-01-28T23:49:50Z</time>
   </trkpt>
   <trkpt lat="47.3718670" lon="-122.0319880">
    <ele>161.7</ele>
    <time>2021-01-28T23:49:51Z</time>
   </trkpt>
   <trkpt lat="47.3718330" lon="-122.0319830">
    <ele>161.8</ele>
    <time>2021-01-28T23:49:52Z</time>
   </trkpt>
   <trkpt lat="47.3717970" lon="-122.0319580">
    <ele>161.8</ele>
    <time>2021-01-28T23:49:53Z</time>
   </trkpt>
   <trkpt lat="47.3717590" lon="-122.0319470">
    <ele>161.9</ele>
    <time>2021-01-28T23:49:54Z</time>
   </trkpt>
   <trkpt lat="47.3717340" lon="-122.0319110">
    <ele>161.9</ele>
    <time>2021-01-28T23:49:55Z</time>
   </trkpt>
   <trkpt lat="47.3717040" lon="-122.0318900">
    <ele>162.0</ele>
    <time>2021-01-28T23:49:56Z</time>
   </trkpt>
   <trkpt lat="47.3716660" lon="-122.0318760">
    <ele>162.0</ele>
    <time>2021-01-28T23:49:57Z</time>
   </trkpt>
   <trkpt lat="47.3716310" lon="-122.0318580">
    <ele>162.1</ele>
    <time>2021-01-28T23:49:58Z</time>
   </trkpt>
   <trkpt lat="47.3716050" lon="-122.0318450">
    <ele>162.1</ele>
    <time>2021-01-28T23:49:59Z</time>
   </trkpt>
   <trkpt lat="47.3715690" lon="-122.0318040">
    <ele>162.2</ele>
    <time>2021-01-28T23:50:00Z</time>
   </trkpt>
   <trkpt lat="47.3715360" lon="-122.0317970">
    <ele>162.3</ele>
    <time>2021-01-28T23:50:01Z</time>
   </trkpt>
   <trkpt lat="47.3714980" lon="-122.0317870">
    <ele>162.3</ele>
    <time>2021-01-28T23:50:02Z</time>
   </trkpt>
   <trkpt lat="47.3714700" lon="-122.0317670">
    <ele>162.4</ele>
    <time>2021-01-28T23:50:03Z</time>
   </trkpt>
   <trkpt lat="47.3714390" lon="-122.0317610">
    <ele>162.4</ele>
    <time>2021-01-28T23:50:04Z</time>
   </trkpt>
   <trkpt lat="47.3713900" lon="-122.0317280">
    <ele>162.5</ele>
    <time>2021-01-28T23:50:05Z</time>
   </trkpt>
   <trkpt lat="47.3713610" lon="-122.0317100">
    <ele>162.5</ele>
    <time>2021-01-28T23:50:06Z</time>
   </trkpt>
   <trkpt lat="47.3713190" lon="-122.0316890">
    <ele>162.6</ele>
    <time>2021-01-28T23:50:07Z</time>
   </trkpt>
   <trkpt lat="47.3712930" lon="-122.0316670">
    <ele>162.6</ele>
    <time>2021-01-28T23:50:08Z</time>
   </trkpt>
   <trkpt lat="47.3712580" lon="-122.0316460">
    <ele>162.6</ele>
    <time>2021-01-28T23:50:09Z</time>
   </trkpt>
   <trkpt lat="47.3712330" lon="-122.0316290">
    <ele>162.7</ele>
    <time>2021-01-28T23:50:10Z</time>
   </trkpt>
   <trkpt lat="47.3712010" lon="-122.0316180">
    <ele>162.7</ele>
    <time>2021-01-28T23:50:11Z</time>
   </trkpt>
   <trkpt lat="47.3711710" lon="-122.0315920">
    <ele>162.7</ele>
    <time>2021-01-28T23:50:12Z</time>
   </trkpt>
   <trkpt lat="47.3711410" lon="-122.0315750">
    <ele>162.8</ele>
    <time>2021-01-28T23:50:13Z</time>
   </trkpt>
   <trkpt lat="47.3711080" lon="-122.0315580">
    <ele>162.8</ele>
    <time>2021-01-28T23:50:14Z</time>
   </trkpt>
   <trkpt lat="47.3710780" lon="-122.0315530">
    <ele>162.8</ele>
    <time>2021-01-28T23:50:15Z</time>
   </trkpt>
   <trkpt lat="47.3710490" lon="-122.0315400">
    <ele>162.9</ele>
    <time>2021-01-28T23:50:16Z</time>
   </trkpt>
   <trkpt lat="47.3710120" lon="-122.0315240">
    <ele>162.9</ele>
    <time>2021-01-28T23:50:17Z</time>
   </trkpt>
   <trkpt lat="47.3709960" lon="-122.0314880">
    <ele>162.9</ele>
    <time>2021-01-28T23:50:18Z</time>
   </trkpt>
   <trkpt lat="47.3709620" lon="-122.0314590">
    <ele>163.0</ele>
    <time>2021-01-28T23:50:19Z</time>
   </trkpt>
   <trkpt lat="47.3709300" lon="-122.0314470">
    <ele>163.0</ele>
    <time>2021-01-28T23:50:20Z</time>
   </trkpt>
   <trkpt lat="47.3709110" lon="-122.0314180">
    <ele>163.0</ele>
    <time>2021-01-28T23:50:21Z</time>
   </trkpt>
   <trkpt lat="47.3708790" lon="-122.0313920">
    <ele>163.0</ele>
    <time>2021-01-28T23:50:22Z</time>
   </trkpt>
   <trkpt lat="47.3708510" lon="-122.0313850">
    <ele>163.1</ele>
    <time>2021-01-28T23:50:23Z</time>
   </trkpt>
   <trkpt lat="47.3708160" lon="-122.0313640">
    <ele>163.1</ele>
    <time>2021-01-28T23:50:24Z</time>
   </trkpt>
   <trkpt lat="47.3707850" lon="-122.0313400">
    <ele>163.1</ele>
    <time>2021-01-28T23:50:25Z</time>
   </trkpt>
   <trkpt lat="47.3707610" lon="-122.0313160">
    <ele>163.1</ele>
    <time>2021-01-28T23:50:26Z</time>
   </trkpt>
   <trkpt lat="47.3707420" lon="-122.0312700">
    <ele>163.2</ele>
    <time>2021-01-28T23:50:27Z</time>
   </trkpt>
   <trkpt lat="47.3707090" lon="-122.0312540">
    <ele>163.2</ele>
    <time>2021-01-28T23:50:28Z</time>
   </trkpt>
   <trkpt lat="47.3706670" lon="-122.0312110">
    <ele>163.2</ele>
    <time>2021-01-28T23:50:29Z</time>
   </trkpt>
   <trkpt lat="47.3706440" lon="-122.0311890">
    <ele>163.3</ele>
    <time>2021-01-28T23:50:30Z</time>
   </trkpt>
   <trkpt lat="47.3706180" lon="-122.0311490">
    <ele>163.3</ele>
    <time>2021-01-28T23:50:31Z</time>
   </trkpt>
   <trkpt lat="47.3705900" lon="-122.0311250">
    <ele>163.4</ele>
    <time>2021-01-28T23:50:32Z</time>
   </trkpt>
   <trkpt lat="47.3705590" lon="-122.0311150">
    <ele>163.4</ele>
    <time>2021-01-28T23:50:33Z</time>
   </trkpt>
   <trkpt lat="47.3705330" lon="-122.0310860">
    <ele>163.5</ele>
    <time>2021-01-28T23:50:34Z</time>
   </trkpt>
   <trkpt lat="47.3705000" lon="-122.0310550">
    <ele>163.5</ele>
    <time>2021-01-28T23:50:35Z</time>
   </trkpt>
   <trkpt lat="47.3704890" lon="-122.0310380">
    <ele>163.5</ele>
    <time>2021-01-28T23:50:36Z</time>
   </trkpt>
   <trkpt lat="47.3704640" lon="-122.0310100">
    <ele>163.6</ele>
    <time>2021-01-28T23:50:37Z</time>
   </trkpt>
   <trkpt lat="47.3704420" lon="-122.0309670">
    <ele>163.6</ele>
    <time>2021-01-28T23:50:38Z</time>
   </trkpt>
   <trkpt lat="47.3704020" lon="-122.0309330">
    <ele>163.6</ele>
    <time>2021-01-28T23:50:39Z</time>
   </trkpt>
   <trkpt lat="47.3703660" lon="-122.0309120">
    <ele>163.7</ele>
    <time>2021-01-28T23:50:40Z</time>
   </trkpt>
   <trkpt lat="47.3703290" lon="-122.0308850">
    <ele>163.7</ele>
    <time>2021-01-28T23:50:41Z</time>
   </trkpt>
   <trkpt lat="47.3703060" lon="-122.0308610">
    <ele>163.7</ele>
    <time>2021-01-28T23:50:42Z</time>
   </trkpt>
   <trkpt lat="47.3702800" lon="-122.0308270">
    <ele>163.8</ele>
    <time>2021-01-28T23:50:43Z</time>
   </trkpt>
   <trkpt lat="47.3702490" lon="-122.0307990">
    <ele>163.8</ele>
    <time>2021-01-28T23:50:44Z</time>
   </trkpt>
   <trkpt lat="47.3702080" lon="-122.0307820">
    <ele>163.8</ele>
    <time>2021-01-28T23:50:45Z</time>
   </trkpt>
   <trkpt lat="47.3701760" lon="-122.0307660">
    <ele>163.9</ele>
    <time>2021-01-28T23:50:46Z</time>
   </trkpt>
   <trkpt lat="47.3701460" lon="-122.0307460">
    <ele>163.9</ele>
    <time>2021-01-28T23:50:47Z</time>
   </trkpt>
   <trkpt lat="47.3701180" lon="-122.0307190">
    <ele>163.9</ele>
    <time>2021-01-28T23:50:48Z</time>
   </trkpt>
   <trkpt lat="47.3700920" lon="-122.0307090">
    <ele>164.0</ele>
    <time>2021-01-28T23:50:49Z</time>
   </trkpt>
   <trkpt lat="47.3700590" lon="-122.0306860">
    <ele>164.0</ele>
    <time>2021-01-28T23:50:50Z</time>
   </trkpt>
   <trkpt lat="47.3700260" lon="-122.0306630">
    <ele>164.0</ele>
    <time>2021-01-28T23:50:51Z</time>
   </trkpt>
   <trkpt lat="47.3699870" lon="-122.0306400">
    <ele>164.1</ele>
    <time>2021-01-28T23:50:52Z</time>
   </trkpt>
   <trkpt lat="47.3699740" lon="-122.0306230">
    <ele>164.1</ele>
    <time>2021-01-28T23:50:53Z</time>
   </trkpt>
   <trkpt lat="47.3699440" lon="-122.0306030">
    <ele>164.1</ele>
    <time>2021-01-28T23:50:54Z</time>
   </trkpt>
   <trkpt lat="47.3699110" lon="-122.0305760">
    <ele>164.2</ele>
    <time>2021-01-28T23:50:55Z</time>
   </trkpt>
   <trkpt lat="47.3698790" lon="-122.0305530">
    <ele>164.2</ele>
    <time>2021-01-28T23:50:56Z</time>
   </trkpt>
   <trkpt lat="47.3698470" lon="-122.0305310">
    <ele>164.2</ele>
    <time>2021-01-28T23:50:57Z</time>
   </trkpt>
   <trkpt lat="47.3698180" lon="-122.0304960">
    <ele>164.2</ele>
    <time>2021-01-28T23:50:58Z</time>
   </trkpt>
   <trkpt lat="47.3697820" lon="-122.0304940">
    <ele>164.3</ele>
    <time>2021-01-28T23:50:59Z</time>
   </trkpt>
   <trkpt lat="47.3697480" lon="-122.0304800">
    <ele>164.3</ele>
    <time>2021-01-28T23:51:00Z</time>
   </trkpt>
   <trkpt lat="47.3697130" lon="-122.0304650">
    <ele>164.3</ele>
    <time>2021-01-28T23:51:01Z</time>
   </trkpt>
   <trkpt lat="47.3696800" lon="-122.0304450">
    <ele>164.4</ele>
    <time>2021-01-28T23:51:02Z</time>
   </trkpt>
   <trkpt lat="47.3696550" lon="-122.0303990">
    <ele>164.4</ele>
    <time>2021-01-28T23:51:03Z</time>
   </trkpt>
   <trkpt lat="47.3696320" lon="-122.0303780">
    <ele>164.4</ele>
    <time>2021-01-28T23:51:04Z</time>
   </trkpt>
   <trkpt lat="47.3696020" lon="-122.0303450">
    <ele>164.5</ele>
    <time>2021-01-28T23:51:05Z</time>
   </trkpt>
   <trkpt lat="47.3695710" lon="-122.0303260">
    <ele>164.5</ele>
    <time>2021-01-28T23:51:06Z</time>
   </trkpt>
   <trkpt lat="47.3695300" lon="-122.0303070">
    <ele>164.6</ele>
    <time>2021-01-28T23:51:07Z</time>
   </trkpt>
   <trkpt lat="47.3695050" lon="-122.0302690">
    <ele>164.6</ele>
    <time>2021-01-28T23:51:08Z</time>
   </trkpt>
   <trkpt lat="47.3694670" lon="-122.0302410">
    <ele>164.6</ele>
    <time>2021-01-28T23:51:09Z</time>
   </trkpt>
   <trkpt lat="47.3694520" lon="-122.0302290">
    <ele>164.6</ele>
    <time>2021-01-28T23:51:10Z</time>
   </trkpt>
   <trkpt lat="47.3694240" lon="-122.0301980">
    <ele>164.6</ele>
    <time>2021-01-28T23:51:11Z</time>
   </trkpt>
   <trkpt lat="47.3693910" lon="-122.0301690">
    <ele>164.7</ele>
    <time>2021-01-28T23:51:12Z</time>
   </trkpt>
   <trkpt lat="47.3693740" lon="-122.0301320">
    <ele>164.7</ele>
    <time>2021-01-28T23:51:13Z</time>
   </trkpt>
   <trkpt lat="47.3693460" lon="-122.0301260">
    <ele>164.7</ele>
    <time>2021-01-28T23:51:14Z</time>
   </trkpt>
   <trkpt lat="47.3693270" lon="-122.0300900">
    <ele>164.7</ele>
    <time>2021-01-28T23:51:15Z</time>
   </trkpt>
   <trkpt lat="47.3692910" lon="-122.0300560">
    <ele>164.7</ele>
    <time>2021-01-28T23:51:16Z</time>
   </trkpt>
   <trkpt lat="47.3692760" lon="-122.0300400">
    <ele>164.7</ele>
    <time>2021-01-28T23:51:17Z</time>
   </trkpt>
   <trkpt lat="47.3692420" lon="-122.0300240">
    <ele>164.8</ele>
    <time>2021-01-28T23:51:18Z</time>
   </trkpt>
   <trkpt lat="47.3692130" lon="-122.0300070">
    <ele>164.8</ele>
    <time>2021-01-28T23:51:19Z</time>
   </trkpt>
   <trkpt lat="47.3691830" lon="-122.0299810">
    <ele>164.8</ele>
    <time>2021-01-28T23:51:20Z</time>
   </trkpt>
   <trkpt lat="47.3691520" lon="-122.0299710">
    <ele>164.8</ele>
    <time>2021-01-28T23:51:21Z</time>
   </trkpt>
   <trkpt lat="47.3691300" lon="-122.0299340">
    <ele>164.9</ele>
    <time>2021-01-28T23:51:22Z</time>
   </trkpt>
   <trkpt lat="47.3691010" lon="-122.0299140">
    <ele>164.9</ele>
    <time>2021-01-28T23:51:23Z</time>
   </trkpt>
   <trkpt lat="47.3690770" lon="-122.0298920">
    <ele>164.9</ele>
    <time>2021-01-28T23:51:24Z</time>
   </trkpt>
   <trkpt lat="47.3690510" lon="-122.0298690">
    <ele>165.0</ele>
    <time>2021-01-28T23:51:25Z</time>
   </trkpt>
   <trkpt lat="47.3690200" lon="-122.0298570">
    <ele>165.0</ele>
    <time>2021-01-28T23:51:26Z</time>
   </trkpt>
   <trkpt lat="47.3689960" lon="-122.0298160">
    <ele>165.1</ele>
    <time>2021-01-28T23:51:27Z</time>
   </trkpt>
   <trkpt lat="47.3689710" lon="-122.0297820">
    <ele>165.1</ele>
    <time>2021-01-28T23:51:28Z</time>
   </trkpt>
   <trkpt lat="47.3689460" lon="-122.0297640">
    <ele>165.2</ele>
    <time>2021-01-28T23:51:29Z</time>
   </trkpt>
   <trkpt lat="47.3689260" lon="-122.0297280">
    <ele>165.3</ele>
    <time>2021-01-28T23:51:30Z</time>
   </trkpt>
   <trkpt lat="47.3688990" lon="-122.0297080">
    <ele>165.3</ele>
    <time>2021-01-28T23:51:31Z</time>
   </trkpt>
   <trkpt lat="47.3688710" lon="-122.0296860">
    <ele>165.4</ele>
    <time>2021-01-28T23:51:32Z</time>
   </trkpt>
   <trkpt lat="47.3688450" lon="-122.0296690">
    <ele>165.4</ele>
    <time>2021-01-28T23:51:33Z</time>
   </trkpt>
   <trkpt lat="47.3688080" lon="-122.0296650">
    <ele>165.5</ele>
    <time>2021-01-28T23:51:34Z</time>
   </trkpt>
   <trkpt lat="47.3687890" lon="-122.0296380">
    <ele>165.5</ele>
    <time>2021-01-28T23:51:35Z</time>
   </trkpt>
   <trkpt lat="47.3687550" lon="-122.0296190">
    <ele>165.6</ele>
    <time>2021-01-28T23:51:36Z</time>
   </trkpt>
   <trkpt lat="47.3687290" lon="-122.0295960">
    <ele>165.6</ele>
    <time>2021-01-28T23:51:37Z</time>
   </trkpt>
   <trkpt lat="47.3687010" lon="-122.0295770">
    <ele>165.6</ele>
    <time>2021-01-28T23:51:38Z</time>
   </trkpt>
   <trkpt lat="47.3686760" lon="-122.0295460">
    <ele>165.7</ele>
    <time>2021-01-28T23:51:39Z</time>
   </trkpt>
   <trkpt lat="47.3686540" lon="-122.0295120">
    <ele>165.7</ele>
    <time>2021-01-28T23:51:40Z</time>
   </trkpt>
   <trkpt lat="47.3686200" lon="-122.0294800">
    <ele>165.8</ele>
    <time>2021-01-28T23:51:41Z</time>
   </trkpt>
   <trkpt lat="47.3685990" lon="-122.0294550">
    <ele>165.8</ele>
    <time>2021-01-28T23:51:42Z</time>
   </trkpt>
   <trkpt lat="47.3685680" lon="-122.0294490">
    <ele>165.9</ele>
    <time>2021-01-28T23:51:43Z</time>
   </trkpt>
   <trkpt lat="47.3685370" lon="-122.0294060">
    <ele>165.9</ele>
    <time>2021-01-28T23:51:44Z</time>
   </trkpt>
   <trkpt lat="47.3685280" lon="-122.0293870">
    <ele>165.9</ele>
    <time>2021-01-28T23:51:45Z</time>
   </trkpt>
   <trkpt lat="47.3684930" lon="-122.0293710">
    <ele>166.0</ele>
    <time>2021-01-28T23:51:46Z</time>
   </trkpt>
   <trkpt lat="47.3684650" lon="-122.0293520">
    <ele>166.0</ele>
    <time>2021-01-28T23:51:47Z</time>
   </trkpt>
   <trkpt lat="47.3684320" lon="-122.0293420">
    <ele>166.1</ele>
    <time>2021-01-28T23:51:48Z</time>
   </trkpt>
   <trkpt lat="47.3684080" lon="-122.0293090">
    <ele>166.1</ele>
    <time>2021-01-28T23:51:49Z</time>
   </trkpt>
   <trkpt lat="47.3683800" lon="-122.0292900">
    <ele>166.2</ele>
    <time>2021-01-28T23:51:50Z</time>
   </trkpt>
   <trkpt lat="47.3683400" lon="-122.0292720">
    <ele>166.2</ele>
    <time>2021-01-28T23:51:51Z</time>
   </trkpt>
   <trkpt lat="47.3683190" lon="-122.0292410">
    <ele>166.3</ele>
    <time>2021-01-28T23:51:52Z</time>
   </trkpt>
   <trkpt lat="47.3682860" lon="-122.0292280">
    <ele>166.4</ele>
    <time>2021-01-28T23:51:53Z</time>
   </trkpt>
   <trkpt lat="47.3682680" lon="-122.0291910">
    <ele>166.4</ele>
    <time>2021-01-28T23:51:54Z</time>
   </trkpt>
   <trkpt lat="47.3682400" lon="-122.0291740">
    <ele>166.5</ele>
    <time>2021-01-28T23:51:55Z</time>
   </trkpt>
   <trkpt lat="47.3682100" lon="-122.0291480">
    <ele>166.5</ele>
    <time>2021-01-28T23:51:56Z</time>
   </trkpt>
   <trkpt lat="47.3681800" lon="-122.0291350">
    <ele>166.6</ele>
    <time>2021-01-28T23:51:57Z</time>
   </trkpt>
   <trkpt lat="47.3681590" lon="-122.0291060">
    <ele>166.6</ele>
    <time>2021-01-28T23:51:58Z</time>
   </trkpt>
   <trkpt lat="47.3681280" lon="-122.0290780">
    <ele>166.7</ele>
    <time>2021-01-28T23:51:59Z</time>
   </trkpt>
   <trkpt lat="47.3681020" lon="-122.0290640">
    <ele>166.7</ele>
    <time>2021-01-28T23:52:00Z</time>
   </trkpt>
   <trkpt lat="47.3680670" lon="-122.0290470">
    <ele>166.8</ele>
    <time>2021-01-28T23:52:01Z</time>
   </trkpt>
   <trkpt lat="47.3680410" lon="-122.0290300">
    <ele>166.8</ele>
    <time>2021-01-28T23:52:02Z</time>
   </trkpt>
   <trkpt lat="47.3680040" lon="-122.0290080">
    <ele>166.9</ele>
    <time>2021-01-28T23:52:03Z</time>
   </trkpt>
   <trkpt lat="47.3679830" lon="-122.0289730">
    <ele>166.9</ele>
    <time>2021-01-28T23:52:04Z</time>
   </trkpt>
   <trkpt lat="47.3679460" lon="-122.0289400">
    <ele>167.0</ele>
    <time>2021-01-28T23:52:05Z</time>
   </trkpt>
   <trkpt lat="47.3679320" lon="-122.0289280">
    <ele>167.0</ele>
    <time>2021-01-28T23:52:06Z</time>
   </trkpt>
   <trkpt lat="47.3679050" lon="-122.0289050">
    <ele>167.0</ele>
    <time>2021-01-28T23:52:07Z</time>
   </trkpt>
   <trkpt lat="47.3678760" lon="-122.0288890">
    <ele>167.1</ele>
    <time>2021-01-28T23:52:08Z</time>
   </trkpt>
   <trkpt lat="47.3678520" lon="-122.0288640">
    <ele>167.1</ele>
    <time>2021-01-28T23:52:09Z</time>
   </trkpt>
   <trkpt lat="47.3678230" lon="-122.0288530">
    <ele>167.1</ele>
    <time>2021-01-28T23:52:10Z</time>
   </trkpt>
   <trkpt lat="47.3677970" lon="-122.0288380">
    <ele>167.2</ele>
    <time>2021-01-28T23:52:11Z</time>
   </trkpt>
   <trkpt lat="47.3677610" lon="-122.0288110">
    <ele>167.2</ele>
    <time>2021-01-28T23:52:12Z</time>
   </trkpt>
   <trkpt lat="47.3677460" lon="-122.0288010">
    <ele>167.3</ele>
    <time>2021-01-28T23:52:13Z</time>
   </trkpt>
   <trkpt lat="47.3677260" lon="-122.0287640">
    <ele>167.3</ele>
    <time>2021-01-28T23:52:14Z</time>
   </trkpt>
   <trkpt lat="47.3676930" lon="-122.0287400">
    <ele>167.4</ele>
    <time>2021-01-28T23:52:15Z</time>
   </trkpt>
   <trkpt lat="47.3676600" lon="-122.0287020">
    <ele>167.5</ele>
    <time>2021-01-28T23:52:16Z</time>
   </trkpt>
   <trkpt lat="47.3676210" lon="-122.0286710">
    <ele>167.5</ele>
    <time>2021-01-28T23:52:17Z</time>
   </trkpt>
   <trkpt lat="47.3676040" lon="-122.0286580">
    <ele>167.6</ele>
    <time>2021-01-28T23:52:18Z</time>
   </trkpt>
   <trkpt lat="47.3675830" lon="-122.0286270">
    <ele>167.6</ele>
    <time>2021-01-28T23:52:19Z</time>
   </trkpt>
   <trkpt lat="47.3675480" lon="-122.0286030">
    <ele>167.7</ele>
    <time>2021-01-28T23:52:20Z</time>
   </trkpt>
   <trkpt lat="47.3675230" lon="-122.0285660">
    <ele>167.8</ele>
    <time>2021-01-28T23:52:21Z</time>
   </trkpt>
   <trkpt lat="47.3674960" lon="-122.0285550">
    <ele>167.8</ele>
    <time>2021-01-28T23:52:22Z</time>
   </trkpt>
   <trkpt lat="47.3674600" lon="-122.0285290">
    <ele>167.9</ele>
    <time>2021-01-28T23:52:23Z</time>
   </trkpt>
   <trkpt lat="47.3674320" lon="-122.0285040">
    <ele>168.0</ele>
    <time>2021-01-28T23:52:24Z</time>
   </trkpt>
   <trkpt lat="47.3673930" lon="-122.0285070">
    <ele>168.0</ele>
    <time>2021-01-28T23:52:25Z</time>
   </trkpt>
   <trkpt lat="47.3673690" lon="-122.0284750">
    <ele>168.1</ele>
    <time>2021-01-28T23:52:26Z</time>
   </trkpt>
   <trkpt lat="47.3673340" lon="-122.0284570">
    <ele>168.1</ele>
    <time>2021-01-28T23:52:27Z</time>
   </trkpt>
   <trkpt lat="47.3673010" lon="-122.0284240">
    <ele>168.2</ele>
    <time>2021-01-28T23:52:28Z</time>
   </trkpt>
   <trkpt lat="47.3672730" lon="-122.0283950">
    <ele>168.2</ele>
    <time>2021-01-28T23:52:29Z</time>
   </trkpt>
   <trkpt lat="47.3672410" lon="-122.0283630">
    <ele>168.2</ele>
    <time>2021-01-28T23:52:30Z</time>
   </trkpt>
   <trkpt lat="47.3672160" lon="-122.0283360">
    <ele>168.3</ele>
    <time>2021-01-28T23:52:31Z</time>
   </trkpt>
   <trkpt lat="47.3671850" lon="-122.0283000">
    <ele>168.3</ele>
    <time>2021-01-28T23:52:32Z</time>
   </trkpt>
   <trkpt lat="47.3671580" lon="-122.0282570">
    <ele>168.3</ele>
    <time>2021-01-28T23:52:33Z</time>
   </trkpt>
   <trkpt lat="47.3671290" lon="-122.0282360">
    <ele>168.3</ele>
    <time>2021-01-28T23:52:34Z</time>
   </trkpt>
   <trkpt lat="47.3671080" lon="-122.0281930">
    <ele>168.3</ele>
    <time>2021-01-28T23:52:35Z</time>
   </trkpt>
   <trkpt lat="47.3670830" lon="-122.0281700">
    <ele>168.4</ele>
    <time>2021-01-28T23:52:36Z</time>
   </trkpt>
   <trkpt lat="47.3670470" lon="-122.0281490">
    <ele>168.4</ele>
    <time>2021-01-28T23:52:37Z</time>
   </trkpt>
   <trkpt lat="47.3670150" lon="-122.0281310">
    <ele>168.4</ele>
    <time>2021-01-28T23:52:38Z</time>
   </trkpt>
   <trkpt lat="47.3669780" lon="-122.0281190">
    <ele>168.5</ele>
    <time>2021-01-28T23:52:39Z</time>
   </trkpt>
   <trkpt lat="47.3669450" lon="-122.0280970">
    <ele>168.5</ele>
    <time>2021-01-28T23:52:40Z</time>
   </trkpt>
   <trkpt lat="47.3669130" lon="-122.0280840">
    <ele>168.5</ele>
    <time>2021-01-28T23:52:41Z</time>
   </trkpt>
   <trkpt lat="47.3668780" lon="-122.0280650">
    <ele>168.5</ele>
    <time>2021-01-28T23:52:42Z</time>
   </trkpt>
   <trkpt lat="47.3668550" lon="-122.0280380">
    <ele>168.6</ele>
    <time>2021-01-28T23:52:43Z</time>
   </trkpt>
   <trkpt lat="47.3668220" lon="-122.0280190">
    <ele>168.6</ele>
    <time>2021-01-28T23:52:44Z</time>
   </trkpt>
   <trkpt lat="47.3667980" lon="-122.0279770">
    <ele>168.6</ele>
    <time>2021-01-28T23:52:45Z</time>
   </trkpt>
   <trkpt lat="47.3667710" lon="-122.0279560">
    <ele>168.7</ele>
    <time>2021-01-28T23:52:46Z</time>
   </trkpt>
   <trkpt lat="47.3667400" lon="-122.0279370">
    <ele>168.7</ele>
    <time>2021-01-28T23:52:47Z</time>
   </trkpt>
   <trkpt lat="47.3667170" lon="-122.0279090">
    <ele>168.7</ele>
    <time>2021-01-28T23:52:48Z</time>
   </trkpt>
   <trkpt lat="47.3666870" lon="-122.0278990">
    <ele>168.8</ele>
    <time>2021-01-28T23:52:49Z</time>
   </trkpt>
   <trkpt lat="47.3666630" lon="-122.0278780">
    <ele>168.8</ele>
    <time>2021-01-28T23:52:50Z</time>
   </trkpt>
   <trkpt lat="47.3666380" lon="-122.0278560">
    <ele>168.8</ele>
    <time>2021-01-28T23:52:51Z</time>
   </trkpt>
   <trkpt lat="47.3666070" lon="-122.0278230">
    <ele>168.8</ele>
    <time>2021-01-28T23:52:52Z</time>
   </trkpt>
   <trkpt lat="47.3665730" lon="-122.0277860">
    <ele>168.8</ele>
    <time>2021-01-28T23:52:53Z</time>
   </trkpt>
   <trkpt lat="47.3665570" lon="-122.0277730">
    <ele>168.8</ele>
    <time>2021-01-28T23:52:54Z</time>
   </trkpt>
   <trkpt lat="47.3665330" lon="-122.0277450">
    <ele>168.8</ele>
    <time>2021-01-28T23:52:55Z</time>
   </trkpt>
   <trkpt lat="47.3665070" lon="-122.0277250">
    <ele>168.8</ele>
    <time>2021-01-28T23:52:56Z</time>
   </trkpt>
   <trkpt lat="47.3664690" lon="-122.0276970">
    <ele>168.7</ele>
    <time>2021-01-28T23:52:57Z</time>
   </trkpt>
   <trkpt lat="47.3664280" lon="-122.0276740">
    <ele>168.6</ele>
    <time>2021-01-28T23:52:58Z</time>
   </trkpt>
   <trkpt lat="47.3664100" lon="-122.0276640">
    <ele>168.6</ele>
    <time>2021-01-28T23:52:59Z</time>
   </trkpt>
   <trkpt lat="47.3663760" lon="-122.0276300">
    <ele>168.5</ele>
    <time>2021-01-28T23:53:00Z</time>
   </trkpt>
   <trkpt lat="47.3663630" lon="-122.0276190">
    <ele>168.4</ele>
    <time>2021-01-28T23:53:01Z</time>
   </trkpt>
   <trkpt lat="47.3663300" lon="-122.0275860">
    <ele>168.3</ele>
    <time>2021-01-28T23:53:02Z</time>
   </trkpt>
   <trkpt lat="47.3663040" lon="-122.0275740">
    <ele>168.3</ele>
    <time>2021-01-28T23:53:03Z</time>
   </trkpt>
   <trkpt lat="47.3662720" lon="-122.0275540">
    <ele>168.2</ele>
    <time>2021-01-28T23:53:04Z</time>
   </trkpt>
   <trkpt lat="47.3662420" lon="-122.0275280">
    <ele>168.1</ele>
    <time>2021-01-28T23:53:05Z</time>
   </trkpt>
   <trkpt lat="47.3662150" lon="-122.0275040">
    <ele>168.1</ele>
    <time>2021-01-28T23:53:06Z</time>
   </trkpt>
   <trkpt lat="47.3661840" lon="-122.0274790">
    <ele>168.0</ele>
    <time>2021-01-28T23:53:07Z</time>
   </trkpt>
   <trkpt lat="47.3661520" lon="-122.0274360">
    <ele>168.0</ele>
    <time>2021-01-28T23:53:08Z</time>
   </trkpt>
   <trkpt lat="47.3661370" lon="-122.0274240">
    <ele>167.9</ele>
    <time>2021-01-28T23:53:09Z</time>
   </trkpt>
   <trkpt lat="47.3661120" lon="-122.0273940">
    <ele>167.9</ele>
    <time>2021-01-28T23:53:10Z</time>
   </trkpt>
   <trkpt lat="47.3660830" lon="-122.0273650">
    <ele>167.9</ele>
    <time>2021-01-28T23:53:11Z</time>
   </trkpt>
   <trkpt lat="47.3660470" lon="-122.0273380">
    <ele>167.9</ele>
    <time>2021-01-28T23:53:12Z</time>
   </trkpt>
   <trkpt lat="47.3660190" lon="-122.0273100">
    <ele>168.0</ele>
    <time>2021-01-28T23:53:13Z</time>
   </trkpt>
   <trkpt lat="47.3659870" lon="-122.0273000">
    <ele>168.0</ele>
    <time>2021-01-28T23:53:14Z</time>
   </trkpt>
   <trkpt lat="47.3659500" lon="-122.0273030">
    <ele>168.1</ele>
    <time>2021-01-28T23:53:15Z</time>
   </trkpt>
   <trkpt lat="47.3659090" lon="-122.0272670">
    <ele>168.2</ele>
    <time>2021-01-28T23:53:16Z</time>
   </trkpt>
   <trkpt lat="47.3658910" lon="-122.0272470">
    <ele>168.3</ele>
    <time>2021-01-28T23:53:17Z</time>
   </trkpt>
   <trkpt lat="47.3658670" lon="-122.0272220">
    <ele>168.4</ele>
    <time>2021-01-28T23:53:18Z</time>
   </trkpt>
   <trkpt lat="47.3658370" lon="-122.0271920">
    <ele>168.6</ele>
    <time>2021-01-28T23:53:19Z</time>
   </trkpt>
   <trkpt lat="47.3658120" lon="-122.0271630">
    <ele>168.7</ele>
    <time>2021-01-28T23:53:20Z</time>
   </trkpt>
   <trkpt lat="47.3657830" lon="-122.0271460">
    <ele>168.9</ele>
    <time>2021-01-28T23:53:21Z</time>
   </trkpt>
   <trkpt lat="47.3657590" lon="-122.0271160">
    <ele>169.0</ele>
    <time>2021-01-28T23:53:22Z</time>
   </trkpt>
   <trkpt lat="47.3657280" lon="-122.0270930">
    <ele>169.2</ele>
    <time>2021-01-28T23:53:23Z</time>
   </trkpt>
   <trkpt lat="47.3657140" lon="-122.0270790">
    <ele>169.2</ele>
    <time>2021-01-28T23:53:24Z</time>
   </trkpt>
   <trkpt lat="47.3656910" lon="-122.0270550">
    <ele>169.3</ele>
    <time>2021-01-28T23:53:25Z</time>
   </trkpt>
   <trkpt lat="47.3656520" lon="-122.0270240">
    <ele>169.3</ele>
    <time>2021-01-28T23:53:26Z</time>
   </trkpt>
   <trkpt lat="47.3656360" lon="-122.0270120">
    <ele>169.3</ele>
    <time>2021-01-28T23:53:27Z</time>
   </trkpt>
   <trkpt lat="47.3656040" lon="-122.0269960">
    <ele>169.3</ele>
    <time>2021-01-28T23:53:28Z</time>
   </trkpt>
   <trkpt lat="47.3655870" lon="-122.0269860">
    <ele>169.4</ele>
    <time>2021-01-28T23:53:29Z</time>
   </trkpt>
   <trkpt lat="47.3655630" lon="-122.0269510">
    <ele>169.4</ele>
    <time>2021-01-28T23:53:30Z</time>
   </trkpt>
   <trkpt lat="47.3655420" lon="-122.0269270">
    <ele>169.5</ele>
    <time>2021-01-28T23:53:31Z</time>
   </trkpt>
   <trkpt lat="47.3655160" lon="-122.0269010">
    <ele>169.5</ele>
    <time>2021-01-28T23:53:32Z</time>
   </trkpt>
   <trkpt lat="47.3654790" lon="-122.0268830">
    <ele>169.6</ele>
    <time>2021-01-28T23:53:33Z</time>
   </trkpt>
   <trkpt lat="47.3654630" lon="-122.0268730">
    <ele>169.6</ele>
    <time>2021-01-28T23:53:34Z</time>
   </trkpt>
   <trkpt lat="47.3654300" lon="-122.0268510">
    <ele>169.6</ele>
    <time>2021-01-28T23:53:35Z</time>
   </trkpt>
   <trkpt lat="47.3653990" lon="-122.0268380">
    <ele>169.7</ele>
    <time>2021-01-28T23:53:36Z</time>
   </trkpt>
   <trkpt lat="47.3653770" lon="-122.0268050">
    <ele>169.7</ele>
    <time>2021-01-28T23:53:37Z</time>
   </trkpt>
   <trkpt lat="47.3653510" lon="-122.0267860">
    <ele>169.7</ele>
    <time>2021-01-28T23:53:38Z</time>
   </trkpt>
   <trkpt lat="47.3653220" lon="-122.0267650">
    <ele>169.8</ele>
    <time>2021-01-28T23:53:39Z</time>
   </trkpt>
   <trkpt lat="47.3652850" lon="-122.0267380">
    <ele>169.8</ele>
    <time>2021-01-28T23:53:40Z</time>
   </trkpt>
   <trkpt lat="47.3652700" lon="-122.0267350">
    <ele>169.8</ele>
    <time>2021-01-28T23:53:41Z</time>
   </trkpt>
   <trkpt lat="47.3652400" lon="-122.0267000">
    <ele>169.8</ele>
    <time>2021-01-28T23:53:42Z</time>
   </trkpt>
   <trkpt lat="47.3652290" lon="-122.0266890">
    <ele>169.8</ele>
    <time>2021-01-28T23:53:43Z</time>
   </trkpt>
   <trkpt lat="47.3651840" lon="-122.0266450">
    <ele>169.9</ele>
    <time>2021-01-28T23:53:44Z</time>
   </trkpt>
   <trkpt lat="47.3651490" lon="-122.0266160">
    <ele>169.9</ele>
    <time>2021-01-28T23:53:45Z</time>
   </trkpt>
   <trkpt lat="47.3651340" lon="-122.0266100">
    <ele>169.9</ele>
    <time>2021-01-28T23:53:46Z</time>
   </trkpt>
   <trkpt lat="47.3651030" lon="-122.0265760">
    <ele>170.0</ele>
    <time>2021-01-28T23:53:47Z</time>
   </trkpt>
   <trkpt lat="47.3650760" lon="-122.0265590">
    <ele>170.0</ele>
    <time>2021-01-28T23:53:48Z</time>
   </trkpt>
   <trkpt lat="47.3650470" lon="-122.0265390">
    <ele>170.0</ele>
    <time>2021-01-28T23:53:49Z</time>
   </trkpt>
   <trkpt lat="47.3650150" lon="-122.0265110">
    <ele>170.1</ele>
    <time>2021-01-28T23:53:50Z</time>
   </trkpt>
   <trkpt lat="47.3649980" lon="-122.0264990">
    <ele>170.1</ele>
    <time>2021-01-28T23:53:51Z</time>
   </trkpt>
   <trkpt lat="47.3649720" lon="-122.0264790">
    <ele>170.1</ele>
    <time>2021-01-28T23:53:52Z</time>
   </trkpt>
   <trkpt lat="47.3649410" lon="-122.0264660">
    <ele>170.1</ele>
    <time>2021-01-28T23:53:53Z</time>
   </trkpt>
   <trkpt lat="47.3649120" lon="-122.0264370">
    <ele>170.2</ele>
    <time>2021-01-28T23:53:54Z</time>
   </trkpt>
   <trkpt lat="47.3648770" lon="-122.0264080">
    <ele>170.2</ele>
    <time>2021-01-28T23:53:55Z</time>
   </trkpt>
   <trkpt lat="47.3648640" lon="-122.0263950">
    <ele>170.2</ele>
    <time>2021-01-28T23:53:56Z</time>
   </trkpt>
   <trkpt lat="47.3648290" lon="-122.0263760">
    <ele>170.2</ele>
    <time>2021-01-28T23:53:57Z</time>
   </trkpt>
   <trkpt lat="47.3647910" lon="-122.0263500">
    <ele>170.2</ele>
    <time>2021-01-28T23:53:58Z</time>
   </trkpt>
   <trkpt lat="47.3647790" lon="-122.0263360">
    <ele>170.2</ele>
    <time>2021-01-28T23:53:59Z</time>
   </trkpt>
   <trkpt lat="47.3647560" lon="-122.0263110">
    <ele>170.3</ele>
    <time>2021-01-28T23:54:00Z</time>
   </trkpt>
   <trkpt lat="47.3647240" lon="-122.0262850">
    <ele>170.3</ele>
    <time>2021-01-28T23:54:01Z</time>
   </trkpt>
   <trkpt lat="47.3646880" lon="-122.0262650">
    <ele>170.3</ele>
    <time>2021-01-28T23:54:02Z</time>
   </trkpt>
   <trkpt lat="47.3646750" lon="-122.0262580">
    <ele>170.3</ele>
    <time>2021-01-28T23:54:03Z</time>
   </trkpt>
   <trkpt lat="47.3646460" lon="-122.0262310">
    <ele>170.3</ele>
    <time>2021-01-28T23:54:04Z</time>
   </trkpt>
   <trkpt lat="47.3646200" lon="-122.0262100">
    <ele>170.4</ele>
    <time>2021-01-28T23:54:05Z</time>
   </trkpt>
   <trkpt lat="47.3645890" lon="-122.0261880">
    <ele>170.4</ele>
    <time>2021-01-28T23:54:06Z</time>
   </trkpt>
   <trkpt lat="47.3645520" lon="-122.0261520">
    <ele>170.4</ele>
    <time>2021-01-28T23:54:07Z</time>
   </trkpt>
   <trkpt lat="47.3645350" lon="-122.0261410">
    <ele>170.4</ele>
    <time>2021-01-28T23:54:08Z</time>
   </trkpt>
   <trkpt lat="47.3645050" lon="-122.0261160">
    <ele>170.4</ele>
    <time>2021-01-28T23:54:09Z</time>
   </trkpt>
   <trkpt lat="47.3644770" lon="-122.0261020">
    <ele>170.4</ele>
    <time>2021-01-28T23:54:10Z</time>
   </trkpt>
   <trkpt lat="47.3644440" lon="-122.0260690">
    <ele>170.4</ele>
    <time>2021-01-28T23:54:11Z</time>
   </trkpt>
   <trkpt lat="47.3644180" lon="-122.0260540">
    <ele>170.4</ele>
    <time>2021-01-28T23:54:12Z</time>
   </trkpt>
   <trkpt lat="47.3643820" lon="-122.0260370">
    <ele>170.4</ele>
    <time>2021-01-28T23:54:13Z</time>
   </trkpt>
   <trkpt lat="47.3643640" lon="-122.0260060">
    <ele>170.4</ele>
    <time>2021-01-28T23:54:14Z</time>
   </trkpt>
   <trkpt lat="47.3643240" lon="-122.0259710">
    <ele>170.4</ele>
    <time>2021-01-28T23:54:15Z</time>
   </trkpt>
   <trkpt lat="47.3643060" lon="-122.0259560">
    <ele>170.4</ele>
    <time>2021-01-28T23:54:16Z</time>
   </trkpt>
   <trkpt lat="47.3642720" lon="-122.0259220">
    <ele>170.3</ele>
    <time>2021-01-28T23:54:17Z</time>
   </trkpt>
   <trkpt lat="47.3642590" lon="-122.0259080">
    <ele>170.3</ele>
    <time>2021-01-28T23:54:18Z</time>
   </trkpt>
   <trkpt lat="47.3642310" lon="-122.0258710">
    <ele>170.3</ele>
    <time>2021-01-28T23:54:19Z</time>
   </trkpt>
   <trkpt lat="47.3642020" lon="-122.0258570">
    <ele>170.3</ele>
    <time>2021-01-28T23:54:20Z</time>
   </trkpt>
   <trkpt lat="47.3641750" lon="-122.0258230">
    <ele>170.3</ele>
    <time>2021-01-28T23:54:21Z</time>
   </trkpt>
   <trkpt lat="47.3641500" lon="-122.0258080">
    <ele>170.3</ele>
    <time>2021-01-28T23:54:22Z</time>
   </trkpt>
   <trkpt lat="47.3641200" lon="-122.0257820">
    <ele>170.2</ele>
    <time>2021-01-28T23:54:23Z</time>
   </trkpt>
   <trkpt lat="47.3640890" lon="-122.0257620">
    <ele>170.2</ele>
    <time>2021-01-28T23:54:24Z</time>
   </trkpt>
   <trkpt lat="47.3640670" lon="-122.0257300">
    <ele>170.2</ele>
    <time>2021-01-28T23:54:25Z</time>
   </trkpt>
   <trkpt lat="47.3640330" lon="-122.0256990">
    <ele>170.2</ele>
    <time>2021-01-28T23:54:26Z</time>
   </trkpt>
   <trkpt lat="47.3640080" lon="-122.0256770">
    <ele>170.2</ele>
    <time>2021-01-28T23:54:27Z</time>
   </trkpt>
   <trkpt lat="47.3639680" lon="-122.0256550">
    <ele>170.2</ele>
    <time>2021-01-28T23:54:28Z</time>
   </trkpt>
   <trkpt lat="47.3639450" lon="-122.0256290">
    <ele>170.2</ele>
    <time>2021-01-28T23:54:29Z</time>
   </trkpt>
   <trkpt lat="47.3639150" lon="-122.0256060">
    <ele>170.2</ele>
    <time>2021-01-28T23:54:30Z</time>
   </trkpt>
   <trkpt lat="47.3638870" lon="-122.0255940">
    <ele>170.2</ele>
    <time>2021-01-28T23:54:31Z</time>
   </trkpt>
   <trkpt lat="47.3638650" lon="-122.0255650">
    <ele>170.2</ele>
    <time>2021-01-28T23:54:32Z</time>
   </trkpt>
   <trkpt lat="47.3638350" lon="-122.0255340">
    <ele>170.2</ele>
    <time>2021-01-28T23:54:33Z</time>
   </trkpt>
   <trkpt lat="47.3638090" lon="-122.0255070">
    <ele>170.2</ele>
    <time>2021-01-28T23:54:34Z</time>
   </trkpt>
   <trkpt lat="47.3637690" lon="-122.0254780">
    <ele>170.2</ele>
    <time>2021-01-28T23:54:35Z</time>
   </trkpt>
   <trkpt lat="47.3637440" lon="-122.0254600">
    <ele>170.2</ele>
    <time>2021-01-28T23:54:36Z</time>
   </trkpt>
   <trkpt lat="47.3636980" lon="-122.0254570">
    <ele>170.1</ele>
    <time>2021-01-28T23:54:37Z</time>
   </trkpt>
   <trkpt lat="47.3636700" lon="-122.0254280">
    <ele>170.1</ele>
    <time>2021-01-28T23:54:38Z</time>
   </trkpt>
   <trkpt lat="47.3636380" lon="-122.0254300">
    <ele>170.0</ele>
    <time>2021-01-28T23:54:39Z</time>
   </trkpt>
   <trkpt lat="47.3635930" lon="-122.0254050">
    <ele>170.0</ele>
    <time>2021-01-28T23:54:40Z</time>
   </trkpt>
   <trkpt lat="47.3635530" lon="-122.0254010">
    <ele>169.9</ele>
    <time>2021-01-28T23:54:41Z</time>
   </trkpt>
   <trkpt lat="47.3635200" lon="-122.0253790">
    <ele>169.8</ele>
    <time>2021-01-28T23:54:42Z</time>
   </trkpt>
   <trkpt lat="47.3634840" lon="-122.0253660">
    <ele>169.7</ele>
    <time>2021-01-28T23:54:43Z</time>
   </trkpt>
   <trkpt lat="47.3634590" lon="-122.0253470">
    <ele>169.6</ele>
    <time>2021-01-28T23:54:44Z</time>
   </trkpt>
   <trkpt lat="47.3634290" lon="-122.0253150">
    <ele>169.5</ele>
    <time>2021-01-28T23:54:45Z</time>
   </trkpt>
   <trkpt lat="47.3633990" lon="-122.0252940">
    <ele>169.4</ele>
    <time>2021-01-28T23:54:46Z</time>
   </trkpt>
   <trkpt lat="47.3633670" lon="-122.0252760">
    <ele>169.3</ele>
    <time>2021-01-28T23:54:47Z</time>
   </trkpt>
   <trkpt lat="47.3633350" lon="-122.0252530">
    <ele>169.2</ele>
    <time>2021-01-28T23:54:48Z</time>
   </trkpt>
   <trkpt lat="47.3633030" lon="-122.0252420">
    <ele>169.1</ele>
    <time>2021-01-28T23:54:49Z</time>
   </trkpt>
   <trkpt lat="47.3632710" lon="-122.0252120">
    <ele>168.9</ele>
    <time>2021-01-28T23:54:50Z</time>
   </trkpt>
   <trkpt lat="47.3632420" lon="-122.0251960">
    <ele>168.8</ele>
    <time>2021-01-28T23:54:51Z</time>
   </trkpt>
   <trkpt lat="47.3632160" lon="-122.0251770">
    <ele>168.6</ele>
    <time>2021-01-28T23:54:52Z</time>
   </trkpt>
   <trkpt lat="47.3631800" lon="-122.0251410">
    <ele>168.4</ele>
    <time>2021-01-28T23:54:53Z</time>
   </trkpt>
   <trkpt lat="47.3631520" lon="-122.0251300">
    <ele>168.3</ele>
    <time>2021-01-28T23:54:54Z</time>
   </trkpt>
   <trkpt lat="47.3631200" lon="-122.0251130">
    <ele>168.1</ele>
    <time>2021-01-28T23:54:55Z</time>
   </trkpt>
   <trkpt lat="47.3630880" lon="-122.0250950">
    <ele>168.0</ele>
    <time>2021-01-28T23:54:56Z</time>
   </trkpt>
   <trkpt lat="47.3630590" lon="-122.0250760">
    <ele>167.8</ele>
    <time>2021-01-28T23:54:57Z</time>
   </trkpt>
   <trkpt lat="47.3630300" lon="-122.0250500">
    <ele>167.7</ele>
    <time>2021-01-28T23:54:58Z</time>
   </trkpt>
   <trkpt lat="47.3630070" lon="-122.0250200">
    <ele>167.6</ele>
    <time>2021-01-28T23:54:59Z</time>
   </trkpt>
   <trkpt lat="47.3629690" lon="-122.0250100">
    <ele>167.5</ele>
    <time>2021-01-28T23:55:00Z</time>
   </trkpt>
   <trkpt lat="47.3629390" lon="-122.0249840">
    <ele>167.4</ele>
    <time>2021-01-28T23:55:01Z</time>
   </trkpt>
   <trkpt lat="47.3629090" lon="-122.0249650">
    <ele>167.3</ele>
    <time>2021-01-28T23:55:02Z</time>
   </trkpt>
   <trkpt lat="47.3628750" lon="-122.0249290">
    <ele>167.2</ele>
    <time>2021-01-28T23:55:03Z</time>
   </trkpt>
   <trkpt lat="47.3628490" lon="-122.0249040">
    <ele>167.1</ele>
    <time>2021-01-28T23:55:04Z</time>
   </trkpt>
   <trkpt lat="47.3628160" lon="-122.0248920">
    <ele>167.1</ele>
    <time>2021-01-28T23:55:05Z</time>
   </trkpt>
   <trkpt lat="47.3627880" lon="-122.0248560">
    <ele>167.1</ele>
    <time>2021-01-28T23:55:06Z</time>
   </trkpt>
   <trkpt lat="47.3627620" lon="-122.0248340">
    <ele>167.0</ele>
    <time>2021-01-28T23:55:07Z</time>
   </trkpt>
   <trkpt lat="47.3627370" lon="-122.0247980">
    <ele>167.0</ele>
    <time>2021-01-28T23:55:08Z</time>
   </trkpt>
   <trkpt lat="47.3626990" lon="-122.0247790">
    <ele>167.0</ele>
    <time>2021-01-28T23:55:09Z</time>
   </trkpt>
   <trkpt lat="47.3626860" lon="-122.0247660">
    <ele>167.0</ele>
    <time>2021-01-28T23:55:10Z</time>
   </trkpt>
   <trkpt lat="47.3626590" lon="-122.0247390">
    <ele>167.0</ele>
    <time>2021-01-28T23:55:11Z</time>
   </trkpt>
   <trkpt lat="47.3626460" lon="-122.0247330">
    <ele>167.0</ele>
    <time>2021-01-28T23:55:12Z</time>
   </trkpt>
   <trkpt lat="47.3626130" lon="-122.0247140">
    <ele>167.0</ele>
    <time>2021-01-28T23:55:13Z</time>
   </trkpt>
   <trkpt lat="47.3625810" lon="-122.0246890">
    <ele>167.0</ele>
    <time>2021-01-28T23:55:14Z</time>
   </trkpt>
   <trkpt lat="47.3625460" lon="-122.0246630">
    <ele>167.0</ele>
    <time>2021-01-28T23:55:15Z</time>
   </trkpt>
   <trkpt lat="47.3625120" lon="-122.0246440">
    <ele>167.0</ele>
    <time>2021-01-28T23:55:16Z</time>
   </trkpt>
   <trkpt lat="47.3624850" lon="-122.0246310">
    <ele>167.1</ele>
    <time>2021-01-28T23:55:17Z</time>
   </trkpt>
   <trkpt lat="47.3624540" lon="-122.0246180">
    <ele>167.1</ele>
    <time>2021-01-28T23:55:18Z</time>
   </trkpt>
   <trkpt lat="47.3624180" lon="-122.0246080">
    <ele>167.1</ele>
    <time>2021-01-28T23:55:19Z</time>
   </trkpt>
   <trkpt lat="47.3623800" lon="-122.0245820">
    <ele>167.1</ele>
    <time>2021-01-28T23:55:20Z</time>
   </trkpt>
   <trkpt lat="47.3623520" lon="-122.0245600">
    <ele>167.1</ele>
    <time>2021-01-28T23:55:21Z</time>
   </trkpt>
   <trkpt lat="47.3623180" lon="-122.0245400">
    <ele>167.1</ele>
    <time>2021-01-28T23:55:22Z</time>
   </trkpt>
   <trkpt lat="47.3622860" lon="-122.0245110">
    <ele>167.1</ele>
    <time>2021-01-28T23:55:23Z</time>
   </trkpt>
   <trkpt lat="47.3622690" lon="-122.0245060">
    <ele>167.1</ele>
    <time>2021-01-28T23:55:24Z</time>
   </trkpt>
   <trkpt lat="47.3622360" lon="-122.0244810">
    <ele>167.2</ele>
    <time>2021-01-28T23:55:25Z</time>
   </trkpt>
   <trkpt lat="47.3622030" lon="-122.0244660">
    <ele>167.2</ele>
    <time>2021-01-28T23:55:26Z</time>
   </trkpt>
   <trkpt lat="47.3621680" lon="-122.0244460">
    <ele>167.3</ele>
    <time>2021-01-28T23:55:27Z</time>
   </trkpt>
   <trkpt lat="47.3621310" lon="-122.0244190">
    <ele>167.3</ele>
    <time>2021-01-28T23:55:28Z</time>
   </trkpt>
   <trkpt lat="47.3621170" lon="-122.0244050">
    <ele>167.3</ele>
    <time>2021-01-28T23:55:29Z</time>
   </trkpt>
   <trkpt lat="47.3620920" lon="-122.0243660">
    <ele>167.4</ele>
    <time>2021-01-28T23:55:30Z</time>
   </trkpt>
   <trkpt lat="47.3620650" lon="-122.0243470">
    <ele>167.5</ele>
    <time>2021-01-28T23:55:31Z</time>
   </trkpt>
   <trkpt lat="47.3620290" lon="-122.0243270">
    <ele>167.5</ele>
    <time>2021-01-28T23:55:32Z</time>
   </trkpt>
   <trkpt lat="47.3619960" lon="-122.0242970">
    <ele>167.6</ele>
    <time>2021-01-28T23:55:33Z</time>
   </trkpt>
   <trkpt lat="47.3619800" lon="-122.0242920">
    <ele>167.7</ele>
    <time>2021-01-28T23:55:34Z</time>
   </trkpt>
   <trkpt lat="47.3619520" lon="-122.0242630">
    <ele>167.7</ele>
    <time>2021-01-28T23:55:35Z</time>
   </trkpt>
   <trkpt lat="47.3619160" lon="-122.0242540">
    <ele>167.8</ele>
    <time>2021-01-28T23:55:36Z</time>
   </trkpt>
   <trkpt lat="47.3618860" lon="-122.0242140">
    <ele>167.9</ele>
    <time>2021-01-28T23:55:37Z</time>
   </trkpt>
   <trkpt lat="47.3618600" lon="-122.0241770">
    <ele>168.0</ele>
    <time>2021-01-28T23:55:38Z</time>
   </trkpt>
   <trkpt lat="47.3618310" lon="-122.0241400">
    <ele>168.1</ele>
    <time>2021-01-28T23:55:39Z</time>
   </trkpt>
   <trkpt lat="47.3618030" lon="-122.0241000">
    <ele>168.2</ele>
    <time>2021-01-28T23:55:40Z</time>
   </trkpt>
   <trkpt lat="47.3617660" lon="-122.0240940">
    <ele>168.3</ele>
    <time>2021-01-28T23:55:41Z</time>
   </trkpt>
   <trkpt lat="47.3617380" lon="-122.0240680">
    <ele>168.4</ele>
    <time>2021-01-28T23:55:42Z</time>
   </trkpt>
   <trkpt lat="47.3617080" lon="-122.0240480">
    <ele>168.5</ele>
    <time>2021-01-28T23:55:43Z</time>
   </trkpt>
   <trkpt lat="47.3616860" lon="-122.0240440">
    <ele>168.6</ele>
    <time>2021-01-28T23:55:44Z</time>
   </trkpt>
   <trkpt lat="47.3616810" lon="-122.0240360">
    <ele>168.6</ele>
    <time>2021-01-28T23:55:45Z</time>
   </trkpt>
  </trkseg>
 </trk>
</gpx>
