<?xml version="1.0" encoding="UTF-8"?>
<gpx creator="StravaGPX" version="1.1" xmlns="http://www.topografix.com/GPX/1/1" xmlns:xsi="http://www.w3.org/2001/XMLSchema-instance" xsi:schemaLocation="http://www.topografix.com/GPX/1/1 http://www.topografix.com/GPX/1/1/gpx.xsd">
 <metadata>
  <time>2021-02-03T00:46:06Z</time>
 </metadata>
 <trk>
  <name>Cool down</name>
  <type>walking</type>
  <trkseg>
   <trkpt lat="47.3809860" lon="-122.0440240">
    <ele>144.8</ele>
    <time>2021-02-03T00:46:06Z</time>
   </trkpt>
   <trkpt lat="47.3809860" lon="-122.0440100">
    <ele>144.8</ele>
    <time>2021-02-03T00:46:07Z</time>
   </trkpt>
   <trkpt lat="47.3809860" lon="-122.0439960">
    <ele>144.9</ele>
    <time>2021-02-03T00:46:08Z</time>
   </trkpt>
   <trkpt lat="47.3809840" lon="-122.0439870">
    <ele>144.9</ele>
    <time>2021-02-03T00:46:09Z</time>
   </trkpt>
   <trkpt lat="47.3809810" lon="-122.0439790">
    <ele>144.9</ele>
    <time>2021-02-03T00:46:10Z</time>
   </trkpt>
   <trkpt lat="47.3809740" lon="-122.0439680">
    <ele>144.9</ele>
    <time>2021-02-03T00:46:11Z</time>
   </trkpt>
   <trkpt lat="47.3809740" lon="-122.0439560">
    <ele>144.9</ele>
    <time>2021-02-03T00:46:12Z</time>
   </trkpt>
   <trkpt lat="47.3809670" lon="-122.0439340">
    <ele>144.9</ele>
    <time>2021-02-03T00:46:13Z</time>
   </trkpt>
   <trkpt lat="47.3809560" lon="-122.0438990">
    <ele>144.9</ele>
    <time>2021-02-03T00:46:14Z</time>
   </trkpt>
   <trkpt lat="47.3809540" lon="-122.0438840">
    <ele>145.0</ele>
    <time>2021-02-03T00:46:15Z</time>
   </trkpt>
   <trkpt lat="47.3809510" lon="-122.0438690">
    <ele>145.0</ele>
    <time>2021-02-03T00:46:16Z</time>
   </trkpt>
   <trkpt lat="47.3809470" lon="-122.0438280">
    <ele>145.0</ele>
    <time>2021-02-03T00:46:17Z</time>
   </trkpt>
   <trkpt lat="47.3809460" lon="-122.0438140">
    <ele>145.0</ele>
    <time>2021-02-03T00:46:18Z</time>
   </trkpt>
   <trkpt lat="47.3809460" lon="-122.0437810">
    <ele>145.0</ele>
    <time>2021-02-03T00:46:19Z</time>
   </trkpt>
   <trkpt lat="47.3809430" lon="-122.0437690">
    <ele>145.1</ele>
    <time>2021-02-03T00:46:20Z</time>
   </trkpt>
   <trkpt lat="47.3809410" lon="-122.0437560">
    <ele>145.1</ele>
    <time>2021-02-03T00:46:21Z</time>
   </trkpt>
   <trkpt lat="47.3809300" lon="-122.0437170">
    <ele>145.1</ele>
    <time>2021-02-03T00:46:22Z</time>
   </trkpt>
   <trkpt lat="47.3809260" lon="-122.0436980">
    <ele>145.1</ele>
    <time>2021-02-03T00:46:23Z</time>
   </trkpt>
   <trkpt lat="47.3809190" lon="-122.0436480">
    <ele>145.2</ele>
    <time>2021-02-03T00:46:24Z</time>
   </trkpt>
   <trkpt lat="47.3809150" lon="-122.0436350">
    <ele>145.2</ele>
    <time>2021-02-03T00:46:25Z</time>
   </trkpt>
   <trkpt lat="47.3809120" lon="-122.0435830">
    <ele>145.2</ele>
    <time>2021-02-03T00:46:26Z</time>
   </trkpt>
   <trkpt lat="47.3809090" lon="-122.0435680">
    <ele>145.2</ele>
    <time>2021-02-03T00:46:27Z</time>
   </trkpt>
   <trkpt lat="47.3809060" lon="-122.0435550">
    <ele>145.2</ele>
    <time>2021-02-03T00:46:28Z</time>
   </trkpt>
   <trkpt lat="47.3808990" lon="-122.0435540">
    <ele>145.3</ele>
    <time>2021-02-03T00:46:29Z</time>
   </trkpt>
   <trkpt lat="47.3808990" lon="-122.0435390">
    <ele>145.3</ele>
    <time>2021-02-03T00:46:30Z</time>
   </trkpt>
   <trkpt lat="47.3809010" lon="-122.0435300">
    <ele>145.3</ele>
    <time>2021-02-03T00:46:31Z</time>
   </trkpt>
   <trkpt lat="47.3809040" lon="-122.0435180">
    <ele>145.3</ele>
    <time>2021-02-03T00:46:32Z</time>
   </trkpt>
   <trkpt lat="47.3809090" lon="-122.0435060">
    <ele>145.3</ele>
    <time>2021-02-03T00:46:33Z</time>
   </trkpt>
   <trkpt lat="47.3809040" lon="-122.0434850">
    <ele>145.3</ele>
    <time>2021-02-03T00:46:34Z</time>
   </trkpt>
   <trkpt lat="47.3808930" lon="-122.0434680">
    <ele>145.3</ele>
    <time>2021-02-03T00:46:35Z</time>
   </trkpt>
   <trkpt lat="47.3808910" lon="-122.0434550">
    <ele>145.3</ele>
    <time>2021-02-03T00:46:36Z</time>
   </trkpt>
   <trkpt lat="47.3808890" lon="-122.0434410">
    <ele>145.3</ele>
    <time>2021-02-03T00:46:37Z</time>
   </trkpt>
   <trkpt lat="47.3808870" lon="-122.0434280">
    <ele>145.4</ele>
    <time>2021-02-03T00:46:38Z</time>
   </trkpt>
   <trkpt lat="47.3808870" lon="-122.0434110">
    <ele>145.4</ele>
    <time>2021-02-03T00:46:39Z</time>
   </trkpt>
   <trkpt lat="47.3808850" lon="-122.0433830">
    <ele>145.4</ele>
    <time>2021-02-03T00:46:40Z</time>
   </trkpt>
   <trkpt lat="47.3808850" lon="-122.0433710">
    <ele>145.4</ele>
    <time>2021-02-03T00:46:41Z</time>
   </trkpt>
   <trkpt lat="47.3808860" lon="-122.0433630">
    <ele>145.4</ele>
    <time>2021-02-03T00:46:42Z</time>
   </trkpt>
   <trkpt lat="47.3808900" lon="-122.0433470">
    <ele>145.4</ele>
    <time>2021-02-03T00:46:43Z</time>
   </trkpt>
   <trkpt lat="47.3808930" lon="-122.0433340">
    <ele>145.4</ele>
    <time>2021-02-03T00:46:44Z</time>
   </trkpt>
   <trkpt lat="47.3808940" lon="-122.0433240">
    <ele>145.4</ele>
    <time>2021-02-03T00:46:45Z</time>
   </trkpt>
   <trkpt lat="47.3808990" lon="-122.0433210">
    <ele>145.4</ele>
    <time>2021-02-03T00:46:46Z</time>
   </trkpt>
   <trkpt lat="47.3809040" lon="-122.0433110">
    <ele>145.4</ele>
    <time>2021-02-03T00:46:47Z</time>
   </trkpt>
   <trkpt lat="47.3809060" lon="-122.0432920">
    <ele>145.4</ele>
    <time>2021-02-03T00:46:48Z</time>
   </trkpt>
   <trkpt lat="47.3809050" lon="-122.0432790">
    <ele>145.5</ele>
    <time>2021-02-03T00:46:49Z</time>
   </trkpt>
   <trkpt lat="47.3809020" lon="-122.0432600">
    <ele>145.5</ele>
    <time>2021-02-03T00:46:50Z</time>
   </trkpt>
   <trkpt lat="47.3808990" lon="-122.0432450">
    <ele>145.5</ele>
    <time>2021-02-03T00:46:51Z</time>
   </trkpt>
   <trkpt lat="47.3808970" lon="-122.0432130">
    <ele>145.5</ele>
    <time>2021-02-03T00:46:52Z</time>
   </trkpt>
   <trkpt lat="47.3808950" lon="-122.0431980">
    <ele>145.5</ele>
    <time>2021-02-03T00:46:53Z</time>
   </trkpt>
   <trkpt lat="47.3809000" lon="-122.0431680">
    <ele>145.5</ele>
    <time>2021-02-03T00:46:54Z</time>
   </trkpt>
   <trkpt lat="47.3808940" lon="-122.0431520">
    <ele>145.5</ele>
    <time>2021-02-03T00:46:55Z</time>
   </trkpt>
   <trkpt lat="47.3808940" lon="-122.0431210">
    <ele>145.5</ele>
    <time>2021-02-03T00:46:56Z</time>
   </trkpt>
   <trkpt lat="47.3808940" lon="-122.0431090">
    <ele>145.6</ele>
    <time>2021-02-03T00:46:57Z</time>
   </trkpt>
   <trkpt lat="47.3808950" lon="-122.0430960">
    <ele>145.6</ele>
    <time>2021-02-03T00:46:58Z</time>
   </trkpt>
   <trkpt lat="47.3808890" lon="-122.0430700">
    <ele>145.6</ele>
    <time>2021-02-03T00:46:59Z</time>
   </trkpt>
   <trkpt lat="47.3808940" lon="-122.0430550">
    <ele>145.6</ele>
    <time>2021-02-03T00:47:00Z</time>
   </trkpt>
   <trkpt lat="47.3808920" lon="-122.0430370">
    <ele>145.6</ele>
    <time>2021-02-03T00:47:01Z</time>
   </trkpt>
   <trkpt lat="47.3809000" lon="-122.0430230">
    <ele>145.6</ele>
    <time>2021-02-03T00:47:02Z</time>
   </trkpt>
   <trkpt lat="47.3808910" lon="-122.0430060">
    <ele>145.6</ele>
    <time>2021-02-03T00:47:03Z</time>
   </trkpt>
   <trkpt lat="47.3808930" lon="-122.0429820">
    <ele>145.6</ele>
    <time>2021-02-03T00:47:04Z</time>
   </trkpt>
   <trkpt lat="47.3808920" lon="-122.0429640">
    <ele>145.6</ele>
    <time>2021-02-03T00:47:05Z</time>
   </trkpt>
   <trkpt lat="47.3808920" lon="-122.0429360">
    <ele>145.7</ele>
    <time>2021-02-03T00:47:06Z</time>
   </trkpt>
   <trkpt lat="47.3808890" lon="-122.0429220">
    <ele>145.7</ele>
    <time>2021-02-03T00:47:07Z</time>
   </trkpt>
   <trkpt lat="47.3808870" lon="-122.0429090">
    <ele>145.7</ele>
    <time>2021-02-03T00:47:08Z</time>
   </trkpt>
   <trkpt lat="47.3808830" lon="-122.0428950">
    <ele>145.7</ele>
    <time>2021-02-03T00:47:09Z</time>
   </trkpt>
   <trkpt lat="47.3808790" lon="-122.0428790">
    <ele>145.7</ele>
    <time>2021-02-03T00:47:10Z</time>
   </trkpt>
   <trkpt lat="47.3808770" lon="-122.0428610">
    <ele>145.7</ele>
    <time>2021-02-03T00:47:11Z</time>
   </trkpt>
   <trkpt lat="47.3808690" lon="-122.0428500">
    <ele>145.7</ele>
    <time>2021-02-03T00:47:12Z</time>
   </trkpt>
   <trkpt lat="47.3808700" lon="-122.0428310">
    <ele>145.7</ele>
    <time>2021-02-03T00:47:13Z</time>
   </trkpt>
   <trkpt lat="47.3808760" lon="-122.0428180">
    <ele>145.7</ele>
    <time>2021-02-03T00:47:14Z</time>
   </trkpt>
   <trkpt lat="47.3808770" lon="-122.0428030">
    <ele>145.7</ele>
    <time>2021-02-03T00:47:15Z</time>
   </trkpt>
   <trkpt lat="47.3808760" lon="-122.0427850">
    <ele>145.7</ele>
    <time>2021-02-03T00:47:16Z</time>
   </trkpt>
   <trkpt lat="47.3808760" lon="-122.0427660">
    <ele>145.8</ele>
    <time>2021-02-03T00:47:17Z</time>
   </trkpt>
   <trkpt lat="47.3808770" lon="-122.0427500">
    <ele>145.8</ele>
    <time>2021-02-03T00:47:18Z</time>
   </trkpt>
   <trkpt lat="47.3808800" lon="-122.0427350">
    <ele>145.8</ele>
    <time>2021-02-03T00:47:19Z</time>
   </trkpt>
   <trkpt lat="47.3808820" lon="-122.0427250">
    <ele>145.8</ele>
    <time>2021-02-03T00:47:20Z</time>
   </trkpt>
   <trkpt lat="47.3808810" lon="-122.0426960">
    <ele>145.8</ele>
    <time>2021-02-03T00:47:21Z</time>
   </trkpt>
   <trkpt lat="47.3808750" lon="-122.0426750">
    <ele>145.8</ele>
    <time>2021-02-03T00:47:22Z</time>
   </trkpt>
   <trkpt lat="47.3808680" lon="-122.0426490">
    <ele>145.8</ele>
    <time>2021-02-03T00:47:23Z</time>
   </trkpt>
   <trkpt lat="47.3808650" lon="-122.0426370">
    <ele>145.8</ele>
    <time>2021-02-03T00:47:24Z</time>
   </trkpt>
   <trkpt lat="47.3808610" lon="-122.0426240">
    <ele>145.8</ele>
    <time>2021-02-03T00:47:25Z</time>
   </trkpt>
   <trkpt lat="47.3808530" lon="-122.0426150">
    <ele>145.8</ele>
    <time>2021-02-03T00:47:26Z</time>
   </trkpt>
   <trkpt lat="47.3808460" lon="-122.0426090">
    <ele>145.8</ele>
    <time>2021-02-03T00:47:27Z</time>
   </trkpt>
   <trkpt lat="47.3808380" lon="-122.0426020">
    <ele>145.4</ele>
    <time>2021-02-03T00:47:28Z</time>
   </trkpt>
   <trkpt lat="47.3808310" lon="-122.0425960">
    <ele>145.4</ele>
    <time>2021-02-03T00:47:29Z</time>
   </trkpt>
   <trkpt lat="47.3808230" lon="-122.0425900">
    <ele>145.3</ele>
    <time>2021-02-03T00:47:30Z</time>
   </trkpt>
   <trkpt lat="47.3807970" lon="-122.0425860">
    <ele>145.1</ele>
    <time>2021-02-03T00:47:31Z</time>
   </trkpt>
   <trkpt lat="47.3807880" lon="-122.0425780">
    <ele>145.0</ele>
    <time>2021-02-03T00:47:32Z</time>
   </trkpt>
   <trkpt lat="47.3807730" lon="-122.0425640">
    <ele>144.9</ele>
    <time>2021-02-03T00:47:33Z</time>
   </trkpt>
   <trkpt lat="47.3807670" lon="-122.0425600">
    <ele>144.9</ele>
    <time>2021-02-03T00:47:34Z</time>
   </trkpt>
   <trkpt lat="47.3807610" lon="-122.0425560">
    <ele>144.8</ele>
    <time>2021-02-03T00:47:35Z</time>
   </trkpt>
   <trkpt lat="47.3807550" lon="-122.0425520">
    <ele>144.8</ele>
    <time>2021-02-03T00:47:36Z</time>
   </trkpt>
   <trkpt lat="47.3807430" lon="-122.0425430">
    <ele>144.7</ele>
    <time>2021-02-03T00:47:37Z</time>
   </trkpt>
   <trkpt lat="47.3807330" lon="-122.0425340">
    <ele>144.0</ele>
    <time>2021-02-03T00:47:38Z</time>
   </trkpt>
   <trkpt lat="47.3807240" lon="-122.0425350">
    <ele>144.0</ele>
    <time>2021-02-03T00:47:39Z</time>
   </trkpt>
   <trkpt lat="47.3807020" lon="-122.0425440">
    <ele>143.9</ele>
    <time>2021-02-03T00:47:40Z</time>
   </trkpt>
   <trkpt lat="47.3806940" lon="-122.0425490">
    <ele>143.9</ele>
    <time>2021-02-03T00:47:41Z</time>
   </trkpt>
   <trkpt lat="47.3806870" lon="-122.0425550">
    <ele>143.9</ele>
    <time>2021-02-03T00:47:42Z</time>
   </trkpt>
   <trkpt lat="47.3806680" lon="-122.0425570">
    <ele>143.9</ele>
    <time>2021-02-03T00:47:43Z</time>
   </trkpt>
   <trkpt lat="47.3806590" lon="-122.0425600">
    <ele>143.8</ele>
    <time>2021-02-03T00:47:44Z</time>
   </trkpt>
   <trkpt lat="47.3806510" lon="-122.0425630">
    <ele>143.8</ele>
    <time>2021-02-03T00:47:45Z</time>
   </trkpt>
   <trkpt lat="47.3806360" lon="-122.0425720">
    <ele>143.8</ele>
    <time>2021-02-03T00:47:46Z</time>
   </trkpt>
   <trkpt lat="47.3806290" lon="-122.0425760">
    <ele>143.8</ele>
    <time>2021-02-03T00:47:47Z</time>
   </trkpt>
   <trkpt lat="47.3806200" lon="-122.0425770">
    <ele>143.8</ele>
    <time>2021-02-03T00:47:48Z</time>
   </trkpt>
   <trkpt lat="47.3805910" lon="-122.0425970">
    <ele>143.7</ele>
    <time>2021-02-03T00:47:49Z</time>
   </trkpt>
   <trkpt lat="47.3805780" lon="-122.0426080">
    <ele>143.7</ele>
    <time>2021-02-03T00:47:50Z</time>
   </trkpt>
   <trkpt lat="47.3805650" lon="-122.0426180">
    <ele>143.7</ele>
    <time>2021-02-03T00:47:51Z</time>
   </trkpt>
   <trkpt lat="47.3805490" lon="-122.0426220">
    <ele>143.6</ele>
    <time>2021-02-03T00:47:52Z</time>
   </trkpt>
   <trkpt lat="47.3805250" lon="-122.0426260">
    <ele>143.6</ele>
    <time>2021-02-03T00:47:53Z</time>
   </trkpt>
   <trkpt lat="47.3805150" lon="-122.0426300">
    <ele>143.6</ele>
    <time>2021-02-03T00:47:54Z</time>
   </trkpt>
   <trkpt lat="47.3805050" lon="-122.0426330">
    <ele>143.5</ele>
    <time>2021-02-03T00:47:55Z</time>
   </trkpt>
   <trkpt lat="47.3805000" lon="-122.0426350">
    <ele>143.5</ele>
    <time>2021-02-03T00:47:56Z</time>
   </trkpt>
   <trkpt lat="47.3805000" lon="-122.0426380">
    <ele>143.5</ele>
    <time>2021-02-03T00:47:57Z</time>
   </trkpt>
   <trkpt lat="47.3804960" lon="-122.0426380">
    <ele>143.5</ele>
    <time>2021-02-03T00:47:58Z</time>
   </trkpt>
   <trkpt lat="47.3804890" lon="-122.0426370">
    <ele>143.5</ele>
    <time>2021-02-03T00:47:59Z</time>
   </trkpt>
   <trkpt lat="47.3804860" lon="-122.0426360">
    <ele>143.5</ele>
    <time>2021-02-03T00:48:00Z</time>
   </trkpt>
   <trkpt lat="47.3804780" lon="-122.0426340">
    <ele>143.5</ele>
    <time>2021-02-03T00:48:01Z</time>
   </trkpt>
   <trkpt lat="47.3804750" lon="-122.0426340">
    <ele>143.5</ele>
    <time>2021-02-03T00:48:02Z</time>
   </trkpt>
   <trkpt lat="47.3804710" lon="-122.0426260">
    <ele>143.5</ele>
    <time>2021-02-03T00:48:03Z</time>
   </trkpt>
   <trkpt lat="47.3804660" lon="-122.0426130">
    <ele>143.5</ele>
    <time>2021-02-03T00:48:04Z</time>
   </trkpt>
   <trkpt lat="47.3804550" lon="-122.0426180">
    <ele>143.4</ele>
    <time>2021-02-03T00:48:05Z</time>
   </trkpt>
   <trkpt lat="47.3804450" lon="-122.0426190">
    <ele>143.4</ele>
    <time>2021-02-03T00:48:06Z</time>
   </trkpt>
   <trkpt lat="47.3804330" lon="-122.0426220">
    <ele>143.4</ele>
    <time>2021-02-03T00:48:07Z</time>
   </trkpt>
   <trkpt lat="47.3804180" lon="-122.0426260">
    <ele>143.4</ele>
    <time>2021-02-03T00:48:08Z</time>
   </trkpt>
   <trkpt lat="47.3804000" lon="-122.0426270">
    <ele>143.3</ele>
    <time>2021-02-03T00:48:09Z</time>
   </trkpt>
   <trkpt lat="47.3803930" lon="-122.0426270">
    <ele>143.3</ele>
    <time>2021-02-03T00:48:10Z</time>
   </trkpt>
   <trkpt lat="47.3803870" lon="-122.0426270">
    <ele>143.3</ele>
    <time>2021-02-03T00:48:11Z</time>
   </trkpt>
   <trkpt lat="47.3803800" lon="-122.0426270">
    <ele>143.3</ele>
    <time>2021-02-03T00:48:12Z</time>
   </trkpt>
   <trkpt lat="47.3803700" lon="-122.0426290">
    <ele>143.3</ele>
    <time>2021-02-03T00:48:13Z</time>
   </trkpt>
   <trkpt lat="47.3803620" lon="-122.0426410">
    <ele>143.3</ele>
    <time>2021-02-03T00:48:14Z</time>
   </trkpt>
   <trkpt lat="47.3803550" lon="-122.0426450">
    <ele>143.3</ele>
    <time>2021-02-03T00:48:16Z</time>
   </trkpt>
   <trkpt lat="47.3803530" lon="-122.0426450">
    <ele>143.3</ele>
    <time>2021-02-03T00:48:17Z</time>
   </trkpt>
   <trkpt lat="47.3803440" lon="-122.0426520">
    <ele>143.3</ele>
    <time>2021-02-03T00:48:18Z</time>
   </trkpt>
   <trkpt lat="47.3803330" lon="-122.0426610">
    <ele>143.2</ele>
    <time>2021-02-03T00:48:19Z</time>
   </trkpt>
   <trkpt lat="47.3803320" lon="-122.0426660">
    <ele>143.2</ele>
    <time>2021-02-03T00:48:20Z</time>
   </trkpt>
   <trkpt lat="47.3803390" lon="-122.0426640">
    <ele>143.2</ele>
    <time>2021-02-03T00:48:21Z</time>
   </trkpt>
   <trkpt lat="47.3803260" lon="-122.0426670">
    <ele>143.2</ele>
    <time>2021-02-03T00:48:22Z</time>
   </trkpt>
   <trkpt lat="47.3803150" lon="-122.0426740">
    <ele>143.2</ele>
    <time>2021-02-03T00:48:23Z</time>
   </trkpt>
   <trkpt lat="47.3803030" lon="-122.0426690">
    <ele>143.2</ele>
    <time>2021-02-03T00:48:24Z</time>
   </trkpt>
   <trkpt lat="47.3802890" lon="-122.0426690">
    <ele>143.2</ele>
    <time>2021-02-03T00:48:25Z</time>
   </trkpt>
   <trkpt lat="47.3802860" lon="-122.0426630">
    <ele>143.2</ele>
    <time>2021-02-03T00:48:26Z</time>
   </trkpt>
   <trkpt lat="47.3802760" lon="-122.0426550">
    <ele>143.2</ele>
    <time>2021-02-03T00:48:27Z</time>
   </trkpt>
   <trkpt lat="47.3802580" lon="-122.0426510">
    <ele>143.2</ele>
    <time>2021-02-03T00:48:28Z</time>
   </trkpt>
   <trkpt lat="47.3802510" lon="-122.0426450">
    <ele>143.2</ele>
    <time>2021-02-03T00:48:29Z</time>
   </trkpt>
   <trkpt lat="47.3802450" lon="-122.0426380">
    <ele>143.2</ele>
    <time>2021-02-03T00:48:30Z</time>
   </trkpt>
   <trkpt lat="47.3802380" lon="-122.0426320">
    <ele>143.1</ele>
    <time>2021-02-03T00:48:31Z</time>
   </trkpt>
   <trkpt lat="47.3802340" lon="-122.0426160">
    <ele>143.1</ele>
    <time>2021-02-03T00:48:32Z</time>
   </trkpt>
   <trkpt lat="47.3802240" lon="-122.0426060">
    <ele>143.1</ele>
    <time>2021-02-03T00:48:33Z</time>
   </trkpt>
   <trkpt lat="47.3802210" lon="-122.0425960">
    <ele>143.1</ele>
    <time>2021-02-03T00:48:34Z</time>
   </trkpt>
   <trkpt lat="47.3802140" lon="-122.0425770">
    <ele>143.1</ele>
    <time>2021-02-03T00:48:35Z</time>
   </trkpt>
   <trkpt lat="47.3802080" lon="-122.0425700">
    <ele>143.1</ele>
    <time>2021-02-03T00:48:36Z</time>
   </trkpt>
   <trkpt lat="47.3802010" lon="-122.0425620">
    <ele>143.1</ele>
    <time>2021-02-03T00:48:37Z</time>
   </trkpt>
   <trkpt lat="47.3801950" lon="-122.0425550">
    <ele>143.1</ele>
    <time>2021-02-03T00:48:38Z</time>
   </trkpt>
   <trkpt lat="47.3801970" lon="-122.0425440">
    <ele>143.1</ele>
    <time>2021-02-03T00:48:39Z</time>
   </trkpt>
   <trkpt lat="47.3801910" lon="-122.0425340">
    <ele>143.1</ele>
    <time>2021-02-03T00:48:40Z</time>
   </trkpt>
   <trkpt lat="47.3801730" lon="-122.0425220">
    <ele>143.0</ele>
    <time>2021-02-03T00:48:41Z</time>
   </trkpt>
   <trkpt lat="47.3801540" lon="-122.0425140">
    <ele>143.0</ele>
    <time>2021-02-03T00:48:42Z</time>
   </trkpt>
   <trkpt lat="47.3801390" lon="-122.0425070">
    <ele>143.0</ele>
    <time>2021-02-03T00:48:43Z</time>
   </trkpt>
   <trkpt lat="47.3801260" lon="-122.0425000">
    <ele>143.0</ele>
    <time>2021-02-03T00:48:44Z</time>
   </trkpt>
   <trkpt lat="47.3801100" lon="-122.0424920">
    <ele>143.0</ele>
    <time>2021-02-03T00:48:45Z</time>
   </trkpt>
   <trkpt lat="47.3800900" lon="-122.0424720">
    <ele>143.0</ele>
    <time>2021-02-03T00:48:46Z</time>
   </trkpt>
   <trkpt lat="47.3800750" lon="-122.0424590">
    <ele>143.0</ele>
    <time>2021-02-03T00:48:47Z</time>
   </trkpt>
   <trkpt lat="47.3800600" lon="-122.0424460">
    <ele>143.0</ele>
    <time>2021-02-03T00:48:48Z</time>
   </trkpt>
   <trkpt lat="47.3800460" lon="-122.0424400">
    <ele>143.0</ele>
    <time>2021-02-03T00:48:49Z</time>
   </trkpt>
   <trkpt lat="47.3800390" lon="-122.0424280">
    <ele>142.9</ele>
    <time>2021-02-03T00:48:50Z</time>
   </trkpt>
   <trkpt lat="47.3800270" lon="-122.0424060">
    <ele>142.9</ele>
    <time>2021-02-03T00:48:51Z</time>
   </trkpt>
   <trkpt lat="47.3800250" lon="-122.0424020">
    <ele>142.9</ele>
    <time>2021-02-03T00:48:52Z</time>
   </trkpt>
   <trkpt lat="47.3800060" lon="-122.0423740">
    <ele>142.9</ele>
    <time>2021-02-03T00:48:53Z</time>
   </trkpt>
   <trkpt lat="47.3799820" lon="-122.0423370">
    <ele>142.9</ele>
    <time>2021-02-03T00:48:54Z</time>
   </trkpt>
   <trkpt lat="47.3799740" lon="-122.0423270">
    <ele>142.9</ele>
    <time>2021-02-03T00:48:55Z</time>
   </trkpt>
   <trkpt lat="47.3799600" lon="-122.0423190">
    <ele>142.9</ele>
    <time>2021-02-03T00:48:56Z</time>
   </trkpt>
   <trkpt lat="47.3799480" lon="-122.0423090">
    <ele>142.9</ele>
    <time>2021-02-03T00:48:57Z</time>
   </trkpt>
   <trkpt lat="47.3799410" lon="-122.0422920">
    <ele>142.9</ele>
    <time>2021-02-03T00:48:58Z</time>
   </trkpt>
   <trkpt lat="47.3799320" lon="-122.0422710">
    <ele>142.9</ele>
    <time>2021-02-03T00:48:59Z</time>
   </trkpt>
   <trkpt lat="47.3799230" lon="-122.0422540">
    <ele>142.9</ele>
    <time>2021-02-03T00:49:00Z</time>
   </trkpt>
   <trkpt lat="47.3799150" lon="-122.0422380">
    <ele>142.9</ele>
    <time>2021-02-03T00:49:01Z</time>
   </trkpt>
   <trkpt lat="47.3799050" lon="-122.0422240">
    <ele>142.9</ele>
    <time>2021-02-03T00:49:02Z</time>
   </trkpt>
   <trkpt lat="47.3798950" lon="-122.0422180">
    <ele>142.9</ele>
    <time>2021-02-03T00:49:03Z</time>
   </trkpt>
   <trkpt lat="47.3798930" lon="-122.0421990">
    <ele>142.9</ele>
    <time>2021-02-03T00:49:04Z</time>
   </trkpt>
   <trkpt lat="47.3798790" lon="-122.0421810">
    <ele>142.9</ele>
    <time>2021-02-03T00:49:05Z</time>
   </trkpt>
   <trkpt lat="47.3798710" lon="-122.0421740">
    <ele>142.9</ele>
    <time>2021-02-03T00:49:06Z</time>
   </trkpt>
   <trkpt lat="47.3798630" lon="-122.0421670">
    <ele>142.9</ele>
    <time>2021-02-03T00:49:07Z</time>
   </trkpt>
   <trkpt lat="47.3798450" lon="-122.0421510">
    <ele>142.9</ele>
    <time>2021-02-03T00:49:08Z</time>
   </trkpt>
   <trkpt lat="47.3798350" lon="-122.0421420">
    <ele>142.9</ele>
    <time>2021-02-03T00:49:09Z</time>
   </trkpt>
   <trkpt lat="47.3798250" lon="-122.0421320">
    <ele>142.9</ele>
    <time>2021-02-03T00:49:10Z</time>
   </trkpt>
   <trkpt lat="47.3798030" lon="-122.0421190">
    <ele>142.9</ele>
    <time>2021-02-03T00:49:11Z</time>
   </trkpt>
   <trkpt lat="47.3797950" lon="-122.0421120">
    <ele>142.9</ele>
    <time>2021-02-03T00:49:12Z</time>
   </trkpt>
   <trkpt lat="47.3797880" lon="-122.0421050">
    <ele>142.9</ele>
    <time>2021-02-03T00:49:13Z</time>
   </trkpt>
   <trkpt lat="47.3797770" lon="-122.0420890">
    <ele>142.9</ele>
    <time>2021-02-03T00:49:14Z</time>
   </trkpt>
   <trkpt lat="47.3797690" lon="-122.0420790">
    <ele>142.9</ele>
    <time>2021-02-03T00:49:15Z</time>
   </trkpt>
   <trkpt lat="47.3797600" lon="-122.0420690">
    <ele>142.9</ele>
    <time>2021-02-03T00:49:16Z</time>
   </trkpt>
   <trkpt lat="47.3797520" lon="-122.0420590">
    <ele>142.9</ele>
    <time>2021-02-03T00:49:17Z</time>
   </trkpt>
   <trkpt lat="47.3797400" lon="-122.0420530">
    <ele>142.9</ele>
    <time>2021-02-03T00:49:18Z</time>
   </trkpt>
   <trkpt lat="47.3797350" lon="-122.0420410">
    <ele>142.9</ele>
    <time>2021-02-03T00:49:19Z</time>
   </trkpt>
   <trkpt lat="47.3797260" lon="-122.0420250">
    <ele>142.9</ele>
    <time>2021-02-03T00:49:20Z</time>
   </trkpt>
   <trkpt lat="47.3797120" lon="-122.0420070">
    <ele>142.9</ele>
    <time>2021-02-03T00:49:21Z</time>
   </trkpt>
   <trkpt lat="47.3797050" lon="-122.0419970">
    <ele>142.9</ele>
    <time>2021-02-03T00:49:22Z</time>
   </trkpt>
   <trkpt lat="47.3796970" lon="-122.0419880">
    <ele>142.9</ele>
    <time>2021-02-03T00:49:23Z</time>
   </trkpt>
   <trkpt lat="47.3796900" lon="-122.0419620">
    <ele>143.0</ele>
    <time>2021-02-03T00:49:24Z</time>
   </trkpt>
   <trkpt lat="47.3796880" lon="-122.0419500">
    <ele>143.0</ele>
    <time>2021-02-03T00:49:25Z</time>
   </trkpt>
   <trkpt lat="47.3796850" lon="-122.0419380">
    <ele>143.0</ele>
    <time>2021-02-03T00:49:26Z</time>
   </trkpt>
   <trkpt lat="47.3796760" lon="-122.0419220">
    <ele>143.0</ele>
    <time>2021-02-03T00:49:27Z</time>
   </trkpt>
   <trkpt lat="47.3796650" lon="-122.0419150">
    <ele>143.0</ele>
    <time>2021-02-03T00:49:28Z</time>
   </trkpt>
   <trkpt lat="47.3796640" lon="-122.0418930">
    <ele>143.0</ele>
    <time>2021-02-03T00:49:29Z</time>
   </trkpt>
   <trkpt lat="47.3796620" lon="-122.0418630">
    <ele>143.0</ele>
    <time>2021-02-03T00:49:30Z</time>
   </trkpt>
   <trkpt lat="47.3796640" lon="-122.0418490">
    <ele>143.0</ele>
    <time>2021-02-03T00:49:31Z</time>
   </trkpt>
   <trkpt lat="47.3796670" lon="-122.0418350">
    <ele>143.0</ele>
    <time>2021-02-03T00:49:32Z</time>
   </trkpt>
   <trkpt lat="47.3796700" lon="-122.0418040">
    <ele>143.0</ele>
    <time>2021-02-03T00:49:33Z</time>
   </trkpt>
   <trkpt lat="47.3796670" lon="-122.0417920">
    <ele>143.0</ele>
    <time>2021-02-03T00:49:34Z</time>
   </trkpt>
   <trkpt lat="47.3796650" lon="-122.0417810">
    <ele>143.0</ele>
    <time>2021-02-03T00:49:35Z</time>
   </trkpt>
   <trkpt lat="47.3796620" lon="-122.0417690">
    <ele>143.0</ele>
    <time>2021-02-03T00:49:36Z</time>
   </trkpt>
   <trkpt lat="47.3796590" lon="-122.0417570">
    <ele>143.0</ele>
    <time>2021-02-03T00:49:37Z</time>
   </trkpt>
   <trkpt lat="47.3796600" lon="-122.0417270">
    <ele>143.0</ele>
    <time>2021-02-03T00:49:38Z</time>
   </trkpt>
   <trkpt lat="47.3796580" lon="-122.0417140">
    <ele>143.0</ele>
    <time>2021-02-03T00:49:39Z</time>
   </trkpt>
   <trkpt lat="47.3796570" lon="-122.0417000">
    <ele>143.0</ele>
    <time>2021-02-03T00:49:40Z</time>
   </trkpt>
   <trkpt lat="47.3796590" lon="-122.0416730">
    <ele>143.0</ele>
    <time>2021-02-03T00:49:41Z</time>
   </trkpt>
   <trkpt lat="47.3796590" lon="-122.0416470">
    <ele>143.0</ele>
    <time>2021-02-03T00:49:42Z</time>
   </trkpt>
   <trkpt lat="47.3796560" lon="-122.0416180">
    <ele>143.0</ele>
    <time>2021-02-03T00:49:43Z</time>
   </trkpt>
   <trkpt lat="47.3796550" lon="-122.0416040">
    <ele>143.0</ele>
    <time>2021-02-03T00:49:44Z</time>
   </trkpt>
   <trkpt lat="47.3796550" lon="-122.0415900">
    <ele>143.0</ele>
    <time>2021-02-03T00:49:45Z</time>
   </trkpt>
   <trkpt lat="47.3796590" lon="-122.0415730">
    <ele>143.0</ele>
    <time>2021-02-03T00:49:46Z</time>
   </trkpt>
   <trkpt lat="47.3796560" lon="-122.0415670">
    <ele>143.0</ele>
    <time>2021-02-03T00:49:47Z</time>
   </trkpt>
   <trkpt lat="47.3796650" lon="-122.0415410">
    <ele>142.9</ele>
    <time>2021-02-03T00:49:48Z</time>
   </trkpt>
   <trkpt lat="47.3796580" lon="-122.0415280">
    <ele>142.9</ele>
    <time>2021-02-03T00:49:49Z</time>
   </trkpt>
   <trkpt lat="47.3796460" lon="-122.0415050">
    <ele>142.9</ele>
    <time>2021-02-03T00:49:50Z</time>
   </trkpt>
   <trkpt lat="47.3796440" lon="-122.0414760">
    <ele>142.8</ele>
    <time>2021-02-03T00:49:51Z</time>
   </trkpt>
   <trkpt lat="47.3796430" lon="-122.0414620">
    <ele>142.8</ele>
    <time>2021-02-03T00:49:52Z</time>
   </trkpt>
   <trkpt lat="47.3796430" lon="-122.0414490">
    <ele>142.8</ele>
    <time>2021-02-03T00:49:53Z</time>
   </trkpt>
   <trkpt lat="47.3796420" lon="-122.0414170">
    <ele>142.8</ele>
    <time>2021-02-03T00:49:54Z</time>
   </trkpt>
   <trkpt lat="47.3796390" lon="-122.0414030">
    <ele>142.8</ele>
    <time>2021-02-03T00:49:55Z</time>
   </trkpt>
   <trkpt lat="47.3796370" lon="-122.0413900">
    <ele>142.8</ele>
    <time>2021-02-03T00:49:56Z</time>
   </trkpt>
   <trkpt lat="47.3796370" lon="-122.0413790">
    <ele>142.8</ele>
    <time>2021-02-03T00:49:57Z</time>
   </trkpt>
   <trkpt lat="47.3796340" lon="-122.0413640">
    <ele>142.8</ele>
    <time>2021-02-03T00:49:58Z</time>
   </trkpt>
   <trkpt lat="47.3796370" lon="-122.0413460">
    <ele>142.8</ele>
    <time>2021-02-03T00:49:59Z</time>
   </trkpt>
   <trkpt lat="47.3796420" lon="-122.0413290">
    <ele>142.8</ele>
    <time>2021-02-03T00:50:00Z</time>
   </trkpt>
   <trkpt lat="47.3796410" lon="-122.0413130">
    <ele>142.9</ele>
    <time>2021-02-03T00:50:01Z</time>
   </trkpt>
   <trkpt lat="47.3796460" lon="-122.0412950">
    <ele>142.9</ele>
    <time>2021-02-03T00:50:02Z</time>
   </trkpt>
   <trkpt lat="47.3796480" lon="-122.0412790">
    <ele>142.9</ele>
    <time>2021-02-03T00:50:03Z</time>
   </trkpt>
   <trkpt lat="47.3796360" lon="-122.0412670">
    <ele>142.9</ele>
    <time>2021-02-03T00:50:04Z</time>
   </trkpt>
   <trkpt lat="47.3796350" lon="-122.0412460">
    <ele>142.9</ele>
    <time>2021-02-03T00:50:05Z</time>
   </trkpt>
   <trkpt lat="47.3796340" lon="-122.0412120">
    <ele>143.0</ele>
    <time>2021-02-03T00:50:06Z</time>
   </trkpt>
   <trkpt lat="47.3796340" lon="-122.0412000">
    <ele>143.0</ele>
    <time>2021-02-03T00:50:07Z</time>
   </trkpt>
   <trkpt lat="47.3796340" lon="-122.0411880">
    <ele>143.0</ele>
    <time>2021-02-03T00:50:08Z</time>
   </trkpt>
   <trkpt lat="47.3796330" lon="-122.0411560">
    <ele>143.0</ele>
    <time>2021-02-03T00:50:09Z</time>
   </trkpt>
   <trkpt lat="47.3796290" lon="-122.0411410">
    <ele>143.0</ele>
    <time>2021-02-03T00:50:10Z</time>
   </trkpt>
   <trkpt lat="47.3796250" lon="-122.0411270">
    <ele>143.0</ele>
    <time>2021-02-03T00:50:11Z</time>
   </trkpt>
   <trkpt lat="47.3796210" lon="-122.0411090">
    <ele>143.0</ele>
    <time>2021-02-03T00:50:12Z</time>
   </trkpt>
   <trkpt lat="47.3796220" lon="-122.0410860">
    <ele>143.1</ele>
    <time>2021-02-03T00:50:13Z</time>
   </trkpt>
   <trkpt lat="47.3796210" lon="-122.0410610">
    <ele>143.1</ele>
    <time>2021-02-03T00:50:14Z</time>
   </trkpt>
   <trkpt lat="47.3796240" lon="-122.0410370">
    <ele>143.1</ele>
    <time>2021-02-03T00:50:15Z</time>
   </trkpt>
   <trkpt lat="47.3796160" lon="-122.0410150">
    <ele>143.1</ele>
    <time>2021-02-03T00:50:16Z</time>
   </trkpt>
   <trkpt lat="47.3796160" lon="-122.0409930">
    <ele>143.2</ele>
    <time>2021-02-03T00:50:17Z</time>
   </trkpt>
   <trkpt lat="47.3796180" lon="-122.0409820">
    <ele>143.2</ele>
    <time>2021-02-03T00:50:18Z</time>
   </trkpt>
   <trkpt lat="47.3796120" lon="-122.0409670">
    <ele>143.2</ele>
    <time>2021-02-03T00:50:19Z</time>
   </trkpt>
   <trkpt lat="47.3796110" lon="-122.0409530">
    <ele>143.2</ele>
    <time>2021-02-03T00:50:20Z</time>
   </trkpt>
   <trkpt lat="47.3796170" lon="-122.0409360">
    <ele>143.2</ele>
    <time>2021-02-03T00:50:22Z</time>
   </trkpt>
   <trkpt lat="47.3796130" lon="-122.0409140">
    <ele>143.2</ele>
    <time>2021-02-03T00:50:23Z</time>
   </trkpt>
   <trkpt lat="47.3796120" lon="-122.0409030">
    <ele>143.2</ele>
    <time>2021-02-03T00:50:24Z</time>
   </trkpt>
   <trkpt lat="47.3796130" lon="-122.0408710">
    <ele>143.2</ele>
    <time>2021-02-03T00:50:25Z</time>
   </trkpt>
   <trkpt lat="47.3796170" lon="-122.0408590">
    <ele>143.2</ele>
    <time>2021-02-03T00:50:26Z</time>
   </trkpt>
   <trkpt lat="47.3796200" lon="-122.0408480">
    <ele>143.2</ele>
    <time>2021-02-03T00:50:27Z</time>
   </trkpt>
   <trkpt lat="47.3796170" lon="-122.0408330">
    <ele>143.2</ele>
    <time>2021-02-03T00:50:28Z</time>
   </trkpt>
   <trkpt lat="47.3796190" lon="-122.0408130">
    <ele>143.2</ele>
    <time>2021-02-03T00:50:29Z</time>
   </trkpt>
   <trkpt lat="47.3796180" lon="-122.0407960">
    <ele>143.3</ele>
    <time>2021-02-03T00:50:30Z</time>
   </trkpt>
   <trkpt lat="47.3796280" lon="-122.0407770">
    <ele>143.3</ele>
    <time>2021-02-03T00:50:31Z</time>
   </trkpt>
   <trkpt lat="47.3796310" lon="-122.0407600">
    <ele>143.3</ele>
    <time>2021-02-03T00:50:32Z</time>
   </trkpt>
   <trkpt lat="47.3796340" lon="-122.0407450">
    <ele>143.3</ele>
    <time>2021-02-03T00:50:33Z</time>
   </trkpt>
   <trkpt lat="47.3796390" lon="-122.0407310">
    <ele>143.3</ele>
    <time>2021-02-03T00:50:34Z</time>
   </trkpt>
   <trkpt lat="47.3796370" lon="-122.0407100">
    <ele>143.3</ele>
    <time>2021-02-03T00:50:35Z</time>
   </trkpt>
   <trkpt lat="47.3796390" lon="-122.0406790">
    <ele>143.3</ele>
    <time>2021-02-03T00:50:36Z</time>
   </trkpt>
   <trkpt lat="47.3796400" lon="-122.0406650">
    <ele>143.3</ele>
    <time>2021-02-03T00:50:37Z</time>
   </trkpt>
   <trkpt lat="47.3796420" lon="-122.0406510">
    <ele>143.3</ele>
    <time>2021-02-03T00:50:38Z</time>
   </trkpt>
   <trkpt lat="47.3796400" lon="-122.0406370">
    <ele>143.3</ele>
    <time>2021-02-03T00:50:39Z</time>
   </trkpt>
   <trkpt lat="47.3796440" lon="-122.0406220">
    <ele>143.3</ele>
    <time>2021-02-03T00:50:40Z</time>
   </trkpt>
   <trkpt lat="47.3796440" lon="-122.0406090">
    <ele>143.4</ele>
    <time>2021-02-03T00:50:41Z</time>
   </trkpt>
   <trkpt lat="47.3796450" lon="-122.0405950">
    <ele>143.4</ele>
    <time>2021-02-03T00:50:42Z</time>
   </trkpt>
   <trkpt lat="47.3796500" lon="-122.0405810">
    <ele>143.4</ele>
    <time>2021-02-03T00:50:43Z</time>
   </trkpt>
   <trkpt lat="47.3796510" lon="-122.0405680">
    <ele>143.4</ele>
    <time>2021-02-03T00:50:44Z</time>
   </trkpt>
   <trkpt lat="47.3796510" lon="-122.0405530">
    <ele>143.4</ele>
    <time>2021-02-03T00:50:45Z</time>
   </trkpt>
   <trkpt lat="47.3796490" lon="-122.0405300">
    <ele>143.4</ele>
    <time>2021-02-03T00:50:46Z</time>
   </trkpt>
   <trkpt lat="47.3796470" lon="-122.0405160">
    <ele>143.4</ele>
    <time>2021-02-03T00:50:47Z</time>
   </trkpt>
   <trkpt lat="47.3796450" lon="-122.0404830">
    <ele>143.4</ele>
    <time>2021-02-03T00:50:48Z</time>
   </trkpt>
   <trkpt lat="47.3796450" lon="-122.0404690">
    <ele>143.4</ele>
    <time>2021-02-03T00:50:49Z</time>
   </trkpt>
   <trkpt lat="47.3796450" lon="-122.0404560">
    <ele>143.4</ele>
    <time>2021-02-03T00:50:50Z</time>
   </trkpt>
   <trkpt lat="47.3796440" lon="-122.0404360">
    <ele>143.4</ele>
    <time>2021-02-03T00:50:51Z</time>
   </trkpt>
   <trkpt lat="47.3796500" lon="-122.0404010">
    <ele>143.4</ele>
    <time>2021-02-03T00:50:52Z</time>
   </trkpt>
   <trkpt lat="47.3796580" lon="-122.0403760">
    <ele>143.4</ele>
    <time>2021-02-03T00:50:53Z</time>
   </trkpt>
   <trkpt lat="47.3796590" lon="-122.0403640">
    <ele>143.4</ele>
    <time>2021-02-03T00:50:54Z</time>
   </trkpt>
   <trkpt lat="47.3796520" lon="-122.0403400">
    <ele>143.3</ele>
    <time>2021-02-03T00:50:55Z</time>
   </trkpt>
   <trkpt lat="47.3796510" lon="-122.0403250">
    <ele>143.3</ele>
    <time>2021-02-03T00:50:56Z</time>
   </trkpt>
   <trkpt lat="47.3796500" lon="-122.0403100">
    <ele>143.3</ele>
    <time>2021-02-03T00:50:57Z</time>
   </trkpt>
   <trkpt lat="47.3796530" lon="-122.0402940">
    <ele>143.3</ele>
    <time>2021-02-03T00:50:58Z</time>
   </trkpt>
   <trkpt lat="47.3796530" lon="-122.0402690">
    <ele>143.3</ele>
    <time>2021-02-03T00:50:59Z</time>
   </trkpt>
   <trkpt lat="47.3796530" lon="-122.0402370">
    <ele>143.3</ele>
    <time>2021-02-03T00:51:00Z</time>
   </trkpt>
   <trkpt lat="47.3796520" lon="-122.0402250">
    <ele>143.3</ele>
    <time>2021-02-03T00:51:01Z</time>
   </trkpt>
   <trkpt lat="47.3796510" lon="-122.0402140">
    <ele>143.3</ele>
    <time>2021-02-03T00:51:02Z</time>
   </trkpt>
   <trkpt lat="47.3796480" lon="-122.0401990">
    <ele>143.3</ele>
    <time>2021-02-03T00:51:03Z</time>
   </trkpt>
   <trkpt lat="47.3796480" lon="-122.0401860">
    <ele>143.3</ele>
    <time>2021-02-03T00:51:04Z</time>
   </trkpt>
   <trkpt lat="47.3796500" lon="-122.0401680">
    <ele>143.3</ele>
    <time>2021-02-03T00:51:05Z</time>
   </trkpt>
   <trkpt lat="47.3796450" lon="-122.0401380">
    <ele>143.3</ele>
    <time>2021-02-03T00:51:06Z</time>
   </trkpt>
   <trkpt lat="47.3796430" lon="-122.0401260">
    <ele>143.3</ele>
    <time>2021-02-03T00:51:07Z</time>
   </trkpt>
   <trkpt lat="47.3796400" lon="-122.0401150">
    <ele>143.3</ele>
    <time>2021-02-03T00:51:08Z</time>
   </trkpt>
   <trkpt lat="47.3796410" lon="-122.0401020">
    <ele>143.3</ele>
    <time>2021-02-03T00:51:09Z</time>
   </trkpt>
   <trkpt lat="47.3796370" lon="-122.0400880">
    <ele>143.3</ele>
    <time>2021-02-03T00:51:10Z</time>
   </trkpt>
   <trkpt lat="47.3796290" lon="-122.0400690">
    <ele>143.3</ele>
    <time>2021-02-03T00:51:11Z</time>
   </trkpt>
   <trkpt lat="47.3796210" lon="-122.0400500">
    <ele>143.3</ele>
    <time>2021-02-03T00:51:12Z</time>
   </trkpt>
   <trkpt lat="47.3796130" lon="-122.0400280">
    <ele>143.3</ele>
    <time>2021-02-03T00:51:13Z</time>
   </trkpt>
   <trkpt lat="47.3796100" lon="-122.0400230">
    <ele>143.3</ele>
    <time>2021-02-03T00:51:14Z</time>
   </trkpt>
   <trkpt lat="47.3796130" lon="-122.0400040">
    <ele>143.3</ele>
    <time>2021-02-03T00:51:15Z</time>
   </trkpt>
   <trkpt lat="47.3796040" lon="-122.0399930">
    <ele>143.3</ele>
    <time>2021-02-03T00:51:16Z</time>
   </trkpt>
   <trkpt lat="47.3795970" lon="-122.0399830">
    <ele>143.3</ele>
    <time>2021-02-03T00:51:17Z</time>
   </trkpt>
   <trkpt lat="47.3795890" lon="-122.0399730">
    <ele>143.3</ele>
    <time>2021-02-03T00:51:18Z</time>
   </trkpt>
   <trkpt lat="47.3795810" lon="-122.0399570">
    <ele>143.3</ele>
    <time>2021-02-03T00:51:19Z</time>
   </trkpt>
   <trkpt lat="47.3795760" lon="-122.0399430">
    <ele>143.3</ele>
    <time>2021-02-03T00:51:20Z</time>
   </trkpt>
   <trkpt lat="47.3795730" lon="-122.0399250">
    <ele>143.3</ele>
    <time>2021-02-03T00:51:21Z</time>
   </trkpt>
   <trkpt lat="47.3795710" lon="-122.0399140">
    <ele>143.3</ele>
    <time>2021-02-03T00:51:22Z</time>
   </trkpt>
   <trkpt lat="47.3795630" lon="-122.0398950">
    <ele>143.4</ele>
    <time>2021-02-03T00:51:23Z</time>
   </trkpt>
   <trkpt lat="47.3795550" lon="-122.0398760">
    <ele>143.4</ele>
    <time>2021-02-03T00:51:24Z</time>
   </trkpt>
   <trkpt lat="47.3795500" lon="-122.0398640">
    <ele>143.4</ele>
    <time>2021-02-03T00:51:25Z</time>
   </trkpt>
   <trkpt lat="47.3795520" lon="-122.0398450">
    <ele>143.4</ele>
    <time>2021-02-03T00:51:26Z</time>
   </trkpt>
   <trkpt lat="47.3795470" lon="-122.0398340">
    <ele>143.4</ele>
    <time>2021-02-03T00:51:27Z</time>
   </trkpt>
   <trkpt lat="47.3795430" lon="-122.0398170">
    <ele>143.4</ele>
    <time>2021-02-03T00:51:28Z</time>
   </trkpt>
   <trkpt lat="47.3795410" lon="-122.0398000">
    <ele>143.4</ele>
    <time>2021-02-03T00:51:29Z</time>
   </trkpt>
   <trkpt lat="47.3795420" lon="-122.0397770">
    <ele>143.4</ele>
    <time>2021-02-03T00:51:30Z</time>
   </trkpt>
   <trkpt lat="47.3795420" lon="-122.0397550">
    <ele>143.4</ele>
    <time>2021-02-03T00:51:31Z</time>
   </trkpt>
   <trkpt lat="47.3795320" lon="-122.0397290">
    <ele>143.4</ele>
    <time>2021-02-03T00:51:32Z</time>
   </trkpt>
   <trkpt lat="47.3795250" lon="-122.0397190">
    <ele>143.4</ele>
    <time>2021-02-03T00:51:33Z</time>
   </trkpt>
   <trkpt lat="47.3795190" lon="-122.0397090">
    <ele>143.5</ele>
    <time>2021-02-03T00:51:34Z</time>
   </trkpt>
   <trkpt lat="47.3795140" lon="-122.0396870">
    <ele>143.5</ele>
    <time>2021-02-03T00:51:35Z</time>
   </trkpt>
   <trkpt lat="47.3795040" lon="-122.0396670">
    <ele>143.5</ele>
    <time>2021-02-03T00:51:36Z</time>
   </trkpt>
   <trkpt lat="47.3795040" lon="-122.0396530">
    <ele>143.5</ele>
    <time>2021-02-03T00:51:37Z</time>
   </trkpt>
   <trkpt lat="47.3795020" lon="-122.0396360">
    <ele>143.5</ele>
    <time>2021-02-03T00:51:38Z</time>
   </trkpt>
   <trkpt lat="47.3794970" lon="-122.0396250">
    <ele>143.5</ele>
    <time>2021-02-03T00:51:39Z</time>
   </trkpt>
   <trkpt lat="47.3794950" lon="-122.0396100">
    <ele>143.5</ele>
    <time>2021-02-03T00:51:40Z</time>
   </trkpt>
   <trkpt lat="47.3794970" lon="-122.0395940">
    <ele>143.5</ele>
    <time>2021-02-03T00:51:41Z</time>
   </trkpt>
   <trkpt lat="47.3795080" lon="-122.0395790">
    <ele>143.5</ele>
    <time>2021-02-03T00:51:42Z</time>
   </trkpt>
   <trkpt lat="47.3795110" lon="-122.0395630">
    <ele>143.5</ele>
    <time>2021-02-03T00:51:43Z</time>
   </trkpt>
   <trkpt lat="47.3795150" lon="-122.0395490">
    <ele>143.5</ele>
    <time>2021-02-03T00:51:44Z</time>
   </trkpt>
   <trkpt lat="47.3795190" lon="-122.0395340">
    <ele>143.5</ele>
    <time>2021-02-03T00:51:45Z</time>
   </trkpt>
   <trkpt lat="47.3795240" lon="-122.0395190">
    <ele>143.5</ele>
    <time>2021-02-03T00:51:46Z</time>
   </trkpt>
   <trkpt lat="47.3795250" lon="-122.0395060">
    <ele>143.5</ele>
    <time>2021-02-03T00:51:47Z</time>
   </trkpt>
   <trkpt lat="47.3795300" lon="-122.0394850">
    <ele>143.5</ele>
    <time>2021-02-03T00:51:48Z</time>
   </trkpt>
   <trkpt lat="47.3795260" lon="-122.0394680">
    <ele>143.5</ele>
    <time>2021-02-03T00:51:49Z</time>
   </trkpt>
   <trkpt lat="47.3795320" lon="-122.0394600">
    <ele>143.5</ele>
    <time>2021-02-03T00:51:50Z</time>
   </trkpt>
   <trkpt lat="47.3795320" lon="-122.0394480">
    <ele>143.5</ele>
    <time>2021-02-03T00:51:51Z</time>
   </trkpt>
   <trkpt lat="47.3795310" lon="-122.0394320">
    <ele>143.5</ele>
    <time>2021-02-03T00:51:52Z</time>
   </trkpt>
   <trkpt lat="47.3795270" lon="-122.0394100">
    <ele>143.5</ele>
    <time>2021-02-03T00:51:53Z</time>
   </trkpt>
   <trkpt lat="47.3795200" lon="-122.0393970">
    <ele>143.5</ele>
    <time>2021-02-03T00:51:54Z</time>
   </trkpt>
   <trkpt lat="47.3795130" lon="-122.0393840">
    <ele>143.5</ele>
    <time>2021-02-03T00:51:55Z</time>
   </trkpt>
   <trkpt lat="47.3795070" lon="-122.0393570">
    <ele>143.4</ele>
    <time>2021-02-03T00:51:56Z</time>
   </trkpt>
   <trkpt lat="47.3795060" lon="-122.0393440">
    <ele>143.4</ele>
    <time>2021-02-03T00:51:57Z</time>
   </trkpt>
   <trkpt lat="47.3795050" lon="-122.0393230">
    <ele>143.4</ele>
    <time>2021-02-03T00:51:58Z</time>
   </trkpt>
   <trkpt lat="47.3795030" lon="-122.0393070">
    <ele>143.4</ele>
    <time>2021-02-03T00:51:59Z</time>
   </trkpt>
   <trkpt lat="47.3794990" lon="-122.0392950">
    <ele>143.4</ele>
    <time>2021-02-03T00:52:00Z</time>
   </trkpt>
   <trkpt lat="47.3794770" lon="-122.0392690">
    <ele>143.4</ele>
    <time>2021-02-03T00:52:01Z</time>
   </trkpt>
   <trkpt lat="47.3794670" lon="-122.0392610">
    <ele>143.3</ele>
    <time>2021-02-03T00:52:02Z</time>
   </trkpt>
   <trkpt lat="47.3794540" lon="-122.0392460">
    <ele>143.3</ele>
    <time>2021-02-03T00:52:03Z</time>
   </trkpt>
   <trkpt lat="47.3794330" lon="-122.0392420">
    <ele>143.3</ele>
    <time>2021-02-03T00:52:04Z</time>
   </trkpt>
   <trkpt lat="47.3794210" lon="-122.0392310">
    <ele>143.3</ele>
    <time>2021-02-03T00:52:05Z</time>
   </trkpt>
   <trkpt lat="47.3794080" lon="-122.0392110">
    <ele>143.3</ele>
    <time>2021-02-03T00:52:06Z</time>
   </trkpt>
   <trkpt lat="47.3793990" lon="-122.0392000">
    <ele>143.3</ele>
    <time>2021-02-03T00:52:07Z</time>
   </trkpt>
   <trkpt lat="47.3793810" lon="-122.0391870">
    <ele>143.4</ele>
    <time>2021-02-03T00:52:08Z</time>
   </trkpt>
   <trkpt lat="47.3793690" lon="-122.0391840">
    <ele>143.4</ele>
    <time>2021-02-03T00:52:09Z</time>
   </trkpt>
   <trkpt lat="47.3793620" lon="-122.0391810">
    <ele>143.5</ele>
    <time>2021-02-03T00:52:10Z</time>
   </trkpt>
   <trkpt lat="47.3793580" lon="-122.0391710">
    <ele>143.5</ele>
    <time>2021-02-03T00:52:11Z</time>
   </trkpt>
   <trkpt lat="47.3793540" lon="-122.0391600">
    <ele>143.5</ele>
    <time>2021-02-03T00:52:12Z</time>
   </trkpt>
   <trkpt lat="47.3793510" lon="-122.0391520">
    <ele>143.5</ele>
    <time>2021-02-03T00:52:13Z</time>
   </trkpt>
   <trkpt lat="47.3793480" lon="-122.0391290">
    <ele>143.6</ele>
    <time>2021-02-03T00:52:14Z</time>
   </trkpt>
   <trkpt lat="47.3793430" lon="-122.0391130">
    <ele>143.6</ele>
    <time>2021-02-03T00:52:15Z</time>
   </trkpt>
   <trkpt lat="47.3793380" lon="-122.0391030">
    <ele>143.6</ele>
    <time>2021-02-03T00:52:16Z</time>
   </trkpt>
   <trkpt lat="47.3793280" lon="-122.0390990">
    <ele>143.7</ele>
    <time>2021-02-03T00:52:17Z</time>
   </trkpt>
   <trkpt lat="47.3793200" lon="-122.0390970">
    <ele>143.7</ele>
    <time>2021-02-03T00:52:18Z</time>
   </trkpt>
   <trkpt lat="47.3793180" lon="-122.0390960">
    <ele>143.7</ele>
    <time>2021-02-03T00:52:19Z</time>
   </trkpt>
   <trkpt lat="47.3793120" lon="-122.0390800">
    <ele>143.7</ele>
    <time>2021-02-03T00:52:20Z</time>
   </trkpt>
   <trkpt lat="47.3793010" lon="-122.0390710">
    <ele>143.7</ele>
    <time>2021-02-03T00:52:21Z</time>
   </trkpt>
   <trkpt lat="47.3792910" lon="-122.0390680">
    <ele>143.7</ele>
    <time>2021-02-03T00:52:22Z</time>
   </trkpt>
   <trkpt lat="47.3792630" lon="-122.0390750">
    <ele>143.7</ele>
    <time>2021-02-03T00:52:23Z</time>
   </trkpt>
   <trkpt lat="47.3792500" lon="-122.0390800">
    <ele>143.7</ele>
    <time>2021-02-03T00:52:24Z</time>
   </trkpt>
   <trkpt lat="47.3792220" lon="-122.0390900">
    <ele>143.7</ele>
    <time>2021-02-03T00:52:25Z</time>
   </trkpt>
   <trkpt lat="47.3791980" lon="-122.0390870">
    <ele>144.7</ele>
    <time>2021-02-03T00:52:26Z</time>
   </trkpt>
   <trkpt lat="47.3791820" lon="-122.0390810">
    <ele>144.8</ele>
    <time>2021-02-03T00:52:28Z</time>
   </trkpt>
   <trkpt lat="47.3791700" lon="-122.0390790">
    <ele>144.9</ele>
    <time>2021-02-03T00:52:29Z</time>
   </trkpt>
   <trkpt lat="47.3791530" lon="-122.0390820">
    <ele>145.1</ele>
    <time>2021-02-03T00:52:30Z</time>
   </trkpt>
   <trkpt lat="47.3791410" lon="-122.0390790">
    <ele>145.2</ele>
    <time>2021-02-03T00:52:31Z</time>
   </trkpt>
   <trkpt lat="47.3791320" lon="-122.0390810">
    <ele>145.3</ele>
    <time>2021-02-03T00:52:32Z</time>
   </trkpt>
   <trkpt lat="47.3791220" lon="-122.0390800">
    <ele>145.4</ele>
    <time>2021-02-03T00:52:33Z</time>
   </trkpt>
   <trkpt lat="47.3791170" lon="-122.0390780">
    <ele>145.4</ele>
    <time>2021-02-03T00:52:34Z</time>
   </trkpt>
   <trkpt lat="47.3791110" lon="-122.0390920">
    <ele>145.5</ele>
    <time>2021-02-03T00:52:35Z</time>
   </trkpt>
   <trkpt lat="47.3791080" lon="-122.0390860">
    <ele>145.6</ele>
    <time>2021-02-03T00:52:36Z</time>
   </trkpt>
   <trkpt lat="47.3790950" lon="-122.0390800">
    <ele>145.7</ele>
    <time>2021-02-03T00:52:37Z</time>
   </trkpt>
   <trkpt lat="47.3790900" lon="-122.0390810">
    <ele>145.7</ele>
    <time>2021-02-03T00:52:38Z</time>
   </trkpt>
   <trkpt lat="47.3790860" lon="-122.0390680">
    <ele>145.8</ele>
    <time>2021-02-03T00:52:39Z</time>
   </trkpt>
   <trkpt lat="47.3790840" lon="-122.0390630">
    <ele>145.9</ele>
    <time>2021-02-03T00:52:40Z</time>
   </trkpt>
   <trkpt lat="47.3790830" lon="-122.0390590">
    <ele>145.9</ele>
    <time>2021-02-03T00:52:41Z</time>
   </trkpt>
   <trkpt lat="47.3790820" lon="-122.0390540">
    <ele>145.9</ele>
    <time>2021-02-03T00:52:42Z</time>
   </trkpt>
   <trkpt lat="47.3790800" lon="-122.0390490">
    <ele>145.9</ele>
    <time>2021-02-03T00:52:43Z</time>
   </trkpt>
   <trkpt lat="47.3790790" lon="-122.0390440">
    <ele>146.0</ele>
    <time>2021-02-03T00:52:44Z</time>
   </trkpt>
   <trkpt lat="47.3790780" lon="-122.0390400">
    <ele>146.0</ele>
    <time>2021-02-03T00:52:45Z</time>
   </trkpt>
   <trkpt lat="47.3790760" lon="-122.0390350">
    <ele>146.0</ele>
    <time>2021-02-03T00:52:46Z</time>
   </trkpt>
   <trkpt lat="47.3790750" lon="-122.0390300">
    <ele>146.0</ele>
    <time>2021-02-03T00:52:47Z</time>
   </trkpt>
   <trkpt lat="47.3790460" lon="-122.0390380">
    <ele>146.7</ele>
    <time>2021-02-03T00:52:48Z</time>
   </trkpt>
   <trkpt lat="47.3790380" lon="-122.0390380">
    <ele>146.7</ele>
    <time>2021-02-03T00:52:49Z</time>
   </trkpt>
   <trkpt lat="47.3790200" lon="-122.0390390">
    <ele>146.7</ele>
    <time>2021-02-03T00:52:50Z</time>
   </trkpt>
   <trkpt lat="47.3790080" lon="-122.0390400">
    <ele>146.7</ele>
    <time>2021-02-03T00:52:51Z</time>
   </trkpt>
   <trkpt lat="47.3789920" lon="-122.0390490">
    <ele>146.7</ele>
    <time>2021-02-03T00:52:52Z</time>
   </trkpt>
   <trkpt lat="47.3789780" lon="-122.0390520">
    <ele>146.7</ele>
    <time>2021-02-03T00:52:53Z</time>
   </trkpt>
   <trkpt lat="47.3789690" lon="-122.0390510">
    <ele>146.7</ele>
    <time>2021-02-03T00:52:54Z</time>
   </trkpt>
   <trkpt lat="47.3789560" lon="-122.0390490">
    <ele>146.7</ele>
    <time>2021-02-03T00:52:55Z</time>
   </trkpt>
   <trkpt lat="47.3789330" lon="-122.0390510">
    <ele>146.7</ele>
    <time>2021-02-03T00:52:56Z</time>
   </trkpt>
   <trkpt lat="47.3789240" lon="-122.0390560">
    <ele>146.7</ele>
    <time>2021-02-03T00:52:57Z</time>
   </trkpt>
   <trkpt lat="47.3789140" lon="-122.0390560">
    <ele>146.7</ele>
    <time>2021-02-03T00:52:58Z</time>
   </trkpt>
   <trkpt lat="47.3789040" lon="-122.0390560">
    <ele>146.7</ele>
    <time>2021-02-03T00:52:59Z</time>
   </trkpt>
   <trkpt lat="47.3788950" lon="-122.0390510">
    <ele>146.7</ele>
    <time>2021-02-03T00:53:00Z</time>
   </trkpt>
   <trkpt lat="47.3788840" lon="-122.0390430">
    <ele>146.7</ele>
    <time>2021-02-03T00:53:01Z</time>
   </trkpt>
   <trkpt lat="47.3788630" lon="-122.0390490">
    <ele>146.7</ele>
    <time>2021-02-03T00:53:02Z</time>
   </trkpt>
   <trkpt lat="47.3788560" lon="-122.0390530">
    <ele>146.7</ele>
    <time>2021-02-03T00:53:03Z</time>
   </trkpt>
   <trkpt lat="47.3788480" lon="-122.0390570">
    <ele>146.7</ele>
    <time>2021-02-03T00:53:04Z</time>
   </trkpt>
   <trkpt lat="47.3788360" lon="-122.0390540">
    <ele>146.7</ele>
    <time>2021-02-03T00:53:05Z</time>
   </trkpt>
   <trkpt lat="47.3788270" lon="-122.0390530">
    <ele>146.7</ele>
    <time>2021-02-03T00:53:06Z</time>
   </trkpt>
   <trkpt lat="47.3788200" lon="-122.0390560">
    <ele>146.7</ele>
    <time>2021-02-03T00:53:07Z</time>
   </trkpt>
   <trkpt lat="47.3787980" lon="-122.0390590">
    <ele>146.7</ele>
    <time>2021-02-03T00:53:08Z</time>
   </trkpt>
   <trkpt lat="47.3787900" lon="-122.0390600">
    <ele>146.7</ele>
    <time>2021-02-03T00:53:09Z</time>
   </trkpt>
   <trkpt lat="47.3787820" lon="-122.0390600">
    <ele>146.7</ele>
    <time>2021-02-03T00:53:10Z</time>
   </trkpt>
   <trkpt lat="47.3787740" lon="-122.0390650">
    <ele>146.7</ele>
    <time>2021-02-03T00:53:11Z</time>
   </trkpt>
   <trkpt lat="47.3787550" lon="-122.0390680">
    <ele>146.7</ele>
    <time>2021-02-03T00:53:12Z</time>
   </trkpt>
   <trkpt lat="47.3787340" lon="-122.0390610">
    <ele>146.7</ele>
    <time>2021-02-03T00:53:13Z</time>
   </trkpt>
   <trkpt lat="47.3787250" lon="-122.0390540">
    <ele>146.7</ele>
    <time>2021-02-03T00:53:14Z</time>
   </trkpt>
   <trkpt lat="47.3787170" lon="-122.0390480">
    <ele>146.7</ele>
    <time>2021-02-03T00:53:15Z</time>
   </trkpt>
   <trkpt lat="47.3787090" lon="-122.0390310">
    <ele>146.7</ele>
    <time>2021-02-03T00:53:16Z</time>
   </trkpt>
   <trkpt lat="47.3787030" lon="-122.0390340">
    <ele>146.7</ele>
    <time>2021-02-03T00:53:17Z</time>
   </trkpt>
   <trkpt lat="47.3786920" lon="-122.0390270">
    <ele>146.7</ele>
    <time>2021-02-03T00:53:18Z</time>
   </trkpt>
   <trkpt lat="47.3786740" lon="-122.0390190">
    <ele>146.7</ele>
    <time>2021-02-03T00:53:19Z</time>
   </trkpt>
   <trkpt lat="47.3786610" lon="-122.0390230">
    <ele>146.7</ele>
    <time>2021-02-03T00:53:20Z</time>
   </trkpt>
   <trkpt lat="47.3786480" lon="-122.0390300">
    <ele>146.7</ele>
    <time>2021-02-03T00:53:21Z</time>
   </trkpt>
   <trkpt lat="47.3786350" lon="-122.0390340">
    <ele>146.7</ele>
    <time>2021-02-03T00:53:22Z</time>
   </trkpt>
   <trkpt lat="47.3786130" lon="-122.0390360">
    <ele>146.7</ele>
    <time>2021-02-03T00:53:23Z</time>
   </trkpt>
   <trkpt lat="47.3786050" lon="-122.0390380">
    <ele>146.7</ele>
    <time>2021-02-03T00:53:24Z</time>
   </trkpt>
   <trkpt lat="47.3785960" lon="-122.0390390">
    <ele>146.7</ele>
    <time>2021-02-03T00:53:25Z</time>
   </trkpt>
   <trkpt lat="47.3785870" lon="-122.0390480">
    <ele>146.7</ele>
    <time>2021-02-03T00:53:26Z</time>
   </trkpt>
   <trkpt lat="47.3785760" lon="-122.0390570">
    <ele>146.7</ele>
    <time>2021-02-03T00:53:27Z</time>
   </trkpt>
   <trkpt lat="47.3785670" lon="-122.0390600">
    <ele>146.7</ele>
    <time>2021-02-03T00:53:28Z</time>
   </trkpt>
   <trkpt lat="47.3785440" lon="-122.0390650">
    <ele>146.7</ele>
    <time>2021-02-03T00:53:29Z</time>
   </trkpt>
   <trkpt lat="47.3785370" lon="-122.0390620">
    <ele>146.7</ele>
    <time>2021-02-03T00:53:30Z</time>
   </trkpt>
   <trkpt lat="47.3785300" lon="-122.0390600">
    <ele>146.7</ele>
    <time>2021-02-03T00:53:31Z</time>
   </trkpt>
   <trkpt lat="47.3785220" lon="-122.0390580">
    <ele>146.7</ele>
    <time>2021-02-03T00:53:32Z</time>
   </trkpt>
   <trkpt lat="47.3785140" lon="-122.0390520">
    <ele>146.7</ele>
    <time>2021-02-03T00:53:33Z</time>
   </trkpt>
   <trkpt lat="47.3785130" lon="-122.0390450">
    <ele>146.7</ele>
    <time>2021-02-03T00:53:34Z</time>
   </trkpt>
   <trkpt lat="47.3784970" lon="-122.0390380">
    <ele>146.7</ele>
    <time>2021-02-03T00:53:35Z</time>
   </trkpt>
   <trkpt lat="47.3784800" lon="-122.0390390">
    <ele>146.7</ele>
    <time>2021-02-03T00:53:36Z</time>
   </trkpt>
   <trkpt lat="47.3784730" lon="-122.0390370">
    <ele>146.7</ele>
    <time>2021-02-03T00:53:37Z</time>
   </trkpt>
   <trkpt lat="47.3784650" lon="-122.0390400">
    <ele>146.7</ele>
    <time>2021-02-03T00:53:38Z</time>
   </trkpt>
   <trkpt lat="47.3784530" lon="-122.0390400">
    <ele>146.7</ele>
    <time>2021-02-03T00:53:39Z</time>
   </trkpt>
   <trkpt lat="47.3784350" lon="-122.0390470">
    <ele>146.7</ele>
    <time>2021-02-03T00:53:40Z</time>
   </trkpt>
   <trkpt lat="47.3784260" lon="-122.0390460">
    <ele>146.7</ele>
    <time>2021-02-03T00:53:41Z</time>
   </trkpt>
   <trkpt lat="47.3784170" lon="-122.0390380">
    <ele>146.7</ele>
    <time>2021-02-03T00:53:42Z</time>
   </trkpt>
   <trkpt lat="47.3784010" lon="-122.0390340">
    <ele>146.7</ele>
    <time>2021-02-03T00:53:43Z</time>
   </trkpt>
   <trkpt lat="47.3783810" lon="-122.0390290">
    <ele>146.7</ele>
    <time>2021-02-03T00:53:44Z</time>
   </trkpt>
   <trkpt lat="47.3783710" lon="-122.0390260">
    <ele>147.2</ele>
    <time>2021-02-03T00:53:45Z</time>
   </trkpt>
   <trkpt lat="47.3783610" lon="-122.0390240">
    <ele>147.2</ele>
    <time>2021-02-03T00:53:46Z</time>
   </trkpt>
   <trkpt lat="47.3783510" lon="-122.0390250">
    <ele>147.2</ele>
    <time>2021-02-03T00:53:47Z</time>
   </trkpt>
   <trkpt lat="47.3783410" lon="-122.0390230">
    <ele>147.3</ele>
    <time>2021-02-03T00:53:48Z</time>
   </trkpt>
   <trkpt lat="47.3783260" lon="-122.0390210">
    <ele>147.3</ele>
    <time>2021-02-03T00:53:49Z</time>
   </trkpt>
   <trkpt lat="47.3783130" lon="-122.0390220">
    <ele>147.3</ele>
    <time>2021-02-03T00:53:50Z</time>
   </trkpt>
   <trkpt lat="47.3783060" lon="-122.0390160">
    <ele>147.3</ele>
    <time>2021-02-03T00:53:51Z</time>
   </trkpt>
   <trkpt lat="47.3782940" lon="-122.0390180">
    <ele>147.3</ele>
    <time>2021-02-03T00:53:52Z</time>
   </trkpt>
   <trkpt lat="47.3782840" lon="-122.0390220">
    <ele>147.3</ele>
    <time>2021-02-03T00:53:53Z</time>
   </trkpt>
   <trkpt lat="47.3782740" lon="-122.0390290">
    <ele>147.7</ele>
    <time>2021-02-03T00:53:54Z</time>
   </trkpt>
   <trkpt lat="47.3782650" lon="-122.0390350">
    <ele>147.7</ele>
    <time>2021-02-03T00:53:55Z</time>
   </trkpt>
   <trkpt lat="47.3782450" lon="-122.0390390">
    <ele>147.7</ele>
    <time>2021-02-03T00:53:56Z</time>
   </trkpt>
   <trkpt lat="47.3782340" lon="-122.0390430">
    <ele>147.7</ele>
    <time>2021-02-03T00:53:57Z</time>
   </trkpt>
   <trkpt lat="47.3782240" lon="-122.0390470">
    <ele>147.7</ele>
    <time>2021-02-03T00:53:58Z</time>
   </trkpt>
   <trkpt lat="47.3782150" lon="-122.0390510">
    <ele>147.7</ele>
    <time>2021-02-03T00:53:59Z</time>
   </trkpt>
   <trkpt lat="47.3782050" lon="-122.0390560">
    <ele>147.7</ele>
    <time>2021-02-03T00:54:00Z</time>
   </trkpt>
   <trkpt lat="47.3782020" lon="-122.0390500">
    <ele>147.7</ele>
    <time>2021-02-03T00:54:01Z</time>
   </trkpt>
   <trkpt lat="47.3781950" lon="-122.0390530">
    <ele>147.7</ele>
    <time>2021-02-03T00:54:02Z</time>
   </trkpt>
   <trkpt lat="47.3781800" lon="-122.0390630">
    <ele>147.7</ele>
    <time>2021-02-03T00:54:03Z</time>
   </trkpt>
   <trkpt lat="47.3781700" lon="-122.0390710">
    <ele>147.7</ele>
    <time>2021-02-03T00:54:04Z</time>
   </trkpt>
   <trkpt lat="47.3781560" lon="-122.0390870">
    <ele>147.7</ele>
    <time>2021-02-03T00:54:05Z</time>
   </trkpt>
   <trkpt lat="47.3781460" lon="-122.0390980">
    <ele>147.7</ele>
    <time>2021-02-03T00:54:06Z</time>
   </trkpt>
   <trkpt lat="47.3781360" lon="-122.0391060">
    <ele>147.7</ele>
    <time>2021-02-03T00:54:07Z</time>
   </trkpt>
   <trkpt lat="47.3781290" lon="-122.0391160">
    <ele>147.7</ele>
    <time>2021-02-03T00:54:08Z</time>
   </trkpt>
   <trkpt lat="47.3781240" lon="-122.0391390">
    <ele>147.7</ele>
    <time>2021-02-03T00:54:09Z</time>
   </trkpt>
   <trkpt lat="47.3781190" lon="-122.0391660">
    <ele>147.7</ele>
    <time>2021-02-03T00:54:10Z</time>
   </trkpt>
   <trkpt lat="47.3781150" lon="-122.0391740">
    <ele>147.7</ele>
    <time>2021-02-03T00:54:11Z</time>
   </trkpt>
   <trkpt lat="47.3781100" lon="-122.0391820">
    <ele>147.7</ele>
    <time>2021-02-03T00:54:12Z</time>
   </trkpt>
   <trkpt lat="47.3781060" lon="-122.0391900">
    <ele>147.7</ele>
    <time>2021-02-03T00:54:13Z</time>
   </trkpt>
   <trkpt lat="47.3780970" lon="-122.0392090">
    <ele>147.7</ele>
    <time>2021-02-03T00:54:14Z</time>
   </trkpt>
   <trkpt lat="47.3780840" lon="-122.0392250">
    <ele>147.8</ele>
    <time>2021-02-03T00:54:15Z</time>
   </trkpt>
   <trkpt lat="47.3780640" lon="-122.0392410">
    <ele>147.8</ele>
    <time>2021-02-03T00:54:16Z</time>
   </trkpt>
   <trkpt lat="47.3780580" lon="-122.0392490">
    <ele>147.8</ele>
    <time>2021-02-03T00:54:17Z</time>
   </trkpt>
   <trkpt lat="47.3780510" lon="-122.0392560">
    <ele>147.8</ele>
    <time>2021-02-03T00:54:18Z</time>
   </trkpt>
   <trkpt lat="47.3780450" lon="-122.0392610">
    <ele>147.8</ele>
    <time>2021-02-03T00:54:19Z</time>
   </trkpt>
   <trkpt lat="47.3780360" lon="-122.0392660">
    <ele>147.8</ele>
    <time>2021-02-03T00:54:20Z</time>
   </trkpt>
   <trkpt lat="47.3780270" lon="-122.0392690">
    <ele>147.8</ele>
    <time>2021-02-03T00:54:21Z</time>
   </trkpt>
   <trkpt lat="47.3780190" lon="-122.0392710">
    <ele>147.8</ele>
    <time>2021-02-03T00:54:22Z</time>
   </trkpt>
   <trkpt lat="47.3780110" lon="-122.0392800">
    <ele>147.8</ele>
    <time>2021-02-03T00:54:23Z</time>
   </trkpt>
   <trkpt lat="47.3780020" lon="-122.0392870">
    <ele>147.8</ele>
    <time>2021-02-03T00:54:24Z</time>
   </trkpt>
   <trkpt lat="47.3779940" lon="-122.0392950">
    <ele>147.8</ele>
    <time>2021-02-03T00:54:25Z</time>
   </trkpt>
   <trkpt lat="47.3779800" lon="-122.0392970">
    <ele>147.8</ele>
    <time>2021-02-03T00:54:26Z</time>
   </trkpt>
   <trkpt lat="47.3779750" lon="-122.0392940">
    <ele>147.8</ele>
    <time>2021-02-03T00:54:27Z</time>
   </trkpt>
   <trkpt lat="47.3779710" lon="-122.0392900">
    <ele>147.8</ele>
    <time>2021-02-03T00:54:28Z</time>
   </trkpt>
   <trkpt lat="47.3779660" lon="-122.0392870">
    <ele>147.8</ele>
    <time>2021-02-03T00:54:29Z</time>
   </trkpt>
   <trkpt lat="47.3779620" lon="-122.0392840">
    <ele>147.8</ele>
    <time>2021-02-03T00:54:30Z</time>
   </trkpt>
   <trkpt lat="47.3779570" lon="-122.0392810">
    <ele>147.8</ele>
    <time>2021-02-03T00:54:31Z</time>
   </trkpt>
   <trkpt lat="47.3779460" lon="-122.0392760">
    <ele>147.8</ele>
    <time>2021-02-03T00:54:32Z</time>
   </trkpt>
   <trkpt lat="47.3779340" lon="-122.0392660">
    <ele>147.8</ele>
    <time>2021-02-03T00:54:34Z</time>
   </trkpt>
   <trkpt lat="47.3779230" lon="-122.0392640">
    <ele>147.8</ele>
    <time>2021-02-03T00:54:35Z</time>
   </trkpt>
   <trkpt lat="47.3779090" lon="-122.0392680">
    <ele>147.8</ele>
    <time>2021-02-03T00:54:36Z</time>
   </trkpt>
   <trkpt lat="47.3778990" lon="-122.0392700">
    <ele>147.8</ele>
    <time>2021-02-03T00:54:37Z</time>
   </trkpt>
   <trkpt lat="47.3778910" lon="-122.0392630">
    <ele>147.8</ele>
    <time>2021-02-03T00:54:38Z</time>
   </trkpt>
   <trkpt lat="47.3778700" lon="-122.0392580">
    <ele>147.7</ele>
    <time>2021-02-03T00:54:39Z</time>
   </trkpt>
   <trkpt lat="47.3778610" lon="-122.0392570">
    <ele>147.7</ele>
    <time>2021-02-03T00:54:40Z</time>
   </trkpt>
   <trkpt lat="47.3778530" lon="-122.0392550">
    <ele>147.7</ele>
    <time>2021-02-03T00:54:41Z</time>
   </trkpt>
   <trkpt lat="47.3778440" lon="-122.0392520">
    <ele>147.7</ele>
    <time>2021-02-03T00:54:42Z</time>
   </trkpt>
   <trkpt lat="47.3778310" lon="-122.0392460">
    <ele>147.7</ele>
    <time>2021-02-03T00:54:43Z</time>
   </trkpt>
   <trkpt lat="47.3778220" lon="-122.0392400">
    <ele>147.7</ele>
    <time>2021-02-03T00:54:44Z</time>
   </trkpt>
   <trkpt lat="47.3778160" lon="-122.0392310">
    <ele>147.7</ele>
    <time>2021-02-03T00:54:45Z</time>
   </trkpt>
   <trkpt lat="47.3778040" lon="-122.0392230">
    <ele>147.7</ele>
    <time>2021-02-03T00:54:46Z</time>
   </trkpt>
   <trkpt lat="47.3777960" lon="-122.0392120">
    <ele>147.7</ele>
    <time>2021-02-03T00:54:47Z</time>
   </trkpt>
   <trkpt lat="47.3777850" lon="-122.0392080">
    <ele>147.7</ele>
    <time>2021-02-03T00:54:48Z</time>
   </trkpt>
   <trkpt lat="47.3777750" lon="-122.0392000">
    <ele>147.7</ele>
    <time>2021-02-03T00:54:49Z</time>
   </trkpt>
   <trkpt lat="47.3777720" lon="-122.0391940">
    <ele>147.7</ele>
    <time>2021-02-03T00:54:50Z</time>
   </trkpt>
   <trkpt lat="47.3777760" lon="-122.0391910">
    <ele>147.7</ele>
    <time>2021-02-03T00:54:51Z</time>
   </trkpt>
   <trkpt lat="47.3777740" lon="-122.0391870">
    <ele>147.7</ele>
    <time>2021-02-03T00:54:52Z</time>
   </trkpt>
   <trkpt lat="47.3777680" lon="-122.0391820">
    <ele>147.7</ele>
    <time>2021-02-03T00:54:53Z</time>
   </trkpt>
   <trkpt lat="47.3777590" lon="-122.0391820">
    <ele>147.7</ele>
    <time>2021-02-03T00:54:54Z</time>
   </trkpt>
   <trkpt lat="47.3777550" lon="-122.0391740">
    <ele>147.7</ele>
    <time>2021-02-03T00:54:55Z</time>
   </trkpt>
   <trkpt lat="47.3777560" lon="-122.0391560">
    <ele>147.7</ele>
    <time>2021-02-03T00:54:56Z</time>
   </trkpt>
   <trkpt lat="47.3777620" lon="-122.0391520">
    <ele>147.7</ele>
    <time>2021-02-03T00:54:57Z</time>
   </trkpt>
   <trkpt lat="47.3777630" lon="-122.0391490">
    <ele>147.7</ele>
    <time>2021-02-03T00:54:58Z</time>
   </trkpt>
   <trkpt lat="47.3777660" lon="-122.0391480">
    <ele>147.7</ele>
    <time>2021-02-03T00:54:59Z</time>
   </trkpt>
   <trkpt lat="47.3777680" lon="-122.0391460">
    <ele>147.7</ele>
    <time>2021-02-03T00:55:00Z</time>
   </trkpt>
   <trkpt lat="47.3777680" lon="-122.0391460">
    <ele>147.7</ele>
    <time>2021-02-03T00:55:01Z</time>
   </trkpt>
  </trkseg>
 </trk>
</gpx>
