<?xml version="1.0" encoding="UTF-8"?>
<gpx creator="StravaGPX" version="1.1" xmlns="http://www.topografix.com/GPX/1/1" xmlns:xsi="http://www.w3.org/2001/XMLSchema-instance" xsi:schemaLocation="http://www.topografix.com/GPX/1/1 http://www.topografix.com/GPX/1/1/gpx.xsd">
 <metadata>
  <time>2021-03-07T00:42:03Z</time>
 </metadata>
 <trk>
  <name>Quick run before sun sets</name>
  <type>running</type>
  <trkseg>
   <trkpt lat="47.3804310" lon="-122.0381760">
    <ele>149.4</ele>
    <time>2021-03-07T00:42:03Z</time>
   </trkpt>
   <trkpt lat="47.3804450" lon="-122.0382170">
    <ele>149.4</ele>
    <time>2021-03-07T00:42:04Z</time>
   </trkpt>
   <trkpt lat="47.3804680" lon="-122.0382630">
    <ele>149.3</ele>
    <time>2021-03-07T00:42:05Z</time>
   </trkpt>
   <trkpt lat="47.3804780" lon="-122.0382870">
    <ele>149.2</ele>
    <time>2021-03-07T00:42:06Z</time>
   </trkpt>
   <trkpt lat="47.3805020" lon="-122.0383840">
    <ele>149.1</ele>
    <time>2021-03-07T00:42:07Z</time>
   </trkpt>
   <trkpt lat="47.3805250" lon="-122.0384300">
    <ele>149.0</ele>
    <time>2021-03-07T00:42:08Z</time>
   </trkpt>
   <trkpt lat="47.3805330" lon="-122.0384480">
    <ele>149.0</ele>
    <time>2021-03-07T00:42:09Z</time>
   </trkpt>
   <trkpt lat="47.3805420" lon="-122.0384950">
    <ele>148.9</ele>
    <time>2021-03-07T00:42:10Z</time>
   </trkpt>
   <trkpt lat="47.3805500" lon="-122.0385420">
    <ele>148.9</ele>
    <time>2021-03-07T00:42:11Z</time>
   </trkpt>
   <trkpt lat="47.3805510" lon="-122.0385640">
    <ele>148.8</ele>
    <time>2021-03-07T00:42:12Z</time>
   </trkpt>
   <trkpt lat="47.3805620" lon="-122.0386050">
    <ele>148.8</ele>
    <time>2021-03-07T00:42:13Z</time>
   </trkpt>
   <trkpt lat="47.3805720" lon="-122.0386440">
    <ele>148.7</ele>
    <time>2021-03-07T00:42:14Z</time>
   </trkpt>
   <trkpt lat="47.3805780" lon="-122.0386890">
    <ele>148.7</ele>
    <time>2021-03-07T00:42:15Z</time>
   </trkpt>
   <trkpt lat="47.3805950" lon="-122.0387350">
    <ele>148.6</ele>
    <time>2021-03-07T00:42:16Z</time>
   </trkpt>
   <trkpt lat="47.3805990" lon="-122.0387520">
    <ele>148.6</ele>
    <time>2021-03-07T00:42:17Z</time>
   </trkpt>
   <trkpt lat="47.3806140" lon="-122.0387980">
    <ele>148.5</ele>
    <time>2021-03-07T00:42:18Z</time>
   </trkpt>
   <trkpt lat="47.3806210" lon="-122.0388640">
    <ele>148.4</ele>
    <time>2021-03-07T00:42:19Z</time>
   </trkpt>
   <trkpt lat="47.3806340" lon="-122.0389050">
    <ele>148.4</ele>
    <time>2021-03-07T00:42:20Z</time>
   </trkpt>
   <trkpt lat="47.3806390" lon="-122.0389470">
    <ele>148.4</ele>
    <time>2021-03-07T00:42:21Z</time>
   </trkpt>
   <trkpt lat="47.3806450" lon="-122.0389870">
    <ele>148.3</ele>
    <time>2021-03-07T00:42:22Z</time>
   </trkpt>
   <trkpt lat="47.3806620" lon="-122.0390510">
    <ele>148.2</ele>
    <time>2021-03-07T00:42:23Z</time>
   </trkpt>
   <trkpt lat="47.3806730" lon="-122.0391030">
    <ele>148.2</ele>
    <time>2021-03-07T00:42:24Z</time>
   </trkpt>
   <trkpt lat="47.3806730" lon="-122.0391570">
    <ele>148.2</ele>
    <time>2021-03-07T00:42:25Z</time>
   </trkpt>
   <trkpt lat="47.3806800" lon="-122.0392250">
    <ele>148.1</ele>
    <time>2021-03-07T00:42:26Z</time>
   </trkpt>
   <trkpt lat="47.3806890" lon="-122.0392970">
    <ele>148.0</ele>
    <time>2021-03-07T00:42:27Z</time>
   </trkpt>
   <trkpt lat="47.3807010" lon="-122.0393460">
    <ele>148.0</ele>
    <time>2021-03-07T00:42:28Z</time>
   </trkpt>
   <trkpt lat="47.3806960" lon="-122.0394050">
    <ele>148.0</ele>
    <time>2021-03-07T00:42:29Z</time>
   </trkpt>
   <trkpt lat="47.3807020" lon="-122.0394470">
    <ele>147.9</ele>
    <time>2021-03-07T00:42:30Z</time>
   </trkpt>
   <trkpt lat="47.3807110" lon="-122.0394930">
    <ele>147.9</ele>
    <time>2021-03-07T00:42:31Z</time>
   </trkpt>
   <trkpt lat="47.3807250" lon="-122.0395550">
    <ele>147.9</ele>
    <time>2021-03-07T00:42:32Z</time>
   </trkpt>
   <trkpt lat="47.3807390" lon="-122.0395930">
    <ele>147.8</ele>
    <time>2021-03-07T00:42:33Z</time>
   </trkpt>
   <trkpt lat="47.3807460" lon="-122.0396320">
    <ele>147.8</ele>
    <time>2021-03-07T00:42:34Z</time>
   </trkpt>
   <trkpt lat="47.3807530" lon="-122.0396900">
    <ele>147.8</ele>
    <time>2021-03-07T00:42:35Z</time>
   </trkpt>
   <trkpt lat="47.3807580" lon="-122.0397590">
    <ele>147.7</ele>
    <time>2021-03-07T00:42:36Z</time>
   </trkpt>
   <trkpt lat="47.3807500" lon="-122.0398150">
    <ele>147.7</ele>
    <time>2021-03-07T00:42:37Z</time>
   </trkpt>
   <trkpt lat="47.3807580" lon="-122.0398610">
    <ele>147.6</ele>
    <time>2021-03-07T00:42:38Z</time>
   </trkpt>
   <trkpt lat="47.3807680" lon="-122.0399130">
    <ele>147.6</ele>
    <time>2021-03-07T00:42:39Z</time>
   </trkpt>
   <trkpt lat="47.3807740" lon="-122.0399650">
    <ele>147.5</ele>
    <time>2021-03-07T00:42:40Z</time>
   </trkpt>
   <trkpt lat="47.3807780" lon="-122.0400250">
    <ele>147.5</ele>
    <time>2021-03-07T00:42:41Z</time>
   </trkpt>
   <trkpt lat="47.3807820" lon="-122.0401070">
    <ele>147.4</ele>
    <time>2021-03-07T00:42:42Z</time>
   </trkpt>
   <trkpt lat="47.3807880" lon="-122.0401620">
    <ele>147.3</ele>
    <time>2021-03-07T00:42:43Z</time>
   </trkpt>
   <trkpt lat="47.3808030" lon="-122.0402150">
    <ele>147.2</ele>
    <time>2021-03-07T00:42:44Z</time>
   </trkpt>
   <trkpt lat="47.3808170" lon="-122.0402630">
    <ele>147.1</ele>
    <time>2021-03-07T00:42:45Z</time>
   </trkpt>
   <trkpt lat="47.3808200" lon="-122.0403050">
    <ele>147.1</ele>
    <time>2021-03-07T00:42:46Z</time>
   </trkpt>
   <trkpt lat="47.3808250" lon="-122.0403520">
    <ele>147.0</ele>
    <time>2021-03-07T00:42:47Z</time>
   </trkpt>
   <trkpt lat="47.3808320" lon="-122.0404000">
    <ele>147.0</ele>
    <time>2021-03-07T00:42:48Z</time>
   </trkpt>
   <trkpt lat="47.3808260" lon="-122.0404560">
    <ele>147.0</ele>
    <time>2021-03-07T00:42:49Z</time>
   </trkpt>
   <trkpt lat="47.3808330" lon="-122.0405120">
    <ele>147.0</ele>
    <time>2021-03-07T00:42:50Z</time>
   </trkpt>
   <trkpt lat="47.3808350" lon="-122.0405690">
    <ele>147.0</ele>
    <time>2021-03-07T00:42:51Z</time>
   </trkpt>
   <trkpt lat="47.3808400" lon="-122.0406270">
    <ele>147.0</ele>
    <time>2021-03-07T00:42:52Z</time>
   </trkpt>
   <trkpt lat="47.3808310" lon="-122.0406870">
    <ele>147.0</ele>
    <time>2021-03-07T00:42:53Z</time>
   </trkpt>
   <trkpt lat="47.3808300" lon="-122.0407490">
    <ele>146.9</ele>
    <time>2021-03-07T00:42:54Z</time>
   </trkpt>
   <trkpt lat="47.3808290" lon="-122.0407970">
    <ele>146.9</ele>
    <time>2021-03-07T00:42:55Z</time>
   </trkpt>
   <trkpt lat="47.3808300" lon="-122.0408500">
    <ele>146.9</ele>
    <time>2021-03-07T00:42:56Z</time>
   </trkpt>
   <trkpt lat="47.3808360" lon="-122.0408940">
    <ele>146.9</ele>
    <time>2021-03-07T00:42:57Z</time>
   </trkpt>
   <trkpt lat="47.3808410" lon="-122.0409470">
    <ele>146.9</ele>
    <time>2021-03-07T00:42:58Z</time>
   </trkpt>
   <trkpt lat="47.3808400" lon="-122.0409940">
    <ele>146.9</ele>
    <time>2021-03-07T00:42:59Z</time>
   </trkpt>
   <trkpt lat="47.3808360" lon="-122.0410530">
    <ele>146.9</ele>
    <time>2021-03-07T00:43:00Z</time>
   </trkpt>
   <trkpt lat="47.3808510" lon="-122.0411290">
    <ele>146.8</ele>
    <time>2021-03-07T00:43:01Z</time>
   </trkpt>
   <trkpt lat="47.3808650" lon="-122.0411930">
    <ele>146.8</ele>
    <time>2021-03-07T00:43:02Z</time>
   </trkpt>
   <trkpt lat="47.3808670" lon="-122.0412420">
    <ele>146.8</ele>
    <time>2021-03-07T00:43:03Z</time>
   </trkpt>
   <trkpt lat="47.3808710" lon="-122.0412840">
    <ele>146.8</ele>
    <time>2021-03-07T00:43:04Z</time>
   </trkpt>
   <trkpt lat="47.3808680" lon="-122.0413420">
    <ele>146.7</ele>
    <time>2021-03-07T00:43:05Z</time>
   </trkpt>
   <trkpt lat="47.3808640" lon="-122.0413940">
    <ele>146.7</ele>
    <time>2021-03-07T00:43:06Z</time>
   </trkpt>
   <trkpt lat="47.3808660" lon="-122.0414460">
    <ele>146.7</ele>
    <time>2021-03-07T00:43:07Z</time>
   </trkpt>
   <trkpt lat="47.3808760" lon="-122.0415000">
    <ele>146.6</ele>
    <time>2021-03-07T00:43:08Z</time>
   </trkpt>
   <trkpt lat="47.3808800" lon="-122.0415480">
    <ele>146.6</ele>
    <time>2021-03-07T00:43:09Z</time>
   </trkpt>
   <trkpt lat="47.3808890" lon="-122.0416020">
    <ele>146.5</ele>
    <time>2021-03-07T00:43:10Z</time>
   </trkpt>
   <trkpt lat="47.3809040" lon="-122.0416580">
    <ele>146.5</ele>
    <time>2021-03-07T00:43:11Z</time>
   </trkpt>
   <trkpt lat="47.3809250" lon="-122.0417330">
    <ele>146.5</ele>
    <time>2021-03-07T00:43:12Z</time>
   </trkpt>
   <trkpt lat="47.3809230" lon="-122.0418140">
    <ele>146.4</ele>
    <time>2021-03-07T00:43:13Z</time>
   </trkpt>
   <trkpt lat="47.3809300" lon="-122.0418740">
    <ele>146.4</ele>
    <time>2021-03-07T00:43:14Z</time>
   </trkpt>
   <trkpt lat="47.3809460" lon="-122.0419420">
    <ele>146.3</ele>
    <time>2021-03-07T00:43:15Z</time>
   </trkpt>
   <trkpt lat="47.3809510" lon="-122.0420000">
    <ele>146.3</ele>
    <time>2021-03-07T00:43:16Z</time>
   </trkpt>
   <trkpt lat="47.3809510" lon="-122.0420580">
    <ele>146.2</ele>
    <time>2021-03-07T00:43:17Z</time>
   </trkpt>
   <trkpt lat="47.3809520" lon="-122.0421070">
    <ele>146.2</ele>
    <time>2021-03-07T00:43:18Z</time>
   </trkpt>
   <trkpt lat="47.3809540" lon="-122.0421630">
    <ele>146.1</ele>
    <time>2021-03-07T00:43:19Z</time>
   </trkpt>
   <trkpt lat="47.3809570" lon="-122.0422180">
    <ele>146.1</ele>
    <time>2021-03-07T00:43:20Z</time>
   </trkpt>
   <trkpt lat="47.3809550" lon="-122.0422630">
    <ele>146.1</ele>
    <time>2021-03-07T00:43:21Z</time>
   </trkpt>
   <trkpt lat="47.3809570" lon="-122.0423240">
    <ele>146.0</ele>
    <time>2021-03-07T00:43:22Z</time>
   </trkpt>
   <trkpt lat="47.3809610" lon="-122.0423800">
    <ele>146.0</ele>
    <time>2021-03-07T00:43:23Z</time>
   </trkpt>
   <trkpt lat="47.3809500" lon="-122.0424500">
    <ele>145.9</ele>
    <time>2021-03-07T00:43:24Z</time>
   </trkpt>
   <trkpt lat="47.3809480" lon="-122.0425120">
    <ele>145.9</ele>
    <time>2021-03-07T00:43:25Z</time>
   </trkpt>
   <trkpt lat="47.3809490" lon="-122.0425580">
    <ele>145.9</ele>
    <time>2021-03-07T00:43:26Z</time>
   </trkpt>
   <trkpt lat="47.3809530" lon="-122.0425980">
    <ele>145.8</ele>
    <time>2021-03-07T00:43:27Z</time>
   </trkpt>
   <trkpt lat="47.3809530" lon="-122.0426390">
    <ele>145.8</ele>
    <time>2021-03-07T00:43:28Z</time>
   </trkpt>
   <trkpt lat="47.3809590" lon="-122.0426820">
    <ele>145.8</ele>
    <time>2021-03-07T00:43:29Z</time>
   </trkpt>
   <trkpt lat="47.3809660" lon="-122.0427310">
    <ele>145.8</ele>
    <time>2021-03-07T00:43:30Z</time>
   </trkpt>
   <trkpt lat="47.3809730" lon="-122.0427770">
    <ele>145.7</ele>
    <time>2021-03-07T00:43:31Z</time>
   </trkpt>
   <trkpt lat="47.3809810" lon="-122.0428290">
    <ele>145.7</ele>
    <time>2021-03-07T00:43:32Z</time>
   </trkpt>
   <trkpt lat="47.3809890" lon="-122.0428750">
    <ele>145.7</ele>
    <time>2021-03-07T00:43:33Z</time>
   </trkpt>
   <trkpt lat="47.3809930" lon="-122.0429260">
    <ele>145.7</ele>
    <time>2021-03-07T00:43:34Z</time>
   </trkpt>
   <trkpt lat="47.3809960" lon="-122.0429770">
    <ele>145.6</ele>
    <time>2021-03-07T00:43:35Z</time>
   </trkpt>
   <trkpt lat="47.3809960" lon="-122.0430410">
    <ele>145.6</ele>
    <time>2021-03-07T00:43:36Z</time>
   </trkpt>
   <trkpt lat="47.3809960" lon="-122.0430980">
    <ele>145.6</ele>
    <time>2021-03-07T00:43:37Z</time>
   </trkpt>
   <trkpt lat="47.3809970" lon="-122.0431640">
    <ele>145.5</ele>
    <time>2021-03-07T00:43:38Z</time>
   </trkpt>
   <trkpt lat="47.3809990" lon="-122.0432170">
    <ele>145.5</ele>
    <time>2021-03-07T00:43:39Z</time>
   </trkpt>
   <trkpt lat="47.3809920" lon="-122.0432640">
    <ele>145.5</ele>
    <time>2021-03-07T00:43:40Z</time>
   </trkpt>
   <trkpt lat="47.3809910" lon="-122.0433140">
    <ele>145.4</ele>
    <time>2021-03-07T00:43:41Z</time>
   </trkpt>
   <trkpt lat="47.3809910" lon="-122.0433370">
    <ele>145.4</ele>
    <time>2021-03-07T00:43:42Z</time>
   </trkpt>
   <trkpt lat="47.3809900" lon="-122.0433830">
    <ele>145.4</ele>
    <time>2021-03-07T00:43:43Z</time>
   </trkpt>
   <trkpt lat="47.3809860" lon="-122.0434330">
    <ele>145.4</ele>
    <time>2021-03-07T00:43:44Z</time>
   </trkpt>
   <trkpt lat="47.3809840" lon="-122.0434930">
    <ele>145.3</ele>
    <time>2021-03-07T00:43:45Z</time>
   </trkpt>
   <trkpt lat="47.3809870" lon="-122.0435830">
    <ele>145.2</ele>
    <time>2021-03-07T00:43:46Z</time>
   </trkpt>
   <trkpt lat="47.3809880" lon="-122.0436570">
    <ele>145.2</ele>
    <time>2021-03-07T00:43:47Z</time>
   </trkpt>
   <trkpt lat="47.3809910" lon="-122.0437130">
    <ele>145.1</ele>
    <time>2021-03-07T00:43:48Z</time>
   </trkpt>
   <trkpt lat="47.3809920" lon="-122.0437730">
    <ele>145.1</ele>
    <time>2021-03-07T00:43:49Z</time>
   </trkpt>
   <trkpt lat="47.3809870" lon="-122.0438180">
    <ele>145.0</ele>
    <time>2021-03-07T00:43:50Z</time>
   </trkpt>
   <trkpt lat="47.3809860" lon="-122.0438590">
    <ele>145.0</ele>
    <time>2021-03-07T00:43:51Z</time>
   </trkpt>
   <trkpt lat="47.3809830" lon="-122.0439150">
    <ele>144.9</ele>
    <time>2021-03-07T00:43:52Z</time>
   </trkpt>
   <trkpt lat="47.3809920" lon="-122.0439580">
    <ele>144.9</ele>
    <time>2021-03-07T00:43:53Z</time>
   </trkpt>
   <trkpt lat="47.3809970" lon="-122.0440200">
    <ele>144.8</ele>
    <time>2021-03-07T00:43:54Z</time>
   </trkpt>
   <trkpt lat="47.3809930" lon="-122.0440760">
    <ele>144.8</ele>
    <time>2021-03-07T00:43:55Z</time>
   </trkpt>
   <trkpt lat="47.3809920" lon="-122.0441380">
    <ele>144.7</ele>
    <time>2021-03-07T00:43:56Z</time>
   </trkpt>
   <trkpt lat="47.3809870" lon="-122.0441980">
    <ele>144.7</ele>
    <time>2021-03-07T00:43:57Z</time>
   </trkpt>
   <trkpt lat="47.3809900" lon="-122.0442620">
    <ele>144.6</ele>
    <time>2021-03-07T00:43:58Z</time>
   </trkpt>
   <trkpt lat="47.3809990" lon="-122.0443160">
    <ele>144.6</ele>
    <time>2021-03-07T00:43:59Z</time>
   </trkpt>
   <trkpt lat="47.3810070" lon="-122.0443590">
    <ele>144.5</ele>
    <time>2021-03-07T00:44:00Z</time>
   </trkpt>
   <trkpt lat="47.3810110" lon="-122.0444140">
    <ele>144.5</ele>
    <time>2021-03-07T00:44:01Z</time>
   </trkpt>
   <trkpt lat="47.3810140" lon="-122.0444650">
    <ele>144.4</ele>
    <time>2021-03-07T00:44:02Z</time>
   </trkpt>
   <trkpt lat="47.3810040" lon="-122.0445270">
    <ele>144.4</ele>
    <time>2021-03-07T00:44:03Z</time>
   </trkpt>
   <trkpt lat="47.3809920" lon="-122.0445880">
    <ele>144.3</ele>
    <time>2021-03-07T00:44:04Z</time>
   </trkpt>
   <trkpt lat="47.3810050" lon="-122.0446430">
    <ele>144.3</ele>
    <time>2021-03-07T00:44:05Z</time>
   </trkpt>
   <trkpt lat="47.3810110" lon="-122.0447030">
    <ele>144.2</ele>
    <time>2021-03-07T00:44:06Z</time>
   </trkpt>
   <trkpt lat="47.3810180" lon="-122.0447510">
    <ele>144.2</ele>
    <time>2021-03-07T00:44:07Z</time>
   </trkpt>
   <trkpt lat="47.3810230" lon="-122.0447910">
    <ele>144.2</ele>
    <time>2021-03-07T00:44:08Z</time>
   </trkpt>
   <trkpt lat="47.3810350" lon="-122.0448450">
    <ele>144.1</ele>
    <time>2021-03-07T00:44:09Z</time>
   </trkpt>
   <trkpt lat="47.3810440" lon="-122.0449020">
    <ele>144.1</ele>
    <time>2021-03-07T00:44:10Z</time>
   </trkpt>
   <trkpt lat="47.3810460" lon="-122.0449650">
    <ele>144.0</ele>
    <time>2021-03-07T00:44:11Z</time>
   </trkpt>
   <trkpt lat="47.3810520" lon="-122.0450250">
    <ele>144.0</ele>
    <time>2021-03-07T00:44:12Z</time>
   </trkpt>
   <trkpt lat="47.3810620" lon="-122.0450720">
    <ele>143.9</ele>
    <time>2021-03-07T00:44:13Z</time>
   </trkpt>
   <trkpt lat="47.3810650" lon="-122.0451260">
    <ele>143.9</ele>
    <time>2021-03-07T00:44:14Z</time>
   </trkpt>
   <trkpt lat="47.3810720" lon="-122.0451730">
    <ele>143.8</ele>
    <time>2021-03-07T00:44:15Z</time>
   </trkpt>
   <trkpt lat="47.3810750" lon="-122.0452370">
    <ele>143.8</ele>
    <time>2021-03-07T00:44:16Z</time>
   </trkpt>
   <trkpt lat="47.3810750" lon="-122.0452850">
    <ele>143.7</ele>
    <time>2021-03-07T00:44:17Z</time>
   </trkpt>
   <trkpt lat="47.3810810" lon="-122.0453390">
    <ele>143.7</ele>
    <time>2021-03-07T00:44:18Z</time>
   </trkpt>
   <trkpt lat="47.3810950" lon="-122.0453860">
    <ele>143.6</ele>
    <time>2021-03-07T00:44:19Z</time>
   </trkpt>
   <trkpt lat="47.3811070" lon="-122.0454460">
    <ele>143.6</ele>
    <time>2021-03-07T00:44:20Z</time>
   </trkpt>
   <trkpt lat="47.3811150" lon="-122.0455030">
    <ele>143.5</ele>
    <time>2021-03-07T00:44:21Z</time>
   </trkpt>
   <trkpt lat="47.3811270" lon="-122.0455460">
    <ele>143.5</ele>
    <time>2021-03-07T00:44:22Z</time>
   </trkpt>
   <trkpt lat="47.3811350" lon="-122.0456020">
    <ele>143.4</ele>
    <time>2021-03-07T00:44:23Z</time>
   </trkpt>
   <trkpt lat="47.3811390" lon="-122.0456460">
    <ele>143.4</ele>
    <time>2021-03-07T00:44:24Z</time>
   </trkpt>
   <trkpt lat="47.3811580" lon="-122.0457160">
    <ele>143.3</ele>
    <time>2021-03-07T00:44:25Z</time>
   </trkpt>
   <trkpt lat="47.3811700" lon="-122.0457670">
    <ele>143.3</ele>
    <time>2021-03-07T00:44:26Z</time>
   </trkpt>
   <trkpt lat="47.3811700" lon="-122.0458220">
    <ele>143.2</ele>
    <time>2021-03-07T00:44:27Z</time>
   </trkpt>
   <trkpt lat="47.3811780" lon="-122.0458720">
    <ele>143.2</ele>
    <time>2021-03-07T00:44:28Z</time>
   </trkpt>
   <trkpt lat="47.3811840" lon="-122.0459220">
    <ele>143.1</ele>
    <time>2021-03-07T00:44:29Z</time>
   </trkpt>
   <trkpt lat="47.3811960" lon="-122.0459730">
    <ele>143.1</ele>
    <time>2021-03-07T00:44:30Z</time>
   </trkpt>
   <trkpt lat="47.3811980" lon="-122.0460230">
    <ele>143.0</ele>
    <time>2021-03-07T00:44:31Z</time>
   </trkpt>
   <trkpt lat="47.3812210" lon="-122.0460770">
    <ele>143.0</ele>
    <time>2021-03-07T00:44:32Z</time>
   </trkpt>
   <trkpt lat="47.3812340" lon="-122.0461380">
    <ele>142.9</ele>
    <time>2021-03-07T00:44:33Z</time>
   </trkpt>
   <trkpt lat="47.3812480" lon="-122.0461930">
    <ele>142.9</ele>
    <time>2021-03-07T00:44:34Z</time>
   </trkpt>
   <trkpt lat="47.3812610" lon="-122.0462420">
    <ele>142.9</ele>
    <time>2021-03-07T00:44:35Z</time>
   </trkpt>
   <trkpt lat="47.3812750" lon="-122.0462960">
    <ele>142.8</ele>
    <time>2021-03-07T00:44:36Z</time>
   </trkpt>
   <trkpt lat="47.3812910" lon="-122.0463570">
    <ele>142.8</ele>
    <time>2021-03-07T00:44:37Z</time>
   </trkpt>
   <trkpt lat="47.3813090" lon="-122.0464200">
    <ele>142.7</ele>
    <time>2021-03-07T00:44:38Z</time>
   </trkpt>
   <trkpt lat="47.3813300" lon="-122.0464770">
    <ele>142.7</ele>
    <time>2021-03-07T00:44:39Z</time>
   </trkpt>
   <trkpt lat="47.3813450" lon="-122.0465350">
    <ele>142.6</ele>
    <time>2021-03-07T00:44:40Z</time>
   </trkpt>
   <trkpt lat="47.3813580" lon="-122.0465840">
    <ele>142.6</ele>
    <time>2021-03-07T00:44:41Z</time>
   </trkpt>
   <trkpt lat="47.3813700" lon="-122.0466360">
    <ele>142.5</ele>
    <time>2021-03-07T00:44:42Z</time>
   </trkpt>
   <trkpt lat="47.3813880" lon="-122.0466820">
    <ele>142.5</ele>
    <time>2021-03-07T00:44:43Z</time>
   </trkpt>
   <trkpt lat="47.3814060" lon="-122.0467390">
    <ele>142.4</ele>
    <time>2021-03-07T00:44:44Z</time>
   </trkpt>
   <trkpt lat="47.3814220" lon="-122.0468010">
    <ele>142.4</ele>
    <time>2021-03-07T00:44:45Z</time>
   </trkpt>
   <trkpt lat="47.3814400" lon="-122.0468540">
    <ele>142.3</ele>
    <time>2021-03-07T00:44:46Z</time>
   </trkpt>
   <trkpt lat="47.3814630" lon="-122.0469060">
    <ele>142.3</ele>
    <time>2021-03-07T00:44:47Z</time>
   </trkpt>
   <trkpt lat="47.3814890" lon="-122.0469540">
    <ele>142.2</ele>
    <time>2021-03-07T00:44:48Z</time>
   </trkpt>
   <trkpt lat="47.3815210" lon="-122.0470000">
    <ele>142.2</ele>
    <time>2021-03-07T00:44:49Z</time>
   </trkpt>
   <trkpt lat="47.3815440" lon="-122.0470620">
    <ele>142.1</ele>
    <time>2021-03-07T00:44:50Z</time>
   </trkpt>
   <trkpt lat="47.3815630" lon="-122.0471190">
    <ele>142.1</ele>
    <time>2021-03-07T00:44:51Z</time>
   </trkpt>
   <trkpt lat="47.3815860" lon="-122.0471630">
    <ele>142.0</ele>
    <time>2021-03-07T00:44:52Z</time>
   </trkpt>
   <trkpt lat="47.3816110" lon="-122.0472050">
    <ele>142.0</ele>
    <time>2021-03-07T00:44:53Z</time>
   </trkpt>
   <trkpt lat="47.3816350" lon="-122.0472420">
    <ele>142.0</ele>
    <time>2021-03-07T00:44:54Z</time>
   </trkpt>
   <trkpt lat="47.3816580" lon="-122.0472810">
    <ele>142.0</ele>
    <time>2021-03-07T00:44:55Z</time>
   </trkpt>
   <trkpt lat="47.3816750" lon="-122.0473180">
    <ele>141.9</ele>
    <time>2021-03-07T00:44:56Z</time>
   </trkpt>
   <trkpt lat="47.3816980" lon="-122.0473470">
    <ele>141.9</ele>
    <time>2021-03-07T00:44:57Z</time>
   </trkpt>
   <trkpt lat="47.3817250" lon="-122.0473890">
    <ele>141.9</ele>
    <time>2021-03-07T00:44:58Z</time>
   </trkpt>
   <trkpt lat="47.3817530" lon="-122.0474330">
    <ele>141.9</ele>
    <time>2021-03-07T00:44:59Z</time>
   </trkpt>
   <trkpt lat="47.3817760" lon="-122.0474770">
    <ele>141.8</ele>
    <time>2021-03-07T00:45:00Z</time>
   </trkpt>
   <trkpt lat="47.3817960" lon="-122.0475220">
    <ele>141.8</ele>
    <time>2021-03-07T00:45:01Z</time>
   </trkpt>
   <trkpt lat="47.3818190" lon="-122.0475730">
    <ele>141.9</ele>
    <time>2021-03-07T00:45:02Z</time>
   </trkpt>
   <trkpt lat="47.3818400" lon="-122.0476250">
    <ele>141.9</ele>
    <time>2021-03-07T00:45:03Z</time>
   </trkpt>
   <trkpt lat="47.3818650" lon="-122.0476730">
    <ele>141.9</ele>
    <time>2021-03-07T00:45:04Z</time>
   </trkpt>
   <trkpt lat="47.3818790" lon="-122.0477260">
    <ele>141.9</ele>
    <time>2021-03-07T00:45:05Z</time>
   </trkpt>
   <trkpt lat="47.3819010" lon="-122.0477660">
    <ele>141.9</ele>
    <time>2021-03-07T00:45:06Z</time>
   </trkpt>
   <trkpt lat="47.3819180" lon="-122.0478030">
    <ele>141.9</ele>
    <time>2021-03-07T00:45:07Z</time>
   </trkpt>
   <trkpt lat="47.3819450" lon="-122.0478430">
    <ele>141.9</ele>
    <time>2021-03-07T00:45:08Z</time>
   </trkpt>
   <trkpt lat="47.3819590" lon="-122.0478550">
    <ele>141.9</ele>
    <time>2021-03-07T00:45:09Z</time>
   </trkpt>
   <trkpt lat="47.3819730" lon="-122.0478980">
    <ele>141.9</ele>
    <time>2021-03-07T00:45:10Z</time>
   </trkpt>
   <trkpt lat="47.3819980" lon="-122.0479300">
    <ele>141.9</ele>
    <time>2021-03-07T00:45:11Z</time>
   </trkpt>
   <trkpt lat="47.3820090" lon="-122.0479400">
    <ele>141.9</ele>
    <time>2021-03-07T00:45:12Z</time>
   </trkpt>
   <trkpt lat="47.3820460" lon="-122.0479730">
    <ele>141.8</ele>
    <time>2021-03-07T00:45:13Z</time>
   </trkpt>
   <trkpt lat="47.3820650" lon="-122.0479870">
    <ele>141.8</ele>
    <time>2021-03-07T00:45:14Z</time>
   </trkpt>
   <trkpt lat="47.3821000" lon="-122.0480030">
    <ele>141.8</ele>
    <time>2021-03-07T00:45:15Z</time>
   </trkpt>
   <trkpt lat="47.3821310" lon="-122.0480260">
    <ele>141.8</ele>
    <time>2021-03-07T00:45:16Z</time>
   </trkpt>
   <trkpt lat="47.3821570" lon="-122.0480420">
    <ele>141.8</ele>
    <time>2021-03-07T00:45:17Z</time>
   </trkpt>
   <trkpt lat="47.3821900" lon="-122.0480430">
    <ele>141.7</ele>
    <time>2021-03-07T00:45:18Z</time>
   </trkpt>
   <trkpt lat="47.3822270" lon="-122.0481010">
    <ele>141.6</ele>
    <time>2021-03-07T00:45:19Z</time>
   </trkpt>
   <trkpt lat="47.3822420" lon="-122.0481690">
    <ele>141.6</ele>
    <time>2021-03-07T00:45:20Z</time>
   </trkpt>
   <trkpt lat="47.3822530" lon="-122.0482350">
    <ele>141.5</ele>
    <time>2021-03-07T00:45:21Z</time>
   </trkpt>
   <trkpt lat="47.3822790" lon="-122.0483050">
    <ele>141.4</ele>
    <time>2021-03-07T00:45:22Z</time>
   </trkpt>
   <trkpt lat="47.3823060" lon="-122.0484110">
    <ele>141.3</ele>
    <time>2021-03-07T00:45:23Z</time>
   </trkpt>
   <trkpt lat="47.3823570" lon="-122.0484540">
    <ele>141.2</ele>
    <time>2021-03-07T00:45:24Z</time>
   </trkpt>
   <trkpt lat="47.3823910" lon="-122.0484900">
    <ele>141.1</ele>
    <time>2021-03-07T00:45:25Z</time>
   </trkpt>
   <trkpt lat="47.3824250" lon="-122.0485130">
    <ele>141.0</ele>
    <time>2021-03-07T00:45:26Z</time>
   </trkpt>
   <trkpt lat="47.3824590" lon="-122.0485390">
    <ele>141.0</ele>
    <time>2021-03-07T00:45:27Z</time>
   </trkpt>
   <trkpt lat="47.3824930" lon="-122.0485510">
    <ele>140.9</ele>
    <time>2021-03-07T00:45:28Z</time>
   </trkpt>
   <trkpt lat="47.3825190" lon="-122.0485790">
    <ele>140.8</ele>
    <time>2021-03-07T00:45:29Z</time>
   </trkpt>
   <trkpt lat="47.3825490" lon="-122.0486100">
    <ele>140.8</ele>
    <time>2021-03-07T00:45:30Z</time>
   </trkpt>
   <trkpt lat="47.3825830" lon="-122.0486230">
    <ele>140.7</ele>
    <time>2021-03-07T00:45:31Z</time>
   </trkpt>
   <trkpt lat="47.3826070" lon="-122.0486510">
    <ele>140.7</ele>
    <time>2021-03-07T00:45:32Z</time>
   </trkpt>
   <trkpt lat="47.3826380" lon="-122.0486680">
    <ele>140.6</ele>
    <time>2021-03-07T00:45:33Z</time>
   </trkpt>
   <trkpt lat="47.3826670" lon="-122.0486940">
    <ele>140.6</ele>
    <time>2021-03-07T00:45:34Z</time>
   </trkpt>
   <trkpt lat="47.3826970" lon="-122.0487290">
    <ele>140.5</ele>
    <time>2021-03-07T00:45:35Z</time>
   </trkpt>
   <trkpt lat="47.3827270" lon="-122.0487520">
    <ele>140.5</ele>
    <time>2021-03-07T00:45:36Z</time>
   </trkpt>
   <trkpt lat="47.3827560" lon="-122.0487780">
    <ele>140.4</ele>
    <time>2021-03-07T00:45:37Z</time>
   </trkpt>
   <trkpt lat="47.3827900" lon="-122.0487990">
    <ele>140.3</ele>
    <time>2021-03-07T00:45:38Z</time>
   </trkpt>
   <trkpt lat="47.3828140" lon="-122.0488250">
    <ele>140.3</ele>
    <time>2021-03-07T00:45:39Z</time>
   </trkpt>
   <trkpt lat="47.3828460" lon="-122.0488400">
    <ele>140.2</ele>
    <time>2021-03-07T00:45:40Z</time>
   </trkpt>
   <trkpt lat="47.3828740" lon="-122.0488600">
    <ele>140.2</ele>
    <time>2021-03-07T00:45:41Z</time>
   </trkpt>
   <trkpt lat="47.3829010" lon="-122.0488890">
    <ele>140.1</ele>
    <time>2021-03-07T00:45:42Z</time>
   </trkpt>
   <trkpt lat="47.3829190" lon="-122.0489290">
    <ele>140.1</ele>
    <time>2021-03-07T00:45:43Z</time>
   </trkpt>
   <trkpt lat="47.3829460" lon="-122.0489590">
    <ele>140.0</ele>
    <time>2021-03-07T00:45:44Z</time>
   </trkpt>
   <trkpt lat="47.3829770" lon="-122.0489820">
    <ele>139.9</ele>
    <time>2021-03-07T00:45:45Z</time>
   </trkpt>
   <trkpt lat="47.3830110" lon="-122.0490140">
    <ele>139.9</ele>
    <time>2021-03-07T00:45:46Z</time>
   </trkpt>
   <trkpt lat="47.3830210" lon="-122.0490310">
    <ele>139.8</ele>
    <time>2021-03-07T00:45:47Z</time>
   </trkpt>
   <trkpt lat="47.3830450" lon="-122.0490560">
    <ele>139.8</ele>
    <time>2021-03-07T00:45:48Z</time>
   </trkpt>
   <trkpt lat="47.3830770" lon="-122.0490640">
    <ele>139.7</ele>
    <time>2021-03-07T00:45:49Z</time>
   </trkpt>
   <trkpt lat="47.3831050" lon="-122.0490840">
    <ele>139.7</ele>
    <time>2021-03-07T00:45:50Z</time>
   </trkpt>
   <trkpt lat="47.3831440" lon="-122.0490960">
    <ele>139.6</ele>
    <time>2021-03-07T00:45:51Z</time>
   </trkpt>
   <trkpt lat="47.3831590" lon="-122.0491010">
    <ele>139.6</ele>
    <time>2021-03-07T00:45:52Z</time>
   </trkpt>
   <trkpt lat="47.3831800" lon="-122.0491320">
    <ele>139.5</ele>
    <time>2021-03-07T00:45:53Z</time>
   </trkpt>
   <trkpt lat="47.3832070" lon="-122.0491620">
    <ele>139.4</ele>
    <time>2021-03-07T00:45:54Z</time>
   </trkpt>
   <trkpt lat="47.3832350" lon="-122.0491860">
    <ele>139.4</ele>
    <time>2021-03-07T00:45:55Z</time>
   </trkpt>
   <trkpt lat="47.3832630" lon="-122.0492060">
    <ele>139.3</ele>
    <time>2021-03-07T00:45:56Z</time>
   </trkpt>
   <trkpt lat="47.3832940" lon="-122.0492460">
    <ele>139.2</ele>
    <time>2021-03-07T00:45:57Z</time>
   </trkpt>
   <trkpt lat="47.3833050" lon="-122.0492610">
    <ele>139.2</ele>
    <time>2021-03-07T00:45:58Z</time>
   </trkpt>
   <trkpt lat="47.3833440" lon="-122.0492750">
    <ele>139.2</ele>
    <time>2021-03-07T00:45:59Z</time>
   </trkpt>
   <trkpt lat="47.3833720" lon="-122.0492950">
    <ele>139.1</ele>
    <time>2021-03-07T00:46:00Z</time>
   </trkpt>
   <trkpt lat="47.3834050" lon="-122.0493240">
    <ele>139.1</ele>
    <time>2021-03-07T00:46:01Z</time>
   </trkpt>
   <trkpt lat="47.3834180" lon="-122.0493380">
    <ele>139.1</ele>
    <time>2021-03-07T00:46:02Z</time>
   </trkpt>
   <trkpt lat="47.3834520" lon="-122.0493610">
    <ele>139.0</ele>
    <time>2021-03-07T00:46:03Z</time>
   </trkpt>
   <trkpt lat="47.3834960" lon="-122.0493810">
    <ele>139.0</ele>
    <time>2021-03-07T00:46:04Z</time>
   </trkpt>
   <trkpt lat="47.3835160" lon="-122.0493900">
    <ele>139.0</ele>
    <time>2021-03-07T00:46:05Z</time>
   </trkpt>
   <trkpt lat="47.3835480" lon="-122.0494100">
    <ele>138.9</ele>
    <time>2021-03-07T00:46:06Z</time>
   </trkpt>
   <trkpt lat="47.3835760" lon="-122.0494210">
    <ele>138.9</ele>
    <time>2021-03-07T00:46:07Z</time>
   </trkpt>
   <trkpt lat="47.3836060" lon="-122.0494320">
    <ele>138.9</ele>
    <time>2021-03-07T00:46:08Z</time>
   </trkpt>
   <trkpt lat="47.3836330" lon="-122.0494580">
    <ele>138.8</ele>
    <time>2021-03-07T00:46:09Z</time>
   </trkpt>
   <trkpt lat="47.3836630" lon="-122.0494720">
    <ele>138.8</ele>
    <time>2021-03-07T00:46:10Z</time>
   </trkpt>
   <trkpt lat="47.3836960" lon="-122.0494680">
    <ele>138.7</ele>
    <time>2021-03-07T00:46:11Z</time>
   </trkpt>
   <trkpt lat="47.3837250" lon="-122.0494880">
    <ele>138.6</ele>
    <time>2021-03-07T00:46:12Z</time>
   </trkpt>
   <trkpt lat="47.3837630" lon="-122.0495120">
    <ele>138.5</ele>
    <time>2021-03-07T00:46:13Z</time>
   </trkpt>
   <trkpt lat="47.3837940" lon="-122.0495290">
    <ele>138.5</ele>
    <time>2021-03-07T00:46:14Z</time>
   </trkpt>
   <trkpt lat="47.3838200" lon="-122.0495510">
    <ele>138.4</ele>
    <time>2021-03-07T00:46:15Z</time>
   </trkpt>
   <trkpt lat="47.3838520" lon="-122.0495630">
    <ele>138.3</ele>
    <time>2021-03-07T00:46:16Z</time>
   </trkpt>
   <trkpt lat="47.3838880" lon="-122.0495660">
    <ele>138.2</ele>
    <time>2021-03-07T00:46:17Z</time>
   </trkpt>
   <trkpt lat="47.3839220" lon="-122.0495740">
    <ele>138.2</ele>
    <time>2021-03-07T00:46:18Z</time>
   </trkpt>
   <trkpt lat="47.3839590" lon="-122.0495870">
    <ele>138.1</ele>
    <time>2021-03-07T00:46:19Z</time>
   </trkpt>
   <trkpt lat="47.3839900" lon="-122.0496010">
    <ele>138.0</ele>
    <time>2021-03-07T00:46:20Z</time>
   </trkpt>
   <trkpt lat="47.3840260" lon="-122.0496330">
    <ele>137.9</ele>
    <time>2021-03-07T00:46:21Z</time>
   </trkpt>
   <trkpt lat="47.3840540" lon="-122.0496490">
    <ele>137.8</ele>
    <time>2021-03-07T00:46:22Z</time>
   </trkpt>
   <trkpt lat="47.3840900" lon="-122.0496610">
    <ele>137.8</ele>
    <time>2021-03-07T00:46:23Z</time>
   </trkpt>
   <trkpt lat="47.3841240" lon="-122.0496740">
    <ele>137.7</ele>
    <time>2021-03-07T00:46:24Z</time>
   </trkpt>
   <trkpt lat="47.3841580" lon="-122.0496910">
    <ele>137.6</ele>
    <time>2021-03-07T00:46:25Z</time>
   </trkpt>
   <trkpt lat="47.3841930" lon="-122.0497050">
    <ele>137.5</ele>
    <time>2021-03-07T00:46:26Z</time>
   </trkpt>
   <trkpt lat="47.3842350" lon="-122.0497200">
    <ele>137.5</ele>
    <time>2021-03-07T00:46:27Z</time>
   </trkpt>
   <trkpt lat="47.3842510" lon="-122.0497250">
    <ele>137.5</ele>
    <time>2021-03-07T00:46:28Z</time>
   </trkpt>
   <trkpt lat="47.3842820" lon="-122.0497400">
    <ele>137.4</ele>
    <time>2021-03-07T00:46:29Z</time>
   </trkpt>
   <trkpt lat="47.3843200" lon="-122.0497400">
    <ele>137.4</ele>
    <time>2021-03-07T00:46:30Z</time>
   </trkpt>
   <trkpt lat="47.3843610" lon="-122.0497370">
    <ele>137.4</ele>
    <time>2021-03-07T00:46:31Z</time>
   </trkpt>
   <trkpt lat="47.3844070" lon="-122.0497520">
    <ele>137.3</ele>
    <time>2021-03-07T00:46:32Z</time>
   </trkpt>
   <trkpt lat="47.3844460" lon="-122.0497560">
    <ele>137.3</ele>
    <time>2021-03-07T00:46:33Z</time>
   </trkpt>
   <trkpt lat="47.3844890" lon="-122.0497580">
    <ele>137.2</ele>
    <time>2021-03-07T00:46:34Z</time>
   </trkpt>
   <trkpt lat="47.3845280" lon="-122.0497590">
    <ele>137.2</ele>
    <time>2021-03-07T00:46:35Z</time>
   </trkpt>
   <trkpt lat="47.3845730" lon="-122.0497680">
    <ele>137.1</ele>
    <time>2021-03-07T00:46:36Z</time>
   </trkpt>
   <trkpt lat="47.3846120" lon="-122.0497740">
    <ele>137.1</ele>
    <time>2021-03-07T00:46:37Z</time>
   </trkpt>
   <trkpt lat="47.3846470" lon="-122.0497780">
    <ele>137.0</ele>
    <time>2021-03-07T00:46:38Z</time>
   </trkpt>
   <trkpt lat="47.3846790" lon="-122.0497830">
    <ele>137.0</ele>
    <time>2021-03-07T00:46:39Z</time>
   </trkpt>
   <trkpt lat="47.3847140" lon="-122.0497890">
    <ele>136.9</ele>
    <time>2021-03-07T00:46:40Z</time>
   </trkpt>
   <trkpt lat="47.3847520" lon="-122.0498000">
    <ele>136.8</ele>
    <time>2021-03-07T00:46:41Z</time>
   </trkpt>
   <trkpt lat="47.3847850" lon="-122.0498100">
    <ele>136.7</ele>
    <time>2021-03-07T00:46:42Z</time>
   </trkpt>
   <trkpt lat="47.3848220" lon="-122.0498270">
    <ele>136.6</ele>
    <time>2021-03-07T00:46:43Z</time>
   </trkpt>
   <trkpt lat="47.3848610" lon="-122.0498210">
    <ele>136.6</ele>
    <time>2021-03-07T00:46:44Z</time>
   </trkpt>
   <trkpt lat="47.3849020" lon="-122.0498270">
    <ele>136.5</ele>
    <time>2021-03-07T00:46:45Z</time>
   </trkpt>
   <trkpt lat="47.3849450" lon="-122.0498320">
    <ele>136.4</ele>
    <time>2021-03-07T00:46:46Z</time>
   </trkpt>
   <trkpt lat="47.3849820" lon="-122.0498440">
    <ele>136.3</ele>
    <time>2021-03-07T00:46:47Z</time>
   </trkpt>
   <trkpt lat="47.3850230" lon="-122.0498280">
    <ele>136.2</ele>
    <time>2021-03-07T00:46:48Z</time>
   </trkpt>
   <trkpt lat="47.3850580" lon="-122.0498290">
    <ele>136.2</ele>
    <time>2021-03-07T00:46:49Z</time>
   </trkpt>
   <trkpt lat="47.3850860" lon="-122.0498280">
    <ele>136.1</ele>
    <time>2021-03-07T00:46:50Z</time>
   </trkpt>
   <trkpt lat="47.3851230" lon="-122.0498330">
    <ele>136.1</ele>
    <time>2021-03-07T00:46:51Z</time>
   </trkpt>
   <trkpt lat="47.3851590" lon="-122.0498370">
    <ele>136.0</ele>
    <time>2021-03-07T00:46:52Z</time>
   </trkpt>
   <trkpt lat="47.3851930" lon="-122.0498340">
    <ele>135.9</ele>
    <time>2021-03-07T00:46:53Z</time>
   </trkpt>
   <trkpt lat="47.3852290" lon="-122.0498460">
    <ele>135.9</ele>
    <time>2021-03-07T00:46:54Z</time>
   </trkpt>
   <trkpt lat="47.3852680" lon="-122.0498300">
    <ele>135.8</ele>
    <time>2021-03-07T00:46:55Z</time>
   </trkpt>
   <trkpt lat="47.3853060" lon="-122.0498090">
    <ele>135.8</ele>
    <time>2021-03-07T00:46:56Z</time>
   </trkpt>
   <trkpt lat="47.3853380" lon="-122.0498090">
    <ele>135.7</ele>
    <time>2021-03-07T00:46:57Z</time>
   </trkpt>
   <trkpt lat="47.3853700" lon="-122.0498050">
    <ele>135.7</ele>
    <time>2021-03-07T00:46:58Z</time>
   </trkpt>
   <trkpt lat="47.3854030" lon="-122.0498060">
    <ele>135.6</ele>
    <time>2021-03-07T00:46:59Z</time>
   </trkpt>
   <trkpt lat="47.3854360" lon="-122.0498130">
    <ele>135.6</ele>
    <time>2021-03-07T00:47:00Z</time>
   </trkpt>
   <trkpt lat="47.3854720" lon="-122.0498110">
    <ele>135.5</ele>
    <time>2021-03-07T00:47:01Z</time>
   </trkpt>
   <trkpt lat="47.3855490" lon="-122.0499320">
    <ele>135.4</ele>
    <time>2021-03-07T00:47:02Z</time>
   </trkpt>
   <trkpt lat="47.3856060" lon="-122.0498720">
    <ele>135.3</ele>
    <time>2021-03-07T00:47:03Z</time>
   </trkpt>
   <trkpt lat="47.3856410" lon="-122.0498840">
    <ele>135.2</ele>
    <time>2021-03-07T00:47:04Z</time>
   </trkpt>
   <trkpt lat="47.3856720" lon="-122.0498750">
    <ele>135.2</ele>
    <time>2021-03-07T00:47:05Z</time>
   </trkpt>
   <trkpt lat="47.3857050" lon="-122.0498900">
    <ele>135.1</ele>
    <time>2021-03-07T00:47:06Z</time>
   </trkpt>
   <trkpt lat="47.3857460" lon="-122.0498570">
    <ele>135.1</ele>
    <time>2021-03-07T00:47:07Z</time>
   </trkpt>
   <trkpt lat="47.3857630" lon="-122.0498390">
    <ele>135.1</ele>
    <time>2021-03-07T00:47:08Z</time>
   </trkpt>
   <trkpt lat="47.3858070" lon="-122.0498310">
    <ele>135.0</ele>
    <time>2021-03-07T00:47:09Z</time>
   </trkpt>
   <trkpt lat="47.3858240" lon="-122.0498280">
    <ele>135.0</ele>
    <time>2021-03-07T00:47:10Z</time>
   </trkpt>
   <trkpt lat="47.3858630" lon="-122.0498190">
    <ele>135.0</ele>
    <time>2021-03-07T00:47:11Z</time>
   </trkpt>
   <trkpt lat="47.3858920" lon="-122.0498230">
    <ele>134.9</ele>
    <time>2021-03-07T00:47:12Z</time>
   </trkpt>
   <trkpt lat="47.3859260" lon="-122.0498310">
    <ele>134.9</ele>
    <time>2021-03-07T00:47:13Z</time>
   </trkpt>
   <trkpt lat="47.3859560" lon="-122.0498270">
    <ele>134.9</ele>
    <time>2021-03-07T00:47:14Z</time>
   </trkpt>
   <trkpt lat="47.3859990" lon="-122.0498110">
    <ele>134.8</ele>
    <time>2021-03-07T00:47:15Z</time>
   </trkpt>
   <trkpt lat="47.3860160" lon="-122.0497970">
    <ele>134.8</ele>
    <time>2021-03-07T00:47:16Z</time>
   </trkpt>
   <trkpt lat="47.3860430" lon="-122.0497920">
    <ele>134.8</ele>
    <time>2021-03-07T00:47:17Z</time>
   </trkpt>
   <trkpt lat="47.3860540" lon="-122.0497940">
    <ele>134.8</ele>
    <time>2021-03-07T00:47:18Z</time>
   </trkpt>
   <trkpt lat="47.3860840" lon="-122.0497810">
    <ele>134.7</ele>
    <time>2021-03-07T00:47:19Z</time>
   </trkpt>
   <trkpt lat="47.3861170" lon="-122.0497540">
    <ele>134.7</ele>
    <time>2021-03-07T00:47:20Z</time>
   </trkpt>
   <trkpt lat="47.3861530" lon="-122.0497410">
    <ele>134.6</ele>
    <time>2021-03-07T00:47:21Z</time>
   </trkpt>
   <trkpt lat="47.3861670" lon="-122.0497420">
    <ele>134.6</ele>
    <time>2021-03-07T00:47:22Z</time>
   </trkpt>
   <trkpt lat="47.3861970" lon="-122.0497420">
    <ele>134.6</ele>
    <time>2021-03-07T00:47:23Z</time>
   </trkpt>
   <trkpt lat="47.3862320" lon="-122.0497190">
    <ele>134.6</ele>
    <time>2021-03-07T00:47:24Z</time>
   </trkpt>
   <trkpt lat="47.3862430" lon="-122.0497150">
    <ele>134.6</ele>
    <time>2021-03-07T00:47:25Z</time>
   </trkpt>
   <trkpt lat="47.3862760" lon="-122.0497080">
    <ele>134.6</ele>
    <time>2021-03-07T00:47:26Z</time>
   </trkpt>
   <trkpt lat="47.3863100" lon="-122.0497060">
    <ele>134.6</ele>
    <time>2021-03-07T00:47:27Z</time>
   </trkpt>
   <trkpt lat="47.3863520" lon="-122.0496960">
    <ele>134.5</ele>
    <time>2021-03-07T00:47:28Z</time>
   </trkpt>
   <trkpt lat="47.3863690" lon="-122.0496880">
    <ele>134.5</ele>
    <time>2021-03-07T00:47:29Z</time>
   </trkpt>
   <trkpt lat="47.3863960" lon="-122.0496790">
    <ele>134.5</ele>
    <time>2021-03-07T00:47:30Z</time>
   </trkpt>
   <trkpt lat="47.3864300" lon="-122.0496620">
    <ele>134.5</ele>
    <time>2021-03-07T00:47:31Z</time>
   </trkpt>
   <trkpt lat="47.3864640" lon="-122.0496550">
    <ele>134.5</ele>
    <time>2021-03-07T00:47:32Z</time>
   </trkpt>
   <trkpt lat="47.3865060" lon="-122.0496480">
    <ele>134.4</ele>
    <time>2021-03-07T00:47:33Z</time>
   </trkpt>
   <trkpt lat="47.3865220" lon="-122.0496450">
    <ele>134.4</ele>
    <time>2021-03-07T00:47:34Z</time>
   </trkpt>
   <trkpt lat="47.3865600" lon="-122.0496250">
    <ele>134.4</ele>
    <time>2021-03-07T00:47:35Z</time>
   </trkpt>
   <trkpt lat="47.3865740" lon="-122.0496180">
    <ele>134.4</ele>
    <time>2021-03-07T00:47:36Z</time>
   </trkpt>
   <trkpt lat="47.3866140" lon="-122.0496090">
    <ele>134.4</ele>
    <time>2021-03-07T00:47:37Z</time>
   </trkpt>
   <trkpt lat="47.3866270" lon="-122.0496040">
    <ele>134.4</ele>
    <time>2021-03-07T00:47:38Z</time>
   </trkpt>
   <trkpt lat="47.3866590" lon="-122.0495870">
    <ele>134.3</ele>
    <time>2021-03-07T00:47:39Z</time>
   </trkpt>
   <trkpt lat="47.3866810" lon="-122.0495600">
    <ele>134.3</ele>
    <time>2021-03-07T00:47:40Z</time>
   </trkpt>
   <trkpt lat="47.3867100" lon="-122.0495480">
    <ele>134.3</ele>
    <time>2021-03-07T00:47:41Z</time>
   </trkpt>
   <trkpt lat="47.3867420" lon="-122.0495340">
    <ele>134.3</ele>
    <time>2021-03-07T00:47:42Z</time>
   </trkpt>
   <trkpt lat="47.3867740" lon="-122.0495140">
    <ele>134.3</ele>
    <time>2021-03-07T00:47:43Z</time>
   </trkpt>
   <trkpt lat="47.3868190" lon="-122.0495040">
    <ele>134.2</ele>
    <time>2021-03-07T00:47:44Z</time>
   </trkpt>
   <trkpt lat="47.3868500" lon="-122.0494870">
    <ele>134.2</ele>
    <time>2021-03-07T00:47:45Z</time>
   </trkpt>
   <trkpt lat="47.3868860" lon="-122.0494820">
    <ele>134.2</ele>
    <time>2021-03-07T00:47:46Z</time>
   </trkpt>
   <trkpt lat="47.3869310" lon="-122.0494560">
    <ele>134.2</ele>
    <time>2021-03-07T00:47:47Z</time>
   </trkpt>
   <trkpt lat="47.3869540" lon="-122.0494330">
    <ele>134.1</ele>
    <time>2021-03-07T00:47:48Z</time>
   </trkpt>
   <trkpt lat="47.3869900" lon="-122.0494200">
    <ele>134.1</ele>
    <time>2021-03-07T00:47:49Z</time>
   </trkpt>
   <trkpt lat="47.3870210" lon="-122.0494040">
    <ele>134.1</ele>
    <time>2021-03-07T00:47:50Z</time>
   </trkpt>
   <trkpt lat="47.3870520" lon="-122.0493740">
    <ele>134.0</ele>
    <time>2021-03-07T00:47:51Z</time>
   </trkpt>
   <trkpt lat="47.3870830" lon="-122.0493390">
    <ele>134.0</ele>
    <time>2021-03-07T00:47:52Z</time>
   </trkpt>
   <trkpt lat="47.3871150" lon="-122.0493230">
    <ele>133.9</ele>
    <time>2021-03-07T00:47:53Z</time>
   </trkpt>
   <trkpt lat="47.3871480" lon="-122.0493010">
    <ele>133.8</ele>
    <time>2021-03-07T00:47:54Z</time>
   </trkpt>
   <trkpt lat="47.3871780" lon="-122.0492680">
    <ele>133.8</ele>
    <time>2021-03-07T00:47:55Z</time>
   </trkpt>
   <trkpt lat="47.3872050" lon="-122.0492520">
    <ele>133.7</ele>
    <time>2021-03-07T00:47:56Z</time>
   </trkpt>
   <trkpt lat="47.3872340" lon="-122.0492280">
    <ele>133.6</ele>
    <time>2021-03-07T00:47:57Z</time>
   </trkpt>
   <trkpt lat="47.3872700" lon="-122.0492080">
    <ele>133.6</ele>
    <time>2021-03-07T00:47:58Z</time>
   </trkpt>
   <trkpt lat="47.3873080" lon="-122.0491630">
    <ele>133.5</ele>
    <time>2021-03-07T00:47:59Z</time>
   </trkpt>
   <trkpt lat="47.3873460" lon="-122.0491510">
    <ele>133.4</ele>
    <time>2021-03-07T00:48:00Z</time>
   </trkpt>
   <trkpt lat="47.3873730" lon="-122.0491300">
    <ele>133.3</ele>
    <time>2021-03-07T00:48:01Z</time>
   </trkpt>
   <trkpt lat="47.3874070" lon="-122.0491020">
    <ele>133.3</ele>
    <time>2021-03-07T00:48:02Z</time>
   </trkpt>
   <trkpt lat="47.3874410" lon="-122.0490860">
    <ele>133.2</ele>
    <time>2021-03-07T00:48:03Z</time>
   </trkpt>
   <trkpt lat="47.3874660" lon="-122.0490650">
    <ele>133.2</ele>
    <time>2021-03-07T00:48:04Z</time>
   </trkpt>
   <trkpt lat="47.3874990" lon="-122.0490530">
    <ele>133.1</ele>
    <time>2021-03-07T00:48:05Z</time>
   </trkpt>
   <trkpt lat="47.3875260" lon="-122.0490240">
    <ele>133.1</ele>
    <time>2021-03-07T00:48:06Z</time>
   </trkpt>
   <trkpt lat="47.3875490" lon="-122.0489840">
    <ele>133.0</ele>
    <time>2021-03-07T00:48:07Z</time>
   </trkpt>
   <trkpt lat="47.3875900" lon="-122.0489550">
    <ele>132.9</ele>
    <time>2021-03-07T00:48:08Z</time>
   </trkpt>
   <trkpt lat="47.3876210" lon="-122.0489130">
    <ele>132.9</ele>
    <time>2021-03-07T00:48:09Z</time>
   </trkpt>
   <trkpt lat="47.3876340" lon="-122.0489010">
    <ele>132.8</ele>
    <time>2021-03-07T00:48:10Z</time>
   </trkpt>
   <trkpt lat="47.3876600" lon="-122.0488780">
    <ele>132.8</ele>
    <time>2021-03-07T00:48:11Z</time>
   </trkpt>
   <trkpt lat="47.3876800" lon="-122.0488500">
    <ele>132.7</ele>
    <time>2021-03-07T00:48:12Z</time>
   </trkpt>
   <trkpt lat="47.3877150" lon="-122.0488180">
    <ele>132.6</ele>
    <time>2021-03-07T00:48:13Z</time>
   </trkpt>
   <trkpt lat="47.3877410" lon="-122.0487920">
    <ele>132.5</ele>
    <time>2021-03-07T00:48:14Z</time>
   </trkpt>
   <trkpt lat="47.3877620" lon="-122.0487590">
    <ele>132.4</ele>
    <time>2021-03-07T00:48:15Z</time>
   </trkpt>
   <trkpt lat="47.3878100" lon="-122.0487340">
    <ele>132.3</ele>
    <time>2021-03-07T00:48:16Z</time>
   </trkpt>
   <trkpt lat="47.3878350" lon="-122.0486930">
    <ele>132.2</ele>
    <time>2021-03-07T00:48:17Z</time>
   </trkpt>
   <trkpt lat="47.3878610" lon="-122.0486550">
    <ele>132.2</ele>
    <time>2021-03-07T00:48:18Z</time>
   </trkpt>
   <trkpt lat="47.3878900" lon="-122.0486290">
    <ele>132.1</ele>
    <time>2021-03-07T00:48:19Z</time>
   </trkpt>
   <trkpt lat="47.3878990" lon="-122.0486180">
    <ele>132.1</ele>
    <time>2021-03-07T00:48:20Z</time>
   </trkpt>
   <trkpt lat="47.3879090" lon="-122.0486070">
    <ele>132.1</ele>
    <time>2021-03-07T00:48:21Z</time>
   </trkpt>
   <trkpt lat="47.3879210" lon="-122.0486090">
    <ele>132.1</ele>
    <time>2021-03-07T00:48:22Z</time>
   </trkpt>
   <trkpt lat="47.3879300" lon="-122.0486050">
    <ele>132.1</ele>
    <time>2021-03-07T00:48:23Z</time>
   </trkpt>
   <trkpt lat="47.3878500" lon="-122.0487790">
    <ele>132.4</ele>
    <time>2021-03-07T00:50:40Z</time>
   </trkpt>
   <trkpt lat="47.3878370" lon="-122.0487930">
    <ele>132.5</ele>
    <time>2021-03-07T00:50:41Z</time>
   </trkpt>
   <trkpt lat="47.3878250" lon="-122.0488070">
    <ele>132.5</ele>
    <time>2021-03-07T00:50:42Z</time>
   </trkpt>
   <trkpt lat="47.3877850" lon="-122.0488340">
    <ele>132.6</ele>
    <time>2021-03-07T00:50:43Z</time>
   </trkpt>
   <trkpt lat="47.3877420" lon="-122.0488640">
    <ele>132.7</ele>
    <time>2021-03-07T00:50:44Z</time>
   </trkpt>
   <trkpt lat="47.3877140" lon="-122.0489000">
    <ele>132.8</ele>
    <time>2021-03-07T00:50:45Z</time>
   </trkpt>
   <trkpt lat="47.3876760" lon="-122.0489440">
    <ele>132.9</ele>
    <time>2021-03-07T00:50:46Z</time>
   </trkpt>
   <trkpt lat="47.3876450" lon="-122.0489870">
    <ele>132.9</ele>
    <time>2021-03-07T00:50:47Z</time>
   </trkpt>
   <trkpt lat="47.3876190" lon="-122.0490280">
    <ele>133.0</ele>
    <time>2021-03-07T00:50:48Z</time>
   </trkpt>
   <trkpt lat="47.3875860" lon="-122.0490360">
    <ele>133.1</ele>
    <time>2021-03-07T00:50:49Z</time>
   </trkpt>
   <trkpt lat="47.3875500" lon="-122.0490560">
    <ele>133.1</ele>
    <time>2021-03-07T00:50:50Z</time>
   </trkpt>
   <trkpt lat="47.3875190" lon="-122.0490850">
    <ele>133.2</ele>
    <time>2021-03-07T00:50:51Z</time>
   </trkpt>
   <trkpt lat="47.3874810" lon="-122.0491240">
    <ele>133.2</ele>
    <time>2021-03-07T00:50:52Z</time>
   </trkpt>
   <trkpt lat="47.3874350" lon="-122.0491390">
    <ele>133.3</ele>
    <time>2021-03-07T00:50:53Z</time>
   </trkpt>
   <trkpt lat="47.3874110" lon="-122.0491700">
    <ele>133.4</ele>
    <time>2021-03-07T00:50:54Z</time>
   </trkpt>
   <trkpt lat="47.3873740" lon="-122.0491960">
    <ele>133.4</ele>
    <time>2021-03-07T00:50:55Z</time>
   </trkpt>
   <trkpt lat="47.3873390" lon="-122.0492170">
    <ele>133.5</ele>
    <time>2021-03-07T00:50:56Z</time>
   </trkpt>
   <trkpt lat="47.3873090" lon="-122.0492610">
    <ele>133.6</ele>
    <time>2021-03-07T00:50:57Z</time>
   </trkpt>
   <trkpt lat="47.3872680" lon="-122.0493020">
    <ele>133.7</ele>
    <time>2021-03-07T00:50:58Z</time>
   </trkpt>
   <trkpt lat="47.3872430" lon="-122.0493440">
    <ele>133.7</ele>
    <time>2021-03-07T00:50:59Z</time>
   </trkpt>
   <trkpt lat="47.3871980" lon="-122.0493600">
    <ele>133.8</ele>
    <time>2021-03-07T00:51:00Z</time>
   </trkpt>
   <trkpt lat="47.3871690" lon="-122.0493860">
    <ele>133.9</ele>
    <time>2021-03-07T00:51:01Z</time>
   </trkpt>
   <trkpt lat="47.3871270" lon="-122.0494160">
    <ele>134.0</ele>
    <time>2021-03-07T00:51:02Z</time>
   </trkpt>
   <trkpt lat="47.3870920" lon="-122.0494360">
    <ele>134.0</ele>
    <time>2021-03-07T00:51:03Z</time>
   </trkpt>
   <trkpt lat="47.3870580" lon="-122.0494560">
    <ele>134.1</ele>
    <time>2021-03-07T00:51:04Z</time>
   </trkpt>
   <trkpt lat="47.3870170" lon="-122.0494700">
    <ele>134.1</ele>
    <time>2021-03-07T00:51:05Z</time>
   </trkpt>
   <trkpt lat="47.3869840" lon="-122.0495040">
    <ele>134.1</ele>
    <time>2021-03-07T00:51:06Z</time>
   </trkpt>
   <trkpt lat="47.3869350" lon="-122.0495290">
    <ele>134.2</ele>
    <time>2021-03-07T00:51:07Z</time>
   </trkpt>
   <trkpt lat="47.3869090" lon="-122.0495620">
    <ele>134.2</ele>
    <time>2021-03-07T00:51:08Z</time>
   </trkpt>
   <trkpt lat="47.3868720" lon="-122.0495840">
    <ele>134.2</ele>
    <time>2021-03-07T00:51:09Z</time>
   </trkpt>
   <trkpt lat="47.3868330" lon="-122.0495950">
    <ele>134.2</ele>
    <time>2021-03-07T00:51:10Z</time>
   </trkpt>
   <trkpt lat="47.3867950" lon="-122.0496170">
    <ele>134.3</ele>
    <time>2021-03-07T00:51:11Z</time>
   </trkpt>
   <trkpt lat="47.3867570" lon="-122.0496490">
    <ele>134.3</ele>
    <time>2021-03-07T00:51:12Z</time>
   </trkpt>
   <trkpt lat="47.3867290" lon="-122.0496840">
    <ele>134.3</ele>
    <time>2021-03-07T00:51:13Z</time>
   </trkpt>
   <trkpt lat="47.3866860" lon="-122.0496910">
    <ele>134.3</ele>
    <time>2021-03-07T00:51:14Z</time>
   </trkpt>
   <trkpt lat="47.3866570" lon="-122.0496930">
    <ele>134.4</ele>
    <time>2021-03-07T00:51:15Z</time>
   </trkpt>
   <trkpt lat="47.3866060" lon="-122.0496960">
    <ele>134.4</ele>
    <time>2021-03-07T00:51:16Z</time>
   </trkpt>
   <trkpt lat="47.3865710" lon="-122.0497180">
    <ele>134.4</ele>
    <time>2021-03-07T00:51:17Z</time>
   </trkpt>
   <trkpt lat="47.3865260" lon="-122.0497470">
    <ele>134.4</ele>
    <time>2021-03-07T00:51:18Z</time>
   </trkpt>
   <trkpt lat="47.3864840" lon="-122.0497580">
    <ele>134.5</ele>
    <time>2021-03-07T00:51:19Z</time>
   </trkpt>
   <trkpt lat="47.3864450" lon="-122.0497840">
    <ele>134.5</ele>
    <time>2021-03-07T00:51:20Z</time>
   </trkpt>
   <trkpt lat="47.3864090" lon="-122.0497870">
    <ele>134.5</ele>
    <time>2021-03-07T00:51:21Z</time>
   </trkpt>
   <trkpt lat="47.3863740" lon="-122.0498040">
    <ele>134.5</ele>
    <time>2021-03-07T00:51:22Z</time>
   </trkpt>
   <trkpt lat="47.3863360" lon="-122.0498050">
    <ele>134.6</ele>
    <time>2021-03-07T00:51:23Z</time>
   </trkpt>
   <trkpt lat="47.3862970" lon="-122.0498000">
    <ele>134.6</ele>
    <time>2021-03-07T00:51:24Z</time>
   </trkpt>
   <trkpt lat="47.3862600" lon="-122.0498270">
    <ele>134.6</ele>
    <time>2021-03-07T00:51:25Z</time>
   </trkpt>
   <trkpt lat="47.3862200" lon="-122.0498420">
    <ele>134.6</ele>
    <time>2021-03-07T00:51:26Z</time>
   </trkpt>
   <trkpt lat="47.3861830" lon="-122.0498530">
    <ele>134.6</ele>
    <time>2021-03-07T00:51:27Z</time>
   </trkpt>
   <trkpt lat="47.3861420" lon="-122.0498560">
    <ele>134.7</ele>
    <time>2021-03-07T00:51:28Z</time>
   </trkpt>
   <trkpt lat="47.3861040" lon="-122.0498700">
    <ele>134.7</ele>
    <time>2021-03-07T00:51:29Z</time>
   </trkpt>
   <trkpt lat="47.3860660" lon="-122.0498770">
    <ele>134.8</ele>
    <time>2021-03-07T00:51:30Z</time>
   </trkpt>
   <trkpt lat="47.3860350" lon="-122.0498870">
    <ele>134.8</ele>
    <time>2021-03-07T00:51:31Z</time>
   </trkpt>
   <trkpt lat="47.3860050" lon="-122.0499120">
    <ele>134.8</ele>
    <time>2021-03-07T00:51:32Z</time>
   </trkpt>
   <trkpt lat="47.3859650" lon="-122.0499180">
    <ele>134.9</ele>
    <time>2021-03-07T00:51:33Z</time>
   </trkpt>
   <trkpt lat="47.3859370" lon="-122.0499420">
    <ele>134.9</ele>
    <time>2021-03-07T00:51:34Z</time>
   </trkpt>
   <trkpt lat="47.3858890" lon="-122.0499420">
    <ele>135.0</ele>
    <time>2021-03-07T00:51:35Z</time>
   </trkpt>
   <trkpt lat="47.3858450" lon="-122.0499320">
    <ele>135.0</ele>
    <time>2021-03-07T00:51:36Z</time>
   </trkpt>
   <trkpt lat="47.3858100" lon="-122.0499380">
    <ele>135.0</ele>
    <time>2021-03-07T00:51:37Z</time>
   </trkpt>
   <trkpt lat="47.3857680" lon="-122.0499370">
    <ele>135.1</ele>
    <time>2021-03-07T00:51:38Z</time>
   </trkpt>
   <trkpt lat="47.3857410" lon="-122.0499500">
    <ele>135.1</ele>
    <time>2021-03-07T00:51:39Z</time>
   </trkpt>
   <trkpt lat="47.3857040" lon="-122.0499360">
    <ele>135.2</ele>
    <time>2021-03-07T00:51:40Z</time>
   </trkpt>
   <trkpt lat="47.3856810" lon="-122.0499430">
    <ele>135.2</ele>
    <time>2021-03-07T00:51:41Z</time>
   </trkpt>
   <trkpt lat="47.3856690" lon="-122.0499460">
    <ele>135.2</ele>
    <time>2021-03-07T00:51:42Z</time>
   </trkpt>
   <trkpt lat="47.3855910" lon="-122.0498780">
    <ele>135.3</ele>
    <time>2021-03-07T00:52:04Z</time>
   </trkpt>
   <trkpt lat="47.3855760" lon="-122.0498800">
    <ele>135.4</ele>
    <time>2021-03-07T00:52:05Z</time>
   </trkpt>
   <trkpt lat="47.3855620" lon="-122.0498810">
    <ele>135.4</ele>
    <time>2021-03-07T00:52:06Z</time>
   </trkpt>
   <trkpt lat="47.3855280" lon="-122.0498940">
    <ele>135.4</ele>
    <time>2021-03-07T00:52:07Z</time>
   </trkpt>
   <trkpt lat="47.3854810" lon="-122.0499090">
    <ele>135.5</ele>
    <time>2021-03-07T00:52:08Z</time>
   </trkpt>
   <trkpt lat="47.3854470" lon="-122.0499330">
    <ele>135.6</ele>
    <time>2021-03-07T00:52:09Z</time>
   </trkpt>
   <trkpt lat="47.3853920" lon="-122.0499170">
    <ele>135.6</ele>
    <time>2021-03-07T00:52:10Z</time>
   </trkpt>
   <trkpt lat="47.3853620" lon="-122.0499080">
    <ele>135.7</ele>
    <time>2021-03-07T00:52:11Z</time>
   </trkpt>
   <trkpt lat="47.3853180" lon="-122.0499170">
    <ele>135.7</ele>
    <time>2021-03-07T00:52:12Z</time>
   </trkpt>
   <trkpt lat="47.3852880" lon="-122.0499170">
    <ele>135.8</ele>
    <time>2021-03-07T00:52:13Z</time>
   </trkpt>
   <trkpt lat="47.3852550" lon="-122.0499410">
    <ele>135.8</ele>
    <time>2021-03-07T00:52:14Z</time>
   </trkpt>
   <trkpt lat="47.3852140" lon="-122.0499450">
    <ele>135.9</ele>
    <time>2021-03-07T00:52:15Z</time>
   </trkpt>
   <trkpt lat="47.3851840" lon="-122.0499430">
    <ele>135.9</ele>
    <time>2021-03-07T00:52:16Z</time>
   </trkpt>
   <trkpt lat="47.3851420" lon="-122.0499490">
    <ele>136.0</ele>
    <time>2021-03-07T00:52:17Z</time>
   </trkpt>
   <trkpt lat="47.3851130" lon="-122.0499420">
    <ele>136.1</ele>
    <time>2021-03-07T00:52:18Z</time>
   </trkpt>
   <trkpt lat="47.3850810" lon="-122.0499300">
    <ele>136.1</ele>
    <time>2021-03-07T00:52:19Z</time>
   </trkpt>
   <trkpt lat="47.3850390" lon="-122.0499180">
    <ele>136.2</ele>
    <time>2021-03-07T00:52:20Z</time>
   </trkpt>
   <trkpt lat="47.3850050" lon="-122.0499490">
    <ele>136.2</ele>
    <time>2021-03-07T00:52:21Z</time>
   </trkpt>
   <trkpt lat="47.3849720" lon="-122.0499270">
    <ele>136.3</ele>
    <time>2021-03-07T00:52:22Z</time>
   </trkpt>
   <trkpt lat="47.3849310" lon="-122.0499310">
    <ele>136.4</ele>
    <time>2021-03-07T00:52:23Z</time>
   </trkpt>
   <trkpt lat="47.3848860" lon="-122.0499080">
    <ele>136.5</ele>
    <time>2021-03-07T00:52:24Z</time>
   </trkpt>
   <trkpt lat="47.3848520" lon="-122.0499300">
    <ele>136.6</ele>
    <time>2021-03-07T00:52:25Z</time>
   </trkpt>
   <trkpt lat="47.3848130" lon="-122.0499300">
    <ele>136.7</ele>
    <time>2021-03-07T00:52:26Z</time>
   </trkpt>
   <trkpt lat="47.3847820" lon="-122.0499210">
    <ele>136.7</ele>
    <time>2021-03-07T00:52:27Z</time>
   </trkpt>
   <trkpt lat="47.3847530" lon="-122.0499220">
    <ele>136.8</ele>
    <time>2021-03-07T00:52:28Z</time>
   </trkpt>
   <trkpt lat="47.3847060" lon="-122.0499160">
    <ele>136.9</ele>
    <time>2021-03-07T00:52:29Z</time>
   </trkpt>
   <trkpt lat="47.3846670" lon="-122.0499120">
    <ele>137.0</ele>
    <time>2021-03-07T00:52:30Z</time>
   </trkpt>
   <trkpt lat="47.3846270" lon="-122.0499100">
    <ele>137.0</ele>
    <time>2021-03-07T00:52:31Z</time>
   </trkpt>
   <trkpt lat="47.3845880" lon="-122.0499070">
    <ele>137.1</ele>
    <time>2021-03-07T00:52:32Z</time>
   </trkpt>
   <trkpt lat="47.3845480" lon="-122.0499040">
    <ele>137.1</ele>
    <time>2021-03-07T00:52:33Z</time>
   </trkpt>
   <trkpt lat="47.3845020" lon="-122.0498760">
    <ele>137.2</ele>
    <time>2021-03-07T00:52:34Z</time>
   </trkpt>
   <trkpt lat="47.3844600" lon="-122.0498670">
    <ele>137.2</ele>
    <time>2021-03-07T00:52:35Z</time>
   </trkpt>
   <trkpt lat="47.3844130" lon="-122.0498640">
    <ele>137.3</ele>
    <time>2021-03-07T00:52:36Z</time>
   </trkpt>
   <trkpt lat="47.3843790" lon="-122.0498420">
    <ele>137.3</ele>
    <time>2021-03-07T00:52:37Z</time>
   </trkpt>
   <trkpt lat="47.3843400" lon="-122.0498440">
    <ele>137.4</ele>
    <time>2021-03-07T00:52:38Z</time>
   </trkpt>
   <trkpt lat="47.3843050" lon="-122.0498230">
    <ele>137.4</ele>
    <time>2021-03-07T00:52:39Z</time>
   </trkpt>
   <trkpt lat="47.3842650" lon="-122.0498370">
    <ele>137.4</ele>
    <time>2021-03-07T00:52:40Z</time>
   </trkpt>
   <trkpt lat="47.3842300" lon="-122.0498210">
    <ele>137.5</ele>
    <time>2021-03-07T00:52:41Z</time>
   </trkpt>
   <trkpt lat="47.3841970" lon="-122.0498020">
    <ele>137.5</ele>
    <time>2021-03-07T00:52:42Z</time>
   </trkpt>
   <trkpt lat="47.3841640" lon="-122.0498020">
    <ele>137.6</ele>
    <time>2021-03-07T00:52:43Z</time>
   </trkpt>
   <trkpt lat="47.3841330" lon="-122.0497800">
    <ele>137.6</ele>
    <time>2021-03-07T00:52:44Z</time>
   </trkpt>
   <trkpt lat="47.3841020" lon="-122.0497820">
    <ele>137.7</ele>
    <time>2021-03-07T00:52:45Z</time>
   </trkpt>
   <trkpt lat="47.3840670" lon="-122.0497560">
    <ele>137.8</ele>
    <time>2021-03-07T00:52:46Z</time>
   </trkpt>
   <trkpt lat="47.3840400" lon="-122.0497320">
    <ele>137.8</ele>
    <time>2021-03-07T00:52:47Z</time>
   </trkpt>
   <trkpt lat="47.3839960" lon="-122.0497450">
    <ele>137.9</ele>
    <time>2021-03-07T00:52:48Z</time>
   </trkpt>
   <trkpt lat="47.3839590" lon="-122.0497360">
    <ele>138.0</ele>
    <time>2021-03-07T00:52:49Z</time>
   </trkpt>
   <trkpt lat="47.3839290" lon="-122.0497350">
    <ele>138.1</ele>
    <time>2021-03-07T00:52:50Z</time>
   </trkpt>
   <trkpt lat="47.3838900" lon="-122.0497140">
    <ele>138.2</ele>
    <time>2021-03-07T00:52:51Z</time>
   </trkpt>
   <trkpt lat="47.3838590" lon="-122.0496970">
    <ele>138.3</ele>
    <time>2021-03-07T00:52:52Z</time>
   </trkpt>
   <trkpt lat="47.3838270" lon="-122.0496660">
    <ele>138.4</ele>
    <time>2021-03-07T00:52:53Z</time>
   </trkpt>
   <trkpt lat="47.3837890" lon="-122.0496350">
    <ele>138.5</ele>
    <time>2021-03-07T00:52:54Z</time>
   </trkpt>
   <trkpt lat="47.3837520" lon="-122.0496190">
    <ele>138.5</ele>
    <time>2021-03-07T00:52:55Z</time>
   </trkpt>
   <trkpt lat="47.3837150" lon="-122.0496020">
    <ele>138.6</ele>
    <time>2021-03-07T00:52:56Z</time>
   </trkpt>
   <trkpt lat="47.3836820" lon="-122.0495880">
    <ele>138.7</ele>
    <time>2021-03-07T00:52:57Z</time>
   </trkpt>
   <trkpt lat="47.3836410" lon="-122.0495700">
    <ele>138.8</ele>
    <time>2021-03-07T00:52:58Z</time>
   </trkpt>
   <trkpt lat="47.3836120" lon="-122.0495500">
    <ele>138.8</ele>
    <time>2021-03-07T00:52:59Z</time>
   </trkpt>
   <trkpt lat="47.3835740" lon="-122.0495230">
    <ele>138.9</ele>
    <time>2021-03-07T00:53:00Z</time>
   </trkpt>
   <trkpt lat="47.3835350" lon="-122.0494850">
    <ele>138.9</ele>
    <time>2021-03-07T00:53:01Z</time>
   </trkpt>
   <trkpt lat="47.3834950" lon="-122.0494660">
    <ele>139.0</ele>
    <time>2021-03-07T00:53:02Z</time>
   </trkpt>
   <trkpt lat="47.3834630" lon="-122.0494350">
    <ele>139.0</ele>
    <time>2021-03-07T00:53:03Z</time>
   </trkpt>
   <trkpt lat="47.3834240" lon="-122.0494080">
    <ele>139.1</ele>
    <time>2021-03-07T00:53:04Z</time>
   </trkpt>
   <trkpt lat="47.3833840" lon="-122.0494040">
    <ele>139.1</ele>
    <time>2021-03-07T00:53:05Z</time>
   </trkpt>
   <trkpt lat="47.3833570" lon="-122.0493830">
    <ele>139.1</ele>
    <time>2021-03-07T00:53:06Z</time>
   </trkpt>
   <trkpt lat="47.3833240" lon="-122.0493700">
    <ele>139.2</ele>
    <time>2021-03-07T00:53:07Z</time>
   </trkpt>
   <trkpt lat="47.3832910" lon="-122.0493280">
    <ele>139.2</ele>
    <time>2021-03-07T00:53:08Z</time>
   </trkpt>
   <trkpt lat="47.3832600" lon="-122.0493070">
    <ele>139.3</ele>
    <time>2021-03-07T00:53:09Z</time>
   </trkpt>
   <trkpt lat="47.3832170" lon="-122.0492910">
    <ele>139.4</ele>
    <time>2021-03-07T00:53:10Z</time>
   </trkpt>
   <trkpt lat="47.3831770" lon="-122.0492620">
    <ele>139.5</ele>
    <time>2021-03-07T00:53:11Z</time>
   </trkpt>
   <trkpt lat="47.3831450" lon="-122.0492410">
    <ele>139.5</ele>
    <time>2021-03-07T00:53:12Z</time>
   </trkpt>
   <trkpt lat="47.3831130" lon="-122.0492080">
    <ele>139.6</ele>
    <time>2021-03-07T00:53:13Z</time>
   </trkpt>
   <trkpt lat="47.3830810" lon="-122.0492040">
    <ele>139.7</ele>
    <time>2021-03-07T00:53:14Z</time>
   </trkpt>
   <trkpt lat="47.3830530" lon="-122.0491660">
    <ele>139.7</ele>
    <time>2021-03-07T00:53:15Z</time>
   </trkpt>
   <trkpt lat="47.3830180" lon="-122.0491540">
    <ele>139.8</ele>
    <time>2021-03-07T00:53:16Z</time>
   </trkpt>
   <trkpt lat="47.3829840" lon="-122.0491160">
    <ele>139.9</ele>
    <time>2021-03-07T00:53:17Z</time>
   </trkpt>
   <trkpt lat="47.3829450" lon="-122.0490960">
    <ele>140.0</ele>
    <time>2021-03-07T00:53:18Z</time>
   </trkpt>
   <trkpt lat="47.3829160" lon="-122.0490740">
    <ele>140.0</ele>
    <time>2021-03-07T00:53:19Z</time>
   </trkpt>
   <trkpt lat="47.3828850" lon="-122.0490300">
    <ele>140.1</ele>
    <time>2021-03-07T00:53:20Z</time>
   </trkpt>
   <trkpt lat="47.3828480" lon="-122.0490020">
    <ele>140.2</ele>
    <time>2021-03-07T00:53:21Z</time>
   </trkpt>
   <trkpt lat="47.3828210" lon="-122.0489610">
    <ele>140.2</ele>
    <time>2021-03-07T00:53:22Z</time>
   </trkpt>
   <trkpt lat="47.3827920" lon="-122.0489210">
    <ele>140.3</ele>
    <time>2021-03-07T00:53:23Z</time>
   </trkpt>
   <trkpt lat="47.3827620" lon="-122.0489020">
    <ele>140.4</ele>
    <time>2021-03-07T00:53:24Z</time>
   </trkpt>
   <trkpt lat="47.3827330" lon="-122.0488690">
    <ele>140.4</ele>
    <time>2021-03-07T00:53:25Z</time>
   </trkpt>
   <trkpt lat="47.3827070" lon="-122.0488380">
    <ele>140.5</ele>
    <time>2021-03-07T00:53:26Z</time>
   </trkpt>
   <trkpt lat="47.3826720" lon="-122.0488120">
    <ele>140.5</ele>
    <time>2021-03-07T00:53:27Z</time>
   </trkpt>
   <trkpt lat="47.3826390" lon="-122.0487880">
    <ele>140.6</ele>
    <time>2021-03-07T00:53:28Z</time>
   </trkpt>
   <trkpt lat="47.3826120" lon="-122.0487560">
    <ele>140.6</ele>
    <time>2021-03-07T00:53:29Z</time>
   </trkpt>
   <trkpt lat="47.3825770" lon="-122.0487210">
    <ele>140.7</ele>
    <time>2021-03-07T00:53:30Z</time>
   </trkpt>
   <trkpt lat="47.3825480" lon="-122.0487000">
    <ele>140.7</ele>
    <time>2021-03-07T00:53:31Z</time>
   </trkpt>
   <trkpt lat="47.3825250" lon="-122.0486500">
    <ele>140.8</ele>
    <time>2021-03-07T00:53:32Z</time>
   </trkpt>
   <trkpt lat="47.3824960" lon="-122.0486210">
    <ele>140.9</ele>
    <time>2021-03-07T00:53:33Z</time>
   </trkpt>
   <trkpt lat="47.3824660" lon="-122.0485810">
    <ele>140.9</ele>
    <time>2021-03-07T00:53:34Z</time>
   </trkpt>
   <trkpt lat="47.3824340" lon="-122.0485580">
    <ele>141.0</ele>
    <time>2021-03-07T00:53:35Z</time>
   </trkpt>
   <trkpt lat="47.3824090" lon="-122.0485280">
    <ele>141.1</ele>
    <time>2021-03-07T00:53:36Z</time>
   </trkpt>
   <trkpt lat="47.3823750" lon="-122.0484910">
    <ele>141.2</ele>
    <time>2021-03-07T00:53:37Z</time>
   </trkpt>
   <trkpt lat="47.3823550" lon="-122.0484640">
    <ele>141.2</ele>
    <time>2021-03-07T00:53:38Z</time>
   </trkpt>
   <trkpt lat="47.3823200" lon="-122.0484420">
    <ele>141.3</ele>
    <time>2021-03-07T00:53:39Z</time>
   </trkpt>
   <trkpt lat="47.3822940" lon="-122.0484070">
    <ele>141.3</ele>
    <time>2021-03-07T00:53:40Z</time>
   </trkpt>
   <trkpt lat="47.3822730" lon="-122.0483800">
    <ele>141.4</ele>
    <time>2021-03-07T00:53:41Z</time>
   </trkpt>
   <trkpt lat="47.3822370" lon="-122.0483520">
    <ele>141.4</ele>
    <time>2021-03-07T00:53:42Z</time>
   </trkpt>
   <trkpt lat="47.3822250" lon="-122.0483410">
    <ele>141.4</ele>
    <time>2021-03-07T00:53:43Z</time>
   </trkpt>
   <trkpt lat="47.3822090" lon="-122.0483080">
    <ele>141.5</ele>
    <time>2021-03-07T00:53:44Z</time>
   </trkpt>
   <trkpt lat="47.3821860" lon="-122.0482810">
    <ele>141.5</ele>
    <time>2021-03-07T00:53:45Z</time>
   </trkpt>
   <trkpt lat="47.3821540" lon="-122.0482430">
    <ele>141.6</ele>
    <time>2021-03-07T00:53:46Z</time>
   </trkpt>
   <trkpt lat="47.3821270" lon="-122.0482010">
    <ele>141.7</ele>
    <time>2021-03-07T00:53:47Z</time>
   </trkpt>
   <trkpt lat="47.3820990" lon="-122.0481570">
    <ele>141.7</ele>
    <time>2021-03-07T00:53:48Z</time>
   </trkpt>
   <trkpt lat="47.3820800" lon="-122.0481070">
    <ele>141.8</ele>
    <time>2021-03-07T00:53:49Z</time>
   </trkpt>
   <trkpt lat="47.3820580" lon="-122.0480600">
    <ele>141.8</ele>
    <time>2021-03-07T00:53:50Z</time>
   </trkpt>
   <trkpt lat="47.3820310" lon="-122.0480230">
    <ele>141.8</ele>
    <time>2021-03-07T00:53:51Z</time>
   </trkpt>
   <trkpt lat="47.3819990" lon="-122.0479970">
    <ele>141.8</ele>
    <time>2021-03-07T00:53:52Z</time>
   </trkpt>
   <trkpt lat="47.3819560" lon="-122.0479870">
    <ele>141.9</ele>
    <time>2021-03-07T00:53:53Z</time>
   </trkpt>
   <trkpt lat="47.3819130" lon="-122.0479590">
    <ele>141.9</ele>
    <time>2021-03-07T00:53:55Z</time>
   </trkpt>
   <trkpt lat="47.3818320" lon="-122.0477020">
    <ele>141.9</ele>
    <time>2021-03-07T00:54:26Z</time>
   </trkpt>
   <trkpt lat="47.3818230" lon="-122.0476830">
    <ele>141.9</ele>
    <time>2021-03-07T00:54:27Z</time>
   </trkpt>
   <trkpt lat="47.3818130" lon="-122.0476640">
    <ele>141.9</ele>
    <time>2021-03-07T00:54:28Z</time>
   </trkpt>
   <trkpt lat="47.3818030" lon="-122.0476450">
    <ele>141.9</ele>
    <time>2021-03-07T00:54:29Z</time>
   </trkpt>
   <trkpt lat="47.3817820" lon="-122.0476050">
    <ele>141.9</ele>
    <time>2021-03-07T00:54:30Z</time>
   </trkpt>
   <trkpt lat="47.3817540" lon="-122.0475500">
    <ele>141.8</ele>
    <time>2021-03-07T00:54:31Z</time>
   </trkpt>
   <trkpt lat="47.3817290" lon="-122.0475060">
    <ele>141.9</ele>
    <time>2021-03-07T00:54:32Z</time>
   </trkpt>
   <trkpt lat="47.3817190" lon="-122.0474910">
    <ele>141.9</ele>
    <time>2021-03-07T00:54:33Z</time>
   </trkpt>
   <trkpt lat="47.3817000" lon="-122.0474380">
    <ele>141.9</ele>
    <time>2021-03-07T00:54:34Z</time>
   </trkpt>
   <trkpt lat="47.3816940" lon="-122.0474160">
    <ele>141.9</ele>
    <time>2021-03-07T00:54:35Z</time>
   </trkpt>
   <trkpt lat="47.3816750" lon="-122.0473840">
    <ele>141.9</ele>
    <time>2021-03-07T00:54:36Z</time>
   </trkpt>
   <trkpt lat="47.3816490" lon="-122.0473340">
    <ele>141.9</ele>
    <time>2021-03-07T00:54:37Z</time>
   </trkpt>
   <trkpt lat="47.3816300" lon="-122.0472920">
    <ele>142.0</ele>
    <time>2021-03-07T00:54:38Z</time>
   </trkpt>
   <trkpt lat="47.3816070" lon="-122.0472560">
    <ele>142.0</ele>
    <time>2021-03-07T00:54:39Z</time>
   </trkpt>
   <trkpt lat="47.3815930" lon="-122.0472140">
    <ele>142.0</ele>
    <time>2021-03-07T00:54:40Z</time>
   </trkpt>
   <trkpt lat="47.3815760" lon="-122.0471590">
    <ele>142.1</ele>
    <time>2021-03-07T00:54:41Z</time>
   </trkpt>
   <trkpt lat="47.3815520" lon="-122.0471070">
    <ele>142.1</ele>
    <time>2021-03-07T00:54:42Z</time>
   </trkpt>
   <trkpt lat="47.3815450" lon="-122.0470800">
    <ele>142.1</ele>
    <time>2021-03-07T00:54:43Z</time>
   </trkpt>
   <trkpt lat="47.3815190" lon="-122.0470280">
    <ele>142.1</ele>
    <time>2021-03-07T00:54:44Z</time>
   </trkpt>
   <trkpt lat="47.3814980" lon="-122.0469980">
    <ele>142.2</ele>
    <time>2021-03-07T00:54:45Z</time>
   </trkpt>
   <trkpt lat="47.3814780" lon="-122.0469510">
    <ele>142.2</ele>
    <time>2021-03-07T00:54:46Z</time>
   </trkpt>
   <trkpt lat="47.3814570" lon="-122.0469120">
    <ele>142.3</ele>
    <time>2021-03-07T00:54:47Z</time>
   </trkpt>
   <trkpt lat="47.3814410" lon="-122.0468710">
    <ele>142.3</ele>
    <time>2021-03-07T00:54:48Z</time>
   </trkpt>
   <trkpt lat="47.3814190" lon="-122.0468350">
    <ele>142.3</ele>
    <time>2021-03-07T00:54:49Z</time>
   </trkpt>
   <trkpt lat="47.3814110" lon="-122.0467890">
    <ele>142.4</ele>
    <time>2021-03-07T00:54:50Z</time>
   </trkpt>
   <trkpt lat="47.3813980" lon="-122.0467400">
    <ele>142.4</ele>
    <time>2021-03-07T00:54:51Z</time>
   </trkpt>
   <trkpt lat="47.3813720" lon="-122.0466870">
    <ele>142.5</ele>
    <time>2021-03-07T00:54:52Z</time>
   </trkpt>
   <trkpt lat="47.3813630" lon="-122.0466620">
    <ele>142.5</ele>
    <time>2021-03-07T00:54:53Z</time>
   </trkpt>
   <trkpt lat="47.3813530" lon="-122.0466060">
    <ele>142.6</ele>
    <time>2021-03-07T00:54:54Z</time>
   </trkpt>
   <trkpt lat="47.3813470" lon="-122.0465840">
    <ele>142.6</ele>
    <time>2021-03-07T00:54:55Z</time>
   </trkpt>
   <trkpt lat="47.3813320" lon="-122.0465400">
    <ele>142.7</ele>
    <time>2021-03-07T00:54:56Z</time>
   </trkpt>
   <trkpt lat="47.3813150" lon="-122.0465070">
    <ele>142.7</ele>
    <time>2021-03-07T00:54:57Z</time>
   </trkpt>
   <trkpt lat="47.3813030" lon="-122.0464510">
    <ele>142.7</ele>
    <time>2021-03-07T00:54:58Z</time>
   </trkpt>
   <trkpt lat="47.3812840" lon="-122.0464100">
    <ele>142.8</ele>
    <time>2021-03-07T00:54:59Z</time>
   </trkpt>
   <trkpt lat="47.3812670" lon="-122.0463650">
    <ele>142.8</ele>
    <time>2021-03-07T00:55:00Z</time>
   </trkpt>
   <trkpt lat="47.3812500" lon="-122.0463090">
    <ele>142.9</ele>
    <time>2021-03-07T00:55:01Z</time>
   </trkpt>
   <trkpt lat="47.3812440" lon="-122.0462620">
    <ele>142.9</ele>
    <time>2021-03-07T00:55:02Z</time>
   </trkpt>
   <trkpt lat="47.3812310" lon="-122.0462130">
    <ele>142.9</ele>
    <time>2021-03-07T00:55:03Z</time>
   </trkpt>
   <trkpt lat="47.3812140" lon="-122.0461730">
    <ele>142.9</ele>
    <time>2021-03-07T00:55:04Z</time>
   </trkpt>
   <trkpt lat="47.3811990" lon="-122.0461280">
    <ele>143.0</ele>
    <time>2021-03-07T00:55:05Z</time>
   </trkpt>
   <trkpt lat="47.3811890" lon="-122.0460830">
    <ele>143.0</ele>
    <time>2021-03-07T00:55:06Z</time>
   </trkpt>
   <trkpt lat="47.3811810" lon="-122.0460670">
    <ele>143.0</ele>
    <time>2021-03-07T00:55:07Z</time>
   </trkpt>
   <trkpt lat="47.3811730" lon="-122.0460260">
    <ele>143.1</ele>
    <time>2021-03-07T00:55:08Z</time>
   </trkpt>
   <trkpt lat="47.3811590" lon="-122.0459850">
    <ele>143.1</ele>
    <time>2021-03-07T00:55:09Z</time>
   </trkpt>
   <trkpt lat="47.3811540" lon="-122.0459250">
    <ele>143.2</ele>
    <time>2021-03-07T00:55:10Z</time>
   </trkpt>
   <trkpt lat="47.3811500" lon="-122.0458800">
    <ele>143.2</ele>
    <time>2021-03-07T00:55:11Z</time>
   </trkpt>
   <trkpt lat="47.3811410" lon="-122.0458360">
    <ele>143.2</ele>
    <time>2021-03-07T00:55:12Z</time>
   </trkpt>
   <trkpt lat="47.3811260" lon="-122.0457780">
    <ele>143.3</ele>
    <time>2021-03-07T00:55:13Z</time>
   </trkpt>
   <trkpt lat="47.3811180" lon="-122.0457600">
    <ele>143.3</ele>
    <time>2021-03-07T00:55:14Z</time>
   </trkpt>
   <trkpt lat="47.3811130" lon="-122.0457190">
    <ele>143.4</ele>
    <time>2021-03-07T00:55:15Z</time>
   </trkpt>
   <trkpt lat="47.3811070" lon="-122.0456760">
    <ele>143.4</ele>
    <time>2021-03-07T00:55:16Z</time>
   </trkpt>
   <trkpt lat="47.3810880" lon="-122.0456250">
    <ele>143.4</ele>
    <time>2021-03-07T00:55:17Z</time>
   </trkpt>
   <trkpt lat="47.3810720" lon="-122.0455890">
    <ele>143.5</ele>
    <time>2021-03-07T00:55:18Z</time>
   </trkpt>
   <trkpt lat="47.3810580" lon="-122.0455380">
    <ele>143.5</ele>
    <time>2021-03-07T00:55:19Z</time>
   </trkpt>
   <trkpt lat="47.3810380" lon="-122.0454790">
    <ele>143.6</ele>
    <time>2021-03-07T00:55:20Z</time>
   </trkpt>
   <trkpt lat="47.3810300" lon="-122.0454250">
    <ele>143.6</ele>
    <time>2021-03-07T00:55:21Z</time>
   </trkpt>
   <trkpt lat="47.3810260" lon="-122.0453440">
    <ele>143.7</ele>
    <time>2021-03-07T00:55:22Z</time>
   </trkpt>
   <trkpt lat="47.3810190" lon="-122.0452950">
    <ele>143.7</ele>
    <time>2021-03-07T00:55:23Z</time>
   </trkpt>
   <trkpt lat="47.3810160" lon="-122.0452330">
    <ele>143.8</ele>
    <time>2021-03-07T00:55:24Z</time>
   </trkpt>
   <trkpt lat="47.3810160" lon="-122.0451640">
    <ele>143.9</ele>
    <time>2021-03-07T00:55:25Z</time>
   </trkpt>
   <trkpt lat="47.3810040" lon="-122.0450990">
    <ele>143.9</ele>
    <time>2021-03-07T00:55:26Z</time>
   </trkpt>
   <trkpt lat="47.3809990" lon="-122.0450530">
    <ele>144.0</ele>
    <time>2021-03-07T00:55:27Z</time>
   </trkpt>
   <trkpt lat="47.3809920" lon="-122.0449900">
    <ele>144.0</ele>
    <time>2021-03-07T00:55:28Z</time>
   </trkpt>
   <trkpt lat="47.3809870" lon="-122.0449260">
    <ele>144.1</ele>
    <time>2021-03-07T00:55:29Z</time>
   </trkpt>
   <trkpt lat="47.3809770" lon="-122.0448760">
    <ele>144.1</ele>
    <time>2021-03-07T00:55:30Z</time>
   </trkpt>
   <trkpt lat="47.3809760" lon="-122.0448150">
    <ele>144.1</ele>
    <time>2021-03-07T00:55:31Z</time>
   </trkpt>
   <trkpt lat="47.3809740" lon="-122.0447570">
    <ele>144.2</ele>
    <time>2021-03-07T00:55:32Z</time>
   </trkpt>
   <trkpt lat="47.3809650" lon="-122.0447120">
    <ele>144.2</ele>
    <time>2021-03-07T00:55:33Z</time>
   </trkpt>
   <trkpt lat="47.3809650" lon="-122.0446550">
    <ele>144.3</ele>
    <time>2021-03-07T00:55:34Z</time>
   </trkpt>
   <trkpt lat="47.3809600" lon="-122.0446090">
    <ele>144.3</ele>
    <time>2021-03-07T00:55:35Z</time>
   </trkpt>
   <trkpt lat="47.3809680" lon="-122.0445430">
    <ele>144.4</ele>
    <time>2021-03-07T00:55:36Z</time>
   </trkpt>
   <trkpt lat="47.3809610" lon="-122.0444900">
    <ele>144.4</ele>
    <time>2021-03-07T00:55:37Z</time>
   </trkpt>
   <trkpt lat="47.3809650" lon="-122.0444360">
    <ele>144.5</ele>
    <time>2021-03-07T00:55:38Z</time>
   </trkpt>
   <trkpt lat="47.3809690" lon="-122.0443780">
    <ele>144.5</ele>
    <time>2021-03-07T00:55:39Z</time>
   </trkpt>
   <trkpt lat="47.3809630" lon="-122.0443260">
    <ele>144.6</ele>
    <time>2021-03-07T00:55:40Z</time>
   </trkpt>
   <trkpt lat="47.3809640" lon="-122.0442620">
    <ele>144.6</ele>
    <time>2021-03-07T00:55:41Z</time>
   </trkpt>
   <trkpt lat="47.3809420" lon="-122.0442240">
    <ele>144.7</ele>
    <time>2021-03-07T00:55:42Z</time>
   </trkpt>
   <trkpt lat="47.3809500" lon="-122.0441780">
    <ele>144.7</ele>
    <time>2021-03-07T00:55:43Z</time>
   </trkpt>
   <trkpt lat="47.3809510" lon="-122.0441220">
    <ele>144.8</ele>
    <time>2021-03-07T00:55:44Z</time>
   </trkpt>
   <trkpt lat="47.3809470" lon="-122.0440720">
    <ele>144.8</ele>
    <time>2021-03-07T00:55:45Z</time>
   </trkpt>
   <trkpt lat="47.3809440" lon="-122.0440240">
    <ele>144.8</ele>
    <time>2021-03-07T00:55:46Z</time>
   </trkpt>
   <trkpt lat="47.3809290" lon="-122.0439560">
    <ele>144.9</ele>
    <time>2021-03-07T00:55:47Z</time>
   </trkpt>
   <trkpt lat="47.3809380" lon="-122.0438970">
    <ele>144.9</ele>
    <time>2021-03-07T00:55:48Z</time>
   </trkpt>
   <trkpt lat="47.3809330" lon="-122.0438440">
    <ele>145.0</ele>
    <time>2021-03-07T00:55:49Z</time>
   </trkpt>
   <trkpt lat="47.3809290" lon="-122.0437920">
    <ele>145.0</ele>
    <time>2021-03-07T00:55:50Z</time>
   </trkpt>
   <trkpt lat="47.3809260" lon="-122.0437490">
    <ele>145.1</ele>
    <time>2021-03-07T00:55:51Z</time>
   </trkpt>
   <trkpt lat="47.3809330" lon="-122.0437010">
    <ele>145.1</ele>
    <time>2021-03-07T00:55:52Z</time>
   </trkpt>
   <trkpt lat="47.3809380" lon="-122.0436550">
    <ele>145.2</ele>
    <time>2021-03-07T00:55:53Z</time>
   </trkpt>
   <trkpt lat="47.3809350" lon="-122.0436150">
    <ele>145.2</ele>
    <time>2021-03-07T00:55:54Z</time>
   </trkpt>
   <trkpt lat="47.3809440" lon="-122.0435490">
    <ele>145.3</ele>
    <time>2021-03-07T00:55:55Z</time>
   </trkpt>
   <trkpt lat="47.3809440" lon="-122.0435180">
    <ele>145.3</ele>
    <time>2021-03-07T00:55:56Z</time>
   </trkpt>
   <trkpt lat="47.3809500" lon="-122.0434660">
    <ele>145.3</ele>
    <time>2021-03-07T00:55:57Z</time>
   </trkpt>
   <trkpt lat="47.3809400" lon="-122.0434110">
    <ele>145.4</ele>
    <time>2021-03-07T00:55:58Z</time>
   </trkpt>
   <trkpt lat="47.3809340" lon="-122.0433650">
    <ele>145.4</ele>
    <time>2021-03-07T00:55:59Z</time>
   </trkpt>
   <trkpt lat="47.3809420" lon="-122.0433180">
    <ele>145.4</ele>
    <time>2021-03-07T00:56:00Z</time>
   </trkpt>
   <trkpt lat="47.3809360" lon="-122.0432680">
    <ele>145.5</ele>
    <time>2021-03-07T00:56:01Z</time>
   </trkpt>
   <trkpt lat="47.3809440" lon="-122.0432140">
    <ele>145.5</ele>
    <time>2021-03-07T00:56:02Z</time>
   </trkpt>
   <trkpt lat="47.3809400" lon="-122.0431640">
    <ele>145.5</ele>
    <time>2021-03-07T00:56:03Z</time>
   </trkpt>
   <trkpt lat="47.3809400" lon="-122.0431070">
    <ele>145.6</ele>
    <time>2021-03-07T00:56:04Z</time>
   </trkpt>
   <trkpt lat="47.3809430" lon="-122.0430470">
    <ele>145.6</ele>
    <time>2021-03-07T00:56:05Z</time>
   </trkpt>
   <trkpt lat="47.3809300" lon="-122.0429890">
    <ele>145.6</ele>
    <time>2021-03-07T00:56:06Z</time>
   </trkpt>
   <trkpt lat="47.3809270" lon="-122.0429390">
    <ele>145.7</ele>
    <time>2021-03-07T00:56:07Z</time>
   </trkpt>
   <trkpt lat="47.3809120" lon="-122.0428800">
    <ele>145.7</ele>
    <time>2021-03-07T00:56:08Z</time>
   </trkpt>
   <trkpt lat="47.3809180" lon="-122.0428270">
    <ele>145.7</ele>
    <time>2021-03-07T00:56:09Z</time>
   </trkpt>
   <trkpt lat="47.3809200" lon="-122.0427750">
    <ele>145.7</ele>
    <time>2021-03-07T00:56:10Z</time>
   </trkpt>
   <trkpt lat="47.3809170" lon="-122.0427130">
    <ele>145.8</ele>
    <time>2021-03-07T00:56:11Z</time>
   </trkpt>
   <trkpt lat="47.3809220" lon="-122.0426530">
    <ele>145.8</ele>
    <time>2021-03-07T00:56:12Z</time>
   </trkpt>
   <trkpt lat="47.3809170" lon="-122.0426010">
    <ele>145.8</ele>
    <time>2021-03-07T00:56:13Z</time>
   </trkpt>
   <trkpt lat="47.3809210" lon="-122.0425490">
    <ele>145.9</ele>
    <time>2021-03-07T00:56:14Z</time>
   </trkpt>
   <trkpt lat="47.3809110" lon="-122.0424950">
    <ele>145.9</ele>
    <time>2021-03-07T00:56:15Z</time>
   </trkpt>
   <trkpt lat="47.3809190" lon="-122.0424370">
    <ele>145.9</ele>
    <time>2021-03-07T00:56:16Z</time>
   </trkpt>
   <trkpt lat="47.3809130" lon="-122.0423880">
    <ele>146.0</ele>
    <time>2021-03-07T00:56:17Z</time>
   </trkpt>
   <trkpt lat="47.3809160" lon="-122.0423240">
    <ele>146.0</ele>
    <time>2021-03-07T00:56:18Z</time>
   </trkpt>
   <trkpt lat="47.3809150" lon="-122.0422690">
    <ele>146.1</ele>
    <time>2021-03-07T00:56:19Z</time>
   </trkpt>
   <trkpt lat="47.3809200" lon="-122.0422130">
    <ele>146.1</ele>
    <time>2021-03-07T00:56:20Z</time>
   </trkpt>
   <trkpt lat="47.3809260" lon="-122.0421740">
    <ele>146.1</ele>
    <time>2021-03-07T00:56:21Z</time>
   </trkpt>
   <trkpt lat="47.3809210" lon="-122.0421200">
    <ele>146.2</ele>
    <time>2021-03-07T00:56:22Z</time>
   </trkpt>
   <trkpt lat="47.3809270" lon="-122.0420710">
    <ele>146.2</ele>
    <time>2021-03-07T00:56:23Z</time>
   </trkpt>
   <trkpt lat="47.3809150" lon="-122.0420180">
    <ele>146.3</ele>
    <time>2021-03-07T00:56:24Z</time>
   </trkpt>
   <trkpt lat="47.3809210" lon="-122.0419480">
    <ele>146.3</ele>
    <time>2021-03-07T00:56:25Z</time>
   </trkpt>
   <trkpt lat="47.3809070" lon="-122.0418940">
    <ele>146.4</ele>
    <time>2021-03-07T00:56:26Z</time>
   </trkpt>
   <trkpt lat="47.3809060" lon="-122.0418300">
    <ele>146.4</ele>
    <time>2021-03-07T00:56:27Z</time>
   </trkpt>
   <trkpt lat="47.3808980" lon="-122.0417800">
    <ele>146.4</ele>
    <time>2021-03-07T00:56:28Z</time>
   </trkpt>
   <trkpt lat="47.3809080" lon="-122.0417250">
    <ele>146.5</ele>
    <time>2021-03-07T00:56:29Z</time>
   </trkpt>
   <trkpt lat="47.3809070" lon="-122.0416710">
    <ele>146.5</ele>
    <time>2021-03-07T00:56:30Z</time>
   </trkpt>
   <trkpt lat="47.3808980" lon="-122.0416120">
    <ele>146.5</ele>
    <time>2021-03-07T00:56:31Z</time>
   </trkpt>
   <trkpt lat="47.3809030" lon="-122.0415570">
    <ele>146.6</ele>
    <time>2021-03-07T00:56:32Z</time>
   </trkpt>
   <trkpt lat="47.3808970" lon="-122.0414940">
    <ele>146.6</ele>
    <time>2021-03-07T00:56:33Z</time>
   </trkpt>
   <trkpt lat="47.3808910" lon="-122.0414270">
    <ele>146.7</ele>
    <time>2021-03-07T00:56:34Z</time>
   </trkpt>
   <trkpt lat="47.3808850" lon="-122.0413620">
    <ele>146.7</ele>
    <time>2021-03-07T00:56:35Z</time>
   </trkpt>
   <trkpt lat="47.3808790" lon="-122.0413040">
    <ele>146.7</ele>
    <time>2021-03-07T00:56:36Z</time>
   </trkpt>
   <trkpt lat="47.3808810" lon="-122.0412480">
    <ele>146.8</ele>
    <time>2021-03-07T00:56:37Z</time>
   </trkpt>
   <trkpt lat="47.3808810" lon="-122.0411820">
    <ele>146.8</ele>
    <time>2021-03-07T00:56:38Z</time>
   </trkpt>
   <trkpt lat="47.3808790" lon="-122.0411250">
    <ele>146.8</ele>
    <time>2021-03-07T00:56:39Z</time>
   </trkpt>
   <trkpt lat="47.3808590" lon="-122.0410720">
    <ele>146.9</ele>
    <time>2021-03-07T00:56:40Z</time>
   </trkpt>
   <trkpt lat="47.3808700" lon="-122.0410110">
    <ele>146.9</ele>
    <time>2021-03-07T00:56:41Z</time>
   </trkpt>
   <trkpt lat="47.3808620" lon="-122.0409560">
    <ele>146.9</ele>
    <time>2021-03-07T00:56:42Z</time>
   </trkpt>
   <trkpt lat="47.3808780" lon="-122.0408980">
    <ele>146.9</ele>
    <time>2021-03-07T00:56:43Z</time>
   </trkpt>
   <trkpt lat="47.3808730" lon="-122.0408440">
    <ele>146.9</ele>
    <time>2021-03-07T00:56:44Z</time>
   </trkpt>
   <trkpt lat="47.3808720" lon="-122.0407790">
    <ele>146.9</ele>
    <time>2021-03-07T00:56:45Z</time>
   </trkpt>
   <trkpt lat="47.3808680" lon="-122.0407180">
    <ele>146.9</ele>
    <time>2021-03-07T00:56:46Z</time>
   </trkpt>
   <trkpt lat="47.3808630" lon="-122.0406710">
    <ele>147.0</ele>
    <time>2021-03-07T00:56:47Z</time>
   </trkpt>
   <trkpt lat="47.3808560" lon="-122.0406160">
    <ele>147.0</ele>
    <time>2021-03-07T00:56:48Z</time>
   </trkpt>
   <trkpt lat="47.3808520" lon="-122.0405720">
    <ele>147.0</ele>
    <time>2021-03-07T00:56:49Z</time>
   </trkpt>
   <trkpt lat="47.3808320" lon="-122.0405360">
    <ele>147.0</ele>
    <time>2021-03-07T00:56:50Z</time>
   </trkpt>
   <trkpt lat="47.3808280" lon="-122.0405210">
    <ele>147.0</ele>
    <time>2021-03-07T00:56:51Z</time>
   </trkpt>
   <trkpt lat="47.3808730" lon="-122.0402730">
    <ele>147.1</ele>
    <time>2021-03-07T00:57:12Z</time>
   </trkpt>
   <trkpt lat="47.3808800" lon="-122.0402470">
    <ele>147.2</ele>
    <time>2021-03-07T00:57:13Z</time>
   </trkpt>
   <trkpt lat="47.3808780" lon="-122.0402020">
    <ele>147.2</ele>
    <time>2021-03-07T00:57:14Z</time>
   </trkpt>
   <trkpt lat="47.3808630" lon="-122.0401570">
    <ele>147.3</ele>
    <time>2021-03-07T00:57:15Z</time>
   </trkpt>
   <trkpt lat="47.3808760" lon="-122.0400900">
    <ele>147.4</ele>
    <time>2021-03-07T00:57:16Z</time>
   </trkpt>
   <trkpt lat="47.3808570" lon="-122.0400550">
    <ele>147.4</ele>
    <time>2021-03-07T00:57:17Z</time>
   </trkpt>
   <trkpt lat="47.3808560" lon="-122.0399840">
    <ele>147.5</ele>
    <time>2021-03-07T00:57:18Z</time>
   </trkpt>
   <trkpt lat="47.3808330" lon="-122.0399380">
    <ele>147.5</ele>
    <time>2021-03-07T00:57:19Z</time>
   </trkpt>
   <trkpt lat="47.3808290" lon="-122.0398880">
    <ele>147.6</ele>
    <time>2021-03-07T00:57:20Z</time>
   </trkpt>
   <trkpt lat="47.3808210" lon="-122.0398460">
    <ele>147.6</ele>
    <time>2021-03-07T00:57:21Z</time>
   </trkpt>
   <trkpt lat="47.3808090" lon="-122.0398050">
    <ele>147.7</ele>
    <time>2021-03-07T00:57:22Z</time>
   </trkpt>
   <trkpt lat="47.3808050" lon="-122.0397600">
    <ele>147.7</ele>
    <time>2021-03-07T00:57:23Z</time>
   </trkpt>
   <trkpt lat="47.3808000" lon="-122.0397420">
    <ele>147.7</ele>
    <time>2021-03-07T00:57:24Z</time>
   </trkpt>
   <trkpt lat="47.3808010" lon="-122.0396840">
    <ele>147.8</ele>
    <time>2021-03-07T00:57:25Z</time>
   </trkpt>
   <trkpt lat="47.3807840" lon="-122.0396430">
    <ele>147.8</ele>
    <time>2021-03-07T00:57:26Z</time>
   </trkpt>
   <trkpt lat="47.3807840" lon="-122.0395790">
    <ele>147.8</ele>
    <time>2021-03-07T00:57:27Z</time>
   </trkpt>
   <trkpt lat="47.3807740" lon="-122.0395300">
    <ele>147.9</ele>
    <time>2021-03-07T00:57:28Z</time>
   </trkpt>
   <trkpt lat="47.3807720" lon="-122.0394800">
    <ele>147.9</ele>
    <time>2021-03-07T00:57:29Z</time>
   </trkpt>
   <trkpt lat="47.3807530" lon="-122.0394210">
    <ele>147.9</ele>
    <time>2021-03-07T00:57:30Z</time>
   </trkpt>
   <trkpt lat="47.3807230" lon="-122.0393710">
    <ele>148.0</ele>
    <time>2021-03-07T00:57:31Z</time>
   </trkpt>
   <trkpt lat="47.3807140" lon="-122.0393100">
    <ele>148.0</ele>
    <time>2021-03-07T00:57:32Z</time>
   </trkpt>
   <trkpt lat="47.3806910" lon="-122.0392540">
    <ele>148.1</ele>
    <time>2021-03-07T00:57:33Z</time>
   </trkpt>
   <trkpt lat="47.3806920" lon="-122.0391990">
    <ele>148.1</ele>
    <time>2021-03-07T00:57:34Z</time>
   </trkpt>
   <trkpt lat="47.3806810" lon="-122.0391500">
    <ele>148.2</ele>
    <time>2021-03-07T00:57:35Z</time>
   </trkpt>
   <trkpt lat="47.3806680" lon="-122.0391000">
    <ele>148.2</ele>
    <time>2021-03-07T00:57:36Z</time>
   </trkpt>
   <trkpt lat="47.3806470" lon="-122.0390480">
    <ele>148.3</ele>
    <time>2021-03-07T00:57:37Z</time>
   </trkpt>
   <trkpt lat="47.3806340" lon="-122.0389920">
    <ele>148.3</ele>
    <time>2021-03-07T00:57:38Z</time>
   </trkpt>
   <trkpt lat="47.3806140" lon="-122.0389280">
    <ele>148.4</ele>
    <time>2021-03-07T00:57:39Z</time>
   </trkpt>
   <trkpt lat="47.3805910" lon="-122.0388780">
    <ele>148.5</ele>
    <time>2021-03-07T00:57:40Z</time>
   </trkpt>
   <trkpt lat="47.3805800" lon="-122.0388120">
    <ele>148.5</ele>
    <time>2021-03-07T00:57:41Z</time>
   </trkpt>
   <trkpt lat="47.3805580" lon="-122.0387700">
    <ele>148.6</ele>
    <time>2021-03-07T00:57:42Z</time>
   </trkpt>
   <trkpt lat="47.3805600" lon="-122.0387080">
    <ele>148.7</ele>
    <time>2021-03-07T00:57:43Z</time>
   </trkpt>
   <trkpt lat="47.3805460" lon="-122.0386720">
    <ele>148.7</ele>
    <time>2021-03-07T00:57:44Z</time>
   </trkpt>
   <trkpt lat="47.3805240" lon="-122.0386120">
    <ele>148.8</ele>
    <time>2021-03-07T00:57:45Z</time>
   </trkpt>
   <trkpt lat="47.3804910" lon="-122.0385560">
    <ele>148.9</ele>
    <time>2021-03-07T00:57:46Z</time>
   </trkpt>
   <trkpt lat="47.3804710" lon="-122.0385090">
    <ele>149.0</ele>
    <time>2021-03-07T00:57:47Z</time>
   </trkpt>
   <trkpt lat="47.3804600" lon="-122.0384500">
    <ele>149.1</ele>
    <time>2021-03-07T00:57:48Z</time>
   </trkpt>
   <trkpt lat="47.3804430" lon="-122.0384020">
    <ele>149.1</ele>
    <time>2021-03-07T00:57:49Z</time>
   </trkpt>
   <trkpt lat="47.3804330" lon="-122.0383590">
    <ele>149.2</ele>
    <time>2021-03-07T00:57:50Z</time>
   </trkpt>
   <trkpt lat="47.3804190" lon="-122.0383220">
    <ele>149.2</ele>
    <time>2021-03-07T00:57:51Z</time>
   </trkpt>
   <trkpt lat="47.3804130" lon="-122.0383090">
    <ele>149.3</ele>
    <time>2021-03-07T00:57:52Z</time>
   </trkpt>
  </trkseg>
 </trk>
</gpx>
