<?xml version="1.0" encoding="UTF-8"?>
<gpx creator="StravaGPX" version="1.1" xmlns="http://www.topografix.com/GPX/1/1" xmlns:xsi="http://www.w3.org/2001/XMLSchema-instance" xsi:schemaLocation="http://www.topografix.com/GPX/1/1 http://www.topografix.com/GPX/1/1/gpx.xsd">
 <metadata>
  <time>2021-03-17T20:15:12Z</time>
 </metadata>
 <trk>
  <name>Quick afternoon run</name>
  <type>running</type>
  <trkseg>
   <trkpt lat="47.3622840" lon="-122.0244700">
    <ele>167.1</ele>
    <time>2021-03-17T20:15:12Z</time>
   </trkpt>
   <trkpt lat="47.3623050" lon="-122.0244980">
    <ele>167.1</ele>
    <time>2021-03-17T20:15:13Z</time>
   </trkpt>
   <trkpt lat="47.3623180" lon="-122.0245120">
    <ele>167.1</ele>
    <time>2021-03-17T20:15:14Z</time>
   </trkpt>
   <trkpt lat="47.3623310" lon="-122.0245260">
    <ele>167.1</ele>
    <time>2021-03-17T20:15:15Z</time>
   </trkpt>
   <trkpt lat="47.3623590" lon="-122.0245420">
    <ele>167.1</ele>
    <time>2021-03-17T20:15:16Z</time>
   </trkpt>
   <trkpt lat="47.3623880" lon="-122.0245580">
    <ele>167.1</ele>
    <time>2021-03-17T20:15:17Z</time>
   </trkpt>
   <trkpt lat="47.3624150" lon="-122.0245810">
    <ele>167.1</ele>
    <time>2021-03-17T20:15:18Z</time>
   </trkpt>
   <trkpt lat="47.3624580" lon="-122.0246160">
    <ele>167.1</ele>
    <time>2021-03-17T20:15:19Z</time>
   </trkpt>
   <trkpt lat="47.3624880" lon="-122.0246280">
    <ele>167.1</ele>
    <time>2021-03-17T20:15:20Z</time>
   </trkpt>
   <trkpt lat="47.3625260" lon="-122.0246540">
    <ele>167.0</ele>
    <time>2021-03-17T20:15:21Z</time>
   </trkpt>
   <trkpt lat="47.3625530" lon="-122.0246670">
    <ele>167.0</ele>
    <time>2021-03-17T20:15:22Z</time>
   </trkpt>
   <trkpt lat="47.3625820" lon="-122.0246830">
    <ele>167.0</ele>
    <time>2021-03-17T20:15:23Z</time>
   </trkpt>
   <trkpt lat="47.3626190" lon="-122.0247020">
    <ele>167.0</ele>
    <time>2021-03-17T20:15:24Z</time>
   </trkpt>
   <trkpt lat="47.3626480" lon="-122.0247270">
    <ele>167.0</ele>
    <time>2021-03-17T20:15:25Z</time>
   </trkpt>
   <trkpt lat="47.3626780" lon="-122.0247380">
    <ele>167.0</ele>
    <time>2021-03-17T20:15:26Z</time>
   </trkpt>
   <trkpt lat="47.3627160" lon="-122.0247470">
    <ele>167.0</ele>
    <time>2021-03-17T20:15:27Z</time>
   </trkpt>
   <trkpt lat="47.3627440" lon="-122.0247600">
    <ele>167.0</ele>
    <time>2021-03-17T20:15:28Z</time>
   </trkpt>
   <trkpt lat="47.3627740" lon="-122.0248040">
    <ele>167.0</ele>
    <time>2021-03-17T20:15:29Z</time>
   </trkpt>
   <trkpt lat="47.3628000" lon="-122.0248380">
    <ele>167.1</ele>
    <time>2021-03-17T20:15:30Z</time>
   </trkpt>
   <trkpt lat="47.3628320" lon="-122.0248690">
    <ele>167.1</ele>
    <time>2021-03-17T20:15:31Z</time>
   </trkpt>
   <trkpt lat="47.3628640" lon="-122.0248990">
    <ele>167.2</ele>
    <time>2021-03-17T20:15:32Z</time>
   </trkpt>
   <trkpt lat="47.3629000" lon="-122.0249200">
    <ele>167.2</ele>
    <time>2021-03-17T20:15:33Z</time>
   </trkpt>
   <trkpt lat="47.3629370" lon="-122.0249600">
    <ele>167.3</ele>
    <time>2021-03-17T20:15:34Z</time>
   </trkpt>
   <trkpt lat="47.3629730" lon="-122.0249700">
    <ele>167.4</ele>
    <time>2021-03-17T20:15:35Z</time>
   </trkpt>
   <trkpt lat="47.3630130" lon="-122.0249980">
    <ele>167.6</ele>
    <time>2021-03-17T20:15:36Z</time>
   </trkpt>
   <trkpt lat="47.3630470" lon="-122.0250100">
    <ele>167.7</ele>
    <time>2021-03-17T20:15:37Z</time>
   </trkpt>
   <trkpt lat="47.3630880" lon="-122.0250330">
    <ele>167.9</ele>
    <time>2021-03-17T20:15:38Z</time>
   </trkpt>
   <trkpt lat="47.3631230" lon="-122.0250660">
    <ele>168.1</ele>
    <time>2021-03-17T20:15:39Z</time>
   </trkpt>
   <trkpt lat="47.3631600" lon="-122.0250780">
    <ele>168.2</ele>
    <time>2021-03-17T20:15:40Z</time>
   </trkpt>
   <trkpt lat="47.3632040" lon="-122.0251040">
    <ele>168.5</ele>
    <time>2021-03-17T20:15:41Z</time>
   </trkpt>
   <trkpt lat="47.3632360" lon="-122.0251230">
    <ele>168.6</ele>
    <time>2021-03-17T20:15:42Z</time>
   </trkpt>
   <trkpt lat="47.3632760" lon="-122.0251370">
    <ele>168.8</ele>
    <time>2021-03-17T20:15:43Z</time>
   </trkpt>
   <trkpt lat="47.3633090" lon="-122.0251590">
    <ele>169.0</ele>
    <time>2021-03-17T20:15:44Z</time>
   </trkpt>
   <trkpt lat="47.3633470" lon="-122.0251740">
    <ele>169.1</ele>
    <time>2021-03-17T20:15:45Z</time>
   </trkpt>
   <trkpt lat="47.3633820" lon="-122.0252030">
    <ele>169.3</ele>
    <time>2021-03-17T20:15:46Z</time>
   </trkpt>
   <trkpt lat="47.3634150" lon="-122.0252140">
    <ele>169.4</ele>
    <time>2021-03-17T20:15:47Z</time>
   </trkpt>
   <trkpt lat="47.3634470" lon="-122.0252500">
    <ele>169.5</ele>
    <time>2021-03-17T20:15:48Z</time>
   </trkpt>
   <trkpt lat="47.3634790" lon="-122.0252570">
    <ele>169.6</ele>
    <time>2021-03-17T20:15:49Z</time>
   </trkpt>
   <trkpt lat="47.3635140" lon="-122.0252790">
    <ele>169.7</ele>
    <time>2021-03-17T20:15:50Z</time>
   </trkpt>
   <trkpt lat="47.3635560" lon="-122.0253010">
    <ele>169.8</ele>
    <time>2021-03-17T20:15:51Z</time>
   </trkpt>
   <trkpt lat="47.3635940" lon="-122.0253180">
    <ele>169.9</ele>
    <time>2021-03-17T20:15:52Z</time>
   </trkpt>
   <trkpt lat="47.3636280" lon="-122.0253370">
    <ele>170.0</ele>
    <time>2021-03-17T20:15:53Z</time>
   </trkpt>
   <trkpt lat="47.3636660" lon="-122.0253620">
    <ele>170.1</ele>
    <time>2021-03-17T20:15:54Z</time>
   </trkpt>
   <trkpt lat="47.3637040" lon="-122.0253830">
    <ele>170.1</ele>
    <time>2021-03-17T20:15:55Z</time>
   </trkpt>
   <trkpt lat="47.3637310" lon="-122.0254150">
    <ele>170.1</ele>
    <time>2021-03-17T20:15:56Z</time>
   </trkpt>
   <trkpt lat="47.3637630" lon="-122.0254210">
    <ele>170.2</ele>
    <time>2021-03-17T20:15:57Z</time>
   </trkpt>
   <trkpt lat="47.3637970" lon="-122.0254450">
    <ele>170.2</ele>
    <time>2021-03-17T20:15:58Z</time>
   </trkpt>
   <trkpt lat="47.3638370" lon="-122.0254580">
    <ele>170.2</ele>
    <time>2021-03-17T20:15:59Z</time>
   </trkpt>
   <trkpt lat="47.3638770" lon="-122.0254770">
    <ele>170.2</ele>
    <time>2021-03-17T20:16:00Z</time>
   </trkpt>
   <trkpt lat="47.3639100" lon="-122.0255120">
    <ele>170.2</ele>
    <time>2021-03-17T20:16:01Z</time>
   </trkpt>
   <trkpt lat="47.3639360" lon="-122.0255270">
    <ele>170.2</ele>
    <time>2021-03-17T20:16:02Z</time>
   </trkpt>
   <trkpt lat="47.3639680" lon="-122.0255550">
    <ele>170.2</ele>
    <time>2021-03-17T20:16:03Z</time>
   </trkpt>
   <trkpt lat="47.3639980" lon="-122.0255860">
    <ele>170.2</ele>
    <time>2021-03-17T20:16:04Z</time>
   </trkpt>
   <trkpt lat="47.3640290" lon="-122.0256080">
    <ele>170.2</ele>
    <time>2021-03-17T20:16:05Z</time>
   </trkpt>
   <trkpt lat="47.3640580" lon="-122.0256460">
    <ele>170.2</ele>
    <time>2021-03-17T20:16:06Z</time>
   </trkpt>
   <trkpt lat="47.3640940" lon="-122.0256720">
    <ele>170.2</ele>
    <time>2021-03-17T20:16:07Z</time>
   </trkpt>
   <trkpt lat="47.3641290" lon="-122.0256930">
    <ele>170.2</ele>
    <time>2021-03-17T20:16:08Z</time>
   </trkpt>
   <trkpt lat="47.3641580" lon="-122.0257390">
    <ele>170.3</ele>
    <time>2021-03-17T20:16:09Z</time>
   </trkpt>
   <trkpt lat="47.3641930" lon="-122.0257640">
    <ele>170.3</ele>
    <time>2021-03-17T20:16:10Z</time>
   </trkpt>
   <trkpt lat="47.3642250" lon="-122.0257950">
    <ele>170.3</ele>
    <time>2021-03-17T20:16:11Z</time>
   </trkpt>
   <trkpt lat="47.3642570" lon="-122.0258210">
    <ele>170.3</ele>
    <time>2021-03-17T20:16:12Z</time>
   </trkpt>
   <trkpt lat="47.3643020" lon="-122.0258370">
    <ele>170.3</ele>
    <time>2021-03-17T20:16:13Z</time>
   </trkpt>
   <trkpt lat="47.3643340" lon="-122.0258690">
    <ele>170.4</ele>
    <time>2021-03-17T20:16:14Z</time>
   </trkpt>
   <trkpt lat="47.3643620" lon="-122.0258880">
    <ele>170.4</ele>
    <time>2021-03-17T20:16:15Z</time>
   </trkpt>
   <trkpt lat="47.3643970" lon="-122.0259250">
    <ele>170.4</ele>
    <time>2021-03-17T20:16:16Z</time>
   </trkpt>
   <trkpt lat="47.3644260" lon="-122.0259560">
    <ele>170.4</ele>
    <time>2021-03-17T20:16:17Z</time>
   </trkpt>
   <trkpt lat="47.3644610" lon="-122.0259780">
    <ele>170.4</ele>
    <time>2021-03-17T20:16:18Z</time>
   </trkpt>
   <trkpt lat="47.3644910" lon="-122.0260170">
    <ele>170.4</ele>
    <time>2021-03-17T20:16:19Z</time>
   </trkpt>
   <trkpt lat="47.3645270" lon="-122.0260280">
    <ele>170.4</ele>
    <time>2021-03-17T20:16:20Z</time>
   </trkpt>
   <trkpt lat="47.3645600" lon="-122.0260530">
    <ele>170.4</ele>
    <time>2021-03-17T20:16:21Z</time>
   </trkpt>
   <trkpt lat="47.3645960" lon="-122.0260740">
    <ele>170.4</ele>
    <time>2021-03-17T20:16:22Z</time>
   </trkpt>
   <trkpt lat="47.3646260" lon="-122.0260940">
    <ele>170.4</ele>
    <time>2021-03-17T20:16:23Z</time>
   </trkpt>
   <trkpt lat="47.3646580" lon="-122.0261300">
    <ele>170.4</ele>
    <time>2021-03-17T20:16:24Z</time>
   </trkpt>
   <trkpt lat="47.3646840" lon="-122.0261540">
    <ele>170.3</ele>
    <time>2021-03-17T20:16:25Z</time>
   </trkpt>
   <trkpt lat="47.3647190" lon="-122.0261700">
    <ele>170.3</ele>
    <time>2021-03-17T20:16:26Z</time>
   </trkpt>
   <trkpt lat="47.3647530" lon="-122.0262070">
    <ele>170.3</ele>
    <time>2021-03-17T20:16:27Z</time>
   </trkpt>
   <trkpt lat="47.3647780" lon="-122.0262300">
    <ele>170.3</ele>
    <time>2021-03-17T20:16:28Z</time>
   </trkpt>
   <trkpt lat="47.3648090" lon="-122.0262590">
    <ele>170.2</ele>
    <time>2021-03-17T20:16:29Z</time>
   </trkpt>
   <trkpt lat="47.3648480" lon="-122.0262960">
    <ele>170.2</ele>
    <time>2021-03-17T20:16:30Z</time>
   </trkpt>
   <trkpt lat="47.3648870" lon="-122.0263160">
    <ele>170.2</ele>
    <time>2021-03-17T20:16:31Z</time>
   </trkpt>
   <trkpt lat="47.3649230" lon="-122.0263470">
    <ele>170.2</ele>
    <time>2021-03-17T20:16:32Z</time>
   </trkpt>
   <trkpt lat="47.3649490" lon="-122.0263650">
    <ele>170.2</ele>
    <time>2021-03-17T20:16:33Z</time>
   </trkpt>
   <trkpt lat="47.3649830" lon="-122.0263840">
    <ele>170.1</ele>
    <time>2021-03-17T20:16:34Z</time>
   </trkpt>
   <trkpt lat="47.3650050" lon="-122.0264220">
    <ele>170.1</ele>
    <time>2021-03-17T20:16:35Z</time>
   </trkpt>
   <trkpt lat="47.3650330" lon="-122.0264320">
    <ele>170.1</ele>
    <time>2021-03-17T20:16:36Z</time>
   </trkpt>
   <trkpt lat="47.3650760" lon="-122.0264540">
    <ele>170.0</ele>
    <time>2021-03-17T20:16:37Z</time>
   </trkpt>
   <trkpt lat="47.3651060" lon="-122.0264840">
    <ele>170.0</ele>
    <time>2021-03-17T20:16:38Z</time>
   </trkpt>
   <trkpt lat="47.3651430" lon="-122.0265090">
    <ele>170.0</ele>
    <time>2021-03-17T20:16:39Z</time>
   </trkpt>
   <trkpt lat="47.3651600" lon="-122.0265440">
    <ele>169.9</ele>
    <time>2021-03-17T20:16:40Z</time>
   </trkpt>
   <trkpt lat="47.3651880" lon="-122.0265650">
    <ele>169.9</ele>
    <time>2021-03-17T20:16:41Z</time>
   </trkpt>
   <trkpt lat="47.3652210" lon="-122.0265950">
    <ele>169.9</ele>
    <time>2021-03-17T20:16:42Z</time>
   </trkpt>
   <trkpt lat="47.3652520" lon="-122.0266320">
    <ele>169.8</ele>
    <time>2021-03-17T20:16:43Z</time>
   </trkpt>
   <trkpt lat="47.3652910" lon="-122.0266470">
    <ele>169.8</ele>
    <time>2021-03-17T20:16:44Z</time>
   </trkpt>
   <trkpt lat="47.3653300" lon="-122.0266860">
    <ele>169.8</ele>
    <time>2021-03-17T20:16:45Z</time>
   </trkpt>
   <trkpt lat="47.3653640" lon="-122.0267090">
    <ele>169.7</ele>
    <time>2021-03-17T20:16:46Z</time>
   </trkpt>
   <trkpt lat="47.3653930" lon="-122.0267300">
    <ele>169.7</ele>
    <time>2021-03-17T20:16:47Z</time>
   </trkpt>
   <trkpt lat="47.3654190" lon="-122.0267650">
    <ele>169.7</ele>
    <time>2021-03-17T20:16:48Z</time>
   </trkpt>
   <trkpt lat="47.3654450" lon="-122.0267880">
    <ele>169.6</ele>
    <time>2021-03-17T20:16:49Z</time>
   </trkpt>
   <trkpt lat="47.3654790" lon="-122.0268150">
    <ele>169.6</ele>
    <time>2021-03-17T20:16:50Z</time>
   </trkpt>
   <trkpt lat="47.3655110" lon="-122.0268430">
    <ele>169.6</ele>
    <time>2021-03-17T20:16:51Z</time>
   </trkpt>
   <trkpt lat="47.3655490" lon="-122.0268650">
    <ele>169.5</ele>
    <time>2021-03-17T20:16:52Z</time>
   </trkpt>
   <trkpt lat="47.3655810" lon="-122.0268980">
    <ele>169.4</ele>
    <time>2021-03-17T20:16:53Z</time>
   </trkpt>
   <trkpt lat="47.3656150" lon="-122.0269130">
    <ele>169.4</ele>
    <time>2021-03-17T20:16:54Z</time>
   </trkpt>
   <trkpt lat="47.3656530" lon="-122.0269420">
    <ele>169.3</ele>
    <time>2021-03-17T20:16:55Z</time>
   </trkpt>
   <trkpt lat="47.3656670" lon="-122.0269590">
    <ele>169.3</ele>
    <time>2021-03-17T20:16:56Z</time>
   </trkpt>
   <trkpt lat="47.3656960" lon="-122.0269850">
    <ele>169.3</ele>
    <time>2021-03-17T20:16:57Z</time>
   </trkpt>
   <trkpt lat="47.3657350" lon="-122.0270140">
    <ele>169.2</ele>
    <time>2021-03-17T20:16:58Z</time>
   </trkpt>
   <trkpt lat="47.3657620" lon="-122.0270370">
    <ele>169.1</ele>
    <time>2021-03-17T20:16:59Z</time>
   </trkpt>
   <trkpt lat="47.3657920" lon="-122.0270540">
    <ele>169.0</ele>
    <time>2021-03-17T20:17:00Z</time>
   </trkpt>
   <trkpt lat="47.3658260" lon="-122.0270860">
    <ele>168.8</ele>
    <time>2021-03-17T20:17:01Z</time>
   </trkpt>
   <trkpt lat="47.3658600" lon="-122.0271160">
    <ele>168.6</ele>
    <time>2021-03-17T20:17:02Z</time>
   </trkpt>
   <trkpt lat="47.3658960" lon="-122.0271350">
    <ele>168.5</ele>
    <time>2021-03-17T20:17:03Z</time>
   </trkpt>
   <trkpt lat="47.3659280" lon="-122.0271760">
    <ele>168.3</ele>
    <time>2021-03-17T20:17:04Z</time>
   </trkpt>
   <trkpt lat="47.3659540" lon="-122.0272070">
    <ele>168.2</ele>
    <time>2021-03-17T20:17:05Z</time>
   </trkpt>
   <trkpt lat="47.3659940" lon="-122.0272380">
    <ele>168.1</ele>
    <time>2021-03-17T20:17:06Z</time>
   </trkpt>
   <trkpt lat="47.3660230" lon="-122.0272680">
    <ele>168.0</ele>
    <time>2021-03-17T20:17:07Z</time>
   </trkpt>
   <trkpt lat="47.3660510" lon="-122.0272770">
    <ele>167.9</ele>
    <time>2021-03-17T20:17:08Z</time>
   </trkpt>
   <trkpt lat="47.3660840" lon="-122.0273010">
    <ele>167.9</ele>
    <time>2021-03-17T20:17:09Z</time>
   </trkpt>
   <trkpt lat="47.3661140" lon="-122.0273240">
    <ele>167.9</ele>
    <time>2021-03-17T20:17:10Z</time>
   </trkpt>
   <trkpt lat="47.3661470" lon="-122.0273480">
    <ele>167.9</ele>
    <time>2021-03-17T20:17:11Z</time>
   </trkpt>
   <trkpt lat="47.3661730" lon="-122.0273650">
    <ele>167.9</ele>
    <time>2021-03-17T20:17:12Z</time>
   </trkpt>
   <trkpt lat="47.3662060" lon="-122.0274120">
    <ele>168.0</ele>
    <time>2021-03-17T20:17:13Z</time>
   </trkpt>
   <trkpt lat="47.3662330" lon="-122.0274580">
    <ele>168.1</ele>
    <time>2021-03-17T20:17:14Z</time>
   </trkpt>
   <trkpt lat="47.3662610" lon="-122.0274800">
    <ele>168.1</ele>
    <time>2021-03-17T20:17:15Z</time>
   </trkpt>
   <trkpt lat="47.3662930" lon="-122.0274970">
    <ele>168.2</ele>
    <time>2021-03-17T20:17:16Z</time>
   </trkpt>
   <trkpt lat="47.3663270" lon="-122.0275200">
    <ele>168.3</ele>
    <time>2021-03-17T20:17:17Z</time>
   </trkpt>
   <trkpt lat="47.3663410" lon="-122.0275290">
    <ele>168.3</ele>
    <time>2021-03-17T20:17:18Z</time>
   </trkpt>
   <trkpt lat="47.3663760" lon="-122.0275580">
    <ele>168.4</ele>
    <time>2021-03-17T20:17:19Z</time>
   </trkpt>
   <trkpt lat="47.3664030" lon="-122.0275890">
    <ele>168.5</ele>
    <time>2021-03-17T20:17:20Z</time>
   </trkpt>
   <trkpt lat="47.3664310" lon="-122.0276080">
    <ele>168.6</ele>
    <time>2021-03-17T20:17:21Z</time>
   </trkpt>
   <trkpt lat="47.3664550" lon="-122.0276400">
    <ele>168.6</ele>
    <time>2021-03-17T20:17:22Z</time>
   </trkpt>
   <trkpt lat="47.3664900" lon="-122.0276630">
    <ele>168.7</ele>
    <time>2021-03-17T20:17:23Z</time>
   </trkpt>
   <trkpt lat="47.3665210" lon="-122.0276850">
    <ele>168.8</ele>
    <time>2021-03-17T20:17:24Z</time>
   </trkpt>
   <trkpt lat="47.3665520" lon="-122.0277060">
    <ele>168.8</ele>
    <time>2021-03-17T20:17:25Z</time>
   </trkpt>
   <trkpt lat="47.3665850" lon="-122.0277240">
    <ele>168.8</ele>
    <time>2021-03-17T20:17:26Z</time>
   </trkpt>
   <trkpt lat="47.3666150" lon="-122.0277560">
    <ele>168.8</ele>
    <time>2021-03-17T20:17:27Z</time>
   </trkpt>
   <trkpt lat="47.3666550" lon="-122.0277850">
    <ele>168.8</ele>
    <time>2021-03-17T20:17:28Z</time>
   </trkpt>
   <trkpt lat="47.3666700" lon="-122.0277980">
    <ele>168.8</ele>
    <time>2021-03-17T20:17:29Z</time>
   </trkpt>
   <trkpt lat="47.3666900" lon="-122.0278330">
    <ele>168.8</ele>
    <time>2021-03-17T20:17:30Z</time>
   </trkpt>
   <trkpt lat="47.3667190" lon="-122.0278640">
    <ele>168.7</ele>
    <time>2021-03-17T20:17:31Z</time>
   </trkpt>
   <trkpt lat="47.3667460" lon="-122.0278960">
    <ele>168.7</ele>
    <time>2021-03-17T20:17:32Z</time>
   </trkpt>
   <trkpt lat="47.3667750" lon="-122.0279200">
    <ele>168.7</ele>
    <time>2021-03-17T20:17:33Z</time>
   </trkpt>
   <trkpt lat="47.3668170" lon="-122.0279350">
    <ele>168.6</ele>
    <time>2021-03-17T20:17:34Z</time>
   </trkpt>
   <trkpt lat="47.3668480" lon="-122.0279710">
    <ele>168.6</ele>
    <time>2021-03-17T20:17:35Z</time>
   </trkpt>
   <trkpt lat="47.3668760" lon="-122.0279900">
    <ele>168.6</ele>
    <time>2021-03-17T20:17:36Z</time>
   </trkpt>
   <trkpt lat="47.3669020" lon="-122.0280180">
    <ele>168.5</ele>
    <time>2021-03-17T20:17:37Z</time>
   </trkpt>
   <trkpt lat="47.3669250" lon="-122.0280480">
    <ele>168.5</ele>
    <time>2021-03-17T20:17:38Z</time>
   </trkpt>
   <trkpt lat="47.3669630" lon="-122.0280710">
    <ele>168.5</ele>
    <time>2021-03-17T20:17:39Z</time>
   </trkpt>
   <trkpt lat="47.3669880" lon="-122.0281100">
    <ele>168.4</ele>
    <time>2021-03-17T20:17:40Z</time>
   </trkpt>
   <trkpt lat="47.3670150" lon="-122.0281300">
    <ele>168.4</ele>
    <time>2021-03-17T20:17:41Z</time>
   </trkpt>
   <trkpt lat="47.3670430" lon="-122.0281570">
    <ele>168.4</ele>
    <time>2021-03-17T20:17:42Z</time>
   </trkpt>
   <trkpt lat="47.3670690" lon="-122.0281790">
    <ele>168.4</ele>
    <time>2021-03-17T20:17:43Z</time>
   </trkpt>
   <trkpt lat="47.3671030" lon="-122.0282090">
    <ele>168.3</ele>
    <time>2021-03-17T20:17:44Z</time>
   </trkpt>
   <trkpt lat="47.3671400" lon="-122.0282300">
    <ele>168.3</ele>
    <time>2021-03-17T20:17:45Z</time>
   </trkpt>
   <trkpt lat="47.3671800" lon="-122.0282650">
    <ele>168.3</ele>
    <time>2021-03-17T20:17:46Z</time>
   </trkpt>
   <trkpt lat="47.3671970" lon="-122.0282790">
    <ele>168.3</ele>
    <time>2021-03-17T20:17:47Z</time>
   </trkpt>
   <trkpt lat="47.3672260" lon="-122.0283070">
    <ele>168.3</ele>
    <time>2021-03-17T20:17:48Z</time>
   </trkpt>
   <trkpt lat="47.3672530" lon="-122.0283320">
    <ele>168.2</ele>
    <time>2021-03-17T20:17:49Z</time>
   </trkpt>
   <trkpt lat="47.3672970" lon="-122.0283610">
    <ele>168.2</ele>
    <time>2021-03-17T20:17:50Z</time>
   </trkpt>
   <trkpt lat="47.3673310" lon="-122.0283820">
    <ele>168.2</ele>
    <time>2021-03-17T20:17:51Z</time>
   </trkpt>
   <trkpt lat="47.3673680" lon="-122.0284050">
    <ele>168.1</ele>
    <time>2021-03-17T20:17:52Z</time>
   </trkpt>
   <trkpt lat="47.3673990" lon="-122.0284170">
    <ele>168.1</ele>
    <time>2021-03-17T20:17:53Z</time>
   </trkpt>
   <trkpt lat="47.3674290" lon="-122.0284320">
    <ele>168.0</ele>
    <time>2021-03-17T20:17:54Z</time>
   </trkpt>
   <trkpt lat="47.3674640" lon="-122.0284520">
    <ele>168.0</ele>
    <time>2021-03-17T20:17:55Z</time>
   </trkpt>
   <trkpt lat="47.3674930" lon="-122.0284800">
    <ele>167.9</ele>
    <time>2021-03-17T20:17:56Z</time>
   </trkpt>
   <trkpt lat="47.3675290" lon="-122.0285020">
    <ele>167.8</ele>
    <time>2021-03-17T20:17:57Z</time>
   </trkpt>
   <trkpt lat="47.3675580" lon="-122.0285280">
    <ele>167.7</ele>
    <time>2021-03-17T20:17:58Z</time>
   </trkpt>
   <trkpt lat="47.3675900" lon="-122.0285470">
    <ele>167.7</ele>
    <time>2021-03-17T20:17:59Z</time>
   </trkpt>
   <trkpt lat="47.3676270" lon="-122.0285810">
    <ele>167.6</ele>
    <time>2021-03-17T20:18:00Z</time>
   </trkpt>
   <trkpt lat="47.3676450" lon="-122.0286120">
    <ele>167.5</ele>
    <time>2021-03-17T20:18:01Z</time>
   </trkpt>
   <trkpt lat="47.3676800" lon="-122.0286330">
    <ele>167.5</ele>
    <time>2021-03-17T20:18:02Z</time>
   </trkpt>
   <trkpt lat="47.3677060" lon="-122.0286740">
    <ele>167.4</ele>
    <time>2021-03-17T20:18:03Z</time>
   </trkpt>
   <trkpt lat="47.3677380" lon="-122.0286980">
    <ele>167.3</ele>
    <time>2021-03-17T20:18:04Z</time>
   </trkpt>
   <trkpt lat="47.3677770" lon="-122.0287150">
    <ele>167.3</ele>
    <time>2021-03-17T20:18:05Z</time>
   </trkpt>
   <trkpt lat="47.3678000" lon="-122.0287400">
    <ele>167.2</ele>
    <time>2021-03-17T20:18:06Z</time>
   </trkpt>
   <trkpt lat="47.3678300" lon="-122.0287630">
    <ele>167.2</ele>
    <time>2021-03-17T20:18:07Z</time>
   </trkpt>
   <trkpt lat="47.3678720" lon="-122.0287960">
    <ele>167.1</ele>
    <time>2021-03-17T20:18:08Z</time>
   </trkpt>
   <trkpt lat="47.3678960" lon="-122.0288240">
    <ele>167.1</ele>
    <time>2021-03-17T20:18:09Z</time>
   </trkpt>
   <trkpt lat="47.3679310" lon="-122.0288490">
    <ele>167.0</ele>
    <time>2021-03-17T20:18:10Z</time>
   </trkpt>
   <trkpt lat="47.3679670" lon="-122.0288810">
    <ele>167.0</ele>
    <time>2021-03-17T20:18:11Z</time>
   </trkpt>
   <trkpt lat="47.3679970" lon="-122.0289050">
    <ele>166.9</ele>
    <time>2021-03-17T20:18:12Z</time>
   </trkpt>
   <trkpt lat="47.3680330" lon="-122.0289260">
    <ele>166.9</ele>
    <time>2021-03-17T20:18:13Z</time>
   </trkpt>
   <trkpt lat="47.3680580" lon="-122.0289550">
    <ele>166.8</ele>
    <time>2021-03-17T20:18:14Z</time>
   </trkpt>
   <trkpt lat="47.3680860" lon="-122.0289800">
    <ele>166.8</ele>
    <time>2021-03-17T20:18:15Z</time>
   </trkpt>
   <trkpt lat="47.3681160" lon="-122.0290100">
    <ele>166.7</ele>
    <time>2021-03-17T20:18:16Z</time>
   </trkpt>
   <trkpt lat="47.3681390" lon="-122.0290410">
    <ele>166.7</ele>
    <time>2021-03-17T20:18:17Z</time>
   </trkpt>
   <trkpt lat="47.3681760" lon="-122.0290660">
    <ele>166.6</ele>
    <time>2021-03-17T20:18:18Z</time>
   </trkpt>
   <trkpt lat="47.3682060" lon="-122.0291060">
    <ele>166.5</ele>
    <time>2021-03-17T20:18:19Z</time>
   </trkpt>
   <trkpt lat="47.3682440" lon="-122.0291290">
    <ele>166.5</ele>
    <time>2021-03-17T20:18:20Z</time>
   </trkpt>
   <trkpt lat="47.3682790" lon="-122.0291610">
    <ele>166.4</ele>
    <time>2021-03-17T20:18:21Z</time>
   </trkpt>
   <trkpt lat="47.3683000" lon="-122.0291910">
    <ele>166.4</ele>
    <time>2021-03-17T20:18:22Z</time>
   </trkpt>
   <trkpt lat="47.3683290" lon="-122.0292190">
    <ele>166.3</ele>
    <time>2021-03-17T20:18:23Z</time>
   </trkpt>
   <trkpt lat="47.3683650" lon="-122.0292460">
    <ele>166.2</ele>
    <time>2021-03-17T20:18:24Z</time>
   </trkpt>
   <trkpt lat="47.3683910" lon="-122.0292630">
    <ele>166.2</ele>
    <time>2021-03-17T20:18:25Z</time>
   </trkpt>
   <trkpt lat="47.3684260" lon="-122.0292900">
    <ele>166.1</ele>
    <time>2021-03-17T20:18:26Z</time>
   </trkpt>
   <trkpt lat="47.3684550" lon="-122.0293330">
    <ele>166.0</ele>
    <time>2021-03-17T20:18:27Z</time>
   </trkpt>
   <trkpt lat="47.3684910" lon="-122.0293530">
    <ele>166.0</ele>
    <time>2021-03-17T20:18:28Z</time>
   </trkpt>
   <trkpt lat="47.3685310" lon="-122.0293950">
    <ele>165.9</ele>
    <time>2021-03-17T20:18:29Z</time>
   </trkpt>
   <trkpt lat="47.3685610" lon="-122.0294130">
    <ele>165.9</ele>
    <time>2021-03-17T20:18:30Z</time>
   </trkpt>
   <trkpt lat="47.3685970" lon="-122.0294290">
    <ele>165.8</ele>
    <time>2021-03-17T20:18:31Z</time>
   </trkpt>
   <trkpt lat="47.3686290" lon="-122.0294510">
    <ele>165.8</ele>
    <time>2021-03-17T20:18:32Z</time>
   </trkpt>
   <trkpt lat="47.3686600" lon="-122.0294810">
    <ele>165.7</ele>
    <time>2021-03-17T20:18:33Z</time>
   </trkpt>
   <trkpt lat="47.3687040" lon="-122.0295150">
    <ele>165.6</ele>
    <time>2021-03-17T20:18:34Z</time>
   </trkpt>
   <trkpt lat="47.3687390" lon="-122.0295400">
    <ele>165.6</ele>
    <time>2021-03-17T20:18:35Z</time>
   </trkpt>
   <trkpt lat="47.3687760" lon="-122.0295710">
    <ele>165.5</ele>
    <time>2021-03-17T20:18:36Z</time>
   </trkpt>
   <trkpt lat="47.3688100" lon="-122.0295980">
    <ele>165.5</ele>
    <time>2021-03-17T20:18:37Z</time>
   </trkpt>
   <trkpt lat="47.3688370" lon="-122.0296220">
    <ele>165.4</ele>
    <time>2021-03-17T20:18:38Z</time>
   </trkpt>
   <trkpt lat="47.3688710" lon="-122.0296400">
    <ele>165.4</ele>
    <time>2021-03-17T20:18:39Z</time>
   </trkpt>
   <trkpt lat="47.3689010" lon="-122.0296660">
    <ele>165.3</ele>
    <time>2021-03-17T20:18:40Z</time>
   </trkpt>
   <trkpt lat="47.3689320" lon="-122.0296780">
    <ele>165.3</ele>
    <time>2021-03-17T20:18:41Z</time>
   </trkpt>
   <trkpt lat="47.3689740" lon="-122.0297150">
    <ele>165.2</ele>
    <time>2021-03-17T20:18:42Z</time>
   </trkpt>
   <trkpt lat="47.3690040" lon="-122.0297460">
    <ele>165.1</ele>
    <time>2021-03-17T20:18:43Z</time>
   </trkpt>
   <trkpt lat="47.3690520" lon="-122.0297650">
    <ele>165.0</ele>
    <time>2021-03-17T20:18:44Z</time>
   </trkpt>
   <trkpt lat="47.3690780" lon="-122.0297910">
    <ele>165.0</ele>
    <time>2021-03-17T20:18:45Z</time>
   </trkpt>
   <trkpt lat="47.3691060" lon="-122.0298180">
    <ele>164.9</ele>
    <time>2021-03-17T20:18:46Z</time>
   </trkpt>
   <trkpt lat="47.3691460" lon="-122.0298300">
    <ele>164.9</ele>
    <time>2021-03-17T20:18:47Z</time>
   </trkpt>
   <trkpt lat="47.3691750" lon="-122.0298550">
    <ele>164.8</ele>
    <time>2021-03-17T20:18:48Z</time>
   </trkpt>
   <trkpt lat="47.3692110" lon="-122.0298790">
    <ele>164.8</ele>
    <time>2021-03-17T20:18:49Z</time>
   </trkpt>
   <trkpt lat="47.3692390" lon="-122.0299040">
    <ele>164.8</ele>
    <time>2021-03-17T20:18:50Z</time>
   </trkpt>
   <trkpt lat="47.3692650" lon="-122.0299320">
    <ele>164.8</ele>
    <time>2021-03-17T20:18:51Z</time>
   </trkpt>
   <trkpt lat="47.3692940" lon="-122.0299630">
    <ele>164.7</ele>
    <time>2021-03-17T20:18:52Z</time>
   </trkpt>
   <trkpt lat="47.3693330" lon="-122.0299910">
    <ele>164.7</ele>
    <time>2021-03-17T20:18:53Z</time>
   </trkpt>
   <trkpt lat="47.3693510" lon="-122.0299980">
    <ele>164.7</ele>
    <time>2021-03-17T20:18:54Z</time>
   </trkpt>
   <trkpt lat="47.3693850" lon="-122.0300340">
    <ele>164.7</ele>
    <time>2021-03-17T20:18:55Z</time>
   </trkpt>
   <trkpt lat="47.3694100" lon="-122.0300730">
    <ele>164.7</ele>
    <time>2021-03-17T20:18:56Z</time>
   </trkpt>
   <trkpt lat="47.3694540" lon="-122.0300850">
    <ele>164.7</ele>
    <time>2021-03-17T20:18:57Z</time>
   </trkpt>
   <trkpt lat="47.3694850" lon="-122.0301040">
    <ele>164.6</ele>
    <time>2021-03-17T20:18:58Z</time>
   </trkpt>
   <trkpt lat="47.3695110" lon="-122.0301330">
    <ele>164.6</ele>
    <time>2021-03-17T20:18:59Z</time>
   </trkpt>
   <trkpt lat="47.3695490" lon="-122.0301540">
    <ele>164.6</ele>
    <time>2021-03-17T20:19:00Z</time>
   </trkpt>
   <trkpt lat="47.3695760" lon="-122.0301860">
    <ele>164.6</ele>
    <time>2021-03-17T20:19:01Z</time>
   </trkpt>
   <trkpt lat="47.3696070" lon="-122.0302060">
    <ele>164.5</ele>
    <time>2021-03-17T20:19:02Z</time>
   </trkpt>
   <trkpt lat="47.3696370" lon="-122.0302290">
    <ele>164.5</ele>
    <time>2021-03-17T20:19:03Z</time>
   </trkpt>
   <trkpt lat="47.3696680" lon="-122.0302530">
    <ele>164.5</ele>
    <time>2021-03-17T20:19:04Z</time>
   </trkpt>
   <trkpt lat="47.3697080" lon="-122.0302800">
    <ele>164.4</ele>
    <time>2021-03-17T20:19:05Z</time>
   </trkpt>
   <trkpt lat="47.3697310" lon="-122.0303190">
    <ele>164.4</ele>
    <time>2021-03-17T20:19:06Z</time>
   </trkpt>
   <trkpt lat="47.3697680" lon="-122.0303420">
    <ele>164.3</ele>
    <time>2021-03-17T20:19:07Z</time>
   </trkpt>
   <trkpt lat="47.3698010" lon="-122.0303730">
    <ele>164.3</ele>
    <time>2021-03-17T20:19:08Z</time>
   </trkpt>
   <trkpt lat="47.3698300" lon="-122.0303890">
    <ele>164.3</ele>
    <time>2021-03-17T20:19:09Z</time>
   </trkpt>
   <trkpt lat="47.3698630" lon="-122.0304140">
    <ele>164.2</ele>
    <time>2021-03-17T20:19:10Z</time>
   </trkpt>
   <trkpt lat="47.3698950" lon="-122.0304470">
    <ele>164.2</ele>
    <time>2021-03-17T20:19:11Z</time>
   </trkpt>
   <trkpt lat="47.3699200" lon="-122.0304650">
    <ele>164.2</ele>
    <time>2021-03-17T20:19:12Z</time>
   </trkpt>
   <trkpt lat="47.3699570" lon="-122.0304890">
    <ele>164.2</ele>
    <time>2021-03-17T20:19:13Z</time>
   </trkpt>
   <trkpt lat="47.3699940" lon="-122.0304990">
    <ele>164.1</ele>
    <time>2021-03-17T20:19:14Z</time>
   </trkpt>
   <trkpt lat="47.3700330" lon="-122.0305300">
    <ele>164.1</ele>
    <time>2021-03-17T20:19:15Z</time>
   </trkpt>
   <trkpt lat="47.3700590" lon="-122.0305700">
    <ele>164.0</ele>
    <time>2021-03-17T20:19:16Z</time>
   </trkpt>
   <trkpt lat="47.3700910" lon="-122.0305920">
    <ele>164.0</ele>
    <time>2021-03-17T20:19:17Z</time>
   </trkpt>
   <trkpt lat="47.3701200" lon="-122.0306280">
    <ele>164.0</ele>
    <time>2021-03-17T20:19:18Z</time>
   </trkpt>
   <trkpt lat="47.3701520" lon="-122.0306500">
    <ele>163.9</ele>
    <time>2021-03-17T20:19:19Z</time>
   </trkpt>
   <trkpt lat="47.3701920" lon="-122.0306770">
    <ele>163.9</ele>
    <time>2021-03-17T20:19:20Z</time>
   </trkpt>
   <trkpt lat="47.3702180" lon="-122.0307110">
    <ele>163.8</ele>
    <time>2021-03-17T20:19:21Z</time>
   </trkpt>
   <trkpt lat="47.3702450" lon="-122.0307380">
    <ele>163.8</ele>
    <time>2021-03-17T20:19:22Z</time>
   </trkpt>
   <trkpt lat="47.3702730" lon="-122.0307620">
    <ele>163.8</ele>
    <time>2021-03-17T20:19:23Z</time>
   </trkpt>
   <trkpt lat="47.3702940" lon="-122.0307940">
    <ele>163.8</ele>
    <time>2021-03-17T20:19:24Z</time>
   </trkpt>
   <trkpt lat="47.3703340" lon="-122.0308110">
    <ele>163.7</ele>
    <time>2021-03-17T20:19:25Z</time>
   </trkpt>
   <trkpt lat="47.3703600" lon="-122.0308410">
    <ele>163.7</ele>
    <time>2021-03-17T20:19:26Z</time>
   </trkpt>
   <trkpt lat="47.3703880" lon="-122.0308750">
    <ele>163.7</ele>
    <time>2021-03-17T20:19:27Z</time>
   </trkpt>
   <trkpt lat="47.3704230" lon="-122.0309090">
    <ele>163.6</ele>
    <time>2021-03-17T20:19:28Z</time>
   </trkpt>
   <trkpt lat="47.3704520" lon="-122.0309400">
    <ele>163.6</ele>
    <time>2021-03-17T20:19:29Z</time>
   </trkpt>
   <trkpt lat="47.3704840" lon="-122.0309520">
    <ele>163.6</ele>
    <time>2021-03-17T20:19:30Z</time>
   </trkpt>
   <trkpt lat="47.3705090" lon="-122.0309830">
    <ele>163.5</ele>
    <time>2021-03-17T20:19:31Z</time>
   </trkpt>
   <trkpt lat="47.3705380" lon="-122.0310100">
    <ele>163.5</ele>
    <time>2021-03-17T20:19:32Z</time>
   </trkpt>
   <trkpt lat="47.3705720" lon="-122.0310330">
    <ele>163.4</ele>
    <time>2021-03-17T20:19:33Z</time>
   </trkpt>
   <trkpt lat="47.3706080" lon="-122.0310730">
    <ele>163.4</ele>
    <time>2021-03-17T20:19:34Z</time>
   </trkpt>
   <trkpt lat="47.3706290" lon="-122.0310810">
    <ele>163.3</ele>
    <time>2021-03-17T20:19:35Z</time>
   </trkpt>
   <trkpt lat="47.3706700" lon="-122.0311250">
    <ele>163.3</ele>
    <time>2021-03-17T20:19:36Z</time>
   </trkpt>
   <trkpt lat="47.3707040" lon="-122.0311520">
    <ele>163.2</ele>
    <time>2021-03-17T20:19:37Z</time>
   </trkpt>
   <trkpt lat="47.3707380" lon="-122.0311680">
    <ele>163.2</ele>
    <time>2021-03-17T20:19:38Z</time>
   </trkpt>
   <trkpt lat="47.3707590" lon="-122.0312080">
    <ele>163.2</ele>
    <time>2021-03-17T20:19:39Z</time>
   </trkpt>
   <trkpt lat="47.3708000" lon="-122.0312340">
    <ele>163.1</ele>
    <time>2021-03-17T20:19:40Z</time>
   </trkpt>
   <trkpt lat="47.3708150" lon="-122.0312450">
    <ele>163.1</ele>
    <time>2021-03-17T20:19:41Z</time>
   </trkpt>
   <trkpt lat="47.3708420" lon="-122.0312600">
    <ele>163.1</ele>
    <time>2021-03-17T20:19:42Z</time>
   </trkpt>
   <trkpt lat="47.3708780" lon="-122.0312710">
    <ele>163.1</ele>
    <time>2021-03-17T20:19:43Z</time>
   </trkpt>
   <trkpt lat="47.3709110" lon="-122.0312880">
    <ele>163.0</ele>
    <time>2021-03-17T20:19:44Z</time>
   </trkpt>
   <trkpt lat="47.3709340" lon="-122.0313140">
    <ele>163.0</ele>
    <time>2021-03-17T20:19:45Z</time>
   </trkpt>
   <trkpt lat="47.3709700" lon="-122.0313450">
    <ele>163.0</ele>
    <time>2021-03-17T20:19:46Z</time>
   </trkpt>
   <trkpt lat="47.3710060" lon="-122.0313750">
    <ele>163.0</ele>
    <time>2021-03-17T20:19:47Z</time>
   </trkpt>
   <trkpt lat="47.3710220" lon="-122.0313810">
    <ele>162.9</ele>
    <time>2021-03-17T20:19:48Z</time>
   </trkpt>
   <trkpt lat="47.3710620" lon="-122.0313980">
    <ele>162.9</ele>
    <time>2021-03-17T20:19:49Z</time>
   </trkpt>
   <trkpt lat="47.3710860" lon="-122.0314210">
    <ele>162.9</ele>
    <time>2021-03-17T20:19:50Z</time>
   </trkpt>
   <trkpt lat="47.3711260" lon="-122.0314330">
    <ele>162.8</ele>
    <time>2021-03-17T20:19:51Z</time>
   </trkpt>
   <trkpt lat="47.3711660" lon="-122.0314510">
    <ele>162.8</ele>
    <time>2021-03-17T20:19:52Z</time>
   </trkpt>
   <trkpt lat="47.3711990" lon="-122.0314760">
    <ele>162.7</ele>
    <time>2021-03-17T20:19:53Z</time>
   </trkpt>
   <trkpt lat="47.3712340" lon="-122.0315000">
    <ele>162.7</ele>
    <time>2021-03-17T20:19:54Z</time>
   </trkpt>
   <trkpt lat="47.3712600" lon="-122.0315290">
    <ele>162.7</ele>
    <time>2021-03-17T20:19:55Z</time>
   </trkpt>
   <trkpt lat="47.3712960" lon="-122.0315470">
    <ele>162.6</ele>
    <time>2021-03-17T20:19:56Z</time>
   </trkpt>
   <trkpt lat="47.3713320" lon="-122.0315910">
    <ele>162.6</ele>
    <time>2021-03-17T20:19:57Z</time>
   </trkpt>
   <trkpt lat="47.3713640" lon="-122.0316200">
    <ele>162.5</ele>
    <time>2021-03-17T20:19:58Z</time>
   </trkpt>
   <trkpt lat="47.3714130" lon="-122.0316460">
    <ele>162.5</ele>
    <time>2021-03-17T20:19:59Z</time>
   </trkpt>
   <trkpt lat="47.3714470" lon="-122.0316800">
    <ele>162.4</ele>
    <time>2021-03-17T20:20:00Z</time>
   </trkpt>
   <trkpt lat="47.3714750" lon="-122.0316790">
    <ele>162.4</ele>
    <time>2021-03-17T20:20:01Z</time>
   </trkpt>
   <trkpt lat="47.3715060" lon="-122.0317110">
    <ele>162.3</ele>
    <time>2021-03-17T20:20:02Z</time>
   </trkpt>
   <trkpt lat="47.3715380" lon="-122.0317240">
    <ele>162.3</ele>
    <time>2021-03-17T20:20:03Z</time>
   </trkpt>
   <trkpt lat="47.3715760" lon="-122.0317390">
    <ele>162.2</ele>
    <time>2021-03-17T20:20:04Z</time>
   </trkpt>
   <trkpt lat="47.3716140" lon="-122.0317740">
    <ele>162.1</ele>
    <time>2021-03-17T20:20:05Z</time>
   </trkpt>
   <trkpt lat="47.3716510" lon="-122.0317840">
    <ele>162.1</ele>
    <time>2021-03-17T20:20:06Z</time>
   </trkpt>
   <trkpt lat="47.3716820" lon="-122.0317990">
    <ele>162.0</ele>
    <time>2021-03-17T20:20:07Z</time>
   </trkpt>
   <trkpt lat="47.3717050" lon="-122.0318270">
    <ele>162.0</ele>
    <time>2021-03-17T20:20:08Z</time>
   </trkpt>
   <trkpt lat="47.3717430" lon="-122.0318440">
    <ele>161.9</ele>
    <time>2021-03-17T20:20:09Z</time>
   </trkpt>
   <trkpt lat="47.3717710" lon="-122.0318570">
    <ele>161.9</ele>
    <time>2021-03-17T20:20:10Z</time>
   </trkpt>
   <trkpt lat="47.3717990" lon="-122.0318680">
    <ele>161.8</ele>
    <time>2021-03-17T20:20:11Z</time>
   </trkpt>
   <trkpt lat="47.3718390" lon="-122.0318790">
    <ele>161.8</ele>
    <time>2021-03-17T20:20:12Z</time>
   </trkpt>
   <trkpt lat="47.3718630" lon="-122.0318990">
    <ele>161.7</ele>
    <time>2021-03-17T20:20:13Z</time>
   </trkpt>
   <trkpt lat="47.3718930" lon="-122.0319120">
    <ele>161.7</ele>
    <time>2021-03-17T20:20:14Z</time>
   </trkpt>
   <trkpt lat="47.3719230" lon="-122.0319250">
    <ele>161.6</ele>
    <time>2021-03-17T20:20:15Z</time>
   </trkpt>
   <trkpt lat="47.3719570" lon="-122.0319470">
    <ele>161.6</ele>
    <time>2021-03-17T20:20:16Z</time>
   </trkpt>
   <trkpt lat="47.3719900" lon="-122.0319670">
    <ele>161.5</ele>
    <time>2021-03-17T20:20:17Z</time>
   </trkpt>
   <trkpt lat="47.3720230" lon="-122.0319780">
    <ele>161.5</ele>
    <time>2021-03-17T20:20:18Z</time>
   </trkpt>
   <trkpt lat="47.3720630" lon="-122.0319750">
    <ele>161.4</ele>
    <time>2021-03-17T20:20:19Z</time>
   </trkpt>
   <trkpt lat="47.3720920" lon="-122.0319880">
    <ele>161.3</ele>
    <time>2021-03-17T20:20:20Z</time>
   </trkpt>
   <trkpt lat="47.3721260" lon="-122.0319890">
    <ele>161.3</ele>
    <time>2021-03-17T20:20:21Z</time>
   </trkpt>
   <trkpt lat="47.3721660" lon="-122.0320010">
    <ele>161.2</ele>
    <time>2021-03-17T20:20:22Z</time>
   </trkpt>
   <trkpt lat="47.3721980" lon="-122.0320130">
    <ele>161.2</ele>
    <time>2021-03-17T20:20:23Z</time>
   </trkpt>
   <trkpt lat="47.3722390" lon="-122.0320220">
    <ele>161.1</ele>
    <time>2021-03-17T20:20:24Z</time>
   </trkpt>
   <trkpt lat="47.3722800" lon="-122.0320370">
    <ele>161.1</ele>
    <time>2021-03-17T20:20:25Z</time>
   </trkpt>
   <trkpt lat="47.3722990" lon="-122.0320440">
    <ele>161.0</ele>
    <time>2021-03-17T20:20:26Z</time>
   </trkpt>
   <trkpt lat="47.3723380" lon="-122.0320660">
    <ele>161.0</ele>
    <time>2021-03-17T20:20:27Z</time>
   </trkpt>
   <trkpt lat="47.3723720" lon="-122.0320810">
    <ele>160.9</ele>
    <time>2021-03-17T20:20:28Z</time>
   </trkpt>
   <trkpt lat="47.3724090" lon="-122.0320960">
    <ele>160.9</ele>
    <time>2021-03-17T20:20:29Z</time>
   </trkpt>
   <trkpt lat="47.3724390" lon="-122.0321130">
    <ele>160.8</ele>
    <time>2021-03-17T20:20:30Z</time>
   </trkpt>
   <trkpt lat="47.3724810" lon="-122.0321210">
    <ele>160.8</ele>
    <time>2021-03-17T20:20:31Z</time>
   </trkpt>
   <trkpt lat="47.3725250" lon="-122.0321220">
    <ele>160.7</ele>
    <time>2021-03-17T20:20:32Z</time>
   </trkpt>
   <trkpt lat="47.3725630" lon="-122.0321160">
    <ele>160.7</ele>
    <time>2021-03-17T20:20:33Z</time>
   </trkpt>
   <trkpt lat="47.3726060" lon="-122.0321320">
    <ele>160.6</ele>
    <time>2021-03-17T20:20:34Z</time>
   </trkpt>
   <trkpt lat="47.3726500" lon="-122.0321420">
    <ele>160.6</ele>
    <time>2021-03-17T20:20:35Z</time>
   </trkpt>
   <trkpt lat="47.3726970" lon="-122.0321450">
    <ele>160.5</ele>
    <time>2021-03-17T20:20:36Z</time>
   </trkpt>
   <trkpt lat="47.3727290" lon="-122.0321530">
    <ele>160.5</ele>
    <time>2021-03-17T20:20:37Z</time>
   </trkpt>
   <trkpt lat="47.3727710" lon="-122.0321670">
    <ele>160.4</ele>
    <time>2021-03-17T20:20:38Z</time>
   </trkpt>
   <trkpt lat="47.3728080" lon="-122.0321880">
    <ele>160.4</ele>
    <time>2021-03-17T20:20:39Z</time>
   </trkpt>
   <trkpt lat="47.3728380" lon="-122.0321920">
    <ele>160.4</ele>
    <time>2021-03-17T20:20:40Z</time>
   </trkpt>
   <trkpt lat="47.3728720" lon="-122.0321980">
    <ele>160.4</ele>
    <time>2021-03-17T20:20:41Z</time>
   </trkpt>
   <trkpt lat="47.3729110" lon="-122.0322050">
    <ele>160.4</ele>
    <time>2021-03-17T20:20:42Z</time>
   </trkpt>
   <trkpt lat="47.3729490" lon="-122.0322070">
    <ele>160.4</ele>
    <time>2021-03-17T20:20:43Z</time>
   </trkpt>
   <trkpt lat="47.3729860" lon="-122.0322130">
    <ele>160.4</ele>
    <time>2021-03-17T20:20:44Z</time>
   </trkpt>
   <trkpt lat="47.3730270" lon="-122.0321990">
    <ele>160.4</ele>
    <time>2021-03-17T20:20:45Z</time>
   </trkpt>
   <trkpt lat="47.3730760" lon="-122.0321860">
    <ele>160.4</ele>
    <time>2021-03-17T20:20:46Z</time>
   </trkpt>
   <trkpt lat="47.3731100" lon="-122.0321850">
    <ele>160.4</ele>
    <time>2021-03-17T20:20:47Z</time>
   </trkpt>
   <trkpt lat="47.3731430" lon="-122.0321890">
    <ele>160.4</ele>
    <time>2021-03-17T20:20:48Z</time>
   </trkpt>
   <trkpt lat="47.3731820" lon="-122.0321970">
    <ele>160.4</ele>
    <time>2021-03-17T20:20:49Z</time>
   </trkpt>
   <trkpt lat="47.3732140" lon="-122.0321980">
    <ele>160.4</ele>
    <time>2021-03-17T20:20:50Z</time>
   </trkpt>
   <trkpt lat="47.3732520" lon="-122.0321970">
    <ele>160.4</ele>
    <time>2021-03-17T20:20:51Z</time>
   </trkpt>
   <trkpt lat="47.3732850" lon="-122.0322060">
    <ele>160.4</ele>
    <time>2021-03-17T20:20:52Z</time>
   </trkpt>
   <trkpt lat="47.3733270" lon="-122.0322110">
    <ele>160.4</ele>
    <time>2021-03-17T20:20:53Z</time>
   </trkpt>
   <trkpt lat="47.3733710" lon="-122.0322100">
    <ele>160.3</ele>
    <time>2021-03-17T20:20:54Z</time>
   </trkpt>
   <trkpt lat="47.3734040" lon="-122.0322140">
    <ele>160.3</ele>
    <time>2021-03-17T20:20:55Z</time>
   </trkpt>
   <trkpt lat="47.3734460" lon="-122.0322240">
    <ele>160.2</ele>
    <time>2021-03-17T20:20:56Z</time>
   </trkpt>
   <trkpt lat="47.3734790" lon="-122.0322230">
    <ele>160.2</ele>
    <time>2021-03-17T20:20:57Z</time>
   </trkpt>
   <trkpt lat="47.3735140" lon="-122.0322240">
    <ele>160.1</ele>
    <time>2021-03-17T20:20:58Z</time>
   </trkpt>
   <trkpt lat="47.3735660" lon="-122.0322520">
    <ele>160.1</ele>
    <time>2021-03-17T20:20:59Z</time>
   </trkpt>
   <trkpt lat="47.3736050" lon="-122.0322500">
    <ele>160.0</ele>
    <time>2021-03-17T20:21:00Z</time>
   </trkpt>
   <trkpt lat="47.3736480" lon="-122.0322560">
    <ele>160.0</ele>
    <time>2021-03-17T20:21:01Z</time>
   </trkpt>
   <trkpt lat="47.3736830" lon="-122.0322670">
    <ele>159.9</ele>
    <time>2021-03-17T20:21:02Z</time>
   </trkpt>
   <trkpt lat="47.3737210" lon="-122.0322750">
    <ele>159.8</ele>
    <time>2021-03-17T20:21:03Z</time>
   </trkpt>
   <trkpt lat="47.3737620" lon="-122.0322810">
    <ele>159.8</ele>
    <time>2021-03-17T20:21:04Z</time>
   </trkpt>
   <trkpt lat="47.3737930" lon="-122.0322800">
    <ele>159.7</ele>
    <time>2021-03-17T20:21:05Z</time>
   </trkpt>
   <trkpt lat="47.3738410" lon="-122.0322590">
    <ele>159.6</ele>
    <time>2021-03-17T20:21:06Z</time>
   </trkpt>
   <trkpt lat="47.3738850" lon="-122.0322660">
    <ele>159.6</ele>
    <time>2021-03-17T20:21:07Z</time>
   </trkpt>
   <trkpt lat="47.3739180" lon="-122.0322740">
    <ele>159.5</ele>
    <time>2021-03-17T20:21:08Z</time>
   </trkpt>
   <trkpt lat="47.3739560" lon="-122.0322870">
    <ele>159.4</ele>
    <time>2021-03-17T20:21:09Z</time>
   </trkpt>
   <trkpt lat="47.3739920" lon="-122.0322770">
    <ele>159.4</ele>
    <time>2021-03-17T20:21:10Z</time>
   </trkpt>
   <trkpt lat="47.3740350" lon="-122.0322730">
    <ele>159.3</ele>
    <time>2021-03-17T20:21:11Z</time>
   </trkpt>
   <trkpt lat="47.3740550" lon="-122.0322720">
    <ele>159.3</ele>
    <time>2021-03-17T20:21:12Z</time>
   </trkpt>
   <trkpt lat="47.3740990" lon="-122.0322710">
    <ele>159.3</ele>
    <time>2021-03-17T20:21:13Z</time>
   </trkpt>
   <trkpt lat="47.3741400" lon="-122.0322720">
    <ele>159.2</ele>
    <time>2021-03-17T20:21:14Z</time>
   </trkpt>
   <trkpt lat="47.3741750" lon="-122.0322740">
    <ele>159.2</ele>
    <time>2021-03-17T20:21:15Z</time>
   </trkpt>
   <trkpt lat="47.3742150" lon="-122.0322670">
    <ele>159.1</ele>
    <time>2021-03-17T20:21:16Z</time>
   </trkpt>
   <trkpt lat="47.3742510" lon="-122.0322670">
    <ele>159.1</ele>
    <time>2021-03-17T20:21:17Z</time>
   </trkpt>
   <trkpt lat="47.3742790" lon="-122.0322550">
    <ele>159.0</ele>
    <time>2021-03-17T20:21:18Z</time>
   </trkpt>
   <trkpt lat="47.3743200" lon="-122.0322670">
    <ele>159.0</ele>
    <time>2021-03-17T20:21:19Z</time>
   </trkpt>
   <trkpt lat="47.3743530" lon="-122.0322670">
    <ele>158.9</ele>
    <time>2021-03-17T20:21:20Z</time>
   </trkpt>
   <trkpt lat="47.3743910" lon="-122.0322810">
    <ele>158.9</ele>
    <time>2021-03-17T20:21:21Z</time>
   </trkpt>
   <trkpt lat="47.3744280" lon="-122.0322790">
    <ele>158.8</ele>
    <time>2021-03-17T20:21:22Z</time>
   </trkpt>
   <trkpt lat="47.3744640" lon="-122.0322680">
    <ele>158.8</ele>
    <time>2021-03-17T20:21:23Z</time>
   </trkpt>
   <trkpt lat="47.3745010" lon="-122.0322770">
    <ele>158.7</ele>
    <time>2021-03-17T20:21:24Z</time>
   </trkpt>
   <trkpt lat="47.3745370" lon="-122.0322690">
    <ele>158.7</ele>
    <time>2021-03-17T20:21:25Z</time>
   </trkpt>
   <trkpt lat="47.3745780" lon="-122.0322680">
    <ele>158.6</ele>
    <time>2021-03-17T20:21:26Z</time>
   </trkpt>
   <trkpt lat="47.3746140" lon="-122.0322870">
    <ele>158.6</ele>
    <time>2021-03-17T20:21:27Z</time>
   </trkpt>
   <trkpt lat="47.3746470" lon="-122.0322850">
    <ele>158.5</ele>
    <time>2021-03-17T20:21:28Z</time>
   </trkpt>
   <trkpt lat="47.3746880" lon="-122.0322950">
    <ele>158.5</ele>
    <time>2021-03-17T20:21:29Z</time>
   </trkpt>
   <trkpt lat="47.3747210" lon="-122.0322830">
    <ele>158.4</ele>
    <time>2021-03-17T20:21:30Z</time>
   </trkpt>
   <trkpt lat="47.3747600" lon="-122.0322830">
    <ele>158.4</ele>
    <time>2021-03-17T20:21:31Z</time>
   </trkpt>
   <trkpt lat="47.3747990" lon="-122.0322890">
    <ele>158.3</ele>
    <time>2021-03-17T20:21:32Z</time>
   </trkpt>
   <trkpt lat="47.3748460" lon="-122.0322970">
    <ele>158.3</ele>
    <time>2021-03-17T20:21:33Z</time>
   </trkpt>
   <trkpt lat="47.3748660" lon="-122.0323010">
    <ele>158.3</ele>
    <time>2021-03-17T20:21:34Z</time>
   </trkpt>
   <trkpt lat="47.3749030" lon="-122.0322850">
    <ele>158.2</ele>
    <time>2021-03-17T20:21:35Z</time>
   </trkpt>
   <trkpt lat="47.3749360" lon="-122.0322820">
    <ele>158.2</ele>
    <time>2021-03-17T20:21:36Z</time>
   </trkpt>
   <trkpt lat="47.3749670" lon="-122.0322840">
    <ele>158.1</ele>
    <time>2021-03-17T20:21:37Z</time>
   </trkpt>
   <trkpt lat="47.3749980" lon="-122.0322850">
    <ele>158.1</ele>
    <time>2021-03-17T20:21:38Z</time>
   </trkpt>
   <trkpt lat="47.3750380" lon="-122.0322960">
    <ele>158.0</ele>
    <time>2021-03-17T20:21:39Z</time>
   </trkpt>
   <trkpt lat="47.3750770" lon="-122.0322830">
    <ele>158.0</ele>
    <time>2021-03-17T20:21:40Z</time>
   </trkpt>
   <trkpt lat="47.3751210" lon="-122.0322910">
    <ele>157.9</ele>
    <time>2021-03-17T20:21:41Z</time>
   </trkpt>
   <trkpt lat="47.3751620" lon="-122.0322870">
    <ele>157.8</ele>
    <time>2021-03-17T20:21:42Z</time>
   </trkpt>
   <trkpt lat="47.3752050" lon="-122.0323000">
    <ele>157.8</ele>
    <time>2021-03-17T20:21:43Z</time>
   </trkpt>
   <trkpt lat="47.3752270" lon="-122.0323060">
    <ele>157.8</ele>
    <time>2021-03-17T20:21:44Z</time>
   </trkpt>
   <trkpt lat="47.3752570" lon="-122.0323280">
    <ele>157.7</ele>
    <time>2021-03-17T20:21:45Z</time>
   </trkpt>
   <trkpt lat="47.3752940" lon="-122.0323370">
    <ele>157.7</ele>
    <time>2021-03-17T20:21:46Z</time>
   </trkpt>
   <trkpt lat="47.3753360" lon="-122.0323450">
    <ele>157.7</ele>
    <time>2021-03-17T20:21:47Z</time>
   </trkpt>
   <trkpt lat="47.3753710" lon="-122.0323410">
    <ele>157.6</ele>
    <time>2021-03-17T20:21:48Z</time>
   </trkpt>
   <trkpt lat="47.3754120" lon="-122.0323590">
    <ele>157.6</ele>
    <time>2021-03-17T20:21:49Z</time>
   </trkpt>
   <trkpt lat="47.3754420" lon="-122.0323720">
    <ele>157.5</ele>
    <time>2021-03-17T20:21:50Z</time>
   </trkpt>
   <trkpt lat="47.3754720" lon="-122.0323880">
    <ele>157.5</ele>
    <time>2021-03-17T20:21:51Z</time>
   </trkpt>
   <trkpt lat="47.3755050" lon="-122.0324120">
    <ele>157.4</ele>
    <time>2021-03-17T20:21:52Z</time>
   </trkpt>
   <trkpt lat="47.3755380" lon="-122.0324290">
    <ele>157.4</ele>
    <time>2021-03-17T20:21:53Z</time>
   </trkpt>
   <trkpt lat="47.3755880" lon="-122.0324390">
    <ele>157.3</ele>
    <time>2021-03-17T20:21:54Z</time>
   </trkpt>
   <trkpt lat="47.3756200" lon="-122.0324610">
    <ele>157.3</ele>
    <time>2021-03-17T20:21:55Z</time>
   </trkpt>
   <trkpt lat="47.3756520" lon="-122.0324690">
    <ele>157.3</ele>
    <time>2021-03-17T20:21:56Z</time>
   </trkpt>
   <trkpt lat="47.3756900" lon="-122.0324830">
    <ele>157.2</ele>
    <time>2021-03-17T20:21:57Z</time>
   </trkpt>
   <trkpt lat="47.3757190" lon="-122.0325120">
    <ele>157.2</ele>
    <time>2021-03-17T20:21:58Z</time>
   </trkpt>
   <trkpt lat="47.3757650" lon="-122.0325220">
    <ele>157.2</ele>
    <time>2021-03-17T20:21:59Z</time>
   </trkpt>
   <trkpt lat="47.3757920" lon="-122.0325370">
    <ele>157.2</ele>
    <time>2021-03-17T20:22:00Z</time>
   </trkpt>
   <trkpt lat="47.3758320" lon="-122.0325500">
    <ele>157.2</ele>
    <time>2021-03-17T20:22:01Z</time>
   </trkpt>
   <trkpt lat="47.3758580" lon="-122.0325770">
    <ele>157.2</ele>
    <time>2021-03-17T20:22:02Z</time>
   </trkpt>
   <trkpt lat="47.3758910" lon="-122.0325920">
    <ele>157.1</ele>
    <time>2021-03-17T20:22:03Z</time>
   </trkpt>
   <trkpt lat="47.3759310" lon="-122.0326190">
    <ele>157.1</ele>
    <time>2021-03-17T20:22:04Z</time>
   </trkpt>
   <trkpt lat="47.3759620" lon="-122.0326330">
    <ele>157.1</ele>
    <time>2021-03-17T20:22:05Z</time>
   </trkpt>
   <trkpt lat="47.3759960" lon="-122.0326480">
    <ele>157.1</ele>
    <time>2021-03-17T20:22:06Z</time>
   </trkpt>
   <trkpt lat="47.3760250" lon="-122.0326760">
    <ele>157.1</ele>
    <time>2021-03-17T20:22:07Z</time>
   </trkpt>
   <trkpt lat="47.3760480" lon="-122.0326970">
    <ele>157.1</ele>
    <time>2021-03-17T20:22:08Z</time>
   </trkpt>
   <trkpt lat="47.3760800" lon="-122.0327270">
    <ele>157.1</ele>
    <time>2021-03-17T20:22:09Z</time>
   </trkpt>
   <trkpt lat="47.3761110" lon="-122.0327340">
    <ele>157.1</ele>
    <time>2021-03-17T20:22:10Z</time>
   </trkpt>
   <trkpt lat="47.3761520" lon="-122.0327590">
    <ele>157.0</ele>
    <time>2021-03-17T20:22:11Z</time>
   </trkpt>
   <trkpt lat="47.3761850" lon="-122.0327810">
    <ele>157.0</ele>
    <time>2021-03-17T20:22:12Z</time>
   </trkpt>
   <trkpt lat="47.3762170" lon="-122.0328030">
    <ele>157.0</ele>
    <time>2021-03-17T20:22:13Z</time>
   </trkpt>
   <trkpt lat="47.3762500" lon="-122.0328410">
    <ele>157.0</ele>
    <time>2021-03-17T20:22:14Z</time>
   </trkpt>
   <trkpt lat="47.3762820" lon="-122.0328670">
    <ele>156.9</ele>
    <time>2021-03-17T20:22:15Z</time>
   </trkpt>
   <trkpt lat="47.3763100" lon="-122.0329160">
    <ele>156.9</ele>
    <time>2021-03-17T20:22:16Z</time>
   </trkpt>
   <trkpt lat="47.3763290" lon="-122.0329460">
    <ele>156.9</ele>
    <time>2021-03-17T20:22:17Z</time>
   </trkpt>
   <trkpt lat="47.3763630" lon="-122.0329740">
    <ele>156.8</ele>
    <time>2021-03-17T20:22:18Z</time>
   </trkpt>
   <trkpt lat="47.3763990" lon="-122.0329980">
    <ele>156.8</ele>
    <time>2021-03-17T20:22:19Z</time>
   </trkpt>
   <trkpt lat="47.3764270" lon="-122.0330150">
    <ele>156.8</ele>
    <time>2021-03-17T20:22:20Z</time>
   </trkpt>
   <trkpt lat="47.3764460" lon="-122.0330610">
    <ele>156.7</ele>
    <time>2021-03-17T20:22:21Z</time>
   </trkpt>
   <trkpt lat="47.3764750" lon="-122.0331050">
    <ele>156.6</ele>
    <time>2021-03-17T20:22:22Z</time>
   </trkpt>
   <trkpt lat="47.3765080" lon="-122.0331370">
    <ele>156.6</ele>
    <time>2021-03-17T20:22:23Z</time>
   </trkpt>
   <trkpt lat="47.3765360" lon="-122.0331770">
    <ele>156.5</ele>
    <time>2021-03-17T20:22:24Z</time>
   </trkpt>
   <trkpt lat="47.3765650" lon="-122.0331930">
    <ele>156.5</ele>
    <time>2021-03-17T20:22:25Z</time>
   </trkpt>
   <trkpt lat="47.3765970" lon="-122.0332190">
    <ele>156.4</ele>
    <time>2021-03-17T20:22:26Z</time>
   </trkpt>
   <trkpt lat="47.3766320" lon="-122.0332750">
    <ele>156.3</ele>
    <time>2021-03-17T20:22:27Z</time>
   </trkpt>
   <trkpt lat="47.3766570" lon="-122.0333260">
    <ele>156.3</ele>
    <time>2021-03-17T20:22:28Z</time>
   </trkpt>
   <trkpt lat="47.3766830" lon="-122.0333750">
    <ele>156.2</ele>
    <time>2021-03-17T20:22:29Z</time>
   </trkpt>
   <trkpt lat="47.3767130" lon="-122.0334050">
    <ele>156.2</ele>
    <time>2021-03-17T20:22:30Z</time>
   </trkpt>
   <trkpt lat="47.3767430" lon="-122.0334440">
    <ele>156.1</ele>
    <time>2021-03-17T20:22:31Z</time>
   </trkpt>
   <trkpt lat="47.3767780" lon="-122.0334770">
    <ele>156.1</ele>
    <time>2021-03-17T20:22:32Z</time>
   </trkpt>
   <trkpt lat="47.3768110" lon="-122.0335060">
    <ele>156.0</ele>
    <time>2021-03-17T20:22:33Z</time>
   </trkpt>
   <trkpt lat="47.3768490" lon="-122.0335680">
    <ele>155.9</ele>
    <time>2021-03-17T20:22:34Z</time>
   </trkpt>
   <trkpt lat="47.3768820" lon="-122.0335970">
    <ele>155.9</ele>
    <time>2021-03-17T20:22:35Z</time>
   </trkpt>
   <trkpt lat="47.3768970" lon="-122.0336560">
    <ele>155.9</ele>
    <time>2021-03-17T20:22:36Z</time>
   </trkpt>
   <trkpt lat="47.3769340" lon="-122.0336680">
    <ele>155.8</ele>
    <time>2021-03-17T20:22:37Z</time>
   </trkpt>
   <trkpt lat="47.3769670" lon="-122.0337020">
    <ele>155.8</ele>
    <time>2021-03-17T20:22:38Z</time>
   </trkpt>
   <trkpt lat="47.3769930" lon="-122.0337380">
    <ele>155.8</ele>
    <time>2021-03-17T20:22:39Z</time>
   </trkpt>
   <trkpt lat="47.3770260" lon="-122.0337650">
    <ele>155.7</ele>
    <time>2021-03-17T20:22:40Z</time>
   </trkpt>
   <trkpt lat="47.3770480" lon="-122.0338040">
    <ele>155.7</ele>
    <time>2021-03-17T20:22:41Z</time>
   </trkpt>
   <trkpt lat="47.3770730" lon="-122.0338300">
    <ele>155.6</ele>
    <time>2021-03-17T20:22:42Z</time>
   </trkpt>
   <trkpt lat="47.3770920" lon="-122.0338710">
    <ele>155.6</ele>
    <time>2021-03-17T20:22:43Z</time>
   </trkpt>
   <trkpt lat="47.3771140" lon="-122.0339070">
    <ele>155.6</ele>
    <time>2021-03-17T20:22:44Z</time>
   </trkpt>
   <trkpt lat="47.3771390" lon="-122.0339360">
    <ele>155.5</ele>
    <time>2021-03-17T20:22:45Z</time>
   </trkpt>
   <trkpt lat="47.3771580" lon="-122.0339740">
    <ele>155.5</ele>
    <time>2021-03-17T20:22:46Z</time>
   </trkpt>
   <trkpt lat="47.3771870" lon="-122.0340050">
    <ele>155.5</ele>
    <time>2021-03-17T20:22:47Z</time>
   </trkpt>
   <trkpt lat="47.3772190" lon="-122.0340530">
    <ele>155.4</ele>
    <time>2021-03-17T20:22:48Z</time>
   </trkpt>
   <trkpt lat="47.3772460" lon="-122.0340910">
    <ele>155.4</ele>
    <time>2021-03-17T20:22:49Z</time>
   </trkpt>
   <trkpt lat="47.3772710" lon="-122.0341320">
    <ele>155.3</ele>
    <time>2021-03-17T20:22:50Z</time>
   </trkpt>
   <trkpt lat="47.3773000" lon="-122.0341820">
    <ele>155.3</ele>
    <time>2021-03-17T20:22:51Z</time>
   </trkpt>
   <trkpt lat="47.3773340" lon="-122.0342130">
    <ele>155.2</ele>
    <time>2021-03-17T20:22:52Z</time>
   </trkpt>
   <trkpt lat="47.3773630" lon="-122.0342550">
    <ele>155.2</ele>
    <time>2021-03-17T20:22:53Z</time>
   </trkpt>
   <trkpt lat="47.3773910" lon="-122.0342950">
    <ele>155.1</ele>
    <time>2021-03-17T20:22:54Z</time>
   </trkpt>
   <trkpt lat="47.3774170" lon="-122.0343300">
    <ele>155.1</ele>
    <time>2021-03-17T20:22:55Z</time>
   </trkpt>
   <trkpt lat="47.3774350" lon="-122.0343730">
    <ele>155.0</ele>
    <time>2021-03-17T20:22:56Z</time>
   </trkpt>
   <trkpt lat="47.3774660" lon="-122.0344000">
    <ele>155.0</ele>
    <time>2021-03-17T20:22:57Z</time>
   </trkpt>
   <trkpt lat="47.3774990" lon="-122.0344390">
    <ele>154.9</ele>
    <time>2021-03-17T20:22:58Z</time>
   </trkpt>
   <trkpt lat="47.3775310" lon="-122.0344600">
    <ele>154.9</ele>
    <time>2021-03-17T20:22:59Z</time>
   </trkpt>
   <trkpt lat="47.3775650" lon="-122.0344880">
    <ele>154.8</ele>
    <time>2021-03-17T20:23:00Z</time>
   </trkpt>
   <trkpt lat="47.3775930" lon="-122.0345420">
    <ele>154.7</ele>
    <time>2021-03-17T20:23:01Z</time>
   </trkpt>
   <trkpt lat="47.3776260" lon="-122.0345700">
    <ele>154.7</ele>
    <time>2021-03-17T20:23:02Z</time>
   </trkpt>
   <trkpt lat="47.3776550" lon="-122.0346160">
    <ele>154.6</ele>
    <time>2021-03-17T20:23:03Z</time>
   </trkpt>
   <trkpt lat="47.3776980" lon="-122.0346260">
    <ele>154.5</ele>
    <time>2021-03-17T20:23:04Z</time>
   </trkpt>
   <trkpt lat="47.3777340" lon="-122.0346500">
    <ele>154.5</ele>
    <time>2021-03-17T20:23:05Z</time>
   </trkpt>
   <trkpt lat="47.3777670" lon="-122.0346770">
    <ele>154.4</ele>
    <time>2021-03-17T20:23:06Z</time>
   </trkpt>
   <trkpt lat="47.3778050" lon="-122.0346880">
    <ele>154.3</ele>
    <time>2021-03-17T20:23:07Z</time>
   </trkpt>
   <trkpt lat="47.3778260" lon="-122.0347350">
    <ele>154.3</ele>
    <time>2021-03-17T20:23:08Z</time>
   </trkpt>
   <trkpt lat="47.3778560" lon="-122.0347570">
    <ele>154.2</ele>
    <time>2021-03-17T20:23:09Z</time>
   </trkpt>
   <trkpt lat="47.3778890" lon="-122.0347890">
    <ele>154.1</ele>
    <time>2021-03-17T20:23:10Z</time>
   </trkpt>
   <trkpt lat="47.3779150" lon="-122.0348090">
    <ele>154.1</ele>
    <time>2021-03-17T20:23:11Z</time>
   </trkpt>
   <trkpt lat="47.3779510" lon="-122.0348370">
    <ele>154.0</ele>
    <time>2021-03-17T20:23:12Z</time>
   </trkpt>
   <trkpt lat="47.3779890" lon="-122.0348720">
    <ele>154.0</ele>
    <time>2021-03-17T20:23:13Z</time>
   </trkpt>
   <trkpt lat="47.3780060" lon="-122.0348840">
    <ele>153.9</ele>
    <time>2021-03-17T20:23:14Z</time>
   </trkpt>
   <trkpt lat="47.3780420" lon="-122.0349070">
    <ele>153.9</ele>
    <time>2021-03-17T20:23:15Z</time>
   </trkpt>
   <trkpt lat="47.3780730" lon="-122.0349460">
    <ele>153.9</ele>
    <time>2021-03-17T20:23:16Z</time>
   </trkpt>
   <trkpt lat="47.3781100" lon="-122.0349710">
    <ele>153.8</ele>
    <time>2021-03-17T20:23:17Z</time>
   </trkpt>
   <trkpt lat="47.3781370" lon="-122.0349880">
    <ele>153.8</ele>
    <time>2021-03-17T20:23:18Z</time>
   </trkpt>
   <trkpt lat="47.3781860" lon="-122.0350100">
    <ele>153.7</ele>
    <time>2021-03-17T20:23:19Z</time>
   </trkpt>
   <trkpt lat="47.3782300" lon="-122.0350540">
    <ele>153.7</ele>
    <time>2021-03-17T20:23:20Z</time>
   </trkpt>
   <trkpt lat="47.3782640" lon="-122.0350790">
    <ele>153.7</ele>
    <time>2021-03-17T20:23:21Z</time>
   </trkpt>
   <trkpt lat="47.3782980" lon="-122.0351100">
    <ele>153.6</ele>
    <time>2021-03-17T20:23:22Z</time>
   </trkpt>
   <trkpt lat="47.3783310" lon="-122.0351460">
    <ele>153.6</ele>
    <time>2021-03-17T20:23:23Z</time>
   </trkpt>
   <trkpt lat="47.3783720" lon="-122.0351730">
    <ele>153.6</ele>
    <time>2021-03-17T20:23:24Z</time>
   </trkpt>
   <trkpt lat="47.3783990" lon="-122.0351920">
    <ele>153.6</ele>
    <time>2021-03-17T20:23:25Z</time>
   </trkpt>
   <trkpt lat="47.3784170" lon="-122.0352540">
    <ele>153.5</ele>
    <time>2021-03-17T20:23:26Z</time>
   </trkpt>
   <trkpt lat="47.3784560" lon="-122.0352740">
    <ele>153.5</ele>
    <time>2021-03-17T20:23:27Z</time>
   </trkpt>
   <trkpt lat="47.3784880" lon="-122.0353070">
    <ele>153.4</ele>
    <time>2021-03-17T20:23:28Z</time>
   </trkpt>
   <trkpt lat="47.3785240" lon="-122.0353230">
    <ele>153.4</ele>
    <time>2021-03-17T20:23:29Z</time>
   </trkpt>
   <trkpt lat="47.3785480" lon="-122.0353610">
    <ele>153.4</ele>
    <time>2021-03-17T20:23:30Z</time>
   </trkpt>
   <trkpt lat="47.3785790" lon="-122.0354020">
    <ele>153.3</ele>
    <time>2021-03-17T20:23:31Z</time>
   </trkpt>
   <trkpt lat="47.3786200" lon="-122.0354370">
    <ele>153.3</ele>
    <time>2021-03-17T20:23:32Z</time>
   </trkpt>
   <trkpt lat="47.3786610" lon="-122.0354470">
    <ele>153.2</ele>
    <time>2021-03-17T20:23:33Z</time>
   </trkpt>
   <trkpt lat="47.3786960" lon="-122.0354650">
    <ele>153.2</ele>
    <time>2021-03-17T20:23:34Z</time>
   </trkpt>
   <trkpt lat="47.3787230" lon="-122.0355200">
    <ele>153.1</ele>
    <time>2021-03-17T20:23:35Z</time>
   </trkpt>
   <trkpt lat="47.3787510" lon="-122.0355420">
    <ele>153.1</ele>
    <time>2021-03-17T20:23:36Z</time>
   </trkpt>
   <trkpt lat="47.3787810" lon="-122.0355800">
    <ele>153.0</ele>
    <time>2021-03-17T20:23:37Z</time>
   </trkpt>
   <trkpt lat="47.3787990" lon="-122.0356140">
    <ele>153.0</ele>
    <time>2021-03-17T20:23:38Z</time>
   </trkpt>
   <trkpt lat="47.3788390" lon="-122.0356620">
    <ele>152.9</ele>
    <time>2021-03-17T20:23:39Z</time>
   </trkpt>
   <trkpt lat="47.3788810" lon="-122.0356890">
    <ele>152.8</ele>
    <time>2021-03-17T20:23:40Z</time>
   </trkpt>
   <trkpt lat="47.3789070" lon="-122.0357160">
    <ele>152.8</ele>
    <time>2021-03-17T20:23:41Z</time>
   </trkpt>
   <trkpt lat="47.3789330" lon="-122.0357470">
    <ele>152.7</ele>
    <time>2021-03-17T20:23:42Z</time>
   </trkpt>
   <trkpt lat="47.3789620" lon="-122.0357890">
    <ele>152.7</ele>
    <time>2021-03-17T20:23:43Z</time>
   </trkpt>
   <trkpt lat="47.3790000" lon="-122.0358110">
    <ele>152.6</ele>
    <time>2021-03-17T20:23:44Z</time>
   </trkpt>
   <trkpt lat="47.3790350" lon="-122.0358470">
    <ele>152.5</ele>
    <time>2021-03-17T20:23:45Z</time>
   </trkpt>
   <trkpt lat="47.3790510" lon="-122.0358570">
    <ele>152.5</ele>
    <time>2021-03-17T20:23:46Z</time>
   </trkpt>
   <trkpt lat="47.3790810" lon="-122.0358930">
    <ele>152.4</ele>
    <time>2021-03-17T20:23:47Z</time>
   </trkpt>
   <trkpt lat="47.3791060" lon="-122.0359360">
    <ele>152.4</ele>
    <time>2021-03-17T20:23:48Z</time>
   </trkpt>
   <trkpt lat="47.3791430" lon="-122.0359730">
    <ele>152.3</ele>
    <time>2021-03-17T20:23:49Z</time>
   </trkpt>
   <trkpt lat="47.3791650" lon="-122.0360170">
    <ele>152.2</ele>
    <time>2021-03-17T20:23:50Z</time>
   </trkpt>
   <trkpt lat="47.3791920" lon="-122.0360550">
    <ele>152.2</ele>
    <time>2021-03-17T20:23:51Z</time>
   </trkpt>
   <trkpt lat="47.3792250" lon="-122.0360870">
    <ele>152.1</ele>
    <time>2021-03-17T20:23:52Z</time>
   </trkpt>
   <trkpt lat="47.3792500" lon="-122.0361250">
    <ele>152.1</ele>
    <time>2021-03-17T20:23:53Z</time>
   </trkpt>
   <trkpt lat="47.3792750" lon="-122.0361660">
    <ele>152.0</ele>
    <time>2021-03-17T20:23:54Z</time>
   </trkpt>
   <trkpt lat="47.3792990" lon="-122.0362120">
    <ele>151.9</ele>
    <time>2021-03-17T20:23:55Z</time>
   </trkpt>
   <trkpt lat="47.3793430" lon="-122.0362460">
    <ele>151.9</ele>
    <time>2021-03-17T20:23:56Z</time>
   </trkpt>
   <trkpt lat="47.3793720" lon="-122.0362800">
    <ele>151.8</ele>
    <time>2021-03-17T20:23:57Z</time>
   </trkpt>
   <trkpt lat="47.3794000" lon="-122.0363170">
    <ele>151.8</ele>
    <time>2021-03-17T20:23:58Z</time>
   </trkpt>
   <trkpt lat="47.3794290" lon="-122.0363410">
    <ele>151.7</ele>
    <time>2021-03-17T20:23:59Z</time>
   </trkpt>
   <trkpt lat="47.3794470" lon="-122.0363930">
    <ele>151.6</ele>
    <time>2021-03-17T20:24:00Z</time>
   </trkpt>
   <trkpt lat="47.3794740" lon="-122.0364260">
    <ele>151.6</ele>
    <time>2021-03-17T20:24:01Z</time>
   </trkpt>
   <trkpt lat="47.3794970" lon="-122.0364640">
    <ele>151.5</ele>
    <time>2021-03-17T20:24:02Z</time>
   </trkpt>
   <trkpt lat="47.3795220" lon="-122.0364950">
    <ele>151.5</ele>
    <time>2021-03-17T20:24:03Z</time>
   </trkpt>
   <trkpt lat="47.3795500" lon="-122.0365390">
    <ele>151.5</ele>
    <time>2021-03-17T20:24:04Z</time>
   </trkpt>
   <trkpt lat="47.3795680" lon="-122.0365760">
    <ele>151.4</ele>
    <time>2021-03-17T20:24:05Z</time>
   </trkpt>
   <trkpt lat="47.3796030" lon="-122.0366070">
    <ele>151.4</ele>
    <time>2021-03-17T20:24:06Z</time>
   </trkpt>
   <trkpt lat="47.3796290" lon="-122.0366350">
    <ele>151.3</ele>
    <time>2021-03-17T20:24:07Z</time>
   </trkpt>
   <trkpt lat="47.3796550" lon="-122.0366720">
    <ele>151.3</ele>
    <time>2021-03-17T20:24:08Z</time>
   </trkpt>
   <trkpt lat="47.3796900" lon="-122.0366950">
    <ele>151.3</ele>
    <time>2021-03-17T20:24:09Z</time>
   </trkpt>
   <trkpt lat="47.3797090" lon="-122.0367340">
    <ele>151.2</ele>
    <time>2021-03-17T20:24:10Z</time>
   </trkpt>
   <trkpt lat="47.3797410" lon="-122.0367710">
    <ele>151.2</ele>
    <time>2021-03-17T20:24:11Z</time>
   </trkpt>
   <trkpt lat="47.3797640" lon="-122.0368050">
    <ele>151.2</ele>
    <time>2021-03-17T20:24:12Z</time>
   </trkpt>
   <trkpt lat="47.3797880" lon="-122.0368360">
    <ele>151.1</ele>
    <time>2021-03-17T20:24:13Z</time>
   </trkpt>
   <trkpt lat="47.3798120" lon="-122.0368710">
    <ele>151.1</ele>
    <time>2021-03-17T20:24:14Z</time>
   </trkpt>
   <trkpt lat="47.3798360" lon="-122.0369070">
    <ele>151.1</ele>
    <time>2021-03-17T20:24:15Z</time>
   </trkpt>
   <trkpt lat="47.3798640" lon="-122.0369470">
    <ele>151.0</ele>
    <time>2021-03-17T20:24:16Z</time>
   </trkpt>
   <trkpt lat="47.3798980" lon="-122.0369830">
    <ele>151.0</ele>
    <time>2021-03-17T20:24:17Z</time>
   </trkpt>
   <trkpt lat="47.3799130" lon="-122.0370440">
    <ele>150.9</ele>
    <time>2021-03-17T20:24:18Z</time>
   </trkpt>
   <trkpt lat="47.3799350" lon="-122.0370880">
    <ele>150.8</ele>
    <time>2021-03-17T20:24:19Z</time>
   </trkpt>
   <trkpt lat="47.3799550" lon="-122.0371410">
    <ele>150.8</ele>
    <time>2021-03-17T20:24:20Z</time>
   </trkpt>
   <trkpt lat="47.3799840" lon="-122.0371880">
    <ele>150.7</ele>
    <time>2021-03-17T20:24:21Z</time>
   </trkpt>
   <trkpt lat="47.3800020" lon="-122.0372390">
    <ele>150.7</ele>
    <time>2021-03-17T20:24:22Z</time>
   </trkpt>
   <trkpt lat="47.3800250" lon="-122.0372880">
    <ele>150.6</ele>
    <time>2021-03-17T20:24:23Z</time>
   </trkpt>
   <trkpt lat="47.3800510" lon="-122.0373280">
    <ele>150.5</ele>
    <time>2021-03-17T20:24:24Z</time>
   </trkpt>
   <trkpt lat="47.3800760" lon="-122.0373630">
    <ele>150.5</ele>
    <time>2021-03-17T20:24:25Z</time>
   </trkpt>
   <trkpt lat="47.3801040" lon="-122.0374200">
    <ele>150.4</ele>
    <time>2021-03-17T20:24:26Z</time>
   </trkpt>
   <trkpt lat="47.3801200" lon="-122.0374710">
    <ele>150.4</ele>
    <time>2021-03-17T20:24:27Z</time>
   </trkpt>
   <trkpt lat="47.3801440" lon="-122.0375280">
    <ele>150.3</ele>
    <time>2021-03-17T20:24:28Z</time>
   </trkpt>
   <trkpt lat="47.3801590" lon="-122.0375610">
    <ele>150.3</ele>
    <time>2021-03-17T20:24:29Z</time>
   </trkpt>
   <trkpt lat="47.3801810" lon="-122.0376130">
    <ele>150.2</ele>
    <time>2021-03-17T20:24:30Z</time>
   </trkpt>
   <trkpt lat="47.3802000" lon="-122.0376610">
    <ele>150.2</ele>
    <time>2021-03-17T20:24:31Z</time>
   </trkpt>
   <trkpt lat="47.3802220" lon="-122.0376890">
    <ele>150.1</ele>
    <time>2021-03-17T20:24:32Z</time>
   </trkpt>
   <trkpt lat="47.3802440" lon="-122.0377400">
    <ele>150.1</ele>
    <time>2021-03-17T20:24:33Z</time>
   </trkpt>
   <trkpt lat="47.3802730" lon="-122.0377760">
    <ele>150.0</ele>
    <time>2021-03-17T20:24:34Z</time>
   </trkpt>
   <trkpt lat="47.3802890" lon="-122.0378270">
    <ele>149.9</ele>
    <time>2021-03-17T20:24:35Z</time>
   </trkpt>
   <trkpt lat="47.3803160" lon="-122.0378690">
    <ele>149.9</ele>
    <time>2021-03-17T20:24:36Z</time>
   </trkpt>
   <trkpt lat="47.3803370" lon="-122.0379100">
    <ele>149.8</ele>
    <time>2021-03-17T20:24:37Z</time>
   </trkpt>
   <trkpt lat="47.3803540" lon="-122.0379530">
    <ele>149.8</ele>
    <time>2021-03-17T20:24:38Z</time>
   </trkpt>
   <trkpt lat="47.3803640" lon="-122.0379810">
    <ele>149.7</ele>
    <time>2021-03-17T20:24:39Z</time>
   </trkpt>
  </trkseg>
 </trk>
</gpx>
