<?xml version="1.0" encoding="UTF-8"?>
<gpx creator="StravaGPX" version="1.1" xmlns="http://www.topografix.com/GPX/1/1" xmlns:xsi="http://www.w3.org/2001/XMLSchema-instance" xsi:schemaLocation="http://www.topografix.com/GPX/1/1 http://www.topografix.com/GPX/1/1/gpx.xsd">
 <metadata>
  <time>2021-04-03T23:06:08Z</time>
 </metadata>
 <trk>
  <name>Cool down</name>
  <type>walking</type>
  <trkseg>
   <trkpt lat="47.4051740" lon="-122.0386200">
    <ele>102.7</ele>
    <time>2021-04-03T23:06:08Z</time>
   </trkpt>
   <trkpt lat="47.4051810" lon="-122.0386150">
    <ele>102.7</ele>
    <time>2021-04-03T23:06:09Z</time>
   </trkpt>
   <trkpt lat="47.4051930" lon="-122.0386040">
    <ele>102.7</ele>
    <time>2021-04-03T23:06:10Z</time>
   </trkpt>
   <trkpt lat="47.4051980" lon="-122.0385940">
    <ele>102.7</ele>
    <time>2021-04-03T23:06:11Z</time>
   </trkpt>
   <trkpt lat="47.4052000" lon="-122.0385860">
    <ele>102.7</ele>
    <time>2021-04-03T23:06:12Z</time>
   </trkpt>
   <trkpt lat="47.4052070" lon="-122.0385740">
    <ele>102.7</ele>
    <time>2021-04-03T23:06:13Z</time>
   </trkpt>
   <trkpt lat="47.4052170" lon="-122.0385680">
    <ele>102.7</ele>
    <time>2021-04-03T23:06:14Z</time>
   </trkpt>
   <trkpt lat="47.4052220" lon="-122.0385640">
    <ele>102.7</ele>
    <time>2021-04-03T23:06:15Z</time>
   </trkpt>
   <trkpt lat="47.4052300" lon="-122.0385580">
    <ele>102.7</ele>
    <time>2021-04-03T23:06:16Z</time>
   </trkpt>
   <trkpt lat="47.4052380" lon="-122.0385400">
    <ele>102.7</ele>
    <time>2021-04-03T23:06:17Z</time>
   </trkpt>
   <trkpt lat="47.4052460" lon="-122.0385290">
    <ele>102.7</ele>
    <time>2021-04-03T23:06:18Z</time>
   </trkpt>
   <trkpt lat="47.4052540" lon="-122.0385170">
    <ele>102.7</ele>
    <time>2021-04-03T23:06:19Z</time>
   </trkpt>
   <trkpt lat="47.4052620" lon="-122.0385050">
    <ele>102.7</ele>
    <time>2021-04-03T23:06:20Z</time>
   </trkpt>
   <trkpt lat="47.4052720" lon="-122.0384960">
    <ele>102.7</ele>
    <time>2021-04-03T23:06:21Z</time>
   </trkpt>
   <trkpt lat="47.4052780" lon="-122.0384800">
    <ele>102.7</ele>
    <time>2021-04-03T23:06:22Z</time>
   </trkpt>
   <trkpt lat="47.4052840" lon="-122.0384670">
    <ele>102.7</ele>
    <time>2021-04-03T23:06:23Z</time>
   </trkpt>
   <trkpt lat="47.4052920" lon="-122.0384550">
    <ele>102.7</ele>
    <time>2021-04-03T23:06:24Z</time>
   </trkpt>
   <trkpt lat="47.4052950" lon="-122.0384420">
    <ele>102.7</ele>
    <time>2021-04-03T23:06:25Z</time>
   </trkpt>
   <trkpt lat="47.4052960" lon="-122.0384380">
    <ele>102.7</ele>
    <time>2021-04-03T23:06:26Z</time>
   </trkpt>
   <trkpt lat="47.4052930" lon="-122.0384330">
    <ele>102.7</ele>
    <time>2021-04-03T23:06:27Z</time>
   </trkpt>
   <trkpt lat="47.4053060" lon="-122.0384290">
    <ele>102.7</ele>
    <time>2021-04-03T23:06:28Z</time>
   </trkpt>
   <trkpt lat="47.4053200" lon="-122.0384230">
    <ele>102.7</ele>
    <time>2021-04-03T23:06:29Z</time>
   </trkpt>
   <trkpt lat="47.4053280" lon="-122.0384120">
    <ele>102.7</ele>
    <time>2021-04-03T23:06:30Z</time>
   </trkpt>
   <trkpt lat="47.4053350" lon="-122.0384020">
    <ele>102.7</ele>
    <time>2021-04-03T23:06:31Z</time>
   </trkpt>
   <trkpt lat="47.4053430" lon="-122.0383930">
    <ele>102.7</ele>
    <time>2021-04-03T23:06:32Z</time>
   </trkpt>
   <trkpt lat="47.4053610" lon="-122.0383770">
    <ele>102.7</ele>
    <time>2021-04-03T23:06:33Z</time>
   </trkpt>
   <trkpt lat="47.4053680" lon="-122.0383690">
    <ele>102.7</ele>
    <time>2021-04-03T23:06:34Z</time>
   </trkpt>
   <trkpt lat="47.4053750" lon="-122.0383610">
    <ele>102.7</ele>
    <time>2021-04-03T23:06:35Z</time>
   </trkpt>
   <trkpt lat="47.4053900" lon="-122.0383550">
    <ele>102.7</ele>
    <time>2021-04-03T23:06:36Z</time>
   </trkpt>
   <trkpt lat="47.4054010" lon="-122.0383470">
    <ele>102.6</ele>
    <time>2021-04-03T23:06:37Z</time>
   </trkpt>
   <trkpt lat="47.4054080" lon="-122.0383400">
    <ele>102.6</ele>
    <time>2021-04-03T23:06:38Z</time>
   </trkpt>
   <trkpt lat="47.4054130" lon="-122.0383400">
    <ele>102.6</ele>
    <time>2021-04-03T23:06:39Z</time>
   </trkpt>
   <trkpt lat="47.4054220" lon="-122.0383320">
    <ele>102.6</ele>
    <time>2021-04-03T23:06:40Z</time>
   </trkpt>
   <trkpt lat="47.4054280" lon="-122.0383310">
    <ele>102.6</ele>
    <time>2021-04-03T23:06:41Z</time>
   </trkpt>
   <trkpt lat="47.4054320" lon="-122.0383230">
    <ele>102.6</ele>
    <time>2021-04-03T23:06:42Z</time>
   </trkpt>
   <trkpt lat="47.4054490" lon="-122.0383210">
    <ele>102.6</ele>
    <time>2021-04-03T23:06:43Z</time>
   </trkpt>
   <trkpt lat="47.4054600" lon="-122.0383220">
    <ele>102.6</ele>
    <time>2021-04-03T23:06:44Z</time>
   </trkpt>
   <trkpt lat="47.4054760" lon="-122.0383140">
    <ele>102.6</ele>
    <time>2021-04-03T23:06:45Z</time>
   </trkpt>
   <trkpt lat="47.4054870" lon="-122.0383090">
    <ele>102.6</ele>
    <time>2021-04-03T23:06:46Z</time>
   </trkpt>
   <trkpt lat="47.4054990" lon="-122.0383050">
    <ele>102.6</ele>
    <time>2021-04-03T23:06:47Z</time>
   </trkpt>
   <trkpt lat="47.4055130" lon="-122.0382970">
    <ele>102.6</ele>
    <time>2021-04-03T23:06:48Z</time>
   </trkpt>
   <trkpt lat="47.4055230" lon="-122.0382880">
    <ele>102.6</ele>
    <time>2021-04-03T23:06:49Z</time>
   </trkpt>
   <trkpt lat="47.4055330" lon="-122.0382800">
    <ele>102.6</ele>
    <time>2021-04-03T23:06:50Z</time>
   </trkpt>
   <trkpt lat="47.4055530" lon="-122.0382670">
    <ele>102.6</ele>
    <time>2021-04-03T23:06:51Z</time>
   </trkpt>
   <trkpt lat="47.4055620" lon="-122.0382580">
    <ele>102.5</ele>
    <time>2021-04-03T23:06:52Z</time>
   </trkpt>
   <trkpt lat="47.4055720" lon="-122.0382490">
    <ele>102.5</ele>
    <time>2021-04-03T23:06:53Z</time>
   </trkpt>
   <trkpt lat="47.4055830" lon="-122.0382370">
    <ele>102.5</ele>
    <time>2021-04-03T23:06:54Z</time>
   </trkpt>
   <trkpt lat="47.4055970" lon="-122.0382240">
    <ele>102.5</ele>
    <time>2021-04-03T23:06:55Z</time>
   </trkpt>
   <trkpt lat="47.4056220" lon="-122.0381970">
    <ele>102.5</ele>
    <time>2021-04-03T23:06:56Z</time>
   </trkpt>
   <trkpt lat="47.4056280" lon="-122.0381860">
    <ele>102.5</ele>
    <time>2021-04-03T23:06:57Z</time>
   </trkpt>
   <trkpt lat="47.4056390" lon="-122.0381680">
    <ele>102.5</ele>
    <time>2021-04-03T23:06:58Z</time>
   </trkpt>
   <trkpt lat="47.4056470" lon="-122.0381540">
    <ele>102.5</ele>
    <time>2021-04-03T23:06:59Z</time>
   </trkpt>
   <trkpt lat="47.4056600" lon="-122.0381380">
    <ele>102.5</ele>
    <time>2021-04-03T23:07:00Z</time>
   </trkpt>
   <trkpt lat="47.4056720" lon="-122.0381240">
    <ele>102.5</ele>
    <time>2021-04-03T23:07:01Z</time>
   </trkpt>
   <trkpt lat="47.4057010" lon="-122.0381070">
    <ele>102.4</ele>
    <time>2021-04-03T23:07:02Z</time>
   </trkpt>
   <trkpt lat="47.4057080" lon="-122.0381020">
    <ele>102.4</ele>
    <time>2021-04-03T23:07:03Z</time>
   </trkpt>
   <trkpt lat="47.4057240" lon="-122.0380930">
    <ele>102.4</ele>
    <time>2021-04-03T23:07:04Z</time>
   </trkpt>
   <trkpt lat="47.4057380" lon="-122.0380780">
    <ele>102.4</ele>
    <time>2021-04-03T23:07:05Z</time>
   </trkpt>
   <trkpt lat="47.4057550" lon="-122.0380530">
    <ele>102.4</ele>
    <time>2021-04-03T23:07:06Z</time>
   </trkpt>
   <trkpt lat="47.4057650" lon="-122.0380420">
    <ele>102.4</ele>
    <time>2021-04-03T23:07:07Z</time>
   </trkpt>
   <trkpt lat="47.4057760" lon="-122.0380310">
    <ele>102.4</ele>
    <time>2021-04-03T23:07:08Z</time>
   </trkpt>
   <trkpt lat="47.4057860" lon="-122.0380150">
    <ele>102.4</ele>
    <time>2021-04-03T23:07:09Z</time>
   </trkpt>
   <trkpt lat="47.4057980" lon="-122.0380070">
    <ele>102.4</ele>
    <time>2021-04-03T23:07:10Z</time>
   </trkpt>
   <trkpt lat="47.4058050" lon="-122.0379980">
    <ele>102.4</ele>
    <time>2021-04-03T23:07:11Z</time>
   </trkpt>
   <trkpt lat="47.4058220" lon="-122.0379840">
    <ele>102.4</ele>
    <time>2021-04-03T23:07:12Z</time>
   </trkpt>
   <trkpt lat="47.4058430" lon="-122.0379680">
    <ele>102.4</ele>
    <time>2021-04-03T23:07:13Z</time>
   </trkpt>
   <trkpt lat="47.4058510" lon="-122.0379650">
    <ele>102.4</ele>
    <time>2021-04-03T23:07:14Z</time>
   </trkpt>
   <trkpt lat="47.4058590" lon="-122.0379610">
    <ele>102.4</ele>
    <time>2021-04-03T23:07:15Z</time>
   </trkpt>
   <trkpt lat="47.4058790" lon="-122.0379620">
    <ele>102.4</ele>
    <time>2021-04-03T23:07:16Z</time>
   </trkpt>
   <trkpt lat="47.4058910" lon="-122.0379570">
    <ele>102.4</ele>
    <time>2021-04-03T23:07:17Z</time>
   </trkpt>
   <trkpt lat="47.4059060" lon="-122.0379520">
    <ele>102.4</ele>
    <time>2021-04-03T23:07:18Z</time>
   </trkpt>
   <trkpt lat="47.4059190" lon="-122.0379460">
    <ele>102.3</ele>
    <time>2021-04-03T23:07:19Z</time>
   </trkpt>
   <trkpt lat="47.4059330" lon="-122.0379410">
    <ele>102.3</ele>
    <time>2021-04-03T23:07:20Z</time>
   </trkpt>
   <trkpt lat="47.4059470" lon="-122.0379370">
    <ele>102.3</ele>
    <time>2021-04-03T23:07:21Z</time>
   </trkpt>
   <trkpt lat="47.4059540" lon="-122.0379390">
    <ele>102.3</ele>
    <time>2021-04-03T23:07:22Z</time>
   </trkpt>
   <trkpt lat="47.4059650" lon="-122.0379430">
    <ele>102.3</ele>
    <time>2021-04-03T23:07:23Z</time>
   </trkpt>
   <trkpt lat="47.4059770" lon="-122.0379380">
    <ele>102.3</ele>
    <time>2021-04-03T23:07:24Z</time>
   </trkpt>
   <trkpt lat="47.4059860" lon="-122.0379310">
    <ele>102.3</ele>
    <time>2021-04-03T23:07:25Z</time>
   </trkpt>
   <trkpt lat="47.4060040" lon="-122.0379290">
    <ele>102.3</ele>
    <time>2021-04-03T23:07:26Z</time>
   </trkpt>
   <trkpt lat="47.4060250" lon="-122.0379210">
    <ele>102.3</ele>
    <time>2021-04-03T23:07:27Z</time>
   </trkpt>
   <trkpt lat="47.4060350" lon="-122.0379170">
    <ele>102.3</ele>
    <time>2021-04-03T23:07:28Z</time>
   </trkpt>
   <trkpt lat="47.4060450" lon="-122.0379130">
    <ele>102.3</ele>
    <time>2021-04-03T23:07:29Z</time>
   </trkpt>
   <trkpt lat="47.4060560" lon="-122.0379100">
    <ele>102.3</ele>
    <time>2021-04-03T23:07:30Z</time>
   </trkpt>
   <trkpt lat="47.4060730" lon="-122.0379190">
    <ele>102.3</ele>
    <time>2021-04-03T23:07:31Z</time>
   </trkpt>
   <trkpt lat="47.4060820" lon="-122.0379110">
    <ele>102.3</ele>
    <time>2021-04-03T23:07:32Z</time>
   </trkpt>
   <trkpt lat="47.4061020" lon="-122.0379070">
    <ele>102.2</ele>
    <time>2021-04-03T23:07:33Z</time>
   </trkpt>
   <trkpt lat="47.4061200" lon="-122.0379080">
    <ele>102.2</ele>
    <time>2021-04-03T23:07:34Z</time>
   </trkpt>
   <trkpt lat="47.4061290" lon="-122.0378940">
    <ele>102.2</ele>
    <time>2021-04-03T23:07:35Z</time>
   </trkpt>
   <trkpt lat="47.4061420" lon="-122.0378930">
    <ele>102.2</ele>
    <time>2021-04-03T23:07:36Z</time>
   </trkpt>
   <trkpt lat="47.4061470" lon="-122.0378860">
    <ele>102.2</ele>
    <time>2021-04-03T23:07:37Z</time>
   </trkpt>
   <trkpt lat="47.4061610" lon="-122.0378750">
    <ele>102.2</ele>
    <time>2021-04-03T23:07:38Z</time>
   </trkpt>
   <trkpt lat="47.4061740" lon="-122.0378650">
    <ele>102.2</ele>
    <time>2021-04-03T23:07:39Z</time>
   </trkpt>
   <trkpt lat="47.4061850" lon="-122.0378530">
    <ele>102.2</ele>
    <time>2021-04-03T23:07:40Z</time>
   </trkpt>
   <trkpt lat="47.4061950" lon="-122.0378410">
    <ele>102.2</ele>
    <time>2021-04-03T23:07:41Z</time>
   </trkpt>
   <trkpt lat="47.4062050" lon="-122.0378370">
    <ele>102.2</ele>
    <time>2021-04-03T23:07:42Z</time>
   </trkpt>
   <trkpt lat="47.4062120" lon="-122.0378250">
    <ele>102.1</ele>
    <time>2021-04-03T23:07:43Z</time>
   </trkpt>
   <trkpt lat="47.4062260" lon="-122.0378140">
    <ele>102.1</ele>
    <time>2021-04-03T23:07:44Z</time>
   </trkpt>
   <trkpt lat="47.4062370" lon="-122.0378080">
    <ele>102.1</ele>
    <time>2021-04-03T23:07:45Z</time>
   </trkpt>
   <trkpt lat="47.4062450" lon="-122.0377950">
    <ele>102.1</ele>
    <time>2021-04-03T23:07:46Z</time>
   </trkpt>
   <trkpt lat="47.4062600" lon="-122.0377910">
    <ele>102.1</ele>
    <time>2021-04-03T23:07:47Z</time>
   </trkpt>
   <trkpt lat="47.4062670" lon="-122.0377840">
    <ele>102.1</ele>
    <time>2021-04-03T23:07:48Z</time>
   </trkpt>
   <trkpt lat="47.4062770" lon="-122.0377790">
    <ele>102.1</ele>
    <time>2021-04-03T23:07:49Z</time>
   </trkpt>
   <trkpt lat="47.4062930" lon="-122.0377730">
    <ele>102.1</ele>
    <time>2021-04-03T23:07:50Z</time>
   </trkpt>
   <trkpt lat="47.4062990" lon="-122.0377710">
    <ele>102.1</ele>
    <time>2021-04-03T23:07:51Z</time>
   </trkpt>
   <trkpt lat="47.4063100" lon="-122.0377740">
    <ele>102.1</ele>
    <time>2021-04-03T23:07:52Z</time>
   </trkpt>
   <trkpt lat="47.4063170" lon="-122.0377670">
    <ele>102.1</ele>
    <time>2021-04-03T23:07:53Z</time>
   </trkpt>
   <trkpt lat="47.4063240" lon="-122.0377580">
    <ele>102.0</ele>
    <time>2021-04-03T23:07:54Z</time>
   </trkpt>
   <trkpt lat="47.4063380" lon="-122.0377510">
    <ele>102.0</ele>
    <time>2021-04-03T23:07:55Z</time>
   </trkpt>
   <trkpt lat="47.4063470" lon="-122.0377500">
    <ele>102.0</ele>
    <time>2021-04-03T23:07:56Z</time>
   </trkpt>
   <trkpt lat="47.4063560" lon="-122.0377370">
    <ele>102.0</ele>
    <time>2021-04-03T23:07:57Z</time>
   </trkpt>
   <trkpt lat="47.4063710" lon="-122.0377320">
    <ele>102.0</ele>
    <time>2021-04-03T23:07:58Z</time>
   </trkpt>
   <trkpt lat="47.4063840" lon="-122.0377290">
    <ele>102.0</ele>
    <time>2021-04-03T23:07:59Z</time>
   </trkpt>
   <trkpt lat="47.4064000" lon="-122.0377320">
    <ele>102.0</ele>
    <time>2021-04-03T23:08:00Z</time>
   </trkpt>
   <trkpt lat="47.4064100" lon="-122.0377230">
    <ele>102.0</ele>
    <time>2021-04-03T23:08:01Z</time>
   </trkpt>
   <trkpt lat="47.4064190" lon="-122.0377210">
    <ele>102.0</ele>
    <time>2021-04-03T23:08:02Z</time>
   </trkpt>
   <trkpt lat="47.4064330" lon="-122.0377150">
    <ele>102.0</ele>
    <time>2021-04-03T23:08:03Z</time>
   </trkpt>
   <trkpt lat="47.4064450" lon="-122.0377100">
    <ele>102.0</ele>
    <time>2021-04-03T23:08:04Z</time>
   </trkpt>
   <trkpt lat="47.4064530" lon="-122.0376950">
    <ele>102.0</ele>
    <time>2021-04-03T23:08:05Z</time>
   </trkpt>
   <trkpt lat="47.4064600" lon="-122.0376910">
    <ele>102.0</ele>
    <time>2021-04-03T23:08:06Z</time>
   </trkpt>
   <trkpt lat="47.4064750" lon="-122.0376800">
    <ele>101.9</ele>
    <time>2021-04-03T23:08:07Z</time>
   </trkpt>
   <trkpt lat="47.4064880" lon="-122.0376710">
    <ele>101.9</ele>
    <time>2021-04-03T23:08:08Z</time>
   </trkpt>
   <trkpt lat="47.4064960" lon="-122.0376670">
    <ele>101.9</ele>
    <time>2021-04-03T23:08:09Z</time>
   </trkpt>
   <trkpt lat="47.4065050" lon="-122.0376560">
    <ele>101.9</ele>
    <time>2021-04-03T23:08:10Z</time>
   </trkpt>
   <trkpt lat="47.4065140" lon="-122.0376450">
    <ele>101.9</ele>
    <time>2021-04-03T23:08:11Z</time>
   </trkpt>
   <trkpt lat="47.4065290" lon="-122.0376380">
    <ele>101.9</ele>
    <time>2021-04-03T23:08:12Z</time>
   </trkpt>
   <trkpt lat="47.4065480" lon="-122.0376530">
    <ele>101.9</ele>
    <time>2021-04-03T23:08:13Z</time>
   </trkpt>
   <trkpt lat="47.4065570" lon="-122.0376590">
    <ele>101.9</ele>
    <time>2021-04-03T23:08:14Z</time>
   </trkpt>
   <trkpt lat="47.4065650" lon="-122.0376650">
    <ele>101.9</ele>
    <time>2021-04-03T23:08:15Z</time>
   </trkpt>
   <trkpt lat="47.4065820" lon="-122.0376760">
    <ele>101.9</ele>
    <time>2021-04-03T23:08:16Z</time>
   </trkpt>
   <trkpt lat="47.4065910" lon="-122.0376780">
    <ele>101.9</ele>
    <time>2021-04-03T23:08:17Z</time>
   </trkpt>
   <trkpt lat="47.4066010" lon="-122.0376820">
    <ele>101.9</ele>
    <time>2021-04-03T23:08:18Z</time>
   </trkpt>
   <trkpt lat="47.4066080" lon="-122.0376810">
    <ele>101.9</ele>
    <time>2021-04-03T23:08:19Z</time>
   </trkpt>
   <trkpt lat="47.4066190" lon="-122.0376750">
    <ele>101.9</ele>
    <time>2021-04-03T23:08:20Z</time>
   </trkpt>
   <trkpt lat="47.4066410" lon="-122.0376640">
    <ele>101.9</ele>
    <time>2021-04-03T23:08:21Z</time>
   </trkpt>
   <trkpt lat="47.4066500" lon="-122.0376590">
    <ele>101.9</ele>
    <time>2021-04-03T23:08:22Z</time>
   </trkpt>
   <trkpt lat="47.4066590" lon="-122.0376530">
    <ele>101.9</ele>
    <time>2021-04-03T23:08:23Z</time>
   </trkpt>
   <trkpt lat="47.4066650" lon="-122.0376430">
    <ele>101.9</ele>
    <time>2021-04-03T23:08:24Z</time>
   </trkpt>
   <trkpt lat="47.4066700" lon="-122.0376370">
    <ele>101.9</ele>
    <time>2021-04-03T23:08:25Z</time>
   </trkpt>
   <trkpt lat="47.4066790" lon="-122.0376390">
    <ele>101.9</ele>
    <time>2021-04-03T23:08:26Z</time>
   </trkpt>
   <trkpt lat="47.4066900" lon="-122.0376320">
    <ele>101.8</ele>
    <time>2021-04-03T23:08:27Z</time>
   </trkpt>
   <trkpt lat="47.4067030" lon="-122.0376280">
    <ele>101.8</ele>
    <time>2021-04-03T23:08:28Z</time>
   </trkpt>
   <trkpt lat="47.4067190" lon="-122.0376160">
    <ele>101.8</ele>
    <time>2021-04-03T23:08:29Z</time>
   </trkpt>
   <trkpt lat="47.4067370" lon="-122.0376050">
    <ele>101.8</ele>
    <time>2021-04-03T23:08:30Z</time>
   </trkpt>
   <trkpt lat="47.4067440" lon="-122.0375990">
    <ele>101.8</ele>
    <time>2021-04-03T23:08:31Z</time>
   </trkpt>
   <trkpt lat="47.4067660" lon="-122.0375820">
    <ele>101.8</ele>
    <time>2021-04-03T23:08:32Z</time>
   </trkpt>
   <trkpt lat="47.4067720" lon="-122.0375750">
    <ele>101.8</ele>
    <time>2021-04-03T23:08:33Z</time>
   </trkpt>
   <trkpt lat="47.4067790" lon="-122.0375690">
    <ele>101.8</ele>
    <time>2021-04-03T23:08:34Z</time>
   </trkpt>
   <trkpt lat="47.4067880" lon="-122.0375580">
    <ele>101.8</ele>
    <time>2021-04-03T23:08:35Z</time>
   </trkpt>
   <trkpt lat="47.4067950" lon="-122.0375510">
    <ele>101.8</ele>
    <time>2021-04-03T23:08:36Z</time>
   </trkpt>
   <trkpt lat="47.4068010" lon="-122.0375430">
    <ele>101.8</ele>
    <time>2021-04-03T23:08:37Z</time>
   </trkpt>
   <trkpt lat="47.4068070" lon="-122.0375350">
    <ele>101.8</ele>
    <time>2021-04-03T23:08:38Z</time>
   </trkpt>
   <trkpt lat="47.4068180" lon="-122.0375190">
    <ele>101.8</ele>
    <time>2021-04-03T23:08:39Z</time>
   </trkpt>
   <trkpt lat="47.4068280" lon="-122.0375070">
    <ele>101.8</ele>
    <time>2021-04-03T23:08:40Z</time>
   </trkpt>
   <trkpt lat="47.4068440" lon="-122.0374880">
    <ele>101.8</ele>
    <time>2021-04-03T23:08:41Z</time>
   </trkpt>
   <trkpt lat="47.4068510" lon="-122.0374820">
    <ele>101.8</ele>
    <time>2021-04-03T23:08:42Z</time>
   </trkpt>
   <trkpt lat="47.4068570" lon="-122.0374750">
    <ele>101.8</ele>
    <time>2021-04-03T23:08:43Z</time>
   </trkpt>
   <trkpt lat="47.4068670" lon="-122.0374630">
    <ele>101.8</ele>
    <time>2021-04-03T23:08:44Z</time>
   </trkpt>
   <trkpt lat="47.4068780" lon="-122.0374490">
    <ele>101.8</ele>
    <time>2021-04-03T23:08:45Z</time>
   </trkpt>
   <trkpt lat="47.4068920" lon="-122.0374340">
    <ele>101.8</ele>
    <time>2021-04-03T23:08:47Z</time>
   </trkpt>
   <trkpt lat="47.4069030" lon="-122.0374210">
    <ele>101.8</ele>
    <time>2021-04-03T23:08:48Z</time>
   </trkpt>
   <trkpt lat="47.4071040" lon="-122.0373170">
    <ele>101.8</ele>
    <time>2021-04-03T23:09:02Z</time>
   </trkpt>
   <trkpt lat="47.4071600" lon="-122.0373650">
    <ele>101.8</ele>
    <time>2021-04-03T23:09:03Z</time>
   </trkpt>
   <trkpt lat="47.4072170" lon="-122.0374140">
    <ele>101.8</ele>
    <time>2021-04-03T23:09:04Z</time>
   </trkpt>
   <trkpt lat="47.4074110" lon="-122.0374410">
    <ele>101.4</ele>
    <time>2021-04-03T23:09:05Z</time>
   </trkpt>
   <trkpt lat="47.4074560" lon="-122.0373900">
    <ele>101.3</ele>
    <time>2021-04-03T23:09:06Z</time>
   </trkpt>
   <trkpt lat="47.4074160" lon="-122.0373880">
    <ele>101.2</ele>
    <time>2021-04-03T23:09:07Z</time>
   </trkpt>
   <trkpt lat="47.4073840" lon="-122.0373780">
    <ele>101.2</ele>
    <time>2021-04-03T23:09:08Z</time>
   </trkpt>
   <trkpt lat="47.4073980" lon="-122.0373910">
    <ele>101.2</ele>
    <time>2021-04-03T23:09:09Z</time>
   </trkpt>
   <trkpt lat="47.4073950" lon="-122.0374010">
    <ele>101.2</ele>
    <time>2021-04-03T23:09:10Z</time>
   </trkpt>
   <trkpt lat="47.4073930" lon="-122.0374120">
    <ele>101.2</ele>
    <time>2021-04-03T23:09:11Z</time>
   </trkpt>
   <trkpt lat="47.4073900" lon="-122.0374220">
    <ele>101.2</ele>
    <time>2021-04-03T23:09:12Z</time>
   </trkpt>
   <trkpt lat="47.4073870" lon="-122.0374320">
    <ele>101.1</ele>
    <time>2021-04-03T23:09:13Z</time>
   </trkpt>
   <trkpt lat="47.4073960" lon="-122.0374320">
    <ele>101.1</ele>
    <time>2021-04-03T23:09:14Z</time>
   </trkpt>
   <trkpt lat="47.4074070" lon="-122.0374410">
    <ele>101.1</ele>
    <time>2021-04-03T23:09:15Z</time>
   </trkpt>
   <trkpt lat="47.4074170" lon="-122.0374500">
    <ele>101.1</ele>
    <time>2021-04-03T23:09:16Z</time>
   </trkpt>
   <trkpt lat="47.4074280" lon="-122.0374590">
    <ele>101.1</ele>
    <time>2021-04-03T23:09:17Z</time>
   </trkpt>
   <trkpt lat="47.4074410" lon="-122.0374700">
    <ele>101.1</ele>
    <time>2021-04-03T23:09:18Z</time>
   </trkpt>
   <trkpt lat="47.4074540" lon="-122.0374740">
    <ele>101.1</ele>
    <time>2021-04-03T23:09:19Z</time>
   </trkpt>
   <trkpt lat="47.4074710" lon="-122.0374780">
    <ele>101.1</ele>
    <time>2021-04-03T23:09:20Z</time>
   </trkpt>
   <trkpt lat="47.4074830" lon="-122.0374810">
    <ele>101.1</ele>
    <time>2021-04-03T23:09:21Z</time>
   </trkpt>
   <trkpt lat="47.4074950" lon="-122.0374830">
    <ele>101.0</ele>
    <time>2021-04-03T23:09:22Z</time>
   </trkpt>
   <trkpt lat="47.4075080" lon="-122.0374810">
    <ele>101.0</ele>
    <time>2021-04-03T23:09:23Z</time>
   </trkpt>
   <trkpt lat="47.4075160" lon="-122.0374760">
    <ele>101.0</ele>
    <time>2021-04-03T23:09:24Z</time>
   </trkpt>
   <trkpt lat="47.4075280" lon="-122.0374780">
    <ele>101.0</ele>
    <time>2021-04-03T23:09:25Z</time>
   </trkpt>
   <trkpt lat="47.4075390" lon="-122.0374730">
    <ele>101.0</ele>
    <time>2021-04-03T23:09:26Z</time>
   </trkpt>
   <trkpt lat="47.4075580" lon="-122.0374740">
    <ele>101.0</ele>
    <time>2021-04-03T23:09:27Z</time>
   </trkpt>
   <trkpt lat="47.4075770" lon="-122.0374850">
    <ele>101.0</ele>
    <time>2021-04-03T23:09:28Z</time>
   </trkpt>
   <trkpt lat="47.4075890" lon="-122.0374920">
    <ele>101.0</ele>
    <time>2021-04-03T23:09:29Z</time>
   </trkpt>
   <trkpt lat="47.4076000" lon="-122.0374990">
    <ele>101.0</ele>
    <time>2021-04-03T23:09:30Z</time>
   </trkpt>
   <trkpt lat="47.4076140" lon="-122.0374980">
    <ele>101.0</ele>
    <time>2021-04-03T23:09:31Z</time>
   </trkpt>
   <trkpt lat="47.4076200" lon="-122.0374950">
    <ele>101.0</ele>
    <time>2021-04-03T23:09:32Z</time>
   </trkpt>
   <trkpt lat="47.4076300" lon="-122.0374900">
    <ele>100.9</ele>
    <time>2021-04-03T23:09:33Z</time>
   </trkpt>
   <trkpt lat="47.4076570" lon="-122.0374930">
    <ele>100.9</ele>
    <time>2021-04-03T23:09:34Z</time>
   </trkpt>
   <trkpt lat="47.4076670" lon="-122.0374910">
    <ele>100.9</ele>
    <time>2021-04-03T23:09:35Z</time>
   </trkpt>
   <trkpt lat="47.4076800" lon="-122.0374930">
    <ele>100.9</ele>
    <time>2021-04-03T23:09:36Z</time>
   </trkpt>
   <trkpt lat="47.4076910" lon="-122.0374960">
    <ele>100.9</ele>
    <time>2021-04-03T23:09:37Z</time>
   </trkpt>
   <trkpt lat="47.4077010" lon="-122.0374940">
    <ele>100.9</ele>
    <time>2021-04-03T23:09:38Z</time>
   </trkpt>
   <trkpt lat="47.4077210" lon="-122.0374960">
    <ele>100.9</ele>
    <time>2021-04-03T23:09:39Z</time>
   </trkpt>
   <trkpt lat="47.4077320" lon="-122.0374950">
    <ele>100.9</ele>
    <time>2021-04-03T23:09:40Z</time>
   </trkpt>
   <trkpt lat="47.4077430" lon="-122.0374950">
    <ele>100.9</ele>
    <time>2021-04-03T23:09:41Z</time>
   </trkpt>
   <trkpt lat="47.4077610" lon="-122.0374910">
    <ele>100.9</ele>
    <time>2021-04-03T23:09:42Z</time>
   </trkpt>
   <trkpt lat="47.4077730" lon="-122.0374940">
    <ele>100.8</ele>
    <time>2021-04-03T23:09:43Z</time>
   </trkpt>
   <trkpt lat="47.4077870" lon="-122.0375000">
    <ele>100.8</ele>
    <time>2021-04-03T23:09:44Z</time>
   </trkpt>
   <trkpt lat="47.4078010" lon="-122.0375120">
    <ele>100.8</ele>
    <time>2021-04-03T23:09:45Z</time>
   </trkpt>
   <trkpt lat="47.4078140" lon="-122.0375210">
    <ele>100.8</ele>
    <time>2021-04-03T23:09:46Z</time>
   </trkpt>
   <trkpt lat="47.4078240" lon="-122.0375270">
    <ele>100.8</ele>
    <time>2021-04-03T23:09:47Z</time>
   </trkpt>
   <trkpt lat="47.4078300" lon="-122.0375270">
    <ele>100.8</ele>
    <time>2021-04-03T23:09:48Z</time>
   </trkpt>
   <trkpt lat="47.4078440" lon="-122.0375300">
    <ele>100.8</ele>
    <time>2021-04-03T23:09:49Z</time>
   </trkpt>
   <trkpt lat="47.4078560" lon="-122.0375410">
    <ele>100.8</ele>
    <time>2021-04-03T23:09:50Z</time>
   </trkpt>
   <trkpt lat="47.4078760" lon="-122.0375460">
    <ele>100.8</ele>
    <time>2021-04-03T23:09:51Z</time>
   </trkpt>
   <trkpt lat="47.4078850" lon="-122.0375500">
    <ele>100.8</ele>
    <time>2021-04-03T23:09:52Z</time>
   </trkpt>
   <trkpt lat="47.4078940" lon="-122.0375520">
    <ele>100.8</ele>
    <time>2021-04-03T23:09:53Z</time>
   </trkpt>
   <trkpt lat="47.4079050" lon="-122.0375600">
    <ele>100.8</ele>
    <time>2021-04-03T23:09:54Z</time>
   </trkpt>
   <trkpt lat="47.4079110" lon="-122.0375650">
    <ele>100.8</ele>
    <time>2021-04-03T23:09:55Z</time>
   </trkpt>
   <trkpt lat="47.4079320" lon="-122.0375680">
    <ele>100.7</ele>
    <time>2021-04-03T23:09:56Z</time>
   </trkpt>
   <trkpt lat="47.4079410" lon="-122.0375720">
    <ele>100.7</ele>
    <time>2021-04-03T23:09:57Z</time>
   </trkpt>
   <trkpt lat="47.4079510" lon="-122.0375760">
    <ele>100.7</ele>
    <time>2021-04-03T23:09:58Z</time>
   </trkpt>
   <trkpt lat="47.4079660" lon="-122.0375810">
    <ele>100.7</ele>
    <time>2021-04-03T23:09:59Z</time>
   </trkpt>
   <trkpt lat="47.4079840" lon="-122.0375850">
    <ele>100.7</ele>
    <time>2021-04-03T23:10:00Z</time>
   </trkpt>
   <trkpt lat="47.4079980" lon="-122.0375920">
    <ele>100.7</ele>
    <time>2021-04-03T23:10:01Z</time>
   </trkpt>
   <trkpt lat="47.4080120" lon="-122.0376000">
    <ele>100.7</ele>
    <time>2021-04-03T23:10:02Z</time>
   </trkpt>
   <trkpt lat="47.4080270" lon="-122.0376120">
    <ele>100.7</ele>
    <time>2021-04-03T23:10:03Z</time>
   </trkpt>
   <trkpt lat="47.4080380" lon="-122.0376150">
    <ele>100.7</ele>
    <time>2021-04-03T23:10:04Z</time>
   </trkpt>
   <trkpt lat="47.4080540" lon="-122.0376260">
    <ele>100.7</ele>
    <time>2021-04-03T23:10:05Z</time>
   </trkpt>
   <trkpt lat="47.4080660" lon="-122.0376310">
    <ele>100.7</ele>
    <time>2021-04-03T23:10:06Z</time>
   </trkpt>
   <trkpt lat="47.4080770" lon="-122.0376350">
    <ele>100.7</ele>
    <time>2021-04-03T23:10:07Z</time>
   </trkpt>
   <trkpt lat="47.4080920" lon="-122.0376410">
    <ele>100.7</ele>
    <time>2021-04-03T23:10:08Z</time>
   </trkpt>
   <trkpt lat="47.4081060" lon="-122.0376550">
    <ele>100.7</ele>
    <time>2021-04-03T23:10:09Z</time>
   </trkpt>
   <trkpt lat="47.4081280" lon="-122.0376690">
    <ele>100.7</ele>
    <time>2021-04-03T23:10:10Z</time>
   </trkpt>
   <trkpt lat="47.4081330" lon="-122.0376740">
    <ele>100.7</ele>
    <time>2021-04-03T23:10:11Z</time>
   </trkpt>
   <trkpt lat="47.4081390" lon="-122.0376790">
    <ele>100.7</ele>
    <time>2021-04-03T23:10:12Z</time>
   </trkpt>
   <trkpt lat="47.4081510" lon="-122.0376780">
    <ele>100.7</ele>
    <time>2021-04-03T23:10:13Z</time>
   </trkpt>
   <trkpt lat="47.4081660" lon="-122.0376870">
    <ele>100.7</ele>
    <time>2021-04-03T23:10:14Z</time>
   </trkpt>
   <trkpt lat="47.4081860" lon="-122.0376910">
    <ele>100.6</ele>
    <time>2021-04-03T23:10:15Z</time>
   </trkpt>
   <trkpt lat="47.4081980" lon="-122.0376950">
    <ele>100.6</ele>
    <time>2021-04-03T23:10:16Z</time>
   </trkpt>
   <trkpt lat="47.4082150" lon="-122.0377000">
    <ele>100.6</ele>
    <time>2021-04-03T23:10:17Z</time>
   </trkpt>
   <trkpt lat="47.4082290" lon="-122.0376970">
    <ele>100.6</ele>
    <time>2021-04-03T23:10:18Z</time>
   </trkpt>
   <trkpt lat="47.4082430" lon="-122.0376960">
    <ele>100.6</ele>
    <time>2021-04-03T23:10:19Z</time>
   </trkpt>
   <trkpt lat="47.4082520" lon="-122.0377000">
    <ele>100.6</ele>
    <time>2021-04-03T23:10:20Z</time>
   </trkpt>
   <trkpt lat="47.4082620" lon="-122.0376990">
    <ele>100.6</ele>
    <time>2021-04-03T23:10:21Z</time>
   </trkpt>
   <trkpt lat="47.4082780" lon="-122.0377110">
    <ele>100.6</ele>
    <time>2021-04-03T23:10:22Z</time>
   </trkpt>
   <trkpt lat="47.4082890" lon="-122.0377060">
    <ele>100.6</ele>
    <time>2021-04-03T23:10:23Z</time>
   </trkpt>
   <trkpt lat="47.4083040" lon="-122.0377130">
    <ele>100.6</ele>
    <time>2021-04-03T23:10:24Z</time>
   </trkpt>
   <trkpt lat="47.4083200" lon="-122.0377140">
    <ele>100.6</ele>
    <time>2021-04-03T23:10:25Z</time>
   </trkpt>
   <trkpt lat="47.4083300" lon="-122.0377160">
    <ele>100.6</ele>
    <time>2021-04-03T23:10:26Z</time>
   </trkpt>
   <trkpt lat="47.4083400" lon="-122.0377190">
    <ele>100.5</ele>
    <time>2021-04-03T23:10:27Z</time>
   </trkpt>
   <trkpt lat="47.4083540" lon="-122.0377270">
    <ele>100.5</ele>
    <time>2021-04-03T23:10:28Z</time>
   </trkpt>
   <trkpt lat="47.4083670" lon="-122.0377350">
    <ele>100.5</ele>
    <time>2021-04-03T23:10:29Z</time>
   </trkpt>
   <trkpt lat="47.4083820" lon="-122.0377430">
    <ele>100.5</ele>
    <time>2021-04-03T23:10:30Z</time>
   </trkpt>
   <trkpt lat="47.4084030" lon="-122.0377430">
    <ele>100.5</ele>
    <time>2021-04-03T23:10:31Z</time>
   </trkpt>
   <trkpt lat="47.4084110" lon="-122.0377440">
    <ele>100.5</ele>
    <time>2021-04-03T23:10:32Z</time>
   </trkpt>
   <trkpt lat="47.4084200" lon="-122.0377460">
    <ele>100.5</ele>
    <time>2021-04-03T23:10:33Z</time>
   </trkpt>
   <trkpt lat="47.4084340" lon="-122.0377520">
    <ele>100.5</ele>
    <time>2021-04-03T23:10:34Z</time>
   </trkpt>
   <trkpt lat="47.4084500" lon="-122.0377630">
    <ele>100.5</ele>
    <time>2021-04-03T23:10:35Z</time>
   </trkpt>
   <trkpt lat="47.4084700" lon="-122.0377750">
    <ele>100.4</ele>
    <time>2021-04-03T23:10:36Z</time>
   </trkpt>
   <trkpt lat="47.4084780" lon="-122.0377770">
    <ele>100.4</ele>
    <time>2021-04-03T23:10:37Z</time>
   </trkpt>
   <trkpt lat="47.4084870" lon="-122.0377780">
    <ele>100.4</ele>
    <time>2021-04-03T23:10:38Z</time>
   </trkpt>
   <trkpt lat="47.4084930" lon="-122.0377920">
    <ele>100.4</ele>
    <time>2021-04-03T23:10:39Z</time>
   </trkpt>
   <trkpt lat="47.4085110" lon="-122.0378070">
    <ele>100.4</ele>
    <time>2021-04-03T23:10:40Z</time>
   </trkpt>
   <trkpt lat="47.4085160" lon="-122.0378140">
    <ele>100.4</ele>
    <time>2021-04-03T23:10:41Z</time>
   </trkpt>
   <trkpt lat="47.4085250" lon="-122.0378210">
    <ele>100.4</ele>
    <time>2021-04-03T23:10:42Z</time>
   </trkpt>
   <trkpt lat="47.4085340" lon="-122.0378400">
    <ele>100.4</ele>
    <time>2021-04-03T23:10:43Z</time>
   </trkpt>
   <trkpt lat="47.4085490" lon="-122.0378600">
    <ele>100.3</ele>
    <time>2021-04-03T23:10:44Z</time>
   </trkpt>
   <trkpt lat="47.4085630" lon="-122.0378670">
    <ele>100.3</ele>
    <time>2021-04-03T23:10:45Z</time>
   </trkpt>
   <trkpt lat="47.4085870" lon="-122.0378630">
    <ele>100.3</ele>
    <time>2021-04-03T23:10:46Z</time>
   </trkpt>
   <trkpt lat="47.4085930" lon="-122.0378590">
    <ele>100.3</ele>
    <time>2021-04-03T23:10:47Z</time>
   </trkpt>
   <trkpt lat="47.4086000" lon="-122.0378550">
    <ele>100.3</ele>
    <time>2021-04-03T23:10:48Z</time>
   </trkpt>
   <trkpt lat="47.4086290" lon="-122.0378650">
    <ele>100.3</ele>
    <time>2021-04-03T23:10:49Z</time>
   </trkpt>
   <trkpt lat="47.4086380" lon="-122.0378610">
    <ele>100.2</ele>
    <time>2021-04-03T23:10:50Z</time>
   </trkpt>
   <trkpt lat="47.4086670" lon="-122.0378580">
    <ele>100.2</ele>
    <time>2021-04-03T23:10:51Z</time>
   </trkpt>
   <trkpt lat="47.4086760" lon="-122.0378570">
    <ele>100.2</ele>
    <time>2021-04-03T23:10:52Z</time>
   </trkpt>
   <trkpt lat="47.4086930" lon="-122.0378720">
    <ele>100.2</ele>
    <time>2021-04-03T23:10:53Z</time>
   </trkpt>
   <trkpt lat="47.4087060" lon="-122.0378860">
    <ele>100.2</ele>
    <time>2021-04-03T23:10:54Z</time>
   </trkpt>
   <trkpt lat="47.4087280" lon="-122.0378980">
    <ele>100.2</ele>
    <time>2021-04-03T23:10:55Z</time>
   </trkpt>
   <trkpt lat="47.4087350" lon="-122.0379020">
    <ele>100.1</ele>
    <time>2021-04-03T23:10:56Z</time>
   </trkpt>
   <trkpt lat="47.4087430" lon="-122.0379070">
    <ele>100.1</ele>
    <time>2021-04-03T23:10:57Z</time>
   </trkpt>
   <trkpt lat="47.4087580" lon="-122.0379150">
    <ele>100.1</ele>
    <time>2021-04-03T23:10:58Z</time>
   </trkpt>
   <trkpt lat="47.4087720" lon="-122.0379270">
    <ele>100.1</ele>
    <time>2021-04-03T23:10:59Z</time>
   </trkpt>
   <trkpt lat="47.4087870" lon="-122.0379340">
    <ele>100.1</ele>
    <time>2021-04-03T23:11:00Z</time>
   </trkpt>
   <trkpt lat="47.4088010" lon="-122.0379410">
    <ele>100.1</ele>
    <time>2021-04-03T23:11:01Z</time>
   </trkpt>
   <trkpt lat="47.4088200" lon="-122.0379510">
    <ele>100.1</ele>
    <time>2021-04-03T23:11:02Z</time>
   </trkpt>
   <trkpt lat="47.4088290" lon="-122.0379510">
    <ele>100.1</ele>
    <time>2021-04-03T23:11:03Z</time>
   </trkpt>
   <trkpt lat="47.4088370" lon="-122.0379520">
    <ele>100.1</ele>
    <time>2021-04-03T23:11:04Z</time>
   </trkpt>
   <trkpt lat="47.4088570" lon="-122.0379530">
    <ele>100.1</ele>
    <time>2021-04-03T23:11:05Z</time>
   </trkpt>
   <trkpt lat="47.4088680" lon="-122.0379540">
    <ele>100.0</ele>
    <time>2021-04-03T23:11:06Z</time>
   </trkpt>
   <trkpt lat="47.4088780" lon="-122.0379560">
    <ele>100.0</ele>
    <time>2021-04-03T23:11:07Z</time>
   </trkpt>
   <trkpt lat="47.4089000" lon="-122.0379620">
    <ele>100.0</ele>
    <time>2021-04-03T23:11:08Z</time>
   </trkpt>
   <trkpt lat="47.4089080" lon="-122.0379640">
    <ele>100.0</ele>
    <time>2021-04-03T23:11:09Z</time>
   </trkpt>
   <trkpt lat="47.4089160" lon="-122.0379650">
    <ele>100.0</ele>
    <time>2021-04-03T23:11:10Z</time>
   </trkpt>
   <trkpt lat="47.4089340" lon="-122.0379620">
    <ele>100.0</ele>
    <time>2021-04-03T23:11:11Z</time>
   </trkpt>
   <trkpt lat="47.4089490" lon="-122.0379640">
    <ele>100.0</ele>
    <time>2021-04-03T23:11:12Z</time>
   </trkpt>
   <trkpt lat="47.4089580" lon="-122.0379710">
    <ele>100.0</ele>
    <time>2021-04-03T23:11:13Z</time>
   </trkpt>
   <trkpt lat="47.4089700" lon="-122.0379790">
    <ele>100.0</ele>
    <time>2021-04-03T23:11:14Z</time>
   </trkpt>
   <trkpt lat="47.4089800" lon="-122.0379840">
    <ele>100.0</ele>
    <time>2021-04-03T23:11:15Z</time>
   </trkpt>
   <trkpt lat="47.4089950" lon="-122.0379950">
    <ele>100.0</ele>
    <time>2021-04-03T23:11:16Z</time>
   </trkpt>
   <trkpt lat="47.4090030" lon="-122.0379990">
    <ele>100.0</ele>
    <time>2021-04-03T23:11:17Z</time>
   </trkpt>
   <trkpt lat="47.4090100" lon="-122.0380040">
    <ele>100.0</ele>
    <time>2021-04-03T23:11:18Z</time>
   </trkpt>
   <trkpt lat="47.4090230" lon="-122.0380100">
    <ele>100.0</ele>
    <time>2021-04-03T23:11:19Z</time>
   </trkpt>
   <trkpt lat="47.4090400" lon="-122.0380140">
    <ele>100.0</ele>
    <time>2021-04-03T23:11:20Z</time>
   </trkpt>
   <trkpt lat="47.4090610" lon="-122.0380250">
    <ele>100.0</ele>
    <time>2021-04-03T23:11:21Z</time>
   </trkpt>
   <trkpt lat="47.4090700" lon="-122.0380290">
    <ele>100.0</ele>
    <time>2021-04-03T23:11:22Z</time>
   </trkpt>
   <trkpt lat="47.4090780" lon="-122.0380340">
    <ele>100.0</ele>
    <time>2021-04-03T23:11:23Z</time>
   </trkpt>
   <trkpt lat="47.4090960" lon="-122.0380430">
    <ele>100.0</ele>
    <time>2021-04-03T23:11:24Z</time>
   </trkpt>
   <trkpt lat="47.4091050" lon="-122.0380480">
    <ele>100.0</ele>
    <time>2021-04-03T23:11:25Z</time>
   </trkpt>
   <trkpt lat="47.4091130" lon="-122.0380540">
    <ele>100.0</ele>
    <time>2021-04-03T23:11:26Z</time>
   </trkpt>
   <trkpt lat="47.4091320" lon="-122.0380680">
    <ele>100.0</ele>
    <time>2021-04-03T23:11:27Z</time>
   </trkpt>
   <trkpt lat="47.4091400" lon="-122.0380700">
    <ele>100.0</ele>
    <time>2021-04-03T23:11:28Z</time>
   </trkpt>
   <trkpt lat="47.4091480" lon="-122.0380730">
    <ele>100.0</ele>
    <time>2021-04-03T23:11:29Z</time>
   </trkpt>
   <trkpt lat="47.4091590" lon="-122.0380750">
    <ele>100.0</ele>
    <time>2021-04-03T23:11:30Z</time>
   </trkpt>
   <trkpt lat="47.4091670" lon="-122.0380810">
    <ele>100.0</ele>
    <time>2021-04-03T23:11:31Z</time>
   </trkpt>
   <trkpt lat="47.4091760" lon="-122.0380950">
    <ele>100.0</ele>
    <time>2021-04-03T23:11:32Z</time>
   </trkpt>
   <trkpt lat="47.4091920" lon="-122.0381100">
    <ele>100.0</ele>
    <time>2021-04-03T23:11:33Z</time>
   </trkpt>
   <trkpt lat="47.4091990" lon="-122.0381180">
    <ele>100.0</ele>
    <time>2021-04-03T23:11:34Z</time>
   </trkpt>
   <trkpt lat="47.4092060" lon="-122.0381260">
    <ele>100.0</ele>
    <time>2021-04-03T23:11:35Z</time>
   </trkpt>
   <trkpt lat="47.4092230" lon="-122.0381370">
    <ele>100.0</ele>
    <time>2021-04-03T23:11:36Z</time>
   </trkpt>
   <trkpt lat="47.4092330" lon="-122.0381460">
    <ele>100.0</ele>
    <time>2021-04-03T23:11:37Z</time>
   </trkpt>
   <trkpt lat="47.4092390" lon="-122.0381520">
    <ele>100.0</ele>
    <time>2021-04-03T23:11:38Z</time>
   </trkpt>
   <trkpt lat="47.4092470" lon="-122.0381580">
    <ele>99.9</ele>
    <time>2021-04-03T23:11:39Z</time>
   </trkpt>
   <trkpt lat="47.4092580" lon="-122.0381620">
    <ele>99.9</ele>
    <time>2021-04-03T23:11:40Z</time>
   </trkpt>
   <trkpt lat="47.4092820" lon="-122.0381900">
    <ele>99.9</ele>
    <time>2021-04-03T23:11:41Z</time>
   </trkpt>
   <trkpt lat="47.4092880" lon="-122.0381980">
    <ele>99.9</ele>
    <time>2021-04-03T23:11:42Z</time>
   </trkpt>
   <trkpt lat="47.4093000" lon="-122.0382010">
    <ele>99.9</ele>
    <time>2021-04-03T23:11:43Z</time>
   </trkpt>
   <trkpt lat="47.4093130" lon="-122.0382150">
    <ele>99.9</ele>
    <time>2021-04-03T23:11:44Z</time>
   </trkpt>
   <trkpt lat="47.4093220" lon="-122.0382230">
    <ele>99.9</ele>
    <time>2021-04-03T23:11:45Z</time>
   </trkpt>
   <trkpt lat="47.4093320" lon="-122.0382320">
    <ele>99.9</ele>
    <time>2021-04-03T23:11:46Z</time>
   </trkpt>
   <trkpt lat="47.4093440" lon="-122.0382350">
    <ele>99.9</ele>
    <time>2021-04-03T23:11:47Z</time>
   </trkpt>
   <trkpt lat="47.4093540" lon="-122.0382420">
    <ele>99.9</ele>
    <time>2021-04-03T23:11:48Z</time>
   </trkpt>
   <trkpt lat="47.4093720" lon="-122.0382530">
    <ele>99.9</ele>
    <time>2021-04-03T23:11:49Z</time>
   </trkpt>
   <trkpt lat="47.4093850" lon="-122.0382580">
    <ele>99.9</ele>
    <time>2021-04-03T23:11:50Z</time>
   </trkpt>
   <trkpt lat="47.4093960" lon="-122.0382730">
    <ele>99.9</ele>
    <time>2021-04-03T23:11:51Z</time>
   </trkpt>
   <trkpt lat="47.4094100" lon="-122.0382750">
    <ele>99.9</ele>
    <time>2021-04-03T23:11:52Z</time>
   </trkpt>
   <trkpt lat="47.4094220" lon="-122.0382880">
    <ele>99.9</ele>
    <time>2021-04-03T23:11:53Z</time>
   </trkpt>
   <trkpt lat="47.4094340" lon="-122.0382980">
    <ele>99.9</ele>
    <time>2021-04-03T23:11:54Z</time>
   </trkpt>
   <trkpt lat="47.4094460" lon="-122.0383100">
    <ele>99.9</ele>
    <time>2021-04-03T23:11:55Z</time>
   </trkpt>
   <trkpt lat="47.4094580" lon="-122.0383160">
    <ele>99.9</ele>
    <time>2021-04-03T23:11:56Z</time>
   </trkpt>
   <trkpt lat="47.4094670" lon="-122.0383200">
    <ele>99.9</ele>
    <time>2021-04-03T23:11:57Z</time>
   </trkpt>
   <trkpt lat="47.4094770" lon="-122.0383250">
    <ele>99.9</ele>
    <time>2021-04-03T23:11:58Z</time>
   </trkpt>
   <trkpt lat="47.4094920" lon="-122.0383410">
    <ele>99.9</ele>
    <time>2021-04-03T23:11:59Z</time>
   </trkpt>
   <trkpt lat="47.4095010" lon="-122.0383470">
    <ele>99.9</ele>
    <time>2021-04-03T23:12:00Z</time>
   </trkpt>
   <trkpt lat="47.4095100" lon="-122.0383540">
    <ele>99.9</ele>
    <time>2021-04-03T23:12:01Z</time>
   </trkpt>
   <trkpt lat="47.4095240" lon="-122.0383630">
    <ele>99.9</ele>
    <time>2021-04-03T23:12:02Z</time>
   </trkpt>
   <trkpt lat="47.4095360" lon="-122.0383720">
    <ele>99.8</ele>
    <time>2021-04-03T23:12:03Z</time>
   </trkpt>
   <trkpt lat="47.4095480" lon="-122.0383810">
    <ele>99.8</ele>
    <time>2021-04-03T23:12:04Z</time>
   </trkpt>
   <trkpt lat="47.4095610" lon="-122.0383910">
    <ele>99.8</ele>
    <time>2021-04-03T23:12:05Z</time>
   </trkpt>
   <trkpt lat="47.4095710" lon="-122.0383980">
    <ele>99.8</ele>
    <time>2021-04-03T23:12:06Z</time>
   </trkpt>
   <trkpt lat="47.4095850" lon="-122.0384070">
    <ele>99.8</ele>
    <time>2021-04-03T23:12:07Z</time>
   </trkpt>
   <trkpt lat="47.4096020" lon="-122.0384090">
    <ele>99.8</ele>
    <time>2021-04-03T23:12:08Z</time>
   </trkpt>
   <trkpt lat="47.4096120" lon="-122.0384260">
    <ele>99.8</ele>
    <time>2021-04-03T23:12:09Z</time>
   </trkpt>
   <trkpt lat="47.4096240" lon="-122.0384350">
    <ele>99.8</ele>
    <time>2021-04-03T23:12:10Z</time>
   </trkpt>
   <trkpt lat="47.4096390" lon="-122.0384400">
    <ele>99.8</ele>
    <time>2021-04-03T23:12:11Z</time>
   </trkpt>
   <trkpt lat="47.4096500" lon="-122.0384490">
    <ele>99.8</ele>
    <time>2021-04-03T23:12:12Z</time>
   </trkpt>
   <trkpt lat="47.4096630" lon="-122.0384590">
    <ele>99.8</ele>
    <time>2021-04-03T23:12:13Z</time>
   </trkpt>
   <trkpt lat="47.4096730" lon="-122.0384670">
    <ele>99.8</ele>
    <time>2021-04-03T23:12:14Z</time>
   </trkpt>
   <trkpt lat="47.4096820" lon="-122.0384730">
    <ele>99.8</ele>
    <time>2021-04-03T23:12:15Z</time>
   </trkpt>
   <trkpt lat="47.4096920" lon="-122.0384810">
    <ele>99.8</ele>
    <time>2021-04-03T23:12:16Z</time>
   </trkpt>
   <trkpt lat="47.4097030" lon="-122.0384900">
    <ele>99.8</ele>
    <time>2021-04-03T23:12:17Z</time>
   </trkpt>
   <trkpt lat="47.4097090" lon="-122.0384940">
    <ele>99.7</ele>
    <time>2021-04-03T23:12:18Z</time>
   </trkpt>
   <trkpt lat="47.4097240" lon="-122.0385010">
    <ele>99.7</ele>
    <time>2021-04-03T23:12:19Z</time>
   </trkpt>
   <trkpt lat="47.4097320" lon="-122.0385080">
    <ele>99.7</ele>
    <time>2021-04-03T23:12:20Z</time>
   </trkpt>
   <trkpt lat="47.4097420" lon="-122.0385230">
    <ele>99.7</ele>
    <time>2021-04-03T23:12:21Z</time>
   </trkpt>
   <trkpt lat="47.4097540" lon="-122.0385310">
    <ele>99.7</ele>
    <time>2021-04-03T23:12:22Z</time>
   </trkpt>
   <trkpt lat="47.4097650" lon="-122.0385310">
    <ele>99.7</ele>
    <time>2021-04-03T23:12:23Z</time>
   </trkpt>
   <trkpt lat="47.4097720" lon="-122.0385410">
    <ele>99.7</ele>
    <time>2021-04-03T23:12:24Z</time>
   </trkpt>
   <trkpt lat="47.4097840" lon="-122.0385520">
    <ele>99.7</ele>
    <time>2021-04-03T23:12:25Z</time>
   </trkpt>
   <trkpt lat="47.4098020" lon="-122.0385720">
    <ele>99.7</ele>
    <time>2021-04-03T23:12:26Z</time>
   </trkpt>
   <trkpt lat="47.4098080" lon="-122.0385810">
    <ele>99.7</ele>
    <time>2021-04-03T23:12:27Z</time>
   </trkpt>
   <trkpt lat="47.4098140" lon="-122.0385890">
    <ele>99.7</ele>
    <time>2021-04-03T23:12:28Z</time>
   </trkpt>
   <trkpt lat="47.4098260" lon="-122.0386030">
    <ele>99.7</ele>
    <time>2021-04-03T23:12:29Z</time>
   </trkpt>
   <trkpt lat="47.4098400" lon="-122.0386060">
    <ele>99.7</ele>
    <time>2021-04-03T23:12:30Z</time>
   </trkpt>
   <trkpt lat="47.4098550" lon="-122.0386240">
    <ele>99.6</ele>
    <time>2021-04-03T23:12:31Z</time>
   </trkpt>
   <trkpt lat="47.4098620" lon="-122.0386330">
    <ele>99.6</ele>
    <time>2021-04-03T23:12:32Z</time>
   </trkpt>
   <trkpt lat="47.4098680" lon="-122.0386410">
    <ele>99.6</ele>
    <time>2021-04-03T23:12:33Z</time>
   </trkpt>
   <trkpt lat="47.4098780" lon="-122.0386550">
    <ele>99.6</ele>
    <time>2021-04-03T23:12:34Z</time>
   </trkpt>
   <trkpt lat="47.4098890" lon="-122.0386600">
    <ele>99.6</ele>
    <time>2021-04-03T23:12:35Z</time>
   </trkpt>
   <trkpt lat="47.4098990" lon="-122.0386630">
    <ele>99.6</ele>
    <time>2021-04-03T23:12:36Z</time>
   </trkpt>
   <trkpt lat="47.4099160" lon="-122.0386750">
    <ele>99.6</ele>
    <time>2021-04-03T23:12:37Z</time>
   </trkpt>
   <trkpt lat="47.4099240" lon="-122.0386830">
    <ele>99.6</ele>
    <time>2021-04-03T23:12:38Z</time>
   </trkpt>
   <trkpt lat="47.4099320" lon="-122.0386910">
    <ele>99.6</ele>
    <time>2021-04-03T23:12:39Z</time>
   </trkpt>
   <trkpt lat="47.4099450" lon="-122.0386980">
    <ele>99.6</ele>
    <time>2021-04-03T23:12:40Z</time>
   </trkpt>
   <trkpt lat="47.4099510" lon="-122.0387030">
    <ele>99.6</ele>
    <time>2021-04-03T23:12:41Z</time>
   </trkpt>
   <trkpt lat="47.4099630" lon="-122.0387130">
    <ele>99.6</ele>
    <time>2021-04-03T23:12:42Z</time>
   </trkpt>
   <trkpt lat="47.4099840" lon="-122.0387250">
    <ele>99.6</ele>
    <time>2021-04-03T23:12:43Z</time>
   </trkpt>
   <trkpt lat="47.4099910" lon="-122.0387300">
    <ele>99.6</ele>
    <time>2021-04-03T23:12:44Z</time>
   </trkpt>
   <trkpt lat="47.4099990" lon="-122.0387340">
    <ele>99.6</ele>
    <time>2021-04-03T23:12:45Z</time>
   </trkpt>
   <trkpt lat="47.4100110" lon="-122.0387470">
    <ele>99.6</ele>
    <time>2021-04-03T23:12:46Z</time>
   </trkpt>
   <trkpt lat="47.4100220" lon="-122.0387580">
    <ele>99.6</ele>
    <time>2021-04-03T23:12:47Z</time>
   </trkpt>
   <trkpt lat="47.4100370" lon="-122.0387790">
    <ele>99.6</ele>
    <time>2021-04-03T23:12:48Z</time>
   </trkpt>
   <trkpt lat="47.4100430" lon="-122.0387890">
    <ele>99.6</ele>
    <time>2021-04-03T23:12:49Z</time>
   </trkpt>
   <trkpt lat="47.4100480" lon="-122.0387980">
    <ele>99.6</ele>
    <time>2021-04-03T23:12:50Z</time>
   </trkpt>
   <trkpt lat="47.4100550" lon="-122.0388140">
    <ele>99.6</ele>
    <time>2021-04-03T23:12:51Z</time>
   </trkpt>
   <trkpt lat="47.4100660" lon="-122.0388210">
    <ele>99.6</ele>
    <time>2021-04-03T23:12:52Z</time>
   </trkpt>
   <trkpt lat="47.4100750" lon="-122.0388230">
    <ele>99.6</ele>
    <time>2021-04-03T23:12:53Z</time>
   </trkpt>
   <trkpt lat="47.4100850" lon="-122.0388290">
    <ele>99.6</ele>
    <time>2021-04-03T23:12:54Z</time>
   </trkpt>
   <trkpt lat="47.4100910" lon="-122.0388320">
    <ele>99.6</ele>
    <time>2021-04-03T23:12:55Z</time>
   </trkpt>
   <trkpt lat="47.4101040" lon="-122.0388400">
    <ele>99.6</ele>
    <time>2021-04-03T23:12:56Z</time>
   </trkpt>
   <trkpt lat="47.4101240" lon="-122.0388460">
    <ele>99.6</ele>
    <time>2021-04-03T23:12:57Z</time>
   </trkpt>
   <trkpt lat="47.4101320" lon="-122.0388550">
    <ele>99.6</ele>
    <time>2021-04-03T23:12:58Z</time>
   </trkpt>
   <trkpt lat="47.4101400" lon="-122.0388640">
    <ele>99.6</ele>
    <time>2021-04-03T23:12:59Z</time>
   </trkpt>
   <trkpt lat="47.4101540" lon="-122.0388720">
    <ele>99.6</ele>
    <time>2021-04-03T23:13:00Z</time>
   </trkpt>
   <trkpt lat="47.4101690" lon="-122.0388890">
    <ele>99.6</ele>
    <time>2021-04-03T23:13:01Z</time>
   </trkpt>
   <trkpt lat="47.4101760" lon="-122.0389010">
    <ele>99.6</ele>
    <time>2021-04-03T23:13:02Z</time>
   </trkpt>
   <trkpt lat="47.4101950" lon="-122.0389080">
    <ele>99.6</ele>
    <time>2021-04-03T23:13:03Z</time>
   </trkpt>
   <trkpt lat="47.4102070" lon="-122.0389140">
    <ele>99.6</ele>
    <time>2021-04-03T23:13:04Z</time>
   </trkpt>
   <trkpt lat="47.4102150" lon="-122.0389270">
    <ele>99.6</ele>
    <time>2021-04-03T23:13:05Z</time>
   </trkpt>
   <trkpt lat="47.4102230" lon="-122.0389270">
    <ele>99.5</ele>
    <time>2021-04-03T23:13:06Z</time>
   </trkpt>
   <trkpt lat="47.4102370" lon="-122.0389270">
    <ele>99.5</ele>
    <time>2021-04-03T23:13:07Z</time>
   </trkpt>
   <trkpt lat="47.4102470" lon="-122.0389260">
    <ele>99.5</ele>
    <time>2021-04-03T23:13:08Z</time>
   </trkpt>
   <trkpt lat="47.4102570" lon="-122.0389270">
    <ele>99.5</ele>
    <time>2021-04-03T23:13:09Z</time>
   </trkpt>
   <trkpt lat="47.4102660" lon="-122.0389280">
    <ele>99.5</ele>
    <time>2021-04-03T23:13:10Z</time>
   </trkpt>
   <trkpt lat="47.4102690" lon="-122.0389220">
    <ele>99.5</ele>
    <time>2021-04-03T23:13:11Z</time>
   </trkpt>
   <trkpt lat="47.4102700" lon="-122.0389090">
    <ele>99.5</ele>
    <time>2021-04-03T23:13:12Z</time>
   </trkpt>
   <trkpt lat="47.4102650" lon="-122.0389110">
    <ele>99.5</ele>
    <time>2021-04-03T23:13:13Z</time>
   </trkpt>
   <trkpt lat="47.4102650" lon="-122.0389120">
    <ele>99.5</ele>
    <time>2021-04-03T23:13:14Z</time>
   </trkpt>
   <trkpt lat="47.4102650" lon="-122.0389110">
    <ele>99.5</ele>
    <time>2021-04-03T23:13:15Z</time>
   </trkpt>
   <trkpt lat="47.4102670" lon="-122.0389060">
    <ele>99.5</ele>
    <time>2021-04-03T23:13:16Z</time>
   </trkpt>
   <trkpt lat="47.4102710" lon="-122.0389120">
    <ele>99.5</ele>
    <time>2021-04-03T23:13:17Z</time>
   </trkpt>
   <trkpt lat="47.4102730" lon="-122.0389160">
    <ele>99.5</ele>
    <time>2021-04-03T23:13:18Z</time>
   </trkpt>
   <trkpt lat="47.4102720" lon="-122.0389170">
    <ele>99.5</ele>
    <time>2021-04-03T23:13:19Z</time>
   </trkpt>
   <trkpt lat="47.4102750" lon="-122.0389190">
    <ele>99.5</ele>
    <time>2021-04-03T23:13:20Z</time>
   </trkpt>
   <trkpt lat="47.4102780" lon="-122.0389190">
    <ele>99.5</ele>
    <time>2021-04-03T23:13:21Z</time>
   </trkpt>
   <trkpt lat="47.4102800" lon="-122.0389190">
    <ele>99.5</ele>
    <time>2021-04-03T23:13:22Z</time>
   </trkpt>
   <trkpt lat="47.4102830" lon="-122.0389170">
    <ele>99.5</ele>
    <time>2021-04-03T23:13:23Z</time>
   </trkpt>
   <trkpt lat="47.4102850" lon="-122.0389170">
    <ele>99.5</ele>
    <time>2021-04-03T23:13:24Z</time>
   </trkpt>
   <trkpt lat="47.4102860" lon="-122.0389150">
    <ele>99.5</ele>
    <time>2021-04-03T23:13:25Z</time>
   </trkpt>
   <trkpt lat="47.4102880" lon="-122.0389180">
    <ele>99.5</ele>
    <time>2021-04-03T23:13:26Z</time>
   </trkpt>
   <trkpt lat="47.4102900" lon="-122.0389180">
    <ele>99.5</ele>
    <time>2021-04-03T23:13:27Z</time>
   </trkpt>
   <trkpt lat="47.4102930" lon="-122.0389170">
    <ele>99.5</ele>
    <time>2021-04-03T23:13:28Z</time>
   </trkpt>
   <trkpt lat="47.4102950" lon="-122.0389220">
    <ele>99.5</ele>
    <time>2021-04-03T23:13:29Z</time>
   </trkpt>
   <trkpt lat="47.4102950" lon="-122.0389210">
    <ele>99.5</ele>
    <time>2021-04-03T23:13:30Z</time>
   </trkpt>
   <trkpt lat="47.4102940" lon="-122.0389280">
    <ele>99.5</ele>
    <time>2021-04-03T23:13:31Z</time>
   </trkpt>
   <trkpt lat="47.4102900" lon="-122.0389240">
    <ele>99.5</ele>
    <time>2021-04-03T23:13:32Z</time>
   </trkpt>
   <trkpt lat="47.4102910" lon="-122.0389170">
    <ele>99.5</ele>
    <time>2021-04-03T23:13:33Z</time>
   </trkpt>
   <trkpt lat="47.4102930" lon="-122.0389160">
    <ele>99.5</ele>
    <time>2021-04-03T23:13:34Z</time>
   </trkpt>
   <trkpt lat="47.4102920" lon="-122.0389090">
    <ele>99.5</ele>
    <time>2021-04-03T23:13:35Z</time>
   </trkpt>
   <trkpt lat="47.4102790" lon="-122.0389210">
    <ele>99.5</ele>
    <time>2021-04-03T23:13:36Z</time>
   </trkpt>
   <trkpt lat="47.4102800" lon="-122.0389200">
    <ele>99.5</ele>
    <time>2021-04-03T23:13:37Z</time>
   </trkpt>
   <trkpt lat="47.4102800" lon="-122.0389200">
    <ele>99.5</ele>
    <time>2021-04-03T23:13:38Z</time>
   </trkpt>
   <trkpt lat="47.4102840" lon="-122.0389120">
    <ele>99.5</ele>
    <time>2021-04-03T23:13:39Z</time>
   </trkpt>
   <trkpt lat="47.4102850" lon="-122.0389090">
    <ele>99.5</ele>
    <time>2021-04-03T23:13:40Z</time>
   </trkpt>
   <trkpt lat="47.4102890" lon="-122.0388990">
    <ele>99.5</ele>
    <time>2021-04-03T23:13:41Z</time>
   </trkpt>
   <trkpt lat="47.4102870" lon="-122.0389070">
    <ele>99.5</ele>
    <time>2021-04-03T23:13:42Z</time>
   </trkpt>
   <trkpt lat="47.4102880" lon="-122.0389140">
    <ele>99.5</ele>
    <time>2021-04-03T23:13:43Z</time>
   </trkpt>
   <trkpt lat="47.4102790" lon="-122.0389240">
    <ele>99.5</ele>
    <time>2021-04-03T23:13:44Z</time>
   </trkpt>
   <trkpt lat="47.4102930" lon="-122.0389040">
    <ele>99.5</ele>
    <time>2021-04-03T23:13:45Z</time>
   </trkpt>
   <trkpt lat="47.4102930" lon="-122.0389070">
    <ele>99.5</ele>
    <time>2021-04-03T23:13:46Z</time>
   </trkpt>
   <trkpt lat="47.4102920" lon="-122.0389060">
    <ele>99.5</ele>
    <time>2021-04-03T23:13:47Z</time>
   </trkpt>
   <trkpt lat="47.4102890" lon="-122.0389100">
    <ele>99.5</ele>
    <time>2021-04-03T23:13:48Z</time>
   </trkpt>
   <trkpt lat="47.4102890" lon="-122.0389100">
    <ele>99.5</ele>
    <time>2021-04-03T23:13:49Z</time>
   </trkpt>
   <trkpt lat="47.4102810" lon="-122.0389140">
    <ele>99.5</ele>
    <time>2021-04-03T23:13:50Z</time>
   </trkpt>
   <trkpt lat="47.4102810" lon="-122.0389140">
    <ele>99.5</ele>
    <time>2021-04-03T23:13:51Z</time>
   </trkpt>
   <trkpt lat="47.4102730" lon="-122.0389210">
    <ele>99.5</ele>
    <time>2021-04-03T23:13:52Z</time>
   </trkpt>
   <trkpt lat="47.4102680" lon="-122.0389290">
    <ele>99.5</ele>
    <time>2021-04-03T23:13:53Z</time>
   </trkpt>
   <trkpt lat="47.4102650" lon="-122.0389300">
    <ele>99.5</ele>
    <time>2021-04-03T23:13:54Z</time>
   </trkpt>
   <trkpt lat="47.4102650" lon="-122.0389340">
    <ele>99.5</ele>
    <time>2021-04-03T23:13:55Z</time>
   </trkpt>
   <trkpt lat="47.4102650" lon="-122.0389340">
    <ele>99.5</ele>
    <time>2021-04-03T23:13:56Z</time>
   </trkpt>
   <trkpt lat="47.4102640" lon="-122.0389350">
    <ele>99.5</ele>
    <time>2021-04-03T23:13:57Z</time>
   </trkpt>
   <trkpt lat="47.4102640" lon="-122.0389350">
    <ele>99.5</ele>
    <time>2021-04-03T23:13:58Z</time>
   </trkpt>
   <trkpt lat="47.4102680" lon="-122.0389330">
    <ele>99.5</ele>
    <time>2021-04-03T23:13:59Z</time>
   </trkpt>
   <trkpt lat="47.4102680" lon="-122.0389360">
    <ele>99.5</ele>
    <time>2021-04-03T23:14:00Z</time>
   </trkpt>
   <trkpt lat="47.4102680" lon="-122.0389350">
    <ele>99.5</ele>
    <time>2021-04-03T23:14:01Z</time>
   </trkpt>
   <trkpt lat="47.4102710" lon="-122.0389340">
    <ele>99.5</ele>
    <time>2021-04-03T23:14:02Z</time>
   </trkpt>
   <trkpt lat="47.4102750" lon="-122.0389320">
    <ele>99.5</ele>
    <time>2021-04-03T23:14:03Z</time>
   </trkpt>
   <trkpt lat="47.4102740" lon="-122.0389320">
    <ele>99.5</ele>
    <time>2021-04-03T23:14:04Z</time>
   </trkpt>
   <trkpt lat="47.4102820" lon="-122.0389220">
    <ele>99.5</ele>
    <time>2021-04-03T23:14:05Z</time>
   </trkpt>
   <trkpt lat="47.4102820" lon="-122.0389210">
    <ele>99.5</ele>
    <time>2021-04-03T23:14:06Z</time>
   </trkpt>
   <trkpt lat="47.4102840" lon="-122.0389190">
    <ele>99.5</ele>
    <time>2021-04-03T23:14:07Z</time>
   </trkpt>
   <trkpt lat="47.4102860" lon="-122.0389190">
    <ele>99.5</ele>
    <time>2021-04-03T23:14:08Z</time>
   </trkpt>
   <trkpt lat="47.4102880" lon="-122.0389210">
    <ele>99.5</ele>
    <time>2021-04-03T23:14:09Z</time>
   </trkpt>
   <trkpt lat="47.4102870" lon="-122.0389190">
    <ele>99.5</ele>
    <time>2021-04-03T23:14:10Z</time>
   </trkpt>
   <trkpt lat="47.4102870" lon="-122.0389180">
    <ele>99.5</ele>
    <time>2021-04-03T23:14:11Z</time>
   </trkpt>
   <trkpt lat="47.4102860" lon="-122.0389140">
    <ele>99.5</ele>
    <time>2021-04-03T23:14:12Z</time>
   </trkpt>
   <trkpt lat="47.4102850" lon="-122.0389170">
    <ele>99.5</ele>
    <time>2021-04-03T23:14:13Z</time>
   </trkpt>
   <trkpt lat="47.4102860" lon="-122.0389150">
    <ele>99.5</ele>
    <time>2021-04-03T23:14:14Z</time>
   </trkpt>
   <trkpt lat="47.4102900" lon="-122.0389070">
    <ele>99.5</ele>
    <time>2021-04-03T23:14:15Z</time>
   </trkpt>
   <trkpt lat="47.4102900" lon="-122.0389080">
    <ele>99.5</ele>
    <time>2021-04-03T23:14:16Z</time>
   </trkpt>
   <trkpt lat="47.4102900" lon="-122.0389080">
    <ele>99.5</ele>
    <time>2021-04-03T23:14:17Z</time>
   </trkpt>
   <trkpt lat="47.4102860" lon="-122.0389070">
    <ele>99.5</ele>
    <time>2021-04-03T23:14:18Z</time>
   </trkpt>
   <trkpt lat="47.4102820" lon="-122.0389060">
    <ele>99.5</ele>
    <time>2021-04-03T23:14:19Z</time>
   </trkpt>
   <trkpt lat="47.4102790" lon="-122.0388970">
    <ele>99.5</ele>
    <time>2021-04-03T23:14:20Z</time>
   </trkpt>
   <trkpt lat="47.4102790" lon="-122.0388860">
    <ele>99.5</ele>
    <time>2021-04-03T23:14:21Z</time>
   </trkpt>
   <trkpt lat="47.4102760" lon="-122.0388810">
    <ele>99.5</ele>
    <time>2021-04-03T23:14:22Z</time>
   </trkpt>
   <trkpt lat="47.4102730" lon="-122.0388800">
    <ele>99.5</ele>
    <time>2021-04-03T23:14:23Z</time>
   </trkpt>
   <trkpt lat="47.4102720" lon="-122.0388790">
    <ele>99.5</ele>
    <time>2021-04-03T23:14:24Z</time>
   </trkpt>
   <trkpt lat="47.4102700" lon="-122.0388740">
    <ele>99.5</ele>
    <time>2021-04-03T23:14:25Z</time>
   </trkpt>
   <trkpt lat="47.4102650" lon="-122.0388700">
    <ele>99.5</ele>
    <time>2021-04-03T23:14:26Z</time>
   </trkpt>
   <trkpt lat="47.4102660" lon="-122.0388740">
    <ele>99.5</ele>
    <time>2021-04-03T23:14:27Z</time>
   </trkpt>
   <trkpt lat="47.4102670" lon="-122.0388700">
    <ele>99.5</ele>
    <time>2021-04-03T23:14:28Z</time>
   </trkpt>
   <trkpt lat="47.4102670" lon="-122.0388690">
    <ele>99.5</ele>
    <time>2021-04-03T23:14:29Z</time>
   </trkpt>
   <trkpt lat="47.4102650" lon="-122.0388670">
    <ele>99.5</ele>
    <time>2021-04-03T23:14:30Z</time>
   </trkpt>
   <trkpt lat="47.4102640" lon="-122.0388640">
    <ele>99.5</ele>
    <time>2021-04-03T23:14:31Z</time>
   </trkpt>
   <trkpt lat="47.4102620" lon="-122.0388650">
    <ele>99.5</ele>
    <time>2021-04-03T23:14:32Z</time>
   </trkpt>
   <trkpt lat="47.4102640" lon="-122.0388630">
    <ele>99.5</ele>
    <time>2021-04-03T23:14:33Z</time>
   </trkpt>
   <trkpt lat="47.4102620" lon="-122.0388630">
    <ele>99.5</ele>
    <time>2021-04-03T23:14:34Z</time>
   </trkpt>
   <trkpt lat="47.4102610" lon="-122.0388610">
    <ele>99.5</ele>
    <time>2021-04-03T23:14:35Z</time>
   </trkpt>
   <trkpt lat="47.4102620" lon="-122.0388700">
    <ele>99.5</ele>
    <time>2021-04-03T23:14:36Z</time>
   </trkpt>
   <trkpt lat="47.4102670" lon="-122.0388800">
    <ele>99.5</ele>
    <time>2021-04-03T23:14:37Z</time>
   </trkpt>
   <trkpt lat="47.4102730" lon="-122.0388840">
    <ele>99.5</ele>
    <time>2021-04-03T23:14:38Z</time>
   </trkpt>
   <trkpt lat="47.4102750" lon="-122.0388820">
    <ele>99.5</ele>
    <time>2021-04-03T23:14:39Z</time>
   </trkpt>
   <trkpt lat="47.4102740" lon="-122.0388790">
    <ele>99.5</ele>
    <time>2021-04-03T23:14:40Z</time>
   </trkpt>
   <trkpt lat="47.4102730" lon="-122.0388700">
    <ele>99.5</ele>
    <time>2021-04-03T23:14:41Z</time>
   </trkpt>
   <trkpt lat="47.4102740" lon="-122.0388680">
    <ele>99.5</ele>
    <time>2021-04-03T23:14:42Z</time>
   </trkpt>
   <trkpt lat="47.4102750" lon="-122.0388640">
    <ele>99.5</ele>
    <time>2021-04-03T23:14:43Z</time>
   </trkpt>
  </trkseg>
 </trk>
</gpx>
