<?xml version="1.0" encoding="UTF-8"?>
<gpx creator="StravaGPX" version="1.1" xmlns="http://www.topografix.com/GPX/1/1" xmlns:xsi="http://www.w3.org/2001/XMLSchema-instance" xsi:schemaLocation="http://www.topografix.com/GPX/1/1 http://www.topografix.com/GPX/1/1/gpx.xsd">
 <metadata>
  <time>2021-04-10T20:02:17Z</time>
 </metadata>
 <trk>
  <name>Cool down</name>
  <type>walking</type>
  <trkseg>
   <trkpt lat="47.8033610" lon="-122.3687570">
    <ele>77.7</ele>
    <time>2021-04-10T20:02:17Z</time>
   </trkpt>
   <trkpt lat="47.8033330" lon="-122.3686920">
    <ele>78.1</ele>
    <time>2021-04-10T20:02:18Z</time>
   </trkpt>
   <trkpt lat="47.8032980" lon="-122.3686140">
    <ele>78.6</ele>
    <time>2021-04-10T20:02:19Z</time>
   </trkpt>
   <trkpt lat="47.8032920" lon="-122.3685930">
    <ele>78.7</ele>
    <time>2021-04-10T20:02:20Z</time>
   </trkpt>
   <trkpt lat="47.8032780" lon="-122.3685800">
    <ele>78.9</ele>
    <time>2021-04-10T20:02:21Z</time>
   </trkpt>
   <trkpt lat="47.8032720" lon="-122.3685490">
    <ele>79.1</ele>
    <time>2021-04-10T20:02:22Z</time>
   </trkpt>
   <trkpt lat="47.8032690" lon="-122.3685380">
    <ele>79.2</ele>
    <time>2021-04-10T20:02:23Z</time>
   </trkpt>
   <trkpt lat="47.8032650" lon="-122.3685260">
    <ele>79.3</ele>
    <time>2021-04-10T20:02:24Z</time>
   </trkpt>
   <trkpt lat="47.8032580" lon="-122.3684950">
    <ele>79.5</ele>
    <time>2021-04-10T20:02:25Z</time>
   </trkpt>
   <trkpt lat="47.8032570" lon="-122.3684830">
    <ele>79.6</ele>
    <time>2021-04-10T20:02:26Z</time>
   </trkpt>
   <trkpt lat="47.8032560" lon="-122.3684710">
    <ele>79.7</ele>
    <time>2021-04-10T20:02:27Z</time>
   </trkpt>
   <trkpt lat="47.8032580" lon="-122.3684520">
    <ele>79.8</ele>
    <time>2021-04-10T20:02:28Z</time>
   </trkpt>
   <trkpt lat="47.8032580" lon="-122.3684310">
    <ele>79.9</ele>
    <time>2021-04-10T20:02:29Z</time>
   </trkpt>
   <trkpt lat="47.8032610" lon="-122.3684040">
    <ele>80.1</ele>
    <time>2021-04-10T20:02:30Z</time>
   </trkpt>
   <trkpt lat="47.8032640" lon="-122.3683670">
    <ele>80.4</ele>
    <time>2021-04-10T20:02:31Z</time>
   </trkpt>
   <trkpt lat="47.8032490" lon="-122.3683320">
    <ele>80.7</ele>
    <time>2021-04-10T20:02:32Z</time>
   </trkpt>
   <trkpt lat="47.8032380" lon="-122.3683180">
    <ele>80.9</ele>
    <time>2021-04-10T20:02:33Z</time>
   </trkpt>
   <trkpt lat="47.8032190" lon="-122.3682800">
    <ele>81.3</ele>
    <time>2021-04-10T20:02:34Z</time>
   </trkpt>
   <trkpt lat="47.8032140" lon="-122.3682690">
    <ele>81.4</ele>
    <time>2021-04-10T20:02:35Z</time>
   </trkpt>
   <trkpt lat="47.8032120" lon="-122.3682470">
    <ele>81.7</ele>
    <time>2021-04-10T20:02:36Z</time>
   </trkpt>
   <trkpt lat="47.8032090" lon="-122.3682240">
    <ele>82.0</ele>
    <time>2021-04-10T20:02:37Z</time>
   </trkpt>
   <trkpt lat="47.8032100" lon="-122.3682000">
    <ele>82.3</ele>
    <time>2021-04-10T20:02:38Z</time>
   </trkpt>
   <trkpt lat="47.8032090" lon="-122.3681880">
    <ele>82.4</ele>
    <time>2021-04-10T20:02:39Z</time>
   </trkpt>
   <trkpt lat="47.8032080" lon="-122.3681750">
    <ele>82.6</ele>
    <time>2021-04-10T20:02:40Z</time>
   </trkpt>
   <trkpt lat="47.8032070" lon="-122.3681630">
    <ele>82.7</ele>
    <time>2021-04-10T20:02:41Z</time>
   </trkpt>
   <trkpt lat="47.8032110" lon="-122.3681440">
    <ele>82.9</ele>
    <time>2021-04-10T20:02:42Z</time>
   </trkpt>
   <trkpt lat="47.8032160" lon="-122.3681290">
    <ele>83.2</ele>
    <time>2021-04-10T20:02:43Z</time>
   </trkpt>
   <trkpt lat="47.8032150" lon="-122.3681150">
    <ele>83.3</ele>
    <time>2021-04-10T20:02:44Z</time>
   </trkpt>
   <trkpt lat="47.8032170" lon="-122.3680930">
    <ele>83.6</ele>
    <time>2021-04-10T20:02:45Z</time>
   </trkpt>
   <trkpt lat="47.8032170" lon="-122.3680820">
    <ele>83.8</ele>
    <time>2021-04-10T20:02:46Z</time>
   </trkpt>
   <trkpt lat="47.8032180" lon="-122.3680700">
    <ele>83.9</ele>
    <time>2021-04-10T20:02:47Z</time>
   </trkpt>
   <trkpt lat="47.8032180" lon="-122.3680580">
    <ele>84.1</ele>
    <time>2021-04-10T20:02:48Z</time>
   </trkpt>
   <trkpt lat="47.8032220" lon="-122.3680410">
    <ele>84.3</ele>
    <time>2021-04-10T20:02:49Z</time>
   </trkpt>
   <trkpt lat="47.8032240" lon="-122.3680290">
    <ele>84.5</ele>
    <time>2021-04-10T20:02:50Z</time>
   </trkpt>
   <trkpt lat="47.8032270" lon="-122.3680150">
    <ele>84.7</ele>
    <time>2021-04-10T20:02:51Z</time>
   </trkpt>
   <trkpt lat="47.8032320" lon="-122.3680030">
    <ele>84.9</ele>
    <time>2021-04-10T20:02:52Z</time>
   </trkpt>
   <trkpt lat="47.8032340" lon="-122.3679930">
    <ele>85.0</ele>
    <time>2021-04-10T20:02:53Z</time>
   </trkpt>
   <trkpt lat="47.8032400" lon="-122.3679770">
    <ele>85.3</ele>
    <time>2021-04-10T20:02:54Z</time>
   </trkpt>
   <trkpt lat="47.8032430" lon="-122.3679640">
    <ele>85.4</ele>
    <time>2021-04-10T20:02:55Z</time>
   </trkpt>
   <trkpt lat="47.8032450" lon="-122.3679470">
    <ele>85.7</ele>
    <time>2021-04-10T20:02:56Z</time>
   </trkpt>
   <trkpt lat="47.8032400" lon="-122.3679370">
    <ele>85.8</ele>
    <time>2021-04-10T20:02:57Z</time>
   </trkpt>
   <trkpt lat="47.8032400" lon="-122.3679230">
    <ele>86.0</ele>
    <time>2021-04-10T20:02:58Z</time>
   </trkpt>
   <trkpt lat="47.8032430" lon="-122.3679150">
    <ele>86.1</ele>
    <time>2021-04-10T20:02:59Z</time>
   </trkpt>
   <trkpt lat="47.8032440" lon="-122.3679030">
    <ele>86.3</ele>
    <time>2021-04-10T20:03:00Z</time>
   </trkpt>
   <trkpt lat="47.8032470" lon="-122.3678900">
    <ele>86.5</ele>
    <time>2021-04-10T20:03:01Z</time>
   </trkpt>
   <trkpt lat="47.8032510" lon="-122.3678720">
    <ele>86.7</ele>
    <time>2021-04-10T20:03:02Z</time>
   </trkpt>
   <trkpt lat="47.8032520" lon="-122.3678570">
    <ele>86.9</ele>
    <time>2021-04-10T20:03:03Z</time>
   </trkpt>
   <trkpt lat="47.8032480" lon="-122.3678480">
    <ele>87.1</ele>
    <time>2021-04-10T20:03:04Z</time>
   </trkpt>
   <trkpt lat="47.8032500" lon="-122.3678350">
    <ele>87.3</ele>
    <time>2021-04-10T20:03:05Z</time>
   </trkpt>
   <trkpt lat="47.8032510" lon="-122.3678200">
    <ele>87.5</ele>
    <time>2021-04-10T20:03:06Z</time>
   </trkpt>
   <trkpt lat="47.8032480" lon="-122.3677990">
    <ele>87.7</ele>
    <time>2021-04-10T20:03:07Z</time>
   </trkpt>
   <trkpt lat="47.8032430" lon="-122.3677860">
    <ele>87.9</ele>
    <time>2021-04-10T20:03:08Z</time>
   </trkpt>
   <trkpt lat="47.8032400" lon="-122.3677740">
    <ele>88.1</ele>
    <time>2021-04-10T20:03:09Z</time>
   </trkpt>
   <trkpt lat="47.8032370" lon="-122.3677560">
    <ele>88.3</ele>
    <time>2021-04-10T20:03:10Z</time>
   </trkpt>
   <trkpt lat="47.8032310" lon="-122.3677360">
    <ele>88.6</ele>
    <time>2021-04-10T20:03:11Z</time>
   </trkpt>
   <trkpt lat="47.8032300" lon="-122.3677220">
    <ele>88.8</ele>
    <time>2021-04-10T20:03:12Z</time>
   </trkpt>
   <trkpt lat="47.8032280" lon="-122.3677080">
    <ele>89.0</ele>
    <time>2021-04-10T20:03:13Z</time>
   </trkpt>
   <trkpt lat="47.8032240" lon="-122.3677000">
    <ele>89.1</ele>
    <time>2021-04-10T20:03:14Z</time>
   </trkpt>
   <trkpt lat="47.8032240" lon="-122.3676830">
    <ele>89.3</ele>
    <time>2021-04-10T20:03:15Z</time>
   </trkpt>
   <trkpt lat="47.8032270" lon="-122.3676650">
    <ele>89.5</ele>
    <time>2021-04-10T20:03:16Z</time>
   </trkpt>
   <trkpt lat="47.8032290" lon="-122.3676400">
    <ele>89.9</ele>
    <time>2021-04-10T20:03:17Z</time>
   </trkpt>
   <trkpt lat="47.8032290" lon="-122.3676300">
    <ele>90.0</ele>
    <time>2021-04-10T20:03:18Z</time>
   </trkpt>
   <trkpt lat="47.8032280" lon="-122.3676200">
    <ele>90.1</ele>
    <time>2021-04-10T20:03:19Z</time>
   </trkpt>
   <trkpt lat="47.8032280" lon="-122.3676100">
    <ele>90.2</ele>
    <time>2021-04-10T20:03:20Z</time>
   </trkpt>
   <trkpt lat="47.8032320" lon="-122.3676000">
    <ele>90.4</ele>
    <time>2021-04-10T20:03:21Z</time>
   </trkpt>
   <trkpt lat="47.8032370" lon="-122.3675810">
    <ele>90.6</ele>
    <time>2021-04-10T20:03:22Z</time>
   </trkpt>
   <trkpt lat="47.8032400" lon="-122.3675680">
    <ele>90.8</ele>
    <time>2021-04-10T20:03:23Z</time>
   </trkpt>
   <trkpt lat="47.8032410" lon="-122.3675500">
    <ele>91.0</ele>
    <time>2021-04-10T20:03:24Z</time>
   </trkpt>
   <trkpt lat="47.8032410" lon="-122.3675310">
    <ele>91.3</ele>
    <time>2021-04-10T20:03:25Z</time>
   </trkpt>
   <trkpt lat="47.8032420" lon="-122.3675190">
    <ele>91.4</ele>
    <time>2021-04-10T20:03:26Z</time>
   </trkpt>
   <trkpt lat="47.8032420" lon="-122.3675060">
    <ele>91.6</ele>
    <time>2021-04-10T20:03:27Z</time>
   </trkpt>
   <trkpt lat="47.8032410" lon="-122.3674910">
    <ele>91.8</ele>
    <time>2021-04-10T20:03:28Z</time>
   </trkpt>
   <trkpt lat="47.8032450" lon="-122.3674690">
    <ele>92.0</ele>
    <time>2021-04-10T20:03:29Z</time>
   </trkpt>
   <trkpt lat="47.8032430" lon="-122.3674530">
    <ele>92.2</ele>
    <time>2021-04-10T20:03:30Z</time>
   </trkpt>
   <trkpt lat="47.8032410" lon="-122.3674380">
    <ele>92.4</ele>
    <time>2021-04-10T20:03:31Z</time>
   </trkpt>
   <trkpt lat="47.8032400" lon="-122.3674240">
    <ele>92.6</ele>
    <time>2021-04-10T20:03:32Z</time>
   </trkpt>
   <trkpt lat="47.8032400" lon="-122.3674040">
    <ele>92.8</ele>
    <time>2021-04-10T20:03:33Z</time>
   </trkpt>
   <trkpt lat="47.8032390" lon="-122.3673850">
    <ele>93.0</ele>
    <time>2021-04-10T20:03:34Z</time>
   </trkpt>
   <trkpt lat="47.8032420" lon="-122.3673750">
    <ele>93.1</ele>
    <time>2021-04-10T20:03:35Z</time>
   </trkpt>
   <trkpt lat="47.8032460" lon="-122.3673610">
    <ele>93.3</ele>
    <time>2021-04-10T20:03:36Z</time>
   </trkpt>
   <trkpt lat="47.8032470" lon="-122.3673500">
    <ele>93.4</ele>
    <time>2021-04-10T20:03:37Z</time>
   </trkpt>
   <trkpt lat="47.8032460" lon="-122.3673260">
    <ele>93.6</ele>
    <time>2021-04-10T20:03:38Z</time>
   </trkpt>
   <trkpt lat="47.8032490" lon="-122.3673120">
    <ele>93.7</ele>
    <time>2021-04-10T20:03:39Z</time>
   </trkpt>
   <trkpt lat="47.8032460" lon="-122.3672940">
    <ele>93.9</ele>
    <time>2021-04-10T20:03:40Z</time>
   </trkpt>
   <trkpt lat="47.8032400" lon="-122.3672840">
    <ele>94.0</ele>
    <time>2021-04-10T20:03:41Z</time>
   </trkpt>
   <trkpt lat="47.8032430" lon="-122.3672580">
    <ele>94.3</ele>
    <time>2021-04-10T20:03:42Z</time>
   </trkpt>
   <trkpt lat="47.8032350" lon="-122.3672350">
    <ele>94.5</ele>
    <time>2021-04-10T20:03:43Z</time>
   </trkpt>
   <trkpt lat="47.8032340" lon="-122.3672230">
    <ele>94.6</ele>
    <time>2021-04-10T20:03:44Z</time>
   </trkpt>
   <trkpt lat="47.8032310" lon="-122.3672010">
    <ele>94.8</ele>
    <time>2021-04-10T20:03:45Z</time>
   </trkpt>
   <trkpt lat="47.8032280" lon="-122.3671830">
    <ele>94.9</ele>
    <time>2021-04-10T20:03:46Z</time>
   </trkpt>
   <trkpt lat="47.8032290" lon="-122.3671590">
    <ele>95.1</ele>
    <time>2021-04-10T20:03:47Z</time>
   </trkpt>
   <trkpt lat="47.8032270" lon="-122.3671420">
    <ele>95.2</ele>
    <time>2021-04-10T20:03:48Z</time>
   </trkpt>
   <trkpt lat="47.8032220" lon="-122.3671250">
    <ele>95.3</ele>
    <time>2021-04-10T20:03:49Z</time>
   </trkpt>
   <trkpt lat="47.8032090" lon="-122.3671010">
    <ele>95.5</ele>
    <time>2021-04-10T20:03:50Z</time>
   </trkpt>
   <trkpt lat="47.8031980" lon="-122.3670840">
    <ele>96.7</ele>
    <time>2021-04-10T20:03:51Z</time>
   </trkpt>
   <trkpt lat="47.8031830" lon="-122.3670670">
    <ele>96.7</ele>
    <time>2021-04-10T20:03:52Z</time>
   </trkpt>
   <trkpt lat="47.8031740" lon="-122.3670600">
    <ele>96.8</ele>
    <time>2021-04-10T20:03:53Z</time>
   </trkpt>
   <trkpt lat="47.8031690" lon="-122.3670510">
    <ele>96.8</ele>
    <time>2021-04-10T20:03:54Z</time>
   </trkpt>
   <trkpt lat="47.8031620" lon="-122.3670400">
    <ele>96.8</ele>
    <time>2021-04-10T20:03:55Z</time>
   </trkpt>
   <trkpt lat="47.8031470" lon="-122.3670250">
    <ele>96.8</ele>
    <time>2021-04-10T20:03:56Z</time>
   </trkpt>
   <trkpt lat="47.8031390" lon="-122.3670190">
    <ele>96.9</ele>
    <time>2021-04-10T20:03:57Z</time>
   </trkpt>
   <trkpt lat="47.8031240" lon="-122.3670140">
    <ele>96.9</ele>
    <time>2021-04-10T20:03:58Z</time>
   </trkpt>
   <trkpt lat="47.8031050" lon="-122.3670130">
    <ele>96.9</ele>
    <time>2021-04-10T20:03:59Z</time>
   </trkpt>
   <trkpt lat="47.8030890" lon="-122.3670150">
    <ele>97.0</ele>
    <time>2021-04-10T20:04:00Z</time>
   </trkpt>
   <trkpt lat="47.8030730" lon="-122.3670150">
    <ele>97.0</ele>
    <time>2021-04-10T20:04:01Z</time>
   </trkpt>
   <trkpt lat="47.8030500" lon="-122.3670120">
    <ele>97.0</ele>
    <time>2021-04-10T20:04:02Z</time>
   </trkpt>
   <trkpt lat="47.8030410" lon="-122.3670110">
    <ele>97.1</ele>
    <time>2021-04-10T20:04:03Z</time>
   </trkpt>
   <trkpt lat="47.8030320" lon="-122.3670100">
    <ele>97.1</ele>
    <time>2021-04-10T20:04:04Z</time>
   </trkpt>
   <trkpt lat="47.8030170" lon="-122.3670040">
    <ele>97.1</ele>
    <time>2021-04-10T20:04:05Z</time>
   </trkpt>
   <trkpt lat="47.8030020" lon="-122.3670050">
    <ele>97.2</ele>
    <time>2021-04-10T20:04:06Z</time>
   </trkpt>
   <trkpt lat="47.8029880" lon="-122.3670060">
    <ele>97.2</ele>
    <time>2021-04-10T20:04:07Z</time>
   </trkpt>
   <trkpt lat="47.8029700" lon="-122.3670080">
    <ele>97.2</ele>
    <time>2021-04-10T20:04:08Z</time>
   </trkpt>
   <trkpt lat="47.8029470" lon="-122.3670090">
    <ele>97.3</ele>
    <time>2021-04-10T20:04:09Z</time>
   </trkpt>
   <trkpt lat="47.8029380" lon="-122.3670110">
    <ele>97.3</ele>
    <time>2021-04-10T20:04:10Z</time>
   </trkpt>
   <trkpt lat="47.8029290" lon="-122.3670130">
    <ele>97.3</ele>
    <time>2021-04-10T20:04:11Z</time>
   </trkpt>
   <trkpt lat="47.8029150" lon="-122.3670100">
    <ele>97.3</ele>
    <time>2021-04-10T20:04:12Z</time>
   </trkpt>
   <trkpt lat="47.8028990" lon="-122.3670070">
    <ele>97.4</ele>
    <time>2021-04-10T20:04:13Z</time>
   </trkpt>
   <trkpt lat="47.8028750" lon="-122.3670020">
    <ele>97.4</ele>
    <time>2021-04-10T20:04:14Z</time>
   </trkpt>
   <trkpt lat="47.8028670" lon="-122.3670020">
    <ele>97.5</ele>
    <time>2021-04-10T20:04:15Z</time>
   </trkpt>
   <trkpt lat="47.8028580" lon="-122.3670030">
    <ele>97.5</ele>
    <time>2021-04-10T20:04:16Z</time>
   </trkpt>
   <trkpt lat="47.8028430" lon="-122.3669960">
    <ele>97.5</ele>
    <time>2021-04-10T20:04:17Z</time>
   </trkpt>
   <trkpt lat="47.8028260" lon="-122.3669890">
    <ele>97.5</ele>
    <time>2021-04-10T20:04:18Z</time>
   </trkpt>
   <trkpt lat="47.8028030" lon="-122.3669860">
    <ele>97.6</ele>
    <time>2021-04-10T20:04:19Z</time>
   </trkpt>
   <trkpt lat="47.8027920" lon="-122.3669850">
    <ele>97.6</ele>
    <time>2021-04-10T20:04:20Z</time>
   </trkpt>
   <trkpt lat="47.8027800" lon="-122.3669840">
    <ele>97.6</ele>
    <time>2021-04-10T20:04:21Z</time>
   </trkpt>
   <trkpt lat="47.8027630" lon="-122.3669840">
    <ele>97.7</ele>
    <time>2021-04-10T20:04:22Z</time>
   </trkpt>
   <trkpt lat="47.8027480" lon="-122.3669850">
    <ele>97.7</ele>
    <time>2021-04-10T20:04:23Z</time>
   </trkpt>
   <trkpt lat="47.8027280" lon="-122.3669810">
    <ele>97.8</ele>
    <time>2021-04-10T20:04:24Z</time>
   </trkpt>
   <trkpt lat="47.8027200" lon="-122.3669810">
    <ele>97.8</ele>
    <time>2021-04-10T20:04:25Z</time>
   </trkpt>
   <trkpt lat="47.8027120" lon="-122.3669800">
    <ele>97.8</ele>
    <time>2021-04-10T20:04:26Z</time>
   </trkpt>
   <trkpt lat="47.8026900" lon="-122.3669770">
    <ele>97.8</ele>
    <time>2021-04-10T20:04:27Z</time>
   </trkpt>
   <trkpt lat="47.8026820" lon="-122.3669790">
    <ele>97.8</ele>
    <time>2021-04-10T20:04:28Z</time>
   </trkpt>
   <trkpt lat="47.8026750" lon="-122.3669810">
    <ele>97.9</ele>
    <time>2021-04-10T20:04:29Z</time>
   </trkpt>
   <trkpt lat="47.8026580" lon="-122.3669780">
    <ele>97.9</ele>
    <time>2021-04-10T20:04:30Z</time>
   </trkpt>
   <trkpt lat="47.8026450" lon="-122.3669720">
    <ele>97.9</ele>
    <time>2021-04-10T20:04:31Z</time>
   </trkpt>
   <trkpt lat="47.8026290" lon="-122.3669650">
    <ele>98.0</ele>
    <time>2021-04-10T20:04:32Z</time>
   </trkpt>
   <trkpt lat="47.8026180" lon="-122.3669640">
    <ele>98.0</ele>
    <time>2021-04-10T20:04:33Z</time>
   </trkpt>
   <trkpt lat="47.8025980" lon="-122.3669610">
    <ele>98.0</ele>
    <time>2021-04-10T20:04:34Z</time>
   </trkpt>
   <trkpt lat="47.8025890" lon="-122.3669610">
    <ele>98.0</ele>
    <time>2021-04-10T20:04:35Z</time>
   </trkpt>
   <trkpt lat="47.8025800" lon="-122.3669600">
    <ele>98.1</ele>
    <time>2021-04-10T20:04:36Z</time>
   </trkpt>
   <trkpt lat="47.8025700" lon="-122.3669630">
    <ele>98.1</ele>
    <time>2021-04-10T20:04:37Z</time>
   </trkpt>
   <trkpt lat="47.8025590" lon="-122.3669660">
    <ele>98.1</ele>
    <time>2021-04-10T20:04:38Z</time>
   </trkpt>
   <trkpt lat="47.8025460" lon="-122.3669670">
    <ele>98.1</ele>
    <time>2021-04-10T20:04:39Z</time>
   </trkpt>
   <trkpt lat="47.8025380" lon="-122.3669650">
    <ele>98.1</ele>
    <time>2021-04-10T20:04:40Z</time>
   </trkpt>
   <trkpt lat="47.8025280" lon="-122.3669610">
    <ele>98.1</ele>
    <time>2021-04-10T20:04:41Z</time>
   </trkpt>
   <trkpt lat="47.8025230" lon="-122.3669680">
    <ele>98.2</ele>
    <time>2021-04-10T20:04:42Z</time>
   </trkpt>
   <trkpt lat="47.8025150" lon="-122.3669710">
    <ele>98.2</ele>
    <time>2021-04-10T20:04:43Z</time>
   </trkpt>
   <trkpt lat="47.8024920" lon="-122.3669740">
    <ele>98.2</ele>
    <time>2021-04-10T20:04:44Z</time>
   </trkpt>
   <trkpt lat="47.8024820" lon="-122.3669740">
    <ele>98.2</ele>
    <time>2021-04-10T20:04:45Z</time>
   </trkpt>
   <trkpt lat="47.8024710" lon="-122.3669730">
    <ele>98.2</ele>
    <time>2021-04-10T20:04:46Z</time>
   </trkpt>
   <trkpt lat="47.8024560" lon="-122.3669750">
    <ele>98.3</ele>
    <time>2021-04-10T20:04:47Z</time>
   </trkpt>
   <trkpt lat="47.8024430" lon="-122.3669720">
    <ele>98.3</ele>
    <time>2021-04-10T20:04:48Z</time>
   </trkpt>
   <trkpt lat="47.8024260" lon="-122.3669730">
    <ele>98.3</ele>
    <time>2021-04-10T20:04:49Z</time>
   </trkpt>
   <trkpt lat="47.8024100" lon="-122.3669760">
    <ele>98.3</ele>
    <time>2021-04-10T20:04:50Z</time>
   </trkpt>
   <trkpt lat="47.8023890" lon="-122.3669790">
    <ele>98.4</ele>
    <time>2021-04-10T20:04:51Z</time>
   </trkpt>
   <trkpt lat="47.8023790" lon="-122.3669770">
    <ele>98.4</ele>
    <time>2021-04-10T20:04:52Z</time>
   </trkpt>
   <trkpt lat="47.8023700" lon="-122.3669760">
    <ele>98.4</ele>
    <time>2021-04-10T20:04:53Z</time>
   </trkpt>
   <trkpt lat="47.8023480" lon="-122.3669780">
    <ele>98.4</ele>
    <time>2021-04-10T20:04:54Z</time>
   </trkpt>
   <trkpt lat="47.8023400" lon="-122.3669790">
    <ele>98.4</ele>
    <time>2021-04-10T20:04:55Z</time>
   </trkpt>
   <trkpt lat="47.8023320" lon="-122.3669810">
    <ele>98.5</ele>
    <time>2021-04-10T20:04:56Z</time>
   </trkpt>
   <trkpt lat="47.8023130" lon="-122.3669790">
    <ele>98.5</ele>
    <time>2021-04-10T20:04:57Z</time>
   </trkpt>
   <trkpt lat="47.8022970" lon="-122.3669740">
    <ele>98.5</ele>
    <time>2021-04-10T20:04:58Z</time>
   </trkpt>
   <trkpt lat="47.8022810" lon="-122.3669590">
    <ele>98.5</ele>
    <time>2021-04-10T20:04:59Z</time>
   </trkpt>
   <trkpt lat="47.8022680" lon="-122.3669570">
    <ele>98.6</ele>
    <time>2021-04-10T20:05:00Z</time>
   </trkpt>
   <trkpt lat="47.8022540" lon="-122.3669500">
    <ele>98.6</ele>
    <time>2021-04-10T20:05:01Z</time>
   </trkpt>
   <trkpt lat="47.8022400" lon="-122.3669520">
    <ele>98.6</ele>
    <time>2021-04-10T20:05:02Z</time>
   </trkpt>
   <trkpt lat="47.8022180" lon="-122.3669490">
    <ele>98.6</ele>
    <time>2021-04-10T20:05:03Z</time>
   </trkpt>
   <trkpt lat="47.8022090" lon="-122.3669470">
    <ele>98.6</ele>
    <time>2021-04-10T20:05:04Z</time>
   </trkpt>
   <trkpt lat="47.8021990" lon="-122.3669440">
    <ele>98.7</ele>
    <time>2021-04-10T20:05:05Z</time>
   </trkpt>
   <trkpt lat="47.8021840" lon="-122.3669460">
    <ele>98.7</ele>
    <time>2021-04-10T20:05:06Z</time>
   </trkpt>
   <trkpt lat="47.8021660" lon="-122.3669500">
    <ele>98.7</ele>
    <time>2021-04-10T20:05:07Z</time>
   </trkpt>
   <trkpt lat="47.8021440" lon="-122.3669530">
    <ele>98.7</ele>
    <time>2021-04-10T20:05:08Z</time>
   </trkpt>
   <trkpt lat="47.8021360" lon="-122.3669550">
    <ele>98.8</ele>
    <time>2021-04-10T20:05:09Z</time>
   </trkpt>
   <trkpt lat="47.8021270" lon="-122.3669570">
    <ele>98.8</ele>
    <time>2021-04-10T20:05:10Z</time>
   </trkpt>
   <trkpt lat="47.8021050" lon="-122.3669560">
    <ele>98.8</ele>
    <time>2021-04-10T20:05:11Z</time>
   </trkpt>
   <trkpt lat="47.8020960" lon="-122.3669510">
    <ele>98.8</ele>
    <time>2021-04-10T20:05:12Z</time>
   </trkpt>
   <trkpt lat="47.8020860" lon="-122.3669470">
    <ele>98.8</ele>
    <time>2021-04-10T20:05:13Z</time>
   </trkpt>
   <trkpt lat="47.8020740" lon="-122.3669470">
    <ele>98.8</ele>
    <time>2021-04-10T20:05:14Z</time>
   </trkpt>
   <trkpt lat="47.8020570" lon="-122.3669440">
    <ele>98.9</ele>
    <time>2021-04-10T20:05:15Z</time>
   </trkpt>
   <trkpt lat="47.8020340" lon="-122.3669410">
    <ele>98.9</ele>
    <time>2021-04-10T20:05:16Z</time>
   </trkpt>
   <trkpt lat="47.8020260" lon="-122.3669390">
    <ele>98.9</ele>
    <time>2021-04-10T20:05:17Z</time>
   </trkpt>
   <trkpt lat="47.8020170" lon="-122.3669380">
    <ele>98.9</ele>
    <time>2021-04-10T20:05:18Z</time>
   </trkpt>
   <trkpt lat="47.8019940" lon="-122.3669280">
    <ele>98.9</ele>
    <time>2021-04-10T20:05:19Z</time>
   </trkpt>
   <trkpt lat="47.8019850" lon="-122.3669240">
    <ele>99.0</ele>
    <time>2021-04-10T20:05:20Z</time>
   </trkpt>
   <trkpt lat="47.8019770" lon="-122.3669200">
    <ele>99.0</ele>
    <time>2021-04-10T20:05:21Z</time>
   </trkpt>
   <trkpt lat="47.8019550" lon="-122.3669310">
    <ele>99.0</ele>
    <time>2021-04-10T20:05:22Z</time>
   </trkpt>
   <trkpt lat="47.8019450" lon="-122.3669380">
    <ele>99.0</ele>
    <time>2021-04-10T20:05:23Z</time>
   </trkpt>
   <trkpt lat="47.8019350" lon="-122.3669440">
    <ele>99.0</ele>
    <time>2021-04-10T20:05:24Z</time>
   </trkpt>
   <trkpt lat="47.8019140" lon="-122.3669480">
    <ele>99.1</ele>
    <time>2021-04-10T20:05:25Z</time>
   </trkpt>
   <trkpt lat="47.8019060" lon="-122.3669510">
    <ele>99.1</ele>
    <time>2021-04-10T20:05:26Z</time>
   </trkpt>
   <trkpt lat="47.8018980" lon="-122.3669540">
    <ele>99.1</ele>
    <time>2021-04-10T20:05:27Z</time>
   </trkpt>
   <trkpt lat="47.8018850" lon="-122.3669520">
    <ele>99.1</ele>
    <time>2021-04-10T20:05:28Z</time>
   </trkpt>
   <trkpt lat="47.8018680" lon="-122.3669480">
    <ele>99.1</ele>
    <time>2021-04-10T20:05:29Z</time>
   </trkpt>
   <trkpt lat="47.8018560" lon="-122.3669440">
    <ele>99.1</ele>
    <time>2021-04-10T20:05:30Z</time>
   </trkpt>
   <trkpt lat="47.8018380" lon="-122.3669430">
    <ele>99.1</ele>
    <time>2021-04-10T20:05:31Z</time>
   </trkpt>
   <trkpt lat="47.8018270" lon="-122.3669430">
    <ele>99.1</ele>
    <time>2021-04-10T20:05:32Z</time>
   </trkpt>
   <trkpt lat="47.8018160" lon="-122.3669460">
    <ele>99.1</ele>
    <time>2021-04-10T20:05:33Z</time>
   </trkpt>
   <trkpt lat="47.8018050" lon="-122.3669470">
    <ele>99.1</ele>
    <time>2021-04-10T20:05:34Z</time>
   </trkpt>
   <trkpt lat="47.8017900" lon="-122.3669440">
    <ele>99.1</ele>
    <time>2021-04-10T20:05:35Z</time>
   </trkpt>
   <trkpt lat="47.8017760" lon="-122.3669390">
    <ele>99.1</ele>
    <time>2021-04-10T20:05:36Z</time>
   </trkpt>
   <trkpt lat="47.8017640" lon="-122.3669330">
    <ele>99.1</ele>
    <time>2021-04-10T20:05:37Z</time>
   </trkpt>
   <trkpt lat="47.8017500" lon="-122.3669290">
    <ele>99.1</ele>
    <time>2021-04-10T20:05:38Z</time>
   </trkpt>
   <trkpt lat="47.8017260" lon="-122.3669270">
    <ele>99.2</ele>
    <time>2021-04-10T20:05:39Z</time>
   </trkpt>
   <trkpt lat="47.8017150" lon="-122.3669250">
    <ele>99.2</ele>
    <time>2021-04-10T20:05:40Z</time>
   </trkpt>
   <trkpt lat="47.8017050" lon="-122.3669230">
    <ele>99.2</ele>
    <time>2021-04-10T20:05:41Z</time>
   </trkpt>
   <trkpt lat="47.8016830" lon="-122.3669240">
    <ele>99.2</ele>
    <time>2021-04-10T20:05:42Z</time>
   </trkpt>
   <trkpt lat="47.8016740" lon="-122.3669240">
    <ele>99.2</ele>
    <time>2021-04-10T20:05:43Z</time>
   </trkpt>
   <trkpt lat="47.8016650" lon="-122.3669240">
    <ele>99.2</ele>
    <time>2021-04-10T20:05:44Z</time>
   </trkpt>
   <trkpt lat="47.8016520" lon="-122.3669290">
    <ele>99.2</ele>
    <time>2021-04-10T20:05:45Z</time>
   </trkpt>
   <trkpt lat="47.8016360" lon="-122.3669270">
    <ele>99.2</ele>
    <time>2021-04-10T20:05:46Z</time>
   </trkpt>
   <trkpt lat="47.8016240" lon="-122.3669220">
    <ele>99.2</ele>
    <time>2021-04-10T20:05:47Z</time>
   </trkpt>
   <trkpt lat="47.8016090" lon="-122.3669150">
    <ele>99.2</ele>
    <time>2021-04-10T20:05:48Z</time>
   </trkpt>
   <trkpt lat="47.8015900" lon="-122.3669130">
    <ele>99.2</ele>
    <time>2021-04-10T20:05:49Z</time>
   </trkpt>
   <trkpt lat="47.8015810" lon="-122.3669120">
    <ele>99.2</ele>
    <time>2021-04-10T20:05:50Z</time>
   </trkpt>
   <trkpt lat="47.8015730" lon="-122.3669100">
    <ele>99.3</ele>
    <time>2021-04-10T20:05:51Z</time>
   </trkpt>
   <trkpt lat="47.8015530" lon="-122.3669040">
    <ele>99.3</ele>
    <time>2021-04-10T20:05:52Z</time>
   </trkpt>
   <trkpt lat="47.8015430" lon="-122.3669040">
    <ele>99.3</ele>
    <time>2021-04-10T20:05:53Z</time>
   </trkpt>
   <trkpt lat="47.8015340" lon="-122.3669050">
    <ele>99.3</ele>
    <time>2021-04-10T20:05:54Z</time>
   </trkpt>
   <trkpt lat="47.8015130" lon="-122.3669190">
    <ele>99.3</ele>
    <time>2021-04-10T20:05:55Z</time>
   </trkpt>
   <trkpt lat="47.8015050" lon="-122.3669290">
    <ele>99.3</ele>
    <time>2021-04-10T20:05:56Z</time>
   </trkpt>
   <trkpt lat="47.8014970" lon="-122.3669400">
    <ele>99.3</ele>
    <time>2021-04-10T20:05:57Z</time>
   </trkpt>
   <trkpt lat="47.8014820" lon="-122.3669870">
    <ele>99.3</ele>
    <time>2021-04-10T20:05:58Z</time>
   </trkpt>
   <trkpt lat="47.8014770" lon="-122.3670030">
    <ele>99.3</ele>
    <time>2021-04-10T20:05:59Z</time>
   </trkpt>
   <trkpt lat="47.8014700" lon="-122.3670260">
    <ele>99.3</ele>
    <time>2021-04-10T20:06:00Z</time>
   </trkpt>
   <trkpt lat="47.8014650" lon="-122.3670480">
    <ele>99.4</ele>
    <time>2021-04-10T20:06:01Z</time>
   </trkpt>
   <trkpt lat="47.8014530" lon="-122.3670730">
    <ele>99.4</ele>
    <time>2021-04-10T20:06:02Z</time>
   </trkpt>
   <trkpt lat="47.8014450" lon="-122.3670800">
    <ele>99.4</ele>
    <time>2021-04-10T20:06:03Z</time>
   </trkpt>
   <trkpt lat="47.8014380" lon="-122.3670860">
    <ele>99.4</ele>
    <time>2021-04-10T20:06:04Z</time>
   </trkpt>
   <trkpt lat="47.8014290" lon="-122.3670910">
    <ele>99.4</ele>
    <time>2021-04-10T20:06:05Z</time>
   </trkpt>
   <trkpt lat="47.8014190" lon="-122.3670990">
    <ele>99.4</ele>
    <time>2021-04-10T20:06:06Z</time>
   </trkpt>
   <trkpt lat="47.8014260" lon="-122.3671020">
    <ele>99.4</ele>
    <time>2021-04-10T20:06:07Z</time>
   </trkpt>
   <trkpt lat="47.8014260" lon="-122.3671050">
    <ele>99.4</ele>
    <time>2021-04-10T20:06:08Z</time>
   </trkpt>
   <trkpt lat="47.8014240" lon="-122.3671070">
    <ele>99.4</ele>
    <time>2021-04-10T20:06:09Z</time>
   </trkpt>
   <trkpt lat="47.8014230" lon="-122.3671110">
    <ele>99.4</ele>
    <time>2021-04-10T20:06:10Z</time>
   </trkpt>
   <trkpt lat="47.8014240" lon="-122.3671180">
    <ele>99.4</ele>
    <time>2021-04-10T20:06:11Z</time>
   </trkpt>
   <trkpt lat="47.8014240" lon="-122.3671190">
    <ele>99.4</ele>
    <time>2021-04-10T20:06:12Z</time>
   </trkpt>
   <trkpt lat="47.8014250" lon="-122.3671160">
    <ele>99.5</ele>
    <time>2021-04-10T20:06:13Z</time>
   </trkpt>
   <trkpt lat="47.8014200" lon="-122.3671060">
    <ele>99.5</ele>
    <time>2021-04-10T20:06:14Z</time>
   </trkpt>
   <trkpt lat="47.8014160" lon="-122.3670930">
    <ele>99.5</ele>
    <time>2021-04-10T20:06:15Z</time>
   </trkpt>
   <trkpt lat="47.8014140" lon="-122.3670700">
    <ele>99.5</ele>
    <time>2021-04-10T20:06:16Z</time>
   </trkpt>
   <trkpt lat="47.8014160" lon="-122.3670510">
    <ele>99.5</ele>
    <time>2021-04-10T20:06:17Z</time>
   </trkpt>
   <trkpt lat="47.8014210" lon="-122.3670430">
    <ele>99.5</ele>
    <time>2021-04-10T20:06:18Z</time>
   </trkpt>
   <trkpt lat="47.8014160" lon="-122.3670310">
    <ele>99.6</ele>
    <time>2021-04-10T20:06:19Z</time>
   </trkpt>
   <trkpt lat="47.8014100" lon="-122.3670150">
    <ele>99.6</ele>
    <time>2021-04-10T20:06:20Z</time>
   </trkpt>
   <trkpt lat="47.8013950" lon="-122.3670100">
    <ele>99.6</ele>
    <time>2021-04-10T20:06:21Z</time>
   </trkpt>
   <trkpt lat="47.8013650" lon="-122.3669980">
    <ele>99.6</ele>
    <time>2021-04-10T20:06:22Z</time>
   </trkpt>
   <trkpt lat="47.8013560" lon="-122.3669960">
    <ele>99.7</ele>
    <time>2021-04-10T20:06:23Z</time>
   </trkpt>
   <trkpt lat="47.8013290" lon="-122.3669980">
    <ele>99.7</ele>
    <time>2021-04-10T20:06:24Z</time>
   </trkpt>
   <trkpt lat="47.8013200" lon="-122.3669980">
    <ele>99.7</ele>
    <time>2021-04-10T20:06:25Z</time>
   </trkpt>
   <trkpt lat="47.8013000" lon="-122.3669890">
    <ele>99.7</ele>
    <time>2021-04-10T20:06:26Z</time>
   </trkpt>
   <trkpt lat="47.8012910" lon="-122.3669860">
    <ele>99.7</ele>
    <time>2021-04-10T20:06:27Z</time>
   </trkpt>
   <trkpt lat="47.8012820" lon="-122.3669820">
    <ele>99.8</ele>
    <time>2021-04-10T20:06:28Z</time>
   </trkpt>
   <trkpt lat="47.8012580" lon="-122.3669760">
    <ele>99.8</ele>
    <time>2021-04-10T20:06:29Z</time>
   </trkpt>
   <trkpt lat="47.8012500" lon="-122.3669730">
    <ele>99.8</ele>
    <time>2021-04-10T20:06:30Z</time>
   </trkpt>
   <trkpt lat="47.8012420" lon="-122.3669710">
    <ele>99.8</ele>
    <time>2021-04-10T20:06:31Z</time>
   </trkpt>
   <trkpt lat="47.8012220" lon="-122.3669680">
    <ele>99.8</ele>
    <time>2021-04-10T20:06:32Z</time>
   </trkpt>
   <trkpt lat="47.8012120" lon="-122.3669680">
    <ele>99.8</ele>
    <time>2021-04-10T20:06:33Z</time>
   </trkpt>
   <trkpt lat="47.8012010" lon="-122.3669690">
    <ele>99.9</ele>
    <time>2021-04-10T20:06:34Z</time>
   </trkpt>
   <trkpt lat="47.8011850" lon="-122.3669650">
    <ele>99.9</ele>
    <time>2021-04-10T20:06:35Z</time>
   </trkpt>
   <trkpt lat="47.8011720" lon="-122.3669660">
    <ele>99.9</ele>
    <time>2021-04-10T20:06:36Z</time>
   </trkpt>
   <trkpt lat="47.8011570" lon="-122.3669700">
    <ele>99.9</ele>
    <time>2021-04-10T20:06:37Z</time>
   </trkpt>
   <trkpt lat="47.8011400" lon="-122.3669750">
    <ele>99.9</ele>
    <time>2021-04-10T20:06:38Z</time>
   </trkpt>
   <trkpt lat="47.8011190" lon="-122.3669740">
    <ele>99.9</ele>
    <time>2021-04-10T20:06:39Z</time>
   </trkpt>
   <trkpt lat="47.8011110" lon="-122.3669730">
    <ele>99.9</ele>
    <time>2021-04-10T20:06:40Z</time>
   </trkpt>
   <trkpt lat="47.8011030" lon="-122.3669720">
    <ele>99.9</ele>
    <time>2021-04-10T20:06:41Z</time>
   </trkpt>
   <trkpt lat="47.8010920" lon="-122.3669670">
    <ele>99.9</ele>
    <time>2021-04-10T20:06:42Z</time>
   </trkpt>
   <trkpt lat="47.8010750" lon="-122.3669670">
    <ele>99.9</ele>
    <time>2021-04-10T20:06:43Z</time>
   </trkpt>
   <trkpt lat="47.8010640" lon="-122.3669670">
    <ele>99.9</ele>
    <time>2021-04-10T20:06:44Z</time>
   </trkpt>
   <trkpt lat="47.8010540" lon="-122.3669690">
    <ele>99.9</ele>
    <time>2021-04-10T20:06:45Z</time>
   </trkpt>
   <trkpt lat="47.8010410" lon="-122.3669750">
    <ele>99.9</ele>
    <time>2021-04-10T20:06:46Z</time>
   </trkpt>
   <trkpt lat="47.8010300" lon="-122.3669740">
    <ele>99.9</ele>
    <time>2021-04-10T20:06:47Z</time>
   </trkpt>
   <trkpt lat="47.8010120" lon="-122.3669680">
    <ele>99.9</ele>
    <time>2021-04-10T20:06:48Z</time>
   </trkpt>
   <trkpt lat="47.8009890" lon="-122.3669640">
    <ele>99.9</ele>
    <time>2021-04-10T20:06:49Z</time>
   </trkpt>
   <trkpt lat="47.8009810" lon="-122.3669640">
    <ele>99.9</ele>
    <time>2021-04-10T20:06:50Z</time>
   </trkpt>
   <trkpt lat="47.8009720" lon="-122.3669630">
    <ele>99.9</ele>
    <time>2021-04-10T20:06:51Z</time>
   </trkpt>
   <trkpt lat="47.8009600" lon="-122.3669650">
    <ele>99.9</ele>
    <time>2021-04-10T20:06:52Z</time>
   </trkpt>
   <trkpt lat="47.8009460" lon="-122.3669680">
    <ele>99.9</ele>
    <time>2021-04-10T20:06:53Z</time>
   </trkpt>
   <trkpt lat="47.8009380" lon="-122.3669620">
    <ele>99.9</ele>
    <time>2021-04-10T20:06:54Z</time>
   </trkpt>
   <trkpt lat="47.8009240" lon="-122.3669640">
    <ele>99.9</ele>
    <time>2021-04-10T20:06:55Z</time>
   </trkpt>
   <trkpt lat="47.8009100" lon="-122.3669680">
    <ele>99.9</ele>
    <time>2021-04-10T20:06:56Z</time>
   </trkpt>
   <trkpt lat="47.8008950" lon="-122.3669700">
    <ele>99.9</ele>
    <time>2021-04-10T20:06:57Z</time>
   </trkpt>
   <trkpt lat="47.8008810" lon="-122.3669680">
    <ele>99.8</ele>
    <time>2021-04-10T20:06:58Z</time>
   </trkpt>
   <trkpt lat="47.8008610" lon="-122.3669670">
    <ele>99.8</ele>
    <time>2021-04-10T20:06:59Z</time>
   </trkpt>
   <trkpt lat="47.8008520" lon="-122.3669640">
    <ele>99.8</ele>
    <time>2021-04-10T20:07:00Z</time>
   </trkpt>
   <trkpt lat="47.8008430" lon="-122.3669600">
    <ele>99.8</ele>
    <time>2021-04-10T20:07:01Z</time>
   </trkpt>
   <trkpt lat="47.8008320" lon="-122.3669630">
    <ele>99.8</ele>
    <time>2021-04-10T20:07:02Z</time>
   </trkpt>
   <trkpt lat="47.8008210" lon="-122.3669630">
    <ele>99.8</ele>
    <time>2021-04-10T20:07:03Z</time>
   </trkpt>
   <trkpt lat="47.8008080" lon="-122.3669620">
    <ele>99.7</ele>
    <time>2021-04-10T20:07:04Z</time>
   </trkpt>
   <trkpt lat="47.8007990" lon="-122.3669610">
    <ele>99.7</ele>
    <time>2021-04-10T20:07:05Z</time>
   </trkpt>
   <trkpt lat="47.8007880" lon="-122.3669580">
    <ele>99.7</ele>
    <time>2021-04-10T20:07:06Z</time>
   </trkpt>
   <trkpt lat="47.8007770" lon="-122.3669550">
    <ele>99.7</ele>
    <time>2021-04-10T20:07:07Z</time>
   </trkpt>
   <trkpt lat="47.8007600" lon="-122.3669540">
    <ele>99.7</ele>
    <time>2021-04-10T20:07:08Z</time>
   </trkpt>
   <trkpt lat="47.8007500" lon="-122.3669490">
    <ele>99.7</ele>
    <time>2021-04-10T20:07:09Z</time>
   </trkpt>
   <trkpt lat="47.8007400" lon="-122.3669450">
    <ele>99.6</ele>
    <time>2021-04-10T20:07:10Z</time>
   </trkpt>
   <trkpt lat="47.8007290" lon="-122.3669360">
    <ele>99.6</ele>
    <time>2021-04-10T20:07:11Z</time>
   </trkpt>
   <trkpt lat="47.8007200" lon="-122.3669350">
    <ele>99.6</ele>
    <time>2021-04-10T20:07:12Z</time>
   </trkpt>
   <trkpt lat="47.8007080" lon="-122.3669260">
    <ele>99.6</ele>
    <time>2021-04-10T20:07:13Z</time>
   </trkpt>
   <trkpt lat="47.8006870" lon="-122.3669200">
    <ele>99.5</ele>
    <time>2021-04-10T20:07:14Z</time>
   </trkpt>
   <trkpt lat="47.8006780" lon="-122.3669180">
    <ele>99.5</ele>
    <time>2021-04-10T20:07:15Z</time>
   </trkpt>
   <trkpt lat="47.8006680" lon="-122.3669150">
    <ele>99.5</ele>
    <time>2021-04-10T20:07:16Z</time>
   </trkpt>
   <trkpt lat="47.8006620" lon="-122.3669140">
    <ele>99.5</ele>
    <time>2021-04-10T20:07:17Z</time>
   </trkpt>
   <trkpt lat="47.8006520" lon="-122.3669150">
    <ele>99.5</ele>
    <time>2021-04-10T20:07:18Z</time>
   </trkpt>
   <trkpt lat="47.8006380" lon="-122.3669170">
    <ele>99.5</ele>
    <time>2021-04-10T20:07:19Z</time>
   </trkpt>
   <trkpt lat="47.8006280" lon="-122.3669110">
    <ele>99.4</ele>
    <time>2021-04-10T20:07:20Z</time>
   </trkpt>
   <trkpt lat="47.8006190" lon="-122.3669040">
    <ele>99.4</ele>
    <time>2021-04-10T20:07:21Z</time>
   </trkpt>
   <trkpt lat="47.8006050" lon="-122.3669030">
    <ele>99.4</ele>
    <time>2021-04-10T20:07:22Z</time>
   </trkpt>
   <trkpt lat="47.8005890" lon="-122.3668970">
    <ele>99.4</ele>
    <time>2021-04-10T20:07:23Z</time>
   </trkpt>
   <trkpt lat="47.8005780" lon="-122.3668940">
    <ele>99.4</ele>
    <time>2021-04-10T20:07:24Z</time>
   </trkpt>
   <trkpt lat="47.8005660" lon="-122.3668870">
    <ele>99.3</ele>
    <time>2021-04-10T20:07:25Z</time>
   </trkpt>
   <trkpt lat="47.8005570" lon="-122.3668840">
    <ele>99.3</ele>
    <time>2021-04-10T20:07:26Z</time>
   </trkpt>
   <trkpt lat="47.8005470" lon="-122.3668860">
    <ele>99.3</ele>
    <time>2021-04-10T20:07:27Z</time>
   </trkpt>
   <trkpt lat="47.8005370" lon="-122.3668830">
    <ele>99.3</ele>
    <time>2021-04-10T20:07:28Z</time>
   </trkpt>
   <trkpt lat="47.8005270" lon="-122.3668740">
    <ele>99.3</ele>
    <time>2021-04-10T20:07:29Z</time>
   </trkpt>
   <trkpt lat="47.8005190" lon="-122.3668710">
    <ele>99.3</ele>
    <time>2021-04-10T20:07:30Z</time>
   </trkpt>
   <trkpt lat="47.8005140" lon="-122.3668650">
    <ele>99.2</ele>
    <time>2021-04-10T20:07:31Z</time>
   </trkpt>
   <trkpt lat="47.8005150" lon="-122.3668670">
    <ele>99.2</ele>
    <time>2021-04-10T20:07:32Z</time>
   </trkpt>
   <trkpt lat="47.8005160" lon="-122.3668740">
    <ele>99.2</ele>
    <time>2021-04-10T20:07:33Z</time>
   </trkpt>
   <trkpt lat="47.8005170" lon="-122.3668820">
    <ele>99.2</ele>
    <time>2021-04-10T20:07:34Z</time>
   </trkpt>
   <trkpt lat="47.8005180" lon="-122.3668890">
    <ele>99.2</ele>
    <time>2021-04-10T20:07:35Z</time>
   </trkpt>
   <trkpt lat="47.8005170" lon="-122.3668950">
    <ele>99.2</ele>
    <time>2021-04-10T20:07:36Z</time>
   </trkpt>
   <trkpt lat="47.8005150" lon="-122.3669020">
    <ele>99.2</ele>
    <time>2021-04-10T20:07:37Z</time>
   </trkpt>
   <trkpt lat="47.8005150" lon="-122.3669020">
    <ele>99.2</ele>
    <time>2021-04-10T20:07:38Z</time>
   </trkpt>
   <trkpt lat="47.8005150" lon="-122.3669060">
    <ele>99.2</ele>
    <time>2021-04-10T20:07:39Z</time>
   </trkpt>
   <trkpt lat="47.8005140" lon="-122.3669090">
    <ele>99.2</ele>
    <time>2021-04-10T20:07:40Z</time>
   </trkpt>
   <trkpt lat="47.8005150" lon="-122.3669120">
    <ele>99.2</ele>
    <time>2021-04-10T20:07:41Z</time>
   </trkpt>
   <trkpt lat="47.8005180" lon="-122.3669140">
    <ele>99.2</ele>
    <time>2021-04-10T20:07:42Z</time>
   </trkpt>
   <trkpt lat="47.8005210" lon="-122.3669180">
    <ele>99.2</ele>
    <time>2021-04-10T20:07:43Z</time>
   </trkpt>
   <trkpt lat="47.8005200" lon="-122.3669170">
    <ele>99.2</ele>
    <time>2021-04-10T20:07:44Z</time>
   </trkpt>
   <trkpt lat="47.8005200" lon="-122.3669190">
    <ele>99.2</ele>
    <time>2021-04-10T20:07:45Z</time>
   </trkpt>
   <trkpt lat="47.8005210" lon="-122.3669270">
    <ele>99.2</ele>
    <time>2021-04-10T20:07:46Z</time>
   </trkpt>
   <trkpt lat="47.8005170" lon="-122.3669310">
    <ele>99.2</ele>
    <time>2021-04-10T20:07:47Z</time>
   </trkpt>
   <trkpt lat="47.8005130" lon="-122.3669370">
    <ele>99.1</ele>
    <time>2021-04-10T20:07:48Z</time>
   </trkpt>
   <trkpt lat="47.8004990" lon="-122.3669330">
    <ele>99.1</ele>
    <time>2021-04-10T20:07:49Z</time>
   </trkpt>
   <trkpt lat="47.8004930" lon="-122.3669460">
    <ele>99.1</ele>
    <time>2021-04-10T20:07:50Z</time>
   </trkpt>
   <trkpt lat="47.8004780" lon="-122.3669580">
    <ele>99.1</ele>
    <time>2021-04-10T20:07:51Z</time>
   </trkpt>
   <trkpt lat="47.8004640" lon="-122.3669630">
    <ele>99.1</ele>
    <time>2021-04-10T20:07:52Z</time>
   </trkpt>
   <trkpt lat="47.8004550" lon="-122.3669700">
    <ele>99.0</ele>
    <time>2021-04-10T20:07:53Z</time>
   </trkpt>
   <trkpt lat="47.8004400" lon="-122.3669720">
    <ele>99.0</ele>
    <time>2021-04-10T20:07:54Z</time>
   </trkpt>
   <trkpt lat="47.8004280" lon="-122.3669670">
    <ele>99.0</ele>
    <time>2021-04-10T20:07:55Z</time>
   </trkpt>
   <trkpt lat="47.8004140" lon="-122.3669650">
    <ele>99.0</ele>
    <time>2021-04-10T20:07:56Z</time>
   </trkpt>
   <trkpt lat="47.8004000" lon="-122.3669660">
    <ele>98.9</ele>
    <time>2021-04-10T20:07:57Z</time>
   </trkpt>
   <trkpt lat="47.8003890" lon="-122.3669670">
    <ele>98.9</ele>
    <time>2021-04-10T20:07:58Z</time>
   </trkpt>
   <trkpt lat="47.8003790" lon="-122.3669650">
    <ele>98.9</ele>
    <time>2021-04-10T20:07:59Z</time>
   </trkpt>
   <trkpt lat="47.8003660" lon="-122.3669560">
    <ele>98.9</ele>
    <time>2021-04-10T20:08:00Z</time>
   </trkpt>
   <trkpt lat="47.8003450" lon="-122.3669580">
    <ele>98.9</ele>
    <time>2021-04-10T20:08:01Z</time>
   </trkpt>
   <trkpt lat="47.8003380" lon="-122.3669610">
    <ele>98.9</ele>
    <time>2021-04-10T20:08:02Z</time>
   </trkpt>
   <trkpt lat="47.8003300" lon="-122.3669640">
    <ele>98.9</ele>
    <time>2021-04-10T20:08:03Z</time>
   </trkpt>
   <trkpt lat="47.8003190" lon="-122.3669650">
    <ele>98.9</ele>
    <time>2021-04-10T20:08:04Z</time>
   </trkpt>
   <trkpt lat="47.8003070" lon="-122.3669670">
    <ele>98.9</ele>
    <time>2021-04-10T20:08:05Z</time>
   </trkpt>
   <trkpt lat="47.8002940" lon="-122.3669690">
    <ele>98.9</ele>
    <time>2021-04-10T20:08:06Z</time>
   </trkpt>
   <trkpt lat="47.8002790" lon="-122.3669640">
    <ele>98.9</ele>
    <time>2021-04-10T20:08:07Z</time>
   </trkpt>
   <trkpt lat="47.8002630" lon="-122.3669660">
    <ele>98.9</ele>
    <time>2021-04-10T20:08:08Z</time>
   </trkpt>
   <trkpt lat="47.8002430" lon="-122.3669640">
    <ele>98.9</ele>
    <time>2021-04-10T20:08:09Z</time>
   </trkpt>
   <trkpt lat="47.8002340" lon="-122.3669610">
    <ele>98.9</ele>
    <time>2021-04-10T20:08:10Z</time>
   </trkpt>
   <trkpt lat="47.8002260" lon="-122.3669580">
    <ele>98.9</ele>
    <time>2021-04-10T20:08:11Z</time>
   </trkpt>
   <trkpt lat="47.8002040" lon="-122.3669500">
    <ele>98.9</ele>
    <time>2021-04-10T20:08:12Z</time>
   </trkpt>
   <trkpt lat="47.8001940" lon="-122.3669470">
    <ele>98.9</ele>
    <time>2021-04-10T20:08:13Z</time>
   </trkpt>
   <trkpt lat="47.8001850" lon="-122.3669440">
    <ele>98.9</ele>
    <time>2021-04-10T20:08:14Z</time>
   </trkpt>
   <trkpt lat="47.8001620" lon="-122.3669380">
    <ele>98.9</ele>
    <time>2021-04-10T20:08:15Z</time>
   </trkpt>
   <trkpt lat="47.8001500" lon="-122.3669350">
    <ele>98.9</ele>
    <time>2021-04-10T20:08:16Z</time>
   </trkpt>
   <trkpt lat="47.8001390" lon="-122.3669320">
    <ele>98.9</ele>
    <time>2021-04-10T20:08:17Z</time>
   </trkpt>
   <trkpt lat="47.8001240" lon="-122.3669430">
    <ele>98.9</ele>
    <time>2021-04-10T20:08:18Z</time>
   </trkpt>
   <trkpt lat="47.8001120" lon="-122.3669510">
    <ele>98.9</ele>
    <time>2021-04-10T20:08:19Z</time>
   </trkpt>
   <trkpt lat="47.8000960" lon="-122.3669530">
    <ele>98.9</ele>
    <time>2021-04-10T20:08:20Z</time>
   </trkpt>
   <trkpt lat="47.8000840" lon="-122.3669560">
    <ele>98.9</ele>
    <time>2021-04-10T20:08:21Z</time>
   </trkpt>
   <trkpt lat="47.8000720" lon="-122.3669590">
    <ele>98.9</ele>
    <time>2021-04-10T20:08:22Z</time>
   </trkpt>
   <trkpt lat="47.8000570" lon="-122.3669660">
    <ele>98.9</ele>
    <time>2021-04-10T20:08:23Z</time>
   </trkpt>
   <trkpt lat="47.8000340" lon="-122.3669620">
    <ele>99.0</ele>
    <time>2021-04-10T20:08:24Z</time>
   </trkpt>
   <trkpt lat="47.8000250" lon="-122.3669620">
    <ele>99.0</ele>
    <time>2021-04-10T20:08:25Z</time>
   </trkpt>
   <trkpt lat="47.8000170" lon="-122.3669620">
    <ele>99.0</ele>
    <time>2021-04-10T20:08:26Z</time>
   </trkpt>
   <trkpt lat="47.8000040" lon="-122.3669660">
    <ele>99.0</ele>
    <time>2021-04-10T20:08:27Z</time>
   </trkpt>
   <trkpt lat="47.7999960" lon="-122.3669650">
    <ele>99.0</ele>
    <time>2021-04-10T20:08:28Z</time>
   </trkpt>
   <trkpt lat="47.7999860" lon="-122.3669580">
    <ele>99.0</ele>
    <time>2021-04-10T20:08:29Z</time>
   </trkpt>
   <trkpt lat="47.7999710" lon="-122.3669560">
    <ele>99.0</ele>
    <time>2021-04-10T20:08:30Z</time>
   </trkpt>
   <trkpt lat="47.7999560" lon="-122.3669550">
    <ele>99.1</ele>
    <time>2021-04-10T20:08:31Z</time>
   </trkpt>
   <trkpt lat="47.7999400" lon="-122.3669430">
    <ele>99.1</ele>
    <time>2021-04-10T20:08:32Z</time>
   </trkpt>
   <trkpt lat="47.7999230" lon="-122.3669360">
    <ele>99.1</ele>
    <time>2021-04-10T20:08:33Z</time>
   </trkpt>
   <trkpt lat="47.7998980" lon="-122.3669220">
    <ele>99.2</ele>
    <time>2021-04-10T20:08:34Z</time>
   </trkpt>
   <trkpt lat="47.7998890" lon="-122.3669190">
    <ele>99.2</ele>
    <time>2021-04-10T20:08:35Z</time>
   </trkpt>
   <trkpt lat="47.7998730" lon="-122.3669090">
    <ele>99.2</ele>
    <time>2021-04-10T20:08:36Z</time>
   </trkpt>
   <trkpt lat="47.7998590" lon="-122.3669060">
    <ele>99.2</ele>
    <time>2021-04-10T20:08:37Z</time>
   </trkpt>
   <trkpt lat="47.7998450" lon="-122.3669040">
    <ele>99.2</ele>
    <time>2021-04-10T20:08:38Z</time>
   </trkpt>
   <trkpt lat="47.7998310" lon="-122.3669000">
    <ele>99.3</ele>
    <time>2021-04-10T20:08:39Z</time>
   </trkpt>
   <trkpt lat="47.7998090" lon="-122.3668990">
    <ele>99.3</ele>
    <time>2021-04-10T20:08:40Z</time>
   </trkpt>
   <trkpt lat="47.7998000" lon="-122.3668960">
    <ele>99.3</ele>
    <time>2021-04-10T20:08:41Z</time>
   </trkpt>
   <trkpt lat="47.7997920" lon="-122.3668940">
    <ele>99.3</ele>
    <time>2021-04-10T20:08:42Z</time>
   </trkpt>
   <trkpt lat="47.7997790" lon="-122.3668970">
    <ele>99.3</ele>
    <time>2021-04-10T20:08:43Z</time>
   </trkpt>
   <trkpt lat="47.7997660" lon="-122.3669020">
    <ele>99.4</ele>
    <time>2021-04-10T20:08:44Z</time>
   </trkpt>
   <trkpt lat="47.7997580" lon="-122.3668980">
    <ele>99.4</ele>
    <time>2021-04-10T20:08:45Z</time>
   </trkpt>
   <trkpt lat="47.7997440" lon="-122.3668960">
    <ele>99.4</ele>
    <time>2021-04-10T20:08:46Z</time>
   </trkpt>
   <trkpt lat="47.7997290" lon="-122.3668920">
    <ele>99.4</ele>
    <time>2021-04-10T20:08:47Z</time>
   </trkpt>
   <trkpt lat="47.7997130" lon="-122.3668850">
    <ele>99.5</ele>
    <time>2021-04-10T20:08:48Z</time>
   </trkpt>
   <trkpt lat="47.7997010" lon="-122.3668850">
    <ele>99.5</ele>
    <time>2021-04-10T20:08:49Z</time>
   </trkpt>
   <trkpt lat="47.7996920" lon="-122.3668860">
    <ele>99.5</ele>
    <time>2021-04-10T20:08:50Z</time>
   </trkpt>
   <trkpt lat="47.7996850" lon="-122.3668900">
    <ele>99.5</ele>
    <time>2021-04-10T20:08:51Z</time>
   </trkpt>
   <trkpt lat="47.7996880" lon="-122.3668920">
    <ele>99.5</ele>
    <time>2021-04-10T20:08:52Z</time>
   </trkpt>
   <trkpt lat="47.7996890" lon="-122.3668920">
    <ele>99.5</ele>
    <time>2021-04-10T20:08:53Z</time>
   </trkpt>
   <trkpt lat="47.7996880" lon="-122.3668880">
    <ele>99.5</ele>
    <time>2021-04-10T20:08:54Z</time>
   </trkpt>
   <trkpt lat="47.7996890" lon="-122.3668870">
    <ele>99.5</ele>
    <time>2021-04-10T20:08:55Z</time>
   </trkpt>
   <trkpt lat="47.7996880" lon="-122.3668930">
    <ele>99.5</ele>
    <time>2021-04-10T20:08:56Z</time>
   </trkpt>
   <trkpt lat="47.7996830" lon="-122.3668920">
    <ele>99.6</ele>
    <time>2021-04-10T20:08:57Z</time>
   </trkpt>
   <trkpt lat="47.7996770" lon="-122.3668710">
    <ele>99.6</ele>
    <time>2021-04-10T20:08:58Z</time>
   </trkpt>
   <trkpt lat="47.7996780" lon="-122.3668480">
    <ele>99.6</ele>
    <time>2021-04-10T20:08:59Z</time>
   </trkpt>
   <trkpt lat="47.7996790" lon="-122.3668210">
    <ele>99.6</ele>
    <time>2021-04-10T20:09:00Z</time>
   </trkpt>
   <trkpt lat="47.7996820" lon="-122.3668040">
    <ele>99.7</ele>
    <time>2021-04-10T20:09:01Z</time>
   </trkpt>
   <trkpt lat="47.7996830" lon="-122.3667870">
    <ele>99.7</ele>
    <time>2021-04-10T20:09:02Z</time>
   </trkpt>
   <trkpt lat="47.7996770" lon="-122.3667750">
    <ele>100.4</ele>
    <time>2021-04-10T20:09:03Z</time>
   </trkpt>
   <trkpt lat="47.7996800" lon="-122.3667630">
    <ele>100.4</ele>
    <time>2021-04-10T20:09:04Z</time>
   </trkpt>
   <trkpt lat="47.7996790" lon="-122.3667540">
    <ele>100.5</ele>
    <time>2021-04-10T20:09:05Z</time>
   </trkpt>
   <trkpt lat="47.7996780" lon="-122.3667410">
    <ele>100.5</ele>
    <time>2021-04-10T20:09:06Z</time>
   </trkpt>
   <trkpt lat="47.7996780" lon="-122.3667260">
    <ele>100.6</ele>
    <time>2021-04-10T20:09:07Z</time>
   </trkpt>
   <trkpt lat="47.7996790" lon="-122.3667140">
    <ele>100.7</ele>
    <time>2021-04-10T20:09:08Z</time>
   </trkpt>
   <trkpt lat="47.7996780" lon="-122.3666820">
    <ele>100.9</ele>
    <time>2021-04-10T20:09:09Z</time>
   </trkpt>
   <trkpt lat="47.7996780" lon="-122.3666690">
    <ele>100.9</ele>
    <time>2021-04-10T20:09:10Z</time>
   </trkpt>
   <trkpt lat="47.7996780" lon="-122.3666570">
    <ele>101.0</ele>
    <time>2021-04-10T20:09:11Z</time>
   </trkpt>
   <trkpt lat="47.7996750" lon="-122.3666440">
    <ele>101.1</ele>
    <time>2021-04-10T20:09:12Z</time>
   </trkpt>
   <trkpt lat="47.7996750" lon="-122.3666270">
    <ele>101.2</ele>
    <time>2021-04-10T20:09:13Z</time>
   </trkpt>
   <trkpt lat="47.7996770" lon="-122.3666060">
    <ele>101.3</ele>
    <time>2021-04-10T20:09:14Z</time>
   </trkpt>
   <trkpt lat="47.7996760" lon="-122.3665880">
    <ele>101.4</ele>
    <time>2021-04-10T20:09:15Z</time>
   </trkpt>
   <trkpt lat="47.7996740" lon="-122.3665690">
    <ele>101.5</ele>
    <time>2021-04-10T20:09:16Z</time>
   </trkpt>
   <trkpt lat="47.7996740" lon="-122.3665550">
    <ele>101.6</ele>
    <time>2021-04-10T20:09:17Z</time>
   </trkpt>
   <trkpt lat="47.7996770" lon="-122.3665210">
    <ele>101.8</ele>
    <time>2021-04-10T20:09:18Z</time>
   </trkpt>
   <trkpt lat="47.7996770" lon="-122.3665100">
    <ele>101.8</ele>
    <time>2021-04-10T20:09:19Z</time>
   </trkpt>
   <trkpt lat="47.7996780" lon="-122.3664980">
    <ele>101.9</ele>
    <time>2021-04-10T20:09:20Z</time>
   </trkpt>
   <trkpt lat="47.7996740" lon="-122.3664730">
    <ele>102.1</ele>
    <time>2021-04-10T20:09:21Z</time>
   </trkpt>
   <trkpt lat="47.7996670" lon="-122.3664500">
    <ele>102.2</ele>
    <time>2021-04-10T20:09:22Z</time>
   </trkpt>
   <trkpt lat="47.7996640" lon="-122.3664240">
    <ele>102.3</ele>
    <time>2021-04-10T20:09:23Z</time>
   </trkpt>
   <trkpt lat="47.7996620" lon="-122.3663980">
    <ele>102.5</ele>
    <time>2021-04-10T20:09:24Z</time>
   </trkpt>
   <trkpt lat="47.7996660" lon="-122.3663760">
    <ele>102.6</ele>
    <time>2021-04-10T20:09:25Z</time>
   </trkpt>
   <trkpt lat="47.7996660" lon="-122.3663540">
    <ele>102.8</ele>
    <time>2021-04-10T20:09:26Z</time>
   </trkpt>
   <trkpt lat="47.7996660" lon="-122.3663320">
    <ele>102.9</ele>
    <time>2021-04-10T20:09:27Z</time>
   </trkpt>
   <trkpt lat="47.7996620" lon="-122.3663110">
    <ele>103.0</ele>
    <time>2021-04-10T20:09:28Z</time>
   </trkpt>
   <trkpt lat="47.7996640" lon="-122.3662900">
    <ele>103.1</ele>
    <time>2021-04-10T20:09:29Z</time>
   </trkpt>
   <trkpt lat="47.7996650" lon="-122.3662700">
    <ele>103.1</ele>
    <time>2021-04-10T20:09:30Z</time>
   </trkpt>
   <trkpt lat="47.7996640" lon="-122.3662440">
    <ele>103.1</ele>
    <time>2021-04-10T20:09:31Z</time>
   </trkpt>
   <trkpt lat="47.7996640" lon="-122.3662290">
    <ele>103.1</ele>
    <time>2021-04-10T20:09:32Z</time>
   </trkpt>
   <trkpt lat="47.7996690" lon="-122.3661980">
    <ele>103.2</ele>
    <time>2021-04-10T20:09:33Z</time>
   </trkpt>
   <trkpt lat="47.7996680" lon="-122.3661860">
    <ele>103.3</ele>
    <time>2021-04-10T20:09:34Z</time>
   </trkpt>
   <trkpt lat="47.7996680" lon="-122.3661740">
    <ele>103.3</ele>
    <time>2021-04-10T20:09:35Z</time>
   </trkpt>
   <trkpt lat="47.7996690" lon="-122.3661590">
    <ele>103.5</ele>
    <time>2021-04-10T20:09:36Z</time>
   </trkpt>
   <trkpt lat="47.7996700" lon="-122.3661450">
    <ele>103.6</ele>
    <time>2021-04-10T20:09:37Z</time>
   </trkpt>
   <trkpt lat="47.7996740" lon="-122.3661300">
    <ele>103.7</ele>
    <time>2021-04-10T20:09:38Z</time>
   </trkpt>
   <trkpt lat="47.7996780" lon="-122.3661070">
    <ele>103.8</ele>
    <time>2021-04-10T20:09:39Z</time>
   </trkpt>
   <trkpt lat="47.7996800" lon="-122.3660870">
    <ele>104.0</ele>
    <time>2021-04-10T20:09:40Z</time>
   </trkpt>
   <trkpt lat="47.7996790" lon="-122.3660690">
    <ele>104.1</ele>
    <time>2021-04-10T20:09:41Z</time>
   </trkpt>
   <trkpt lat="47.7996780" lon="-122.3660560">
    <ele>104.2</ele>
    <time>2021-04-10T20:09:42Z</time>
   </trkpt>
   <trkpt lat="47.7996720" lon="-122.3660390">
    <ele>104.3</ele>
    <time>2021-04-10T20:09:43Z</time>
   </trkpt>
   <trkpt lat="47.7996700" lon="-122.3660020">
    <ele>104.6</ele>
    <time>2021-04-10T20:09:44Z</time>
   </trkpt>
   <trkpt lat="47.7996690" lon="-122.3659870">
    <ele>104.7</ele>
    <time>2021-04-10T20:09:45Z</time>
   </trkpt>
   <trkpt lat="47.7996690" lon="-122.3659720">
    <ele>104.8</ele>
    <time>2021-04-10T20:09:46Z</time>
   </trkpt>
   <trkpt lat="47.7996690" lon="-122.3659470">
    <ele>105.0</ele>
    <time>2021-04-10T20:09:47Z</time>
   </trkpt>
   <trkpt lat="47.7996610" lon="-122.3659260">
    <ele>105.2</ele>
    <time>2021-04-10T20:09:48Z</time>
   </trkpt>
   <trkpt lat="47.7996630" lon="-122.3658950">
    <ele>105.4</ele>
    <time>2021-04-10T20:09:49Z</time>
   </trkpt>
   <trkpt lat="47.7996620" lon="-122.3658820">
    <ele>105.5</ele>
    <time>2021-04-10T20:09:50Z</time>
   </trkpt>
   <trkpt lat="47.7996600" lon="-122.3658690">
    <ele>105.6</ele>
    <time>2021-04-10T20:09:51Z</time>
   </trkpt>
   <trkpt lat="47.7996540" lon="-122.3658500">
    <ele>105.8</ele>
    <time>2021-04-10T20:09:52Z</time>
   </trkpt>
   <trkpt lat="47.7996490" lon="-122.3658260">
    <ele>106.0</ele>
    <time>2021-04-10T20:09:53Z</time>
   </trkpt>
   <trkpt lat="47.7996450" lon="-122.3658030">
    <ele>106.1</ele>
    <time>2021-04-10T20:09:54Z</time>
   </trkpt>
   <trkpt lat="47.7996420" lon="-122.3657780">
    <ele>106.3</ele>
    <time>2021-04-10T20:09:55Z</time>
   </trkpt>
   <trkpt lat="47.7996400" lon="-122.3657570">
    <ele>106.5</ele>
    <time>2021-04-10T20:09:56Z</time>
   </trkpt>
   <trkpt lat="47.7996390" lon="-122.3657350">
    <ele>106.7</ele>
    <time>2021-04-10T20:09:57Z</time>
   </trkpt>
   <trkpt lat="47.7996420" lon="-122.3657250">
    <ele>106.8</ele>
    <time>2021-04-10T20:09:58Z</time>
   </trkpt>
   <trkpt lat="47.7996410" lon="-122.3657040">
    <ele>106.9</ele>
    <time>2021-04-10T20:09:59Z</time>
   </trkpt>
   <trkpt lat="47.7996420" lon="-122.3656860">
    <ele>107.1</ele>
    <time>2021-04-10T20:10:00Z</time>
   </trkpt>
   <trkpt lat="47.7996440" lon="-122.3656550">
    <ele>107.3</ele>
    <time>2021-04-10T20:10:01Z</time>
   </trkpt>
   <trkpt lat="47.7996430" lon="-122.3656430">
    <ele>107.4</ele>
    <time>2021-04-10T20:10:02Z</time>
   </trkpt>
   <trkpt lat="47.7996420" lon="-122.3656300">
    <ele>107.5</ele>
    <time>2021-04-10T20:10:03Z</time>
   </trkpt>
   <trkpt lat="47.7996410" lon="-122.3656130">
    <ele>107.6</ele>
    <time>2021-04-10T20:10:04Z</time>
   </trkpt>
   <trkpt lat="47.7996410" lon="-122.3655970">
    <ele>107.7</ele>
    <time>2021-04-10T20:10:05Z</time>
   </trkpt>
   <trkpt lat="47.7996420" lon="-122.3655790">
    <ele>107.9</ele>
    <time>2021-04-10T20:10:06Z</time>
   </trkpt>
   <trkpt lat="47.7996390" lon="-122.3655580">
    <ele>108.0</ele>
    <time>2021-04-10T20:10:07Z</time>
   </trkpt>
   <trkpt lat="47.7996410" lon="-122.3655420">
    <ele>108.2</ele>
    <time>2021-04-10T20:10:08Z</time>
   </trkpt>
   <trkpt lat="47.7996390" lon="-122.3655290">
    <ele>108.3</ele>
    <time>2021-04-10T20:10:09Z</time>
   </trkpt>
   <trkpt lat="47.7996440" lon="-122.3655020">
    <ele>108.5</ele>
    <time>2021-04-10T20:10:10Z</time>
   </trkpt>
   <trkpt lat="47.7996450" lon="-122.3654860">
    <ele>108.6</ele>
    <time>2021-04-10T20:10:11Z</time>
   </trkpt>
   <trkpt lat="47.7996470" lon="-122.3654710">
    <ele>108.7</ele>
    <time>2021-04-10T20:10:12Z</time>
   </trkpt>
   <trkpt lat="47.7996450" lon="-122.3654500">
    <ele>108.9</ele>
    <time>2021-04-10T20:10:13Z</time>
   </trkpt>
   <trkpt lat="47.7996500" lon="-122.3654280">
    <ele>109.1</ele>
    <time>2021-04-10T20:10:14Z</time>
   </trkpt>
   <trkpt lat="47.7996510" lon="-122.3653980">
    <ele>109.3</ele>
    <time>2021-04-10T20:10:15Z</time>
   </trkpt>
   <trkpt lat="47.7996510" lon="-122.3653850">
    <ele>109.4</ele>
    <time>2021-04-10T20:10:16Z</time>
   </trkpt>
   <trkpt lat="47.7996520" lon="-122.3653730">
    <ele>109.5</ele>
    <time>2021-04-10T20:10:17Z</time>
   </trkpt>
   <trkpt lat="47.7996540" lon="-122.3653470">
    <ele>109.7</ele>
    <time>2021-04-10T20:10:18Z</time>
   </trkpt>
   <trkpt lat="47.7996580" lon="-122.3653280">
    <ele>109.8</ele>
    <time>2021-04-10T20:10:19Z</time>
   </trkpt>
   <trkpt lat="47.7996580" lon="-122.3653080">
    <ele>110.0</ele>
    <time>2021-04-10T20:10:20Z</time>
   </trkpt>
   <trkpt lat="47.7996590" lon="-122.3652870">
    <ele>110.1</ele>
    <time>2021-04-10T20:10:21Z</time>
   </trkpt>
   <trkpt lat="47.7996600" lon="-122.3652580">
    <ele>110.3</ele>
    <time>2021-04-10T20:10:22Z</time>
   </trkpt>
   <trkpt lat="47.7996610" lon="-122.3652440">
    <ele>110.4</ele>
    <time>2021-04-10T20:10:23Z</time>
   </trkpt>
   <trkpt lat="47.7996610" lon="-122.3652290">
    <ele>110.5</ele>
    <time>2021-04-10T20:10:24Z</time>
   </trkpt>
   <trkpt lat="47.7996660" lon="-122.3651980">
    <ele>110.7</ele>
    <time>2021-04-10T20:10:25Z</time>
   </trkpt>
   <trkpt lat="47.7996650" lon="-122.3651850">
    <ele>110.8</ele>
    <time>2021-04-10T20:10:26Z</time>
   </trkpt>
   <trkpt lat="47.7996650" lon="-122.3651730">
    <ele>110.8</ele>
    <time>2021-04-10T20:10:27Z</time>
   </trkpt>
   <trkpt lat="47.7996660" lon="-122.3651390">
    <ele>111.1</ele>
    <time>2021-04-10T20:10:28Z</time>
   </trkpt>
   <trkpt lat="47.7996650" lon="-122.3651270">
    <ele>111.1</ele>
    <time>2021-04-10T20:10:29Z</time>
   </trkpt>
   <trkpt lat="47.7996650" lon="-122.3651140">
    <ele>111.2</ele>
    <time>2021-04-10T20:10:30Z</time>
   </trkpt>
   <trkpt lat="47.7996620" lon="-122.3650830">
    <ele>111.4</ele>
    <time>2021-04-10T20:10:31Z</time>
   </trkpt>
   <trkpt lat="47.7996610" lon="-122.3650720">
    <ele>111.5</ele>
    <time>2021-04-10T20:10:32Z</time>
   </trkpt>
   <trkpt lat="47.7996600" lon="-122.3650600">
    <ele>111.6</ele>
    <time>2021-04-10T20:10:33Z</time>
   </trkpt>
   <trkpt lat="47.7996570" lon="-122.3650350">
    <ele>111.7</ele>
    <time>2021-04-10T20:10:34Z</time>
   </trkpt>
   <trkpt lat="47.7996560" lon="-122.3650120">
    <ele>111.8</ele>
    <time>2021-04-10T20:10:35Z</time>
   </trkpt>
   <trkpt lat="47.7996550" lon="-122.3649760">
    <ele>112.1</ele>
    <time>2021-04-10T20:10:36Z</time>
   </trkpt>
   <trkpt lat="47.7996540" lon="-122.3649600">
    <ele>112.1</ele>
    <time>2021-04-10T20:10:37Z</time>
   </trkpt>
   <trkpt lat="47.7996520" lon="-122.3649450">
    <ele>112.2</ele>
    <time>2021-04-10T20:10:38Z</time>
   </trkpt>
   <trkpt lat="47.7996520" lon="-122.3649280">
    <ele>112.3</ele>
    <time>2021-04-10T20:10:39Z</time>
   </trkpt>
   <trkpt lat="47.7996560" lon="-122.3649120">
    <ele>112.4</ele>
    <time>2021-04-10T20:10:40Z</time>
   </trkpt>
   <trkpt lat="47.7996590" lon="-122.3648920">
    <ele>112.5</ele>
    <time>2021-04-10T20:10:41Z</time>
   </trkpt>
   <trkpt lat="47.7996620" lon="-122.3648630">
    <ele>112.7</ele>
    <time>2021-04-10T20:10:42Z</time>
   </trkpt>
   <trkpt lat="47.7996630" lon="-122.3648480">
    <ele>112.8</ele>
    <time>2021-04-10T20:10:43Z</time>
   </trkpt>
   <trkpt lat="47.7996630" lon="-122.3648340">
    <ele>112.8</ele>
    <time>2021-04-10T20:10:44Z</time>
   </trkpt>
   <trkpt lat="47.7996660" lon="-122.3648080">
    <ele>113.0</ele>
    <time>2021-04-10T20:10:45Z</time>
   </trkpt>
   <trkpt lat="47.7996660" lon="-122.3647870">
    <ele>113.1</ele>
    <time>2021-04-10T20:10:46Z</time>
   </trkpt>
   <trkpt lat="47.7996660" lon="-122.3647630">
    <ele>113.2</ele>
    <time>2021-04-10T20:10:47Z</time>
   </trkpt>
   <trkpt lat="47.7996660" lon="-122.3647420">
    <ele>113.3</ele>
    <time>2021-04-10T20:10:48Z</time>
   </trkpt>
   <trkpt lat="47.7996680" lon="-122.3647200">
    <ele>113.4</ele>
    <time>2021-04-10T20:10:49Z</time>
   </trkpt>
   <trkpt lat="47.7996710" lon="-122.3646930">
    <ele>113.5</ele>
    <time>2021-04-10T20:10:50Z</time>
   </trkpt>
   <trkpt lat="47.7996700" lon="-122.3646710">
    <ele>113.6</ele>
    <time>2021-04-10T20:10:51Z</time>
   </trkpt>
   <trkpt lat="47.7996660" lon="-122.3646510">
    <ele>113.7</ele>
    <time>2021-04-10T20:10:52Z</time>
   </trkpt>
   <trkpt lat="47.7996640" lon="-122.3646250">
    <ele>113.8</ele>
    <time>2021-04-10T20:10:53Z</time>
   </trkpt>
   <trkpt lat="47.7996620" lon="-122.3646020">
    <ele>113.9</ele>
    <time>2021-04-10T20:10:54Z</time>
   </trkpt>
   <trkpt lat="47.7996580" lon="-122.3645700">
    <ele>114.0</ele>
    <time>2021-04-10T20:10:55Z</time>
   </trkpt>
   <trkpt lat="47.7996600" lon="-122.3645500">
    <ele>114.1</ele>
    <time>2021-04-10T20:10:56Z</time>
   </trkpt>
   <trkpt lat="47.7996610" lon="-122.3645270">
    <ele>114.2</ele>
    <time>2021-04-10T20:10:57Z</time>
   </trkpt>
   <trkpt lat="47.7996620" lon="-122.3645070">
    <ele>114.2</ele>
    <time>2021-04-10T20:10:58Z</time>
   </trkpt>
   <trkpt lat="47.7996620" lon="-122.3644670">
    <ele>114.4</ele>
    <time>2021-04-10T20:10:59Z</time>
   </trkpt>
   <trkpt lat="47.7996590" lon="-122.3644520">
    <ele>114.4</ele>
    <time>2021-04-10T20:11:00Z</time>
   </trkpt>
   <trkpt lat="47.7996620" lon="-122.3644210">
    <ele>114.5</ele>
    <time>2021-04-10T20:11:01Z</time>
   </trkpt>
   <trkpt lat="47.7996630" lon="-122.3644060">
    <ele>114.5</ele>
    <time>2021-04-10T20:11:02Z</time>
   </trkpt>
   <trkpt lat="47.7996630" lon="-122.3643920">
    <ele>114.6</ele>
    <time>2021-04-10T20:11:03Z</time>
   </trkpt>
   <trkpt lat="47.7996650" lon="-122.3643710">
    <ele>114.6</ele>
    <time>2021-04-10T20:11:04Z</time>
   </trkpt>
   <trkpt lat="47.7996770" lon="-122.3643560">
    <ele>114.7</ele>
    <time>2021-04-10T20:11:05Z</time>
   </trkpt>
   <trkpt lat="47.7996930" lon="-122.3643410">
    <ele>114.7</ele>
    <time>2021-04-10T20:11:06Z</time>
   </trkpt>
   <trkpt lat="47.7996990" lon="-122.3643250">
    <ele>114.8</ele>
    <time>2021-04-10T20:11:07Z</time>
   </trkpt>
   <trkpt lat="47.7997080" lon="-122.3643080">
    <ele>114.8</ele>
    <time>2021-04-10T20:11:08Z</time>
   </trkpt>
   <trkpt lat="47.7997190" lon="-122.3642890">
    <ele>114.9</ele>
    <time>2021-04-10T20:11:09Z</time>
   </trkpt>
   <trkpt lat="47.7997220" lon="-122.3642370">
    <ele>115.0</ele>
    <time>2021-04-10T20:11:10Z</time>
   </trkpt>
   <trkpt lat="47.7997200" lon="-122.3642240">
    <ele>115.0</ele>
    <time>2021-04-10T20:11:11Z</time>
   </trkpt>
   <trkpt lat="47.7997140" lon="-122.3642000">
    <ele>115.0</ele>
    <time>2021-04-10T20:11:12Z</time>
   </trkpt>
   <trkpt lat="47.7997050" lon="-122.3641770">
    <ele>115.0</ele>
    <time>2021-04-10T20:11:13Z</time>
   </trkpt>
   <trkpt lat="47.7996950" lon="-122.3641630">
    <ele>115.0</ele>
    <time>2021-04-10T20:11:14Z</time>
   </trkpt>
   <trkpt lat="47.7996800" lon="-122.3641490">
    <ele>115.1</ele>
    <time>2021-04-10T20:11:15Z</time>
   </trkpt>
   <trkpt lat="47.7996660" lon="-122.3641350">
    <ele>115.1</ele>
    <time>2021-04-10T20:11:16Z</time>
   </trkpt>
   <trkpt lat="47.7996630" lon="-122.3641060">
    <ele>115.1</ele>
    <time>2021-04-10T20:11:17Z</time>
   </trkpt>
   <trkpt lat="47.7996580" lon="-122.3640810">
    <ele>115.1</ele>
    <time>2021-04-10T20:11:18Z</time>
   </trkpt>
   <trkpt lat="47.7996560" lon="-122.3640550">
    <ele>115.1</ele>
    <time>2021-04-10T20:11:19Z</time>
   </trkpt>
   <trkpt lat="47.7996550" lon="-122.3640280">
    <ele>115.2</ele>
    <time>2021-04-10T20:11:20Z</time>
   </trkpt>
   <trkpt lat="47.7996550" lon="-122.3640010">
    <ele>115.2</ele>
    <time>2021-04-10T20:11:21Z</time>
   </trkpt>
   <trkpt lat="47.7996530" lon="-122.3639680">
    <ele>115.2</ele>
    <time>2021-04-10T20:11:22Z</time>
   </trkpt>
   <trkpt lat="47.7996530" lon="-122.3639550">
    <ele>115.2</ele>
    <time>2021-04-10T20:11:23Z</time>
   </trkpt>
   <trkpt lat="47.7996520" lon="-122.3639410">
    <ele>115.2</ele>
    <time>2021-04-10T20:11:24Z</time>
   </trkpt>
   <trkpt lat="47.7996480" lon="-122.3639110">
    <ele>115.3</ele>
    <time>2021-04-10T20:11:25Z</time>
   </trkpt>
   <trkpt lat="47.7996480" lon="-122.3638950">
    <ele>115.3</ele>
    <time>2021-04-10T20:11:26Z</time>
   </trkpt>
   <trkpt lat="47.7996470" lon="-122.3638790">
    <ele>115.3</ele>
    <time>2021-04-10T20:11:27Z</time>
   </trkpt>
   <trkpt lat="47.7996460" lon="-122.3638580">
    <ele>115.3</ele>
    <time>2021-04-10T20:11:28Z</time>
   </trkpt>
   <trkpt lat="47.7996490" lon="-122.3638350">
    <ele>115.3</ele>
    <time>2021-04-10T20:11:29Z</time>
   </trkpt>
   <trkpt lat="47.7996440" lon="-122.3638230">
    <ele>115.3</ele>
    <time>2021-04-10T20:11:30Z</time>
   </trkpt>
   <trkpt lat="47.7996400" lon="-122.3638060">
    <ele>115.3</ele>
    <time>2021-04-10T20:11:31Z</time>
   </trkpt>
   <trkpt lat="47.7996360" lon="-122.3637850">
    <ele>115.3</ele>
    <time>2021-04-10T20:11:32Z</time>
   </trkpt>
   <trkpt lat="47.7996270" lon="-122.3637590">
    <ele>115.4</ele>
    <time>2021-04-10T20:11:33Z</time>
   </trkpt>
   <trkpt lat="47.7996240" lon="-122.3637450">
    <ele>115.4</ele>
    <time>2021-04-10T20:11:34Z</time>
   </trkpt>
   <trkpt lat="47.7996230" lon="-122.3637170">
    <ele>115.4</ele>
    <time>2021-04-10T20:11:35Z</time>
   </trkpt>
   <trkpt lat="47.7996180" lon="-122.3637030">
    <ele>115.4</ele>
    <time>2021-04-10T20:11:36Z</time>
   </trkpt>
   <trkpt lat="47.7996200" lon="-122.3636810">
    <ele>115.4</ele>
    <time>2021-04-10T20:11:37Z</time>
   </trkpt>
   <trkpt lat="47.7996140" lon="-122.3636610">
    <ele>115.4</ele>
    <time>2021-04-10T20:11:38Z</time>
   </trkpt>
   <trkpt lat="47.7996170" lon="-122.3636350">
    <ele>115.5</ele>
    <time>2021-04-10T20:11:39Z</time>
   </trkpt>
   <trkpt lat="47.7996180" lon="-122.3636190">
    <ele>115.5</ele>
    <time>2021-04-10T20:11:40Z</time>
   </trkpt>
   <trkpt lat="47.7996180" lon="-122.3636030">
    <ele>115.5</ele>
    <time>2021-04-10T20:11:41Z</time>
   </trkpt>
   <trkpt lat="47.7996150" lon="-122.3635710">
    <ele>115.5</ele>
    <time>2021-04-10T20:11:42Z</time>
   </trkpt>
   <trkpt lat="47.7996110" lon="-122.3635560">
    <ele>115.5</ele>
    <time>2021-04-10T20:11:43Z</time>
   </trkpt>
   <trkpt lat="47.7996080" lon="-122.3635360">
    <ele>115.5</ele>
    <time>2021-04-10T20:11:44Z</time>
   </trkpt>
   <trkpt lat="47.7996050" lon="-122.3635150">
    <ele>115.5</ele>
    <time>2021-04-10T20:11:45Z</time>
   </trkpt>
   <trkpt lat="47.7996070" lon="-122.3634810">
    <ele>115.5</ele>
    <time>2021-04-10T20:11:46Z</time>
   </trkpt>
   <trkpt lat="47.7996110" lon="-122.3634640">
    <ele>115.6</ele>
    <time>2021-04-10T20:11:47Z</time>
   </trkpt>
   <trkpt lat="47.7996150" lon="-122.3634480">
    <ele>115.6</ele>
    <time>2021-04-10T20:11:48Z</time>
   </trkpt>
   <trkpt lat="47.7996190" lon="-122.3634010">
    <ele>115.6</ele>
    <time>2021-04-10T20:11:49Z</time>
   </trkpt>
   <trkpt lat="47.7996200" lon="-122.3633880">
    <ele>115.6</ele>
    <time>2021-04-10T20:11:50Z</time>
   </trkpt>
   <trkpt lat="47.7996190" lon="-122.3633620">
    <ele>115.6</ele>
    <time>2021-04-10T20:11:51Z</time>
   </trkpt>
   <trkpt lat="47.7996150" lon="-122.3633400">
    <ele>115.6</ele>
    <time>2021-04-10T20:11:52Z</time>
   </trkpt>
   <trkpt lat="47.7996150" lon="-122.3633190">
    <ele>115.6</ele>
    <time>2021-04-10T20:11:53Z</time>
   </trkpt>
   <trkpt lat="47.7996220" lon="-122.3632980">
    <ele>115.6</ele>
    <time>2021-04-10T20:11:54Z</time>
   </trkpt>
   <trkpt lat="47.7996250" lon="-122.3632750">
    <ele>115.7</ele>
    <time>2021-04-10T20:11:55Z</time>
   </trkpt>
   <trkpt lat="47.7996240" lon="-122.3632550">
    <ele>115.7</ele>
    <time>2021-04-10T20:11:56Z</time>
   </trkpt>
   <trkpt lat="47.7996280" lon="-122.3632250">
    <ele>115.7</ele>
    <time>2021-04-10T20:11:57Z</time>
   </trkpt>
   <trkpt lat="47.7996330" lon="-122.3632110">
    <ele>115.7</ele>
    <time>2021-04-10T20:11:58Z</time>
   </trkpt>
   <trkpt lat="47.7996370" lon="-122.3631980">
    <ele>115.7</ele>
    <time>2021-04-10T20:11:59Z</time>
   </trkpt>
   <trkpt lat="47.7996360" lon="-122.3631660">
    <ele>115.7</ele>
    <time>2021-04-10T20:12:00Z</time>
   </trkpt>
   <trkpt lat="47.7996340" lon="-122.3631530">
    <ele>115.7</ele>
    <time>2021-04-10T20:12:01Z</time>
   </trkpt>
   <trkpt lat="47.7996320" lon="-122.3631410">
    <ele>115.7</ele>
    <time>2021-04-10T20:12:02Z</time>
   </trkpt>
   <trkpt lat="47.7996330" lon="-122.3631180">
    <ele>115.7</ele>
    <time>2021-04-10T20:12:03Z</time>
   </trkpt>
   <trkpt lat="47.7996310" lon="-122.3630990">
    <ele>115.7</ele>
    <time>2021-04-10T20:12:04Z</time>
   </trkpt>
   <trkpt lat="47.7996360" lon="-122.3630810">
    <ele>115.8</ele>
    <time>2021-04-10T20:12:05Z</time>
   </trkpt>
   <trkpt lat="47.7996380" lon="-122.3630550">
    <ele>115.8</ele>
    <time>2021-04-10T20:12:06Z</time>
   </trkpt>
   <trkpt lat="47.7996370" lon="-122.3630290">
    <ele>115.8</ele>
    <time>2021-04-10T20:12:07Z</time>
   </trkpt>
   <trkpt lat="47.7996370" lon="-122.3630150">
    <ele>115.8</ele>
    <time>2021-04-10T20:12:08Z</time>
   </trkpt>
   <trkpt lat="47.7996380" lon="-122.3630000">
    <ele>115.8</ele>
    <time>2021-04-10T20:12:09Z</time>
   </trkpt>
   <trkpt lat="47.7996500" lon="-122.3629730">
    <ele>115.8</ele>
    <time>2021-04-10T20:12:10Z</time>
   </trkpt>
   <trkpt lat="47.7996500" lon="-122.3629690">
    <ele>115.8</ele>
    <time>2021-04-10T20:12:11Z</time>
   </trkpt>
   <trkpt lat="47.7996500" lon="-122.3629640">
    <ele>115.8</ele>
    <time>2021-04-10T20:12:12Z</time>
   </trkpt>
   <trkpt lat="47.7996500" lon="-122.3629590">
    <ele>115.8</ele>
    <time>2021-04-10T20:12:13Z</time>
   </trkpt>
   <trkpt lat="47.7996490" lon="-122.3629550">
    <ele>115.8</ele>
    <time>2021-04-10T20:12:14Z</time>
   </trkpt>
   <trkpt lat="47.7996490" lon="-122.3629500">
    <ele>115.8</ele>
    <time>2021-04-10T20:12:15Z</time>
   </trkpt>
   <trkpt lat="47.7996490" lon="-122.3629450">
    <ele>115.8</ele>
    <time>2021-04-10T20:12:16Z</time>
   </trkpt>
   <trkpt lat="47.7996490" lon="-122.3629410">
    <ele>115.8</ele>
    <time>2021-04-10T20:12:17Z</time>
   </trkpt>
   <trkpt lat="47.7996490" lon="-122.3629360">
    <ele>115.8</ele>
    <time>2021-04-10T20:12:18Z</time>
   </trkpt>
   <trkpt lat="47.7996490" lon="-122.3629310">
    <ele>115.8</ele>
    <time>2021-04-10T20:12:19Z</time>
   </trkpt>
   <trkpt lat="47.7996490" lon="-122.3629260">
    <ele>115.8</ele>
    <time>2021-04-10T20:12:20Z</time>
   </trkpt>
   <trkpt lat="47.7996490" lon="-122.3629220">
    <ele>115.8</ele>
    <time>2021-04-10T20:12:21Z</time>
   </trkpt>
   <trkpt lat="47.7996490" lon="-122.3629170">
    <ele>115.8</ele>
    <time>2021-04-10T20:12:22Z</time>
   </trkpt>
   <trkpt lat="47.7996490" lon="-122.3629120">
    <ele>115.8</ele>
    <time>2021-04-10T20:12:23Z</time>
   </trkpt>
   <trkpt lat="47.7996480" lon="-122.3629080">
    <ele>115.8</ele>
    <time>2021-04-10T20:12:24Z</time>
   </trkpt>
   <trkpt lat="47.7996480" lon="-122.3629030">
    <ele>115.8</ele>
    <time>2021-04-10T20:12:25Z</time>
   </trkpt>
   <trkpt lat="47.7996480" lon="-122.3628980">
    <ele>115.8</ele>
    <time>2021-04-10T20:12:26Z</time>
   </trkpt>
   <trkpt lat="47.7996480" lon="-122.3628940">
    <ele>115.8</ele>
    <time>2021-04-10T20:12:27Z</time>
   </trkpt>
   <trkpt lat="47.7996480" lon="-122.3628890">
    <ele>115.8</ele>
    <time>2021-04-10T20:12:28Z</time>
   </trkpt>
   <trkpt lat="47.7996480" lon="-122.3628700">
    <ele>115.8</ele>
    <time>2021-04-10T20:12:29Z</time>
   </trkpt>
   <trkpt lat="47.7996490" lon="-122.3628590">
    <ele>115.8</ele>
    <time>2021-04-10T20:12:30Z</time>
   </trkpt>
   <trkpt lat="47.7996480" lon="-122.3628430">
    <ele>115.8</ele>
    <time>2021-04-10T20:12:31Z</time>
   </trkpt>
   <trkpt lat="47.7996470" lon="-122.3628280">
    <ele>115.8</ele>
    <time>2021-04-10T20:12:32Z</time>
   </trkpt>
   <trkpt lat="47.7996480" lon="-122.3628090">
    <ele>115.8</ele>
    <time>2021-04-10T20:12:33Z</time>
   </trkpt>
   <trkpt lat="47.7996500" lon="-122.3627890">
    <ele>115.8</ele>
    <time>2021-04-10T20:12:34Z</time>
   </trkpt>
   <trkpt lat="47.7996520" lon="-122.3627680">
    <ele>115.8</ele>
    <time>2021-04-10T20:12:35Z</time>
   </trkpt>
   <trkpt lat="47.7996480" lon="-122.3627470">
    <ele>115.8</ele>
    <time>2021-04-10T20:12:36Z</time>
   </trkpt>
   <trkpt lat="47.7996440" lon="-122.3627140">
    <ele>115.8</ele>
    <time>2021-04-10T20:12:37Z</time>
   </trkpt>
   <trkpt lat="47.7996420" lon="-122.3627000">
    <ele>115.8</ele>
    <time>2021-04-10T20:12:38Z</time>
   </trkpt>
   <trkpt lat="47.7996410" lon="-122.3626870">
    <ele>115.8</ele>
    <time>2021-04-10T20:12:39Z</time>
   </trkpt>
   <trkpt lat="47.7996420" lon="-122.3626610">
    <ele>115.8</ele>
    <time>2021-04-10T20:12:40Z</time>
   </trkpt>
   <trkpt lat="47.7996440" lon="-122.3626460">
    <ele>115.8</ele>
    <time>2021-04-10T20:12:41Z</time>
   </trkpt>
   <trkpt lat="47.7996450" lon="-122.3626310">
    <ele>115.8</ele>
    <time>2021-04-10T20:12:42Z</time>
   </trkpt>
   <trkpt lat="47.7996460" lon="-122.3626000">
    <ele>115.8</ele>
    <time>2021-04-10T20:12:43Z</time>
   </trkpt>
   <trkpt lat="47.7996430" lon="-122.3625870">
    <ele>115.8</ele>
    <time>2021-04-10T20:12:44Z</time>
   </trkpt>
   <trkpt lat="47.7996410" lon="-122.3625730">
    <ele>115.8</ele>
    <time>2021-04-10T20:12:45Z</time>
   </trkpt>
   <trkpt lat="47.7996410" lon="-122.3625420">
    <ele>115.8</ele>
    <time>2021-04-10T20:12:46Z</time>
   </trkpt>
   <trkpt lat="47.7996420" lon="-122.3625280">
    <ele>115.8</ele>
    <time>2021-04-10T20:12:47Z</time>
   </trkpt>
   <trkpt lat="47.7996430" lon="-122.3625140">
    <ele>115.8</ele>
    <time>2021-04-10T20:12:48Z</time>
   </trkpt>
   <trkpt lat="47.7996400" lon="-122.3624830">
    <ele>115.8</ele>
    <time>2021-04-10T20:12:49Z</time>
   </trkpt>
   <trkpt lat="47.7996400" lon="-122.3624690">
    <ele>115.8</ele>
    <time>2021-04-10T20:12:50Z</time>
   </trkpt>
   <trkpt lat="47.7996400" lon="-122.3624550">
    <ele>115.7</ele>
    <time>2021-04-10T20:12:51Z</time>
   </trkpt>
   <trkpt lat="47.7996440" lon="-122.3624350">
    <ele>115.7</ele>
    <time>2021-04-10T20:12:52Z</time>
   </trkpt>
   <trkpt lat="47.7996440" lon="-122.3624130">
    <ele>115.7</ele>
    <time>2021-04-10T20:12:53Z</time>
   </trkpt>
   <trkpt lat="47.7996380" lon="-122.3623840">
    <ele>115.7</ele>
    <time>2021-04-10T20:12:54Z</time>
   </trkpt>
   <trkpt lat="47.7996350" lon="-122.3623700">
    <ele>115.7</ele>
    <time>2021-04-10T20:12:55Z</time>
   </trkpt>
   <trkpt lat="47.7996330" lon="-122.3623560">
    <ele>115.7</ele>
    <time>2021-04-10T20:12:56Z</time>
   </trkpt>
   <trkpt lat="47.7996360" lon="-122.3623260">
    <ele>115.6</ele>
    <time>2021-04-10T20:12:57Z</time>
   </trkpt>
   <trkpt lat="47.7996380" lon="-122.3623120">
    <ele>115.6</ele>
    <time>2021-04-10T20:12:58Z</time>
   </trkpt>
   <trkpt lat="47.7996400" lon="-122.3622970">
    <ele>115.6</ele>
    <time>2021-04-10T20:12:59Z</time>
   </trkpt>
   <trkpt lat="47.7996410" lon="-122.3622750">
    <ele>115.6</ele>
    <time>2021-04-10T20:13:00Z</time>
   </trkpt>
   <trkpt lat="47.7996420" lon="-122.3622530">
    <ele>115.6</ele>
    <time>2021-04-10T20:13:01Z</time>
   </trkpt>
   <trkpt lat="47.7996400" lon="-122.3622300">
    <ele>115.5</ele>
    <time>2021-04-10T20:13:02Z</time>
   </trkpt>
   <trkpt lat="47.7996340" lon="-122.3622070">
    <ele>115.5</ele>
    <time>2021-04-10T20:13:03Z</time>
   </trkpt>
   <trkpt lat="47.7996320" lon="-122.3621820">
    <ele>115.5</ele>
    <time>2021-04-10T20:13:04Z</time>
   </trkpt>
   <trkpt lat="47.7996280" lon="-122.3621600">
    <ele>115.4</ele>
    <time>2021-04-10T20:13:05Z</time>
   </trkpt>
   <trkpt lat="47.7996340" lon="-122.3621400">
    <ele>115.4</ele>
    <time>2021-04-10T20:13:06Z</time>
   </trkpt>
   <trkpt lat="47.7996370" lon="-122.3621200">
    <ele>115.4</ele>
    <time>2021-04-10T20:13:07Z</time>
   </trkpt>
   <trkpt lat="47.7996390" lon="-122.3620860">
    <ele>115.3</ele>
    <time>2021-04-10T20:13:08Z</time>
   </trkpt>
   <trkpt lat="47.7996380" lon="-122.3620700">
    <ele>115.3</ele>
    <time>2021-04-10T20:13:09Z</time>
   </trkpt>
   <trkpt lat="47.7996370" lon="-122.3620550">
    <ele>115.3</ele>
    <time>2021-04-10T20:13:10Z</time>
   </trkpt>
   <trkpt lat="47.7996420" lon="-122.3620310">
    <ele>115.3</ele>
    <time>2021-04-10T20:13:11Z</time>
   </trkpt>
   <trkpt lat="47.7996350" lon="-122.3620090">
    <ele>115.2</ele>
    <time>2021-04-10T20:13:12Z</time>
   </trkpt>
   <trkpt lat="47.7996320" lon="-122.3619860">
    <ele>115.2</ele>
    <time>2021-04-10T20:13:13Z</time>
   </trkpt>
   <trkpt lat="47.7996300" lon="-122.3619640">
    <ele>115.2</ele>
    <time>2021-04-10T20:13:14Z</time>
   </trkpt>
   <trkpt lat="47.7996290" lon="-122.3619430">
    <ele>115.2</ele>
    <time>2021-04-10T20:13:15Z</time>
   </trkpt>
   <trkpt lat="47.7996230" lon="-122.3619240">
    <ele>115.1</ele>
    <time>2021-04-10T20:13:16Z</time>
   </trkpt>
   <trkpt lat="47.7996210" lon="-122.3619070">
    <ele>115.1</ele>
    <time>2021-04-10T20:13:17Z</time>
   </trkpt>
   <trkpt lat="47.7996150" lon="-122.3618980">
    <ele>115.1</ele>
    <time>2021-04-10T20:13:18Z</time>
   </trkpt>
   <trkpt lat="47.7996130" lon="-122.3618830">
    <ele>115.1</ele>
    <time>2021-04-10T20:13:19Z</time>
   </trkpt>
   <trkpt lat="47.7996060" lon="-122.3618630">
    <ele>115.0</ele>
    <time>2021-04-10T20:13:20Z</time>
   </trkpt>
   <trkpt lat="47.7996030" lon="-122.3618420">
    <ele>115.0</ele>
    <time>2021-04-10T20:13:21Z</time>
   </trkpt>
   <trkpt lat="47.7995970" lon="-122.3618270">
    <ele>115.0</ele>
    <time>2021-04-10T20:13:22Z</time>
   </trkpt>
   <trkpt lat="47.7995910" lon="-122.3618040">
    <ele>115.0</ele>
    <time>2021-04-10T20:13:23Z</time>
   </trkpt>
   <trkpt lat="47.7995920" lon="-122.3617710">
    <ele>114.9</ele>
    <time>2021-04-10T20:13:24Z</time>
   </trkpt>
   <trkpt lat="47.7995910" lon="-122.3617540">
    <ele>114.9</ele>
    <time>2021-04-10T20:13:25Z</time>
   </trkpt>
   <trkpt lat="47.7995890" lon="-122.3617380">
    <ele>114.9</ele>
    <time>2021-04-10T20:13:26Z</time>
   </trkpt>
   <trkpt lat="47.7995900" lon="-122.3617120">
    <ele>114.8</ele>
    <time>2021-04-10T20:13:27Z</time>
   </trkpt>
   <trkpt lat="47.7995970" lon="-122.3616900">
    <ele>114.8</ele>
    <time>2021-04-10T20:13:28Z</time>
   </trkpt>
   <trkpt lat="47.7995990" lon="-122.3616580">
    <ele>114.8</ele>
    <time>2021-04-10T20:13:29Z</time>
   </trkpt>
   <trkpt lat="47.7996010" lon="-122.3616420">
    <ele>114.8</ele>
    <time>2021-04-10T20:13:30Z</time>
   </trkpt>
   <trkpt lat="47.7996040" lon="-122.3616270">
    <ele>114.7</ele>
    <time>2021-04-10T20:13:31Z</time>
   </trkpt>
   <trkpt lat="47.7996060" lon="-122.3616060">
    <ele>114.7</ele>
    <time>2021-04-10T20:13:32Z</time>
   </trkpt>
   <trkpt lat="47.7996120" lon="-122.3615880">
    <ele>114.6</ele>
    <time>2021-04-10T20:13:33Z</time>
   </trkpt>
   <trkpt lat="47.7996180" lon="-122.3615660">
    <ele>114.6</ele>
    <time>2021-04-10T20:13:34Z</time>
   </trkpt>
   <trkpt lat="47.7996200" lon="-122.3615440">
    <ele>114.6</ele>
    <time>2021-04-10T20:13:35Z</time>
   </trkpt>
   <trkpt lat="47.7996220" lon="-122.3615250">
    <ele>114.5</ele>
    <time>2021-04-10T20:13:36Z</time>
   </trkpt>
   <trkpt lat="47.7996170" lon="-122.3615010">
    <ele>114.5</ele>
    <time>2021-04-10T20:13:37Z</time>
   </trkpt>
   <trkpt lat="47.7996110" lon="-122.3614670">
    <ele>114.4</ele>
    <time>2021-04-10T20:13:38Z</time>
   </trkpt>
   <trkpt lat="47.7996110" lon="-122.3614520">
    <ele>114.4</ele>
    <time>2021-04-10T20:13:39Z</time>
   </trkpt>
   <trkpt lat="47.7996110" lon="-122.3614370">
    <ele>114.3</ele>
    <time>2021-04-10T20:13:40Z</time>
   </trkpt>
   <trkpt lat="47.7996080" lon="-122.3614160">
    <ele>114.3</ele>
    <time>2021-04-10T20:13:41Z</time>
   </trkpt>
   <trkpt lat="47.7996090" lon="-122.3613930">
    <ele>114.3</ele>
    <time>2021-04-10T20:13:42Z</time>
   </trkpt>
   <trkpt lat="47.7996100" lon="-122.3613610">
    <ele>114.2</ele>
    <time>2021-04-10T20:13:43Z</time>
   </trkpt>
   <trkpt lat="47.7996120" lon="-122.3613490">
    <ele>114.2</ele>
    <time>2021-04-10T20:13:44Z</time>
   </trkpt>
   <trkpt lat="47.7996130" lon="-122.3613360">
    <ele>114.1</ele>
    <time>2021-04-10T20:13:45Z</time>
   </trkpt>
   <trkpt lat="47.7996170" lon="-122.3613120">
    <ele>114.1</ele>
    <time>2021-04-10T20:13:46Z</time>
   </trkpt>
   <trkpt lat="47.7996180" lon="-122.3612890">
    <ele>114.0</ele>
    <time>2021-04-10T20:13:47Z</time>
   </trkpt>
   <trkpt lat="47.7996200" lon="-122.3612620">
    <ele>114.0</ele>
    <time>2021-04-10T20:13:48Z</time>
   </trkpt>
   <trkpt lat="47.7996250" lon="-122.3612400">
    <ele>113.9</ele>
    <time>2021-04-10T20:13:49Z</time>
   </trkpt>
   <trkpt lat="47.7996220" lon="-122.3612090">
    <ele>113.9</ele>
    <time>2021-04-10T20:13:50Z</time>
   </trkpt>
   <trkpt lat="47.7996190" lon="-122.3611960">
    <ele>113.9</ele>
    <time>2021-04-10T20:13:51Z</time>
   </trkpt>
   <trkpt lat="47.7996160" lon="-122.3611830">
    <ele>113.8</ele>
    <time>2021-04-10T20:13:52Z</time>
   </trkpt>
   <trkpt lat="47.7996170" lon="-122.3611620">
    <ele>113.8</ele>
    <time>2021-04-10T20:13:53Z</time>
   </trkpt>
   <trkpt lat="47.7996180" lon="-122.3611400">
    <ele>113.8</ele>
    <time>2021-04-10T20:13:54Z</time>
   </trkpt>
   <trkpt lat="47.7996190" lon="-122.3611160">
    <ele>113.7</ele>
    <time>2021-04-10T20:13:55Z</time>
   </trkpt>
   <trkpt lat="47.7996220" lon="-122.3610920">
    <ele>113.7</ele>
    <time>2021-04-10T20:13:56Z</time>
   </trkpt>
   <trkpt lat="47.7996210" lon="-122.3610650">
    <ele>113.6</ele>
    <time>2021-04-10T20:13:57Z</time>
   </trkpt>
   <trkpt lat="47.7996210" lon="-122.3610510">
    <ele>113.6</ele>
    <time>2021-04-10T20:13:58Z</time>
   </trkpt>
   <trkpt lat="47.7996210" lon="-122.3610360">
    <ele>113.6</ele>
    <time>2021-04-10T20:13:59Z</time>
   </trkpt>
   <trkpt lat="47.7996230" lon="-122.3610020">
    <ele>113.5</ele>
    <time>2021-04-10T20:14:00Z</time>
   </trkpt>
   <trkpt lat="47.7996240" lon="-122.3609880">
    <ele>113.5</ele>
    <time>2021-04-10T20:14:01Z</time>
   </trkpt>
   <trkpt lat="47.7996260" lon="-122.3609730">
    <ele>113.5</ele>
    <time>2021-04-10T20:14:02Z</time>
   </trkpt>
   <trkpt lat="47.7996270" lon="-122.3609420">
    <ele>113.4</ele>
    <time>2021-04-10T20:14:03Z</time>
   </trkpt>
   <trkpt lat="47.7996280" lon="-122.3609280">
    <ele>113.4</ele>
    <time>2021-04-10T20:14:04Z</time>
   </trkpt>
   <trkpt lat="47.7996300" lon="-122.3609150">
    <ele>113.4</ele>
    <time>2021-04-10T20:14:05Z</time>
   </trkpt>
   <trkpt lat="47.7996360" lon="-122.3609010">
    <ele>113.3</ele>
    <time>2021-04-10T20:14:06Z</time>
   </trkpt>
   <trkpt lat="47.7996360" lon="-122.3608850">
    <ele>113.3</ele>
    <time>2021-04-10T20:14:07Z</time>
   </trkpt>
   <trkpt lat="47.7996350" lon="-122.3608710">
    <ele>113.3</ele>
    <time>2021-04-10T20:14:08Z</time>
   </trkpt>
   <trkpt lat="47.7996390" lon="-122.3608360">
    <ele>113.2</ele>
    <time>2021-04-10T20:14:09Z</time>
   </trkpt>
   <trkpt lat="47.7996410" lon="-122.3608220">
    <ele>113.2</ele>
    <time>2021-04-10T20:14:10Z</time>
   </trkpt>
   <trkpt lat="47.7996430" lon="-122.3608090">
    <ele>113.2</ele>
    <time>2021-04-10T20:14:11Z</time>
   </trkpt>
   <trkpt lat="47.7996420" lon="-122.3607770">
    <ele>113.1</ele>
    <time>2021-04-10T20:14:12Z</time>
   </trkpt>
   <trkpt lat="47.7996420" lon="-122.3607630">
    <ele>113.1</ele>
    <time>2021-04-10T20:14:13Z</time>
   </trkpt>
   <trkpt lat="47.7996410" lon="-122.3607500">
    <ele>113.1</ele>
    <time>2021-04-10T20:14:14Z</time>
   </trkpt>
   <trkpt lat="47.7996430" lon="-122.3607090">
    <ele>113.0</ele>
    <time>2021-04-10T20:14:15Z</time>
   </trkpt>
   <trkpt lat="47.7996460" lon="-122.3606920">
    <ele>113.0</ele>
    <time>2021-04-10T20:14:16Z</time>
   </trkpt>
   <trkpt lat="47.7996490" lon="-122.3606760">
    <ele>112.9</ele>
    <time>2021-04-10T20:14:17Z</time>
   </trkpt>
   <trkpt lat="47.7996500" lon="-122.3606590">
    <ele>112.9</ele>
    <time>2021-04-10T20:14:18Z</time>
   </trkpt>
   <trkpt lat="47.7996470" lon="-122.3606400">
    <ele>112.9</ele>
    <time>2021-04-10T20:14:19Z</time>
   </trkpt>
   <trkpt lat="47.7996430" lon="-122.3606250">
    <ele>112.9</ele>
    <time>2021-04-10T20:14:20Z</time>
   </trkpt>
   <trkpt lat="47.7996420" lon="-122.3606140">
    <ele>112.9</ele>
    <time>2021-04-10T20:14:21Z</time>
   </trkpt>
   <trkpt lat="47.7996400" lon="-122.3605980">
    <ele>112.8</ele>
    <time>2021-04-10T20:14:22Z</time>
   </trkpt>
   <trkpt lat="47.7996370" lon="-122.3605750">
    <ele>112.8</ele>
    <time>2021-04-10T20:14:23Z</time>
   </trkpt>
   <trkpt lat="47.7996330" lon="-122.3605540">
    <ele>112.8</ele>
    <time>2021-04-10T20:14:24Z</time>
   </trkpt>
   <trkpt lat="47.7996350" lon="-122.3605320">
    <ele>112.7</ele>
    <time>2021-04-10T20:14:25Z</time>
   </trkpt>
   <trkpt lat="47.7996350" lon="-122.3605100">
    <ele>112.7</ele>
    <time>2021-04-10T20:14:26Z</time>
   </trkpt>
   <trkpt lat="47.7996350" lon="-122.3604910">
    <ele>112.7</ele>
    <time>2021-04-10T20:14:27Z</time>
   </trkpt>
   <trkpt lat="47.7996360" lon="-122.3604670">
    <ele>112.6</ele>
    <time>2021-04-10T20:14:28Z</time>
   </trkpt>
   <trkpt lat="47.7996400" lon="-122.3604430">
    <ele>112.6</ele>
    <time>2021-04-10T20:14:29Z</time>
   </trkpt>
   <trkpt lat="47.7996400" lon="-122.3604120">
    <ele>112.5</ele>
    <time>2021-04-10T20:14:30Z</time>
   </trkpt>
   <trkpt lat="47.7996380" lon="-122.3603970">
    <ele>112.5</ele>
    <time>2021-04-10T20:14:31Z</time>
   </trkpt>
   <trkpt lat="47.7996360" lon="-122.3603830">
    <ele>112.5</ele>
    <time>2021-04-10T20:14:32Z</time>
   </trkpt>
   <trkpt lat="47.7996340" lon="-122.3603560">
    <ele>112.5</ele>
    <time>2021-04-10T20:14:33Z</time>
   </trkpt>
   <trkpt lat="47.7996360" lon="-122.3603320">
    <ele>112.5</ele>
    <time>2021-04-10T20:14:34Z</time>
   </trkpt>
   <trkpt lat="47.7996350" lon="-122.3603090">
    <ele>112.4</ele>
    <time>2021-04-10T20:14:35Z</time>
   </trkpt>
   <trkpt lat="47.7996350" lon="-122.3602880">
    <ele>112.4</ele>
    <time>2021-04-10T20:14:36Z</time>
   </trkpt>
   <trkpt lat="47.7996410" lon="-122.3602620">
    <ele>112.4</ele>
    <time>2021-04-10T20:14:37Z</time>
   </trkpt>
   <trkpt lat="47.7996440" lon="-122.3602360">
    <ele>112.3</ele>
    <time>2021-04-10T20:14:38Z</time>
   </trkpt>
   <trkpt lat="47.7996450" lon="-122.3602130">
    <ele>112.3</ele>
    <time>2021-04-10T20:14:39Z</time>
   </trkpt>
   <trkpt lat="47.7996450" lon="-122.3601930">
    <ele>112.3</ele>
    <time>2021-04-10T20:14:40Z</time>
   </trkpt>
   <trkpt lat="47.7996480" lon="-122.3601670">
    <ele>112.3</ele>
    <time>2021-04-10T20:14:41Z</time>
   </trkpt>
   <trkpt lat="47.7996530" lon="-122.3601460">
    <ele>112.2</ele>
    <time>2021-04-10T20:14:42Z</time>
   </trkpt>
   <trkpt lat="47.7996570" lon="-122.3601230">
    <ele>112.2</ele>
    <time>2021-04-10T20:14:43Z</time>
   </trkpt>
   <trkpt lat="47.7996580" lon="-122.3601060">
    <ele>112.2</ele>
    <time>2021-04-10T20:14:44Z</time>
   </trkpt>
   <trkpt lat="47.7996550" lon="-122.3600850">
    <ele>112.2</ele>
    <time>2021-04-10T20:14:45Z</time>
   </trkpt>
   <trkpt lat="47.7996540" lon="-122.3600580">
    <ele>112.2</ele>
    <time>2021-04-10T20:14:46Z</time>
   </trkpt>
   <trkpt lat="47.7996550" lon="-122.3600320">
    <ele>112.2</ele>
    <time>2021-04-10T20:14:47Z</time>
   </trkpt>
   <trkpt lat="47.7996520" lon="-122.3600090">
    <ele>112.1</ele>
    <time>2021-04-10T20:14:48Z</time>
   </trkpt>
   <trkpt lat="47.7996440" lon="-122.3599850">
    <ele>112.1</ele>
    <time>2021-04-10T20:14:49Z</time>
   </trkpt>
   <trkpt lat="47.7996410" lon="-122.3599610">
    <ele>112.1</ele>
    <time>2021-04-10T20:14:50Z</time>
   </trkpt>
   <trkpt lat="47.7996380" lon="-122.3599370">
    <ele>112.1</ele>
    <time>2021-04-10T20:14:51Z</time>
   </trkpt>
   <trkpt lat="47.7996360" lon="-122.3599220">
    <ele>112.1</ele>
    <time>2021-04-10T20:14:52Z</time>
   </trkpt>
   <trkpt lat="47.7996330" lon="-122.3599070">
    <ele>112.1</ele>
    <time>2021-04-10T20:14:53Z</time>
   </trkpt>
   <trkpt lat="47.7996300" lon="-122.3598810">
    <ele>112.1</ele>
    <time>2021-04-10T20:14:54Z</time>
   </trkpt>
   <trkpt lat="47.7996260" lon="-122.3598610">
    <ele>112.0</ele>
    <time>2021-04-10T20:14:55Z</time>
   </trkpt>
   <trkpt lat="47.7996260" lon="-122.3598360">
    <ele>112.0</ele>
    <time>2021-04-10T20:14:56Z</time>
   </trkpt>
   <trkpt lat="47.7996240" lon="-122.3598150">
    <ele>112.0</ele>
    <time>2021-04-10T20:14:57Z</time>
   </trkpt>
   <trkpt lat="47.7996180" lon="-122.3597810">
    <ele>112.0</ele>
    <time>2021-04-10T20:14:58Z</time>
   </trkpt>
   <trkpt lat="47.7996130" lon="-122.3597690">
    <ele>112.0</ele>
    <time>2021-04-10T20:14:59Z</time>
   </trkpt>
   <trkpt lat="47.7996090" lon="-122.3597560">
    <ele>112.0</ele>
    <time>2021-04-10T20:15:00Z</time>
   </trkpt>
   <trkpt lat="47.7996100" lon="-122.3597320">
    <ele>112.0</ele>
    <time>2021-04-10T20:15:01Z</time>
   </trkpt>
   <trkpt lat="47.7996120" lon="-122.3597060">
    <ele>112.1</ele>
    <time>2021-04-10T20:15:02Z</time>
   </trkpt>
   <trkpt lat="47.7996110" lon="-122.3596860">
    <ele>112.1</ele>
    <time>2021-04-10T20:15:03Z</time>
   </trkpt>
   <trkpt lat="47.7996110" lon="-122.3596600">
    <ele>112.2</ele>
    <time>2021-04-10T20:15:04Z</time>
   </trkpt>
   <trkpt lat="47.7996160" lon="-122.3596330">
    <ele>112.3</ele>
    <time>2021-04-10T20:15:05Z</time>
   </trkpt>
   <trkpt lat="47.7996170" lon="-122.3596080">
    <ele>112.3</ele>
    <time>2021-04-10T20:15:06Z</time>
   </trkpt>
   <trkpt lat="47.7996210" lon="-122.3595850">
    <ele>112.4</ele>
    <time>2021-04-10T20:15:07Z</time>
   </trkpt>
   <trkpt lat="47.7996220" lon="-122.3595600">
    <ele>112.4</ele>
    <time>2021-04-10T20:15:08Z</time>
   </trkpt>
   <trkpt lat="47.7996270" lon="-122.3595350">
    <ele>112.5</ele>
    <time>2021-04-10T20:15:09Z</time>
   </trkpt>
   <trkpt lat="47.7996330" lon="-122.3595150">
    <ele>112.5</ele>
    <time>2021-04-10T20:15:10Z</time>
   </trkpt>
   <trkpt lat="47.7996400" lon="-122.3594980">
    <ele>112.6</ele>
    <time>2021-04-10T20:15:11Z</time>
   </trkpt>
   <trkpt lat="47.7996430" lon="-122.3594770">
    <ele>112.6</ele>
    <time>2021-04-10T20:15:12Z</time>
   </trkpt>
   <trkpt lat="47.7996430" lon="-122.3594580">
    <ele>112.7</ele>
    <time>2021-04-10T20:15:13Z</time>
   </trkpt>
   <trkpt lat="47.7996440" lon="-122.3594370">
    <ele>112.7</ele>
    <time>2021-04-10T20:15:14Z</time>
   </trkpt>
   <trkpt lat="47.7996420" lon="-122.3594130">
    <ele>112.8</ele>
    <time>2021-04-10T20:15:15Z</time>
   </trkpt>
   <trkpt lat="47.7996440" lon="-122.3593900">
    <ele>112.8</ele>
    <time>2021-04-10T20:15:16Z</time>
   </trkpt>
   <trkpt lat="47.7996480" lon="-122.3593680">
    <ele>112.7</ele>
    <time>2021-04-10T20:15:17Z</time>
   </trkpt>
   <trkpt lat="47.7996430" lon="-122.3593430">
    <ele>112.7</ele>
    <time>2021-04-10T20:15:18Z</time>
   </trkpt>
   <trkpt lat="47.7996440" lon="-122.3593190">
    <ele>112.6</ele>
    <time>2021-04-10T20:15:19Z</time>
   </trkpt>
   <trkpt lat="47.7996440" lon="-122.3592960">
    <ele>112.6</ele>
    <time>2021-04-10T20:15:20Z</time>
   </trkpt>
   <trkpt lat="47.7996490" lon="-122.3592720">
    <ele>112.6</ele>
    <time>2021-04-10T20:15:21Z</time>
   </trkpt>
   <trkpt lat="47.7996510" lon="-122.3592490">
    <ele>112.6</ele>
    <time>2021-04-10T20:15:22Z</time>
   </trkpt>
   <trkpt lat="47.7996490" lon="-122.3592260">
    <ele>112.6</ele>
    <time>2021-04-10T20:15:23Z</time>
   </trkpt>
   <trkpt lat="47.7996480" lon="-122.3592040">
    <ele>112.6</ele>
    <time>2021-04-10T20:15:24Z</time>
   </trkpt>
   <trkpt lat="47.7996440" lon="-122.3591830">
    <ele>112.6</ele>
    <time>2021-04-10T20:15:25Z</time>
   </trkpt>
  </trkseg>
 </trk>
</gpx>
