<?xml version="1.0" encoding="UTF-8"?>
<gpx creator="StravaGPX" version="1.1" xmlns="http://www.topografix.com/GPX/1/1" xmlns:xsi="http://www.w3.org/2001/XMLSchema-instance" xsi:schemaLocation="http://www.topografix.com/GPX/1/1 http://www.topografix.com/GPX/1/1/gpx.xsd">
 <metadata>
  <time>2021-04-20T19:15:05Z</time>
 </metadata>
 <trk>
  <name>Cool down</name>
  <type>walking</type>
  <trkseg>
   <trkpt lat="47.3809400" lon="-122.0432370">
    <ele>145.5</ele>
    <time>2021-04-20T19:15:05Z</time>
   </trkpt>
   <trkpt lat="47.3809450" lon="-122.0432260">
    <ele>145.5</ele>
    <time>2021-04-20T19:15:06Z</time>
   </trkpt>
   <trkpt lat="47.3809500" lon="-122.0432110">
    <ele>145.5</ele>
    <time>2021-04-20T19:15:07Z</time>
   </trkpt>
   <trkpt lat="47.3809490" lon="-122.0432030">
    <ele>145.5</ele>
    <time>2021-04-20T19:15:08Z</time>
   </trkpt>
   <trkpt lat="47.3809550" lon="-122.0431850">
    <ele>145.5</ele>
    <time>2021-04-20T19:15:09Z</time>
   </trkpt>
   <trkpt lat="47.3809580" lon="-122.0431660">
    <ele>145.5</ele>
    <time>2021-04-20T19:15:10Z</time>
   </trkpt>
   <trkpt lat="47.3809630" lon="-122.0431550">
    <ele>145.5</ele>
    <time>2021-04-20T19:15:11Z</time>
   </trkpt>
   <trkpt lat="47.3809660" lon="-122.0431430">
    <ele>145.5</ele>
    <time>2021-04-20T19:15:12Z</time>
   </trkpt>
   <trkpt lat="47.3809680" lon="-122.0431280">
    <ele>145.5</ele>
    <time>2021-04-20T19:15:13Z</time>
   </trkpt>
   <trkpt lat="47.3809660" lon="-122.0431080">
    <ele>145.6</ele>
    <time>2021-04-20T19:15:14Z</time>
   </trkpt>
   <trkpt lat="47.3809650" lon="-122.0430930">
    <ele>145.6</ele>
    <time>2021-04-20T19:15:15Z</time>
   </trkpt>
   <trkpt lat="47.3809560" lon="-122.0430560">
    <ele>145.6</ele>
    <time>2021-04-20T19:15:16Z</time>
   </trkpt>
   <trkpt lat="47.3809520" lon="-122.0430400">
    <ele>145.6</ele>
    <time>2021-04-20T19:15:17Z</time>
   </trkpt>
   <trkpt lat="47.3809490" lon="-122.0430250">
    <ele>145.6</ele>
    <time>2021-04-20T19:15:18Z</time>
   </trkpt>
   <trkpt lat="47.3809430" lon="-122.0429780">
    <ele>145.6</ele>
    <time>2021-04-20T19:15:19Z</time>
   </trkpt>
   <trkpt lat="47.3809410" lon="-122.0429630">
    <ele>145.6</ele>
    <time>2021-04-20T19:15:20Z</time>
   </trkpt>
   <trkpt lat="47.3809380" lon="-122.0429190">
    <ele>145.7</ele>
    <time>2021-04-20T19:15:21Z</time>
   </trkpt>
   <trkpt lat="47.3809350" lon="-122.0429040">
    <ele>145.7</ele>
    <time>2021-04-20T19:15:22Z</time>
   </trkpt>
   <trkpt lat="47.3809290" lon="-122.0428710">
    <ele>145.7</ele>
    <time>2021-04-20T19:15:23Z</time>
   </trkpt>
   <trkpt lat="47.3809280" lon="-122.0428560">
    <ele>145.7</ele>
    <time>2021-04-20T19:15:24Z</time>
   </trkpt>
   <trkpt lat="47.3809270" lon="-122.0428400">
    <ele>145.7</ele>
    <time>2021-04-20T19:15:25Z</time>
   </trkpt>
   <trkpt lat="47.3809250" lon="-122.0428160">
    <ele>145.7</ele>
    <time>2021-04-20T19:15:26Z</time>
   </trkpt>
   <trkpt lat="47.3809270" lon="-122.0427910">
    <ele>145.7</ele>
    <time>2021-04-20T19:15:27Z</time>
   </trkpt>
   <trkpt lat="47.3809280" lon="-122.0427480">
    <ele>145.8</ele>
    <time>2021-04-20T19:15:28Z</time>
   </trkpt>
   <trkpt lat="47.3809280" lon="-122.0427340">
    <ele>145.8</ele>
    <time>2021-04-20T19:15:29Z</time>
   </trkpt>
   <trkpt lat="47.3809280" lon="-122.0427050">
    <ele>145.8</ele>
    <time>2021-04-20T19:15:30Z</time>
   </trkpt>
   <trkpt lat="47.3809270" lon="-122.0426900">
    <ele>145.8</ele>
    <time>2021-04-20T19:15:31Z</time>
   </trkpt>
   <trkpt lat="47.3809260" lon="-122.0426760">
    <ele>145.8</ele>
    <time>2021-04-20T19:15:32Z</time>
   </trkpt>
   <trkpt lat="47.3809210" lon="-122.0426500">
    <ele>145.8</ele>
    <time>2021-04-20T19:15:33Z</time>
   </trkpt>
   <trkpt lat="47.3809310" lon="-122.0426320">
    <ele>145.8</ele>
    <time>2021-04-20T19:15:34Z</time>
   </trkpt>
   <trkpt lat="47.3809260" lon="-122.0426130">
    <ele>145.8</ele>
    <time>2021-04-20T19:15:35Z</time>
   </trkpt>
   <trkpt lat="47.3809270" lon="-122.0425850">
    <ele>145.8</ele>
    <time>2021-04-20T19:15:36Z</time>
   </trkpt>
   <trkpt lat="47.3809280" lon="-122.0425530">
    <ele>145.9</ele>
    <time>2021-04-20T19:15:37Z</time>
   </trkpt>
   <trkpt lat="47.3809280" lon="-122.0425380">
    <ele>145.9</ele>
    <time>2021-04-20T19:15:38Z</time>
   </trkpt>
   <trkpt lat="47.3809290" lon="-122.0425240">
    <ele>145.9</ele>
    <time>2021-04-20T19:15:39Z</time>
   </trkpt>
   <trkpt lat="47.3809370" lon="-122.0424830">
    <ele>145.9</ele>
    <time>2021-04-20T19:15:40Z</time>
   </trkpt>
   <trkpt lat="47.3809370" lon="-122.0424690">
    <ele>145.9</ele>
    <time>2021-04-20T19:15:41Z</time>
   </trkpt>
   <trkpt lat="47.3809340" lon="-122.0424480">
    <ele>145.9</ele>
    <time>2021-04-20T19:15:42Z</time>
   </trkpt>
   <trkpt lat="47.3809340" lon="-122.0424270">
    <ele>145.9</ele>
    <time>2021-04-20T19:15:43Z</time>
   </trkpt>
   <trkpt lat="47.3809310" lon="-122.0424190">
    <ele>145.9</ele>
    <time>2021-04-20T19:15:44Z</time>
   </trkpt>
   <trkpt lat="47.3809240" lon="-122.0424040">
    <ele>145.9</ele>
    <time>2021-04-20T19:15:45Z</time>
   </trkpt>
   <trkpt lat="47.3809200" lon="-122.0423810">
    <ele>146.0</ele>
    <time>2021-04-20T19:15:46Z</time>
   </trkpt>
   <trkpt lat="47.3809180" lon="-122.0423590">
    <ele>146.0</ele>
    <time>2021-04-20T19:15:47Z</time>
   </trkpt>
   <trkpt lat="47.3809170" lon="-122.0423390">
    <ele>146.0</ele>
    <time>2021-04-20T19:15:48Z</time>
   </trkpt>
   <trkpt lat="47.3809210" lon="-122.0423240">
    <ele>146.0</ele>
    <time>2021-04-20T19:15:49Z</time>
   </trkpt>
   <trkpt lat="47.3809200" lon="-122.0423100">
    <ele>146.0</ele>
    <time>2021-04-20T19:15:50Z</time>
   </trkpt>
   <trkpt lat="47.3809130" lon="-122.0422880">
    <ele>146.0</ele>
    <time>2021-04-20T19:15:51Z</time>
   </trkpt>
   <trkpt lat="47.3809100" lon="-122.0422350">
    <ele>146.1</ele>
    <time>2021-04-20T19:15:52Z</time>
   </trkpt>
   <trkpt lat="47.3809090" lon="-122.0422210">
    <ele>146.1</ele>
    <time>2021-04-20T19:15:53Z</time>
   </trkpt>
   <trkpt lat="47.3809130" lon="-122.0422030">
    <ele>146.1</ele>
    <time>2021-04-20T19:15:54Z</time>
   </trkpt>
   <trkpt lat="47.3809130" lon="-122.0421900">
    <ele>146.1</ele>
    <time>2021-04-20T19:15:55Z</time>
   </trkpt>
   <trkpt lat="47.3809110" lon="-122.0421720">
    <ele>146.1</ele>
    <time>2021-04-20T19:15:56Z</time>
   </trkpt>
   <trkpt lat="47.3809120" lon="-122.0421630">
    <ele>146.1</ele>
    <time>2021-04-20T19:15:57Z</time>
   </trkpt>
   <trkpt lat="47.3809110" lon="-122.0421530">
    <ele>146.2</ele>
    <time>2021-04-20T19:15:58Z</time>
   </trkpt>
   <trkpt lat="47.3809130" lon="-122.0421420">
    <ele>146.2</ele>
    <time>2021-04-20T19:15:59Z</time>
   </trkpt>
   <trkpt lat="47.3809090" lon="-122.0421320">
    <ele>146.2</ele>
    <time>2021-04-20T19:16:00Z</time>
   </trkpt>
   <trkpt lat="47.3809090" lon="-122.0421100">
    <ele>146.2</ele>
    <time>2021-04-20T19:16:01Z</time>
   </trkpt>
   <trkpt lat="47.3809090" lon="-122.0420900">
    <ele>146.2</ele>
    <time>2021-04-20T19:16:02Z</time>
   </trkpt>
   <trkpt lat="47.3809090" lon="-122.0420610">
    <ele>146.2</ele>
    <time>2021-04-20T19:16:03Z</time>
   </trkpt>
   <trkpt lat="47.3809060" lon="-122.0420490">
    <ele>146.2</ele>
    <time>2021-04-20T19:16:04Z</time>
   </trkpt>
   <trkpt lat="47.3809040" lon="-122.0420370">
    <ele>146.3</ele>
    <time>2021-04-20T19:16:05Z</time>
   </trkpt>
   <trkpt lat="47.3809010" lon="-122.0420240">
    <ele>146.3</ele>
    <time>2021-04-20T19:16:06Z</time>
   </trkpt>
   <trkpt lat="47.3809010" lon="-122.0420060">
    <ele>146.3</ele>
    <time>2021-04-20T19:16:07Z</time>
   </trkpt>
   <trkpt lat="47.3809010" lon="-122.0419880">
    <ele>146.3</ele>
    <time>2021-04-20T19:16:08Z</time>
   </trkpt>
   <trkpt lat="47.3809030" lon="-122.0419650">
    <ele>146.3</ele>
    <time>2021-04-20T19:16:09Z</time>
   </trkpt>
   <trkpt lat="47.3809040" lon="-122.0419510">
    <ele>146.3</ele>
    <time>2021-04-20T19:16:10Z</time>
   </trkpt>
   <trkpt lat="47.3809030" lon="-122.0419380">
    <ele>146.3</ele>
    <time>2021-04-20T19:16:11Z</time>
   </trkpt>
   <trkpt lat="47.3809050" lon="-122.0419150">
    <ele>146.4</ele>
    <time>2021-04-20T19:16:12Z</time>
   </trkpt>
   <trkpt lat="47.3809080" lon="-122.0418940">
    <ele>146.4</ele>
    <time>2021-04-20T19:16:13Z</time>
   </trkpt>
   <trkpt lat="47.3809090" lon="-122.0418750">
    <ele>146.4</ele>
    <time>2021-04-20T19:16:14Z</time>
   </trkpt>
   <trkpt lat="47.3809160" lon="-122.0418610">
    <ele>146.4</ele>
    <time>2021-04-20T19:16:15Z</time>
   </trkpt>
   <trkpt lat="47.3809160" lon="-122.0418440">
    <ele>146.4</ele>
    <time>2021-04-20T19:16:16Z</time>
   </trkpt>
   <trkpt lat="47.3809210" lon="-122.0418130">
    <ele>146.4</ele>
    <time>2021-04-20T19:16:17Z</time>
   </trkpt>
   <trkpt lat="47.3809190" lon="-122.0417970">
    <ele>146.4</ele>
    <time>2021-04-20T19:16:18Z</time>
   </trkpt>
   <trkpt lat="47.3809110" lon="-122.0417680">
    <ele>146.4</ele>
    <time>2021-04-20T19:16:19Z</time>
   </trkpt>
   <trkpt lat="47.3809050" lon="-122.0417530">
    <ele>146.5</ele>
    <time>2021-04-20T19:16:20Z</time>
   </trkpt>
   <trkpt lat="47.3809000" lon="-122.0417390">
    <ele>146.5</ele>
    <time>2021-04-20T19:16:21Z</time>
   </trkpt>
   <trkpt lat="47.3808970" lon="-122.0417200">
    <ele>146.5</ele>
    <time>2021-04-20T19:16:22Z</time>
   </trkpt>
   <trkpt lat="47.3808950" lon="-122.0416910">
    <ele>146.5</ele>
    <time>2021-04-20T19:16:23Z</time>
   </trkpt>
   <trkpt lat="47.3808910" lon="-122.0416780">
    <ele>146.5</ele>
    <time>2021-04-20T19:16:24Z</time>
   </trkpt>
   <trkpt lat="47.3808870" lon="-122.0416590">
    <ele>146.5</ele>
    <time>2021-04-20T19:16:25Z</time>
   </trkpt>
   <trkpt lat="47.3808880" lon="-122.0416430">
    <ele>146.5</ele>
    <time>2021-04-20T19:16:26Z</time>
   </trkpt>
   <trkpt lat="47.3808940" lon="-122.0416280">
    <ele>146.5</ele>
    <time>2021-04-20T19:16:27Z</time>
   </trkpt>
   <trkpt lat="47.3808940" lon="-122.0416050">
    <ele>146.5</ele>
    <time>2021-04-20T19:16:28Z</time>
   </trkpt>
   <trkpt lat="47.3808920" lon="-122.0415940">
    <ele>146.6</ele>
    <time>2021-04-20T19:16:29Z</time>
   </trkpt>
   <trkpt lat="47.3808880" lon="-122.0415820">
    <ele>146.6</ele>
    <time>2021-04-20T19:16:30Z</time>
   </trkpt>
   <trkpt lat="47.3808820" lon="-122.0415700">
    <ele>146.6</ele>
    <time>2021-04-20T19:16:31Z</time>
   </trkpt>
   <trkpt lat="47.3808790" lon="-122.0415510">
    <ele>146.6</ele>
    <time>2021-04-20T19:16:32Z</time>
   </trkpt>
   <trkpt lat="47.3808790" lon="-122.0415420">
    <ele>146.6</ele>
    <time>2021-04-20T19:16:33Z</time>
   </trkpt>
   <trkpt lat="47.3808780" lon="-122.0415200">
    <ele>146.6</ele>
    <time>2021-04-20T19:16:34Z</time>
   </trkpt>
   <trkpt lat="47.3808790" lon="-122.0415020">
    <ele>146.6</ele>
    <time>2021-04-20T19:16:35Z</time>
   </trkpt>
   <trkpt lat="47.3808770" lon="-122.0414910">
    <ele>146.6</ele>
    <time>2021-04-20T19:16:36Z</time>
   </trkpt>
   <trkpt lat="47.3808790" lon="-122.0414710">
    <ele>146.6</ele>
    <time>2021-04-20T19:16:37Z</time>
   </trkpt>
   <trkpt lat="47.3808780" lon="-122.0414500">
    <ele>146.7</ele>
    <time>2021-04-20T19:16:38Z</time>
   </trkpt>
   <trkpt lat="47.3808770" lon="-122.0414350">
    <ele>146.7</ele>
    <time>2021-04-20T19:16:39Z</time>
   </trkpt>
   <trkpt lat="47.3808770" lon="-122.0414120">
    <ele>146.7</ele>
    <time>2021-04-20T19:16:40Z</time>
   </trkpt>
   <trkpt lat="47.3808750" lon="-122.0414070">
    <ele>146.7</ele>
    <time>2021-04-20T19:16:41Z</time>
   </trkpt>
   <trkpt lat="47.3808780" lon="-122.0413920">
    <ele>146.7</ele>
    <time>2021-04-20T19:16:42Z</time>
   </trkpt>
   <trkpt lat="47.3808790" lon="-122.0413700">
    <ele>146.7</ele>
    <time>2021-04-20T19:16:43Z</time>
   </trkpt>
   <trkpt lat="47.3808870" lon="-122.0413570">
    <ele>146.7</ele>
    <time>2021-04-20T19:16:44Z</time>
   </trkpt>
   <trkpt lat="47.3808800" lon="-122.0413310">
    <ele>146.7</ele>
    <time>2021-04-20T19:16:45Z</time>
   </trkpt>
   <trkpt lat="47.3808790" lon="-122.0413180">
    <ele>146.7</ele>
    <time>2021-04-20T19:16:46Z</time>
   </trkpt>
   <trkpt lat="47.3808770" lon="-122.0413040">
    <ele>146.8</ele>
    <time>2021-04-20T19:16:47Z</time>
   </trkpt>
   <trkpt lat="47.3808800" lon="-122.0412810">
    <ele>146.8</ele>
    <time>2021-04-20T19:16:48Z</time>
   </trkpt>
   <trkpt lat="47.3808810" lon="-122.0412570">
    <ele>146.8</ele>
    <time>2021-04-20T19:16:49Z</time>
   </trkpt>
   <trkpt lat="47.3808770" lon="-122.0412460">
    <ele>146.8</ele>
    <time>2021-04-20T19:16:50Z</time>
   </trkpt>
   <trkpt lat="47.3808720" lon="-122.0412260">
    <ele>146.8</ele>
    <time>2021-04-20T19:16:51Z</time>
   </trkpt>
   <trkpt lat="47.3808730" lon="-122.0412080">
    <ele>146.8</ele>
    <time>2021-04-20T19:16:52Z</time>
   </trkpt>
   <trkpt lat="47.3808770" lon="-122.0411680">
    <ele>146.8</ele>
    <time>2021-04-20T19:16:53Z</time>
   </trkpt>
   <trkpt lat="47.3808770" lon="-122.0411540">
    <ele>146.8</ele>
    <time>2021-04-20T19:16:54Z</time>
   </trkpt>
   <trkpt lat="47.3808700" lon="-122.0411300">
    <ele>146.8</ele>
    <time>2021-04-20T19:16:55Z</time>
   </trkpt>
   <trkpt lat="47.3808670" lon="-122.0411160">
    <ele>146.8</ele>
    <time>2021-04-20T19:16:56Z</time>
   </trkpt>
   <trkpt lat="47.3808650" lon="-122.0411020">
    <ele>146.9</ele>
    <time>2021-04-20T19:16:57Z</time>
   </trkpt>
   <trkpt lat="47.3808580" lon="-122.0410940">
    <ele>146.9</ele>
    <time>2021-04-20T19:16:58Z</time>
   </trkpt>
   <trkpt lat="47.3808560" lon="-122.0410750">
    <ele>146.9</ele>
    <time>2021-04-20T19:16:59Z</time>
   </trkpt>
   <trkpt lat="47.3808620" lon="-122.0410520">
    <ele>146.9</ele>
    <time>2021-04-20T19:17:00Z</time>
   </trkpt>
   <trkpt lat="47.3808630" lon="-122.0410190">
    <ele>146.9</ele>
    <time>2021-04-20T19:17:01Z</time>
   </trkpt>
   <trkpt lat="47.3808610" lon="-122.0410090">
    <ele>146.9</ele>
    <time>2021-04-20T19:17:02Z</time>
   </trkpt>
   <trkpt lat="47.3808600" lon="-122.0409980">
    <ele>146.9</ele>
    <time>2021-04-20T19:17:03Z</time>
   </trkpt>
   <trkpt lat="47.3808600" lon="-122.0409740">
    <ele>146.9</ele>
    <time>2021-04-20T19:17:04Z</time>
   </trkpt>
   <trkpt lat="47.3808620" lon="-122.0409490">
    <ele>146.9</ele>
    <time>2021-04-20T19:17:05Z</time>
   </trkpt>
   <trkpt lat="47.3808610" lon="-122.0409170">
    <ele>146.9</ele>
    <time>2021-04-20T19:17:06Z</time>
   </trkpt>
   <trkpt lat="47.3808600" lon="-122.0409050">
    <ele>146.9</ele>
    <time>2021-04-20T19:17:07Z</time>
   </trkpt>
   <trkpt lat="47.3808590" lon="-122.0408920">
    <ele>146.9</ele>
    <time>2021-04-20T19:17:08Z</time>
   </trkpt>
   <trkpt lat="47.3808590" lon="-122.0408720">
    <ele>146.9</ele>
    <time>2021-04-20T19:17:09Z</time>
   </trkpt>
   <trkpt lat="47.3808570" lon="-122.0408510">
    <ele>146.9</ele>
    <time>2021-04-20T19:17:10Z</time>
   </trkpt>
   <trkpt lat="47.3808590" lon="-122.0408340">
    <ele>146.9</ele>
    <time>2021-04-20T19:17:11Z</time>
   </trkpt>
   <trkpt lat="47.3808580" lon="-122.0408110">
    <ele>146.9</ele>
    <time>2021-04-20T19:17:12Z</time>
   </trkpt>
   <trkpt lat="47.3808590" lon="-122.0407940">
    <ele>146.9</ele>
    <time>2021-04-20T19:17:13Z</time>
   </trkpt>
   <trkpt lat="47.3808640" lon="-122.0407770">
    <ele>146.9</ele>
    <time>2021-04-20T19:17:14Z</time>
   </trkpt>
   <trkpt lat="47.3808630" lon="-122.0407640">
    <ele>146.9</ele>
    <time>2021-04-20T19:17:16Z</time>
   </trkpt>
   <trkpt lat="47.3808620" lon="-122.0407520">
    <ele>146.9</ele>
    <time>2021-04-20T19:17:17Z</time>
   </trkpt>
   <trkpt lat="47.3808540" lon="-122.0407380">
    <ele>146.9</ele>
    <time>2021-04-20T19:17:18Z</time>
   </trkpt>
   <trkpt lat="47.3808500" lon="-122.0407280">
    <ele>146.9</ele>
    <time>2021-04-20T19:17:19Z</time>
   </trkpt>
   <trkpt lat="47.3808450" lon="-122.0406950">
    <ele>147.0</ele>
    <time>2021-04-20T19:17:20Z</time>
   </trkpt>
   <trkpt lat="47.3808460" lon="-122.0406790">
    <ele>147.0</ele>
    <time>2021-04-20T19:17:21Z</time>
   </trkpt>
   <trkpt lat="47.3808460" lon="-122.0406640">
    <ele>147.0</ele>
    <time>2021-04-20T19:17:22Z</time>
   </trkpt>
   <trkpt lat="47.3808470" lon="-122.0406460">
    <ele>147.0</ele>
    <time>2021-04-20T19:17:23Z</time>
   </trkpt>
   <trkpt lat="47.3808480" lon="-122.0406280">
    <ele>147.0</ele>
    <time>2021-04-20T19:17:24Z</time>
   </trkpt>
   <trkpt lat="47.3808440" lon="-122.0406140">
    <ele>147.0</ele>
    <time>2021-04-20T19:17:25Z</time>
   </trkpt>
   <trkpt lat="47.3808380" lon="-122.0405980">
    <ele>147.0</ele>
    <time>2021-04-20T19:17:26Z</time>
   </trkpt>
   <trkpt lat="47.3808380" lon="-122.0405770">
    <ele>147.0</ele>
    <time>2021-04-20T19:17:27Z</time>
   </trkpt>
   <trkpt lat="47.3808370" lon="-122.0405710">
    <ele>147.0</ele>
    <time>2021-04-20T19:17:28Z</time>
   </trkpt>
   <trkpt lat="47.3808410" lon="-122.0405580">
    <ele>147.0</ele>
    <time>2021-04-20T19:17:29Z</time>
   </trkpt>
   <trkpt lat="47.3808400" lon="-122.0405490">
    <ele>147.0</ele>
    <time>2021-04-20T19:17:30Z</time>
   </trkpt>
   <trkpt lat="47.3808380" lon="-122.0405400">
    <ele>147.0</ele>
    <time>2021-04-20T19:17:31Z</time>
   </trkpt>
   <trkpt lat="47.3808370" lon="-122.0405310">
    <ele>147.0</ele>
    <time>2021-04-20T19:17:32Z</time>
   </trkpt>
   <trkpt lat="47.3808350" lon="-122.0405230">
    <ele>147.0</ele>
    <time>2021-04-20T19:17:33Z</time>
   </trkpt>
   <trkpt lat="47.3808340" lon="-122.0405140">
    <ele>147.0</ele>
    <time>2021-04-20T19:17:34Z</time>
   </trkpt>
   <trkpt lat="47.3808320" lon="-122.0405050">
    <ele>147.0</ele>
    <time>2021-04-20T19:17:35Z</time>
   </trkpt>
   <trkpt lat="47.3808310" lon="-122.0404960">
    <ele>147.0</ele>
    <time>2021-04-20T19:17:36Z</time>
   </trkpt>
   <trkpt lat="47.3808290" lon="-122.0404870">
    <ele>147.0</ele>
    <time>2021-04-20T19:17:37Z</time>
   </trkpt>
   <trkpt lat="47.3808270" lon="-122.0404670">
    <ele>147.0</ele>
    <time>2021-04-20T19:17:38Z</time>
   </trkpt>
   <trkpt lat="47.3808250" lon="-122.0404560">
    <ele>147.0</ele>
    <time>2021-04-20T19:17:39Z</time>
   </trkpt>
   <trkpt lat="47.3808270" lon="-122.0404360">
    <ele>147.0</ele>
    <time>2021-04-20T19:17:40Z</time>
   </trkpt>
   <trkpt lat="47.3808270" lon="-122.0404180">
    <ele>147.0</ele>
    <time>2021-04-20T19:17:41Z</time>
   </trkpt>
   <trkpt lat="47.3808250" lon="-122.0404030">
    <ele>147.0</ele>
    <time>2021-04-20T19:17:42Z</time>
   </trkpt>
   <trkpt lat="47.3808210" lon="-122.0403900">
    <ele>147.0</ele>
    <time>2021-04-20T19:17:43Z</time>
   </trkpt>
   <trkpt lat="47.3808080" lon="-122.0403810">
    <ele>146.6</ele>
    <time>2021-04-20T19:17:44Z</time>
   </trkpt>
   <trkpt lat="47.3807930" lon="-122.0403780">
    <ele>146.4</ele>
    <time>2021-04-20T19:17:45Z</time>
   </trkpt>
   <trkpt lat="47.3807840" lon="-122.0403730">
    <ele>146.3</ele>
    <time>2021-04-20T19:17:46Z</time>
   </trkpt>
   <trkpt lat="47.3807760" lon="-122.0403720">
    <ele>146.2</ele>
    <time>2021-04-20T19:17:47Z</time>
   </trkpt>
   <trkpt lat="47.3807670" lon="-122.0403680">
    <ele>146.0</ele>
    <time>2021-04-20T19:17:48Z</time>
   </trkpt>
   <trkpt lat="47.3807590" lon="-122.0403680">
    <ele>145.9</ele>
    <time>2021-04-20T19:17:49Z</time>
   </trkpt>
   <trkpt lat="47.3807460" lon="-122.0403680">
    <ele>145.8</ele>
    <time>2021-04-20T19:17:50Z</time>
   </trkpt>
   <trkpt lat="47.3807290" lon="-122.0403630">
    <ele>145.5</ele>
    <time>2021-04-20T19:17:51Z</time>
   </trkpt>
   <trkpt lat="47.3807120" lon="-122.0403720">
    <ele>145.3</ele>
    <time>2021-04-20T19:17:52Z</time>
   </trkpt>
   <trkpt lat="47.3807010" lon="-122.0403800">
    <ele>145.1</ele>
    <time>2021-04-20T19:17:53Z</time>
   </trkpt>
   <trkpt lat="47.3806940" lon="-122.0404050">
    <ele>144.9</ele>
    <time>2021-04-20T19:17:54Z</time>
   </trkpt>
   <trkpt lat="47.3806920" lon="-122.0404190">
    <ele>144.9</ele>
    <time>2021-04-20T19:17:55Z</time>
   </trkpt>
   <trkpt lat="47.3806890" lon="-122.0404330">
    <ele>144.9</ele>
    <time>2021-04-20T19:17:56Z</time>
   </trkpt>
   <trkpt lat="47.3806800" lon="-122.0404490">
    <ele>144.9</ele>
    <time>2021-04-20T19:17:57Z</time>
   </trkpt>
   <trkpt lat="47.3806860" lon="-122.0404750">
    <ele>144.9</ele>
    <time>2021-04-20T19:17:58Z</time>
   </trkpt>
   <trkpt lat="47.3806860" lon="-122.0405060">
    <ele>144.9</ele>
    <time>2021-04-20T19:17:59Z</time>
   </trkpt>
   <trkpt lat="47.3806900" lon="-122.0405200">
    <ele>144.9</ele>
    <time>2021-04-20T19:18:00Z</time>
   </trkpt>
   <trkpt lat="47.3806930" lon="-122.0405330">
    <ele>144.9</ele>
    <time>2021-04-20T19:18:01Z</time>
   </trkpt>
   <trkpt lat="47.3806960" lon="-122.0405670">
    <ele>144.8</ele>
    <time>2021-04-20T19:18:02Z</time>
   </trkpt>
   <trkpt lat="47.3806970" lon="-122.0405790">
    <ele>144.8</ele>
    <time>2021-04-20T19:18:03Z</time>
   </trkpt>
   <trkpt lat="47.3806970" lon="-122.0405920">
    <ele>144.8</ele>
    <time>2021-04-20T19:18:04Z</time>
   </trkpt>
   <trkpt lat="47.3806890" lon="-122.0406210">
    <ele>144.8</ele>
    <time>2021-04-20T19:18:05Z</time>
   </trkpt>
   <trkpt lat="47.3806870" lon="-122.0406320">
    <ele>144.8</ele>
    <time>2021-04-20T19:18:06Z</time>
   </trkpt>
   <trkpt lat="47.3806860" lon="-122.0406430">
    <ele>144.8</ele>
    <time>2021-04-20T19:18:07Z</time>
   </trkpt>
   <trkpt lat="47.3806860" lon="-122.0406580">
    <ele>144.8</ele>
    <time>2021-04-20T19:18:08Z</time>
   </trkpt>
   <trkpt lat="47.3806820" lon="-122.0406790">
    <ele>144.8</ele>
    <time>2021-04-20T19:18:09Z</time>
   </trkpt>
   <trkpt lat="47.3806740" lon="-122.0406910">
    <ele>144.8</ele>
    <time>2021-04-20T19:18:10Z</time>
   </trkpt>
   <trkpt lat="47.3806700" lon="-122.0407060">
    <ele>144.8</ele>
    <time>2021-04-20T19:18:11Z</time>
   </trkpt>
   <trkpt lat="47.3806660" lon="-122.0407100">
    <ele>144.7</ele>
    <time>2021-04-20T19:18:12Z</time>
   </trkpt>
   <trkpt lat="47.3806600" lon="-122.0407230">
    <ele>144.7</ele>
    <time>2021-04-20T19:18:13Z</time>
   </trkpt>
   <trkpt lat="47.3806590" lon="-122.0407380">
    <ele>144.7</ele>
    <time>2021-04-20T19:18:14Z</time>
   </trkpt>
   <trkpt lat="47.3806550" lon="-122.0407410">
    <ele>144.7</ele>
    <time>2021-04-20T19:18:15Z</time>
   </trkpt>
   <trkpt lat="47.3806530" lon="-122.0407470">
    <ele>144.7</ele>
    <time>2021-04-20T19:18:16Z</time>
   </trkpt>
   <trkpt lat="47.3806500" lon="-122.0407630">
    <ele>144.7</ele>
    <time>2021-04-20T19:18:17Z</time>
   </trkpt>
   <trkpt lat="47.3806500" lon="-122.0407780">
    <ele>144.7</ele>
    <time>2021-04-20T19:18:18Z</time>
   </trkpt>
   <trkpt lat="47.3806500" lon="-122.0407860">
    <ele>144.7</ele>
    <time>2021-04-20T19:18:19Z</time>
   </trkpt>
   <trkpt lat="47.3806500" lon="-122.0407920">
    <ele>144.7</ele>
    <time>2021-04-20T19:18:20Z</time>
   </trkpt>
   <trkpt lat="47.3806520" lon="-122.0407930">
    <ele>144.7</ele>
    <time>2021-04-20T19:18:21Z</time>
   </trkpt>
   <trkpt lat="47.3806490" lon="-122.0407950">
    <ele>144.7</ele>
    <time>2021-04-20T19:18:22Z</time>
   </trkpt>
   <trkpt lat="47.3806530" lon="-122.0407950">
    <ele>144.7</ele>
    <time>2021-04-20T19:18:23Z</time>
   </trkpt>
   <trkpt lat="47.3806430" lon="-122.0407960">
    <ele>144.7</ele>
    <time>2021-04-20T19:18:24Z</time>
   </trkpt>
   <trkpt lat="47.3806310" lon="-122.0408050">
    <ele>144.7</ele>
    <time>2021-04-20T19:18:25Z</time>
   </trkpt>
   <trkpt lat="47.3806320" lon="-122.0408150">
    <ele>144.7</ele>
    <time>2021-04-20T19:18:26Z</time>
   </trkpt>
   <trkpt lat="47.3806340" lon="-122.0408260">
    <ele>144.7</ele>
    <time>2021-04-20T19:18:27Z</time>
   </trkpt>
   <trkpt lat="47.3806370" lon="-122.0408370">
    <ele>144.7</ele>
    <time>2021-04-20T19:18:28Z</time>
   </trkpt>
   <trkpt lat="47.3806330" lon="-122.0408550">
    <ele>144.6</ele>
    <time>2021-04-20T19:18:29Z</time>
   </trkpt>
   <trkpt lat="47.3806280" lon="-122.0408780">
    <ele>144.6</ele>
    <time>2021-04-20T19:18:30Z</time>
   </trkpt>
   <trkpt lat="47.3806270" lon="-122.0408940">
    <ele>144.6</ele>
    <time>2021-04-20T19:18:31Z</time>
   </trkpt>
   <trkpt lat="47.3806300" lon="-122.0409100">
    <ele>144.6</ele>
    <time>2021-04-20T19:18:32Z</time>
   </trkpt>
   <trkpt lat="47.3806330" lon="-122.0409100">
    <ele>144.6</ele>
    <time>2021-04-20T19:18:33Z</time>
   </trkpt>
   <trkpt lat="47.3806340" lon="-122.0409140">
    <ele>144.6</ele>
    <time>2021-04-20T19:18:34Z</time>
   </trkpt>
   <trkpt lat="47.3806340" lon="-122.0409250">
    <ele>144.6</ele>
    <time>2021-04-20T19:18:35Z</time>
   </trkpt>
   <trkpt lat="47.3806390" lon="-122.0409320">
    <ele>144.6</ele>
    <time>2021-04-20T19:18:36Z</time>
   </trkpt>
   <trkpt lat="47.3806410" lon="-122.0409480">
    <ele>144.6</ele>
    <time>2021-04-20T19:18:37Z</time>
   </trkpt>
   <trkpt lat="47.3806430" lon="-122.0409590">
    <ele>144.6</ele>
    <time>2021-04-20T19:18:38Z</time>
   </trkpt>
   <trkpt lat="47.3806440" lon="-122.0409690">
    <ele>144.6</ele>
    <time>2021-04-20T19:18:39Z</time>
   </trkpt>
   <trkpt lat="47.3806450" lon="-122.0409800">
    <ele>144.6</ele>
    <time>2021-04-20T19:18:40Z</time>
   </trkpt>
   <trkpt lat="47.3806460" lon="-122.0409900">
    <ele>144.6</ele>
    <time>2021-04-20T19:18:41Z</time>
   </trkpt>
   <trkpt lat="47.3806480" lon="-122.0410010">
    <ele>144.6</ele>
    <time>2021-04-20T19:18:42Z</time>
   </trkpt>
   <trkpt lat="47.3806490" lon="-122.0410110">
    <ele>144.6</ele>
    <time>2021-04-20T19:18:43Z</time>
   </trkpt>
   <trkpt lat="47.3806500" lon="-122.0410220">
    <ele>144.6</ele>
    <time>2021-04-20T19:18:44Z</time>
   </trkpt>
   <trkpt lat="47.3806500" lon="-122.0410330">
    <ele>144.6</ele>
    <time>2021-04-20T19:18:45Z</time>
   </trkpt>
   <trkpt lat="47.3806520" lon="-122.0410430">
    <ele>144.5</ele>
    <time>2021-04-20T19:18:46Z</time>
   </trkpt>
   <trkpt lat="47.3806500" lon="-122.0410620">
    <ele>144.5</ele>
    <time>2021-04-20T19:18:47Z</time>
   </trkpt>
   <trkpt lat="47.3806510" lon="-122.0410720">
    <ele>144.5</ele>
    <time>2021-04-20T19:18:48Z</time>
   </trkpt>
   <trkpt lat="47.3806530" lon="-122.0410840">
    <ele>144.5</ele>
    <time>2021-04-20T19:18:49Z</time>
   </trkpt>
   <trkpt lat="47.3806500" lon="-122.0411050">
    <ele>144.5</ele>
    <time>2021-04-20T19:18:50Z</time>
   </trkpt>
   <trkpt lat="47.3806500" lon="-122.0411220">
    <ele>144.5</ele>
    <time>2021-04-20T19:18:51Z</time>
   </trkpt>
   <trkpt lat="47.3806460" lon="-122.0411550">
    <ele>144.5</ele>
    <time>2021-04-20T19:18:52Z</time>
   </trkpt>
   <trkpt lat="47.3806490" lon="-122.0411680">
    <ele>144.5</ele>
    <time>2021-04-20T19:18:53Z</time>
   </trkpt>
   <trkpt lat="47.3806440" lon="-122.0411800">
    <ele>144.5</ele>
    <time>2021-04-20T19:18:54Z</time>
   </trkpt>
   <trkpt lat="47.3806450" lon="-122.0411890">
    <ele>144.5</ele>
    <time>2021-04-20T19:18:55Z</time>
   </trkpt>
   <trkpt lat="47.3806490" lon="-122.0412000">
    <ele>144.4</ele>
    <time>2021-04-20T19:18:56Z</time>
   </trkpt>
   <trkpt lat="47.3806430" lon="-122.0412340">
    <ele>144.4</ele>
    <time>2021-04-20T19:18:57Z</time>
   </trkpt>
   <trkpt lat="47.3806380" lon="-122.0412490">
    <ele>144.4</ele>
    <time>2021-04-20T19:18:58Z</time>
   </trkpt>
   <trkpt lat="47.3806330" lon="-122.0412640">
    <ele>144.4</ele>
    <time>2021-04-20T19:18:59Z</time>
   </trkpt>
   <trkpt lat="47.3806310" lon="-122.0412820">
    <ele>144.4</ele>
    <time>2021-04-20T19:19:00Z</time>
   </trkpt>
   <trkpt lat="47.3806350" lon="-122.0412900">
    <ele>144.4</ele>
    <time>2021-04-20T19:19:01Z</time>
   </trkpt>
   <trkpt lat="47.3806360" lon="-122.0412970">
    <ele>144.4</ele>
    <time>2021-04-20T19:19:02Z</time>
   </trkpt>
   <trkpt lat="47.3806340" lon="-122.0413110">
    <ele>144.4</ele>
    <time>2021-04-20T19:19:03Z</time>
   </trkpt>
   <trkpt lat="47.3806250" lon="-122.0413370">
    <ele>144.3</ele>
    <time>2021-04-20T19:19:04Z</time>
   </trkpt>
   <trkpt lat="47.3806210" lon="-122.0413570">
    <ele>144.3</ele>
    <time>2021-04-20T19:19:05Z</time>
   </trkpt>
   <trkpt lat="47.3806160" lon="-122.0413750">
    <ele>144.3</ele>
    <time>2021-04-20T19:19:06Z</time>
   </trkpt>
   <trkpt lat="47.3806210" lon="-122.0413890">
    <ele>144.3</ele>
    <time>2021-04-20T19:19:07Z</time>
   </trkpt>
   <trkpt lat="47.3806180" lon="-122.0414040">
    <ele>144.3</ele>
    <time>2021-04-20T19:19:08Z</time>
   </trkpt>
   <trkpt lat="47.3806200" lon="-122.0414140">
    <ele>144.3</ele>
    <time>2021-04-20T19:19:09Z</time>
   </trkpt>
   <trkpt lat="47.3806200" lon="-122.0414260">
    <ele>144.3</ele>
    <time>2021-04-20T19:19:10Z</time>
   </trkpt>
   <trkpt lat="47.3806270" lon="-122.0414490">
    <ele>144.3</ele>
    <time>2021-04-20T19:19:11Z</time>
   </trkpt>
   <trkpt lat="47.3806320" lon="-122.0414720">
    <ele>144.3</ele>
    <time>2021-04-20T19:19:12Z</time>
   </trkpt>
   <trkpt lat="47.3806340" lon="-122.0414950">
    <ele>144.2</ele>
    <time>2021-04-20T19:19:13Z</time>
   </trkpt>
   <trkpt lat="47.3806380" lon="-122.0415190">
    <ele>144.2</ele>
    <time>2021-04-20T19:19:14Z</time>
   </trkpt>
   <trkpt lat="47.3806450" lon="-122.0415450">
    <ele>144.2</ele>
    <time>2021-04-20T19:19:15Z</time>
   </trkpt>
   <trkpt lat="47.3806480" lon="-122.0415670">
    <ele>144.2</ele>
    <time>2021-04-20T19:19:16Z</time>
   </trkpt>
   <trkpt lat="47.3806500" lon="-122.0415780">
    <ele>144.2</ele>
    <time>2021-04-20T19:19:17Z</time>
   </trkpt>
   <trkpt lat="47.3806510" lon="-122.0415880">
    <ele>144.2</ele>
    <time>2021-04-20T19:19:18Z</time>
   </trkpt>
   <trkpt lat="47.3806520" lon="-122.0415990">
    <ele>144.2</ele>
    <time>2021-04-20T19:19:19Z</time>
   </trkpt>
   <trkpt lat="47.3806480" lon="-122.0416110">
    <ele>144.2</ele>
    <time>2021-04-20T19:19:20Z</time>
   </trkpt>
   <trkpt lat="47.3806460" lon="-122.0416260">
    <ele>144.2</ele>
    <time>2021-04-20T19:19:21Z</time>
   </trkpt>
   <trkpt lat="47.3806500" lon="-122.0416430">
    <ele>144.1</ele>
    <time>2021-04-20T19:19:22Z</time>
   </trkpt>
   <trkpt lat="47.3806530" lon="-122.0416520">
    <ele>144.1</ele>
    <time>2021-04-20T19:19:24Z</time>
   </trkpt>
   <trkpt lat="47.3806590" lon="-122.0416630">
    <ele>144.1</ele>
    <time>2021-04-20T19:19:25Z</time>
   </trkpt>
   <trkpt lat="47.3806590" lon="-122.0416740">
    <ele>144.1</ele>
    <time>2021-04-20T19:19:26Z</time>
   </trkpt>
   <trkpt lat="47.3806620" lon="-122.0416750">
    <ele>144.1</ele>
    <time>2021-04-20T19:19:27Z</time>
   </trkpt>
   <trkpt lat="47.3806610" lon="-122.0416900">
    <ele>144.1</ele>
    <time>2021-04-20T19:19:28Z</time>
   </trkpt>
   <trkpt lat="47.3806590" lon="-122.0417050">
    <ele>144.1</ele>
    <time>2021-04-20T19:19:29Z</time>
   </trkpt>
   <trkpt lat="47.3806680" lon="-122.0417280">
    <ele>144.1</ele>
    <time>2021-04-20T19:19:30Z</time>
   </trkpt>
   <trkpt lat="47.3806740" lon="-122.0417440">
    <ele>144.1</ele>
    <time>2021-04-20T19:19:31Z</time>
   </trkpt>
   <trkpt lat="47.3806710" lon="-122.0417710">
    <ele>144.1</ele>
    <time>2021-04-20T19:19:32Z</time>
   </trkpt>
   <trkpt lat="47.3806760" lon="-122.0417970">
    <ele>144.1</ele>
    <time>2021-04-20T19:19:33Z</time>
   </trkpt>
   <trkpt lat="47.3806810" lon="-122.0418100">
    <ele>144.0</ele>
    <time>2021-04-20T19:19:34Z</time>
   </trkpt>
   <trkpt lat="47.3806850" lon="-122.0418380">
    <ele>144.0</ele>
    <time>2021-04-20T19:19:35Z</time>
   </trkpt>
   <trkpt lat="47.3806870" lon="-122.0418570">
    <ele>144.0</ele>
    <time>2021-04-20T19:19:36Z</time>
   </trkpt>
   <trkpt lat="47.3806910" lon="-122.0418680">
    <ele>144.0</ele>
    <time>2021-04-20T19:19:37Z</time>
   </trkpt>
   <trkpt lat="47.3806930" lon="-122.0418840">
    <ele>144.0</ele>
    <time>2021-04-20T19:19:38Z</time>
   </trkpt>
   <trkpt lat="47.3806960" lon="-122.0419030">
    <ele>144.0</ele>
    <time>2021-04-20T19:19:39Z</time>
   </trkpt>
   <trkpt lat="47.3807010" lon="-122.0419170">
    <ele>144.0</ele>
    <time>2021-04-20T19:19:40Z</time>
   </trkpt>
   <trkpt lat="47.3807080" lon="-122.0419250">
    <ele>144.0</ele>
    <time>2021-04-20T19:19:41Z</time>
   </trkpt>
   <trkpt lat="47.3807100" lon="-122.0419530">
    <ele>144.0</ele>
    <time>2021-04-20T19:19:42Z</time>
   </trkpt>
   <trkpt lat="47.3807050" lon="-122.0419690">
    <ele>144.0</ele>
    <time>2021-04-20T19:19:43Z</time>
   </trkpt>
   <trkpt lat="47.3807040" lon="-122.0419850">
    <ele>144.0</ele>
    <time>2021-04-20T19:19:44Z</time>
   </trkpt>
   <trkpt lat="47.3807060" lon="-122.0419950">
    <ele>144.0</ele>
    <time>2021-04-20T19:19:45Z</time>
   </trkpt>
   <trkpt lat="47.3807070" lon="-122.0420450">
    <ele>144.0</ele>
    <time>2021-04-20T19:19:46Z</time>
   </trkpt>
   <trkpt lat="47.3807060" lon="-122.0420660">
    <ele>144.0</ele>
    <time>2021-04-20T19:19:47Z</time>
   </trkpt>
   <trkpt lat="47.3807070" lon="-122.0421090">
    <ele>144.0</ele>
    <time>2021-04-20T19:19:48Z</time>
   </trkpt>
   <trkpt lat="47.3807040" lon="-122.0421330">
    <ele>144.0</ele>
    <time>2021-04-20T19:19:49Z</time>
   </trkpt>
   <trkpt lat="47.3807030" lon="-122.0421610">
    <ele>144.0</ele>
    <time>2021-04-20T19:19:50Z</time>
   </trkpt>
   <trkpt lat="47.3807010" lon="-122.0421880">
    <ele>144.0</ele>
    <time>2021-04-20T19:19:51Z</time>
   </trkpt>
   <trkpt lat="47.3807020" lon="-122.0422070">
    <ele>144.0</ele>
    <time>2021-04-20T19:19:52Z</time>
   </trkpt>
   <trkpt lat="47.3806990" lon="-122.0422230">
    <ele>144.0</ele>
    <time>2021-04-20T19:19:53Z</time>
   </trkpt>
   <trkpt lat="47.3806890" lon="-122.0422450">
    <ele>144.0</ele>
    <time>2021-04-20T19:19:54Z</time>
   </trkpt>
   <trkpt lat="47.3806870" lon="-122.0422670">
    <ele>144.0</ele>
    <time>2021-04-20T19:19:55Z</time>
   </trkpt>
   <trkpt lat="47.3806850" lon="-122.0422750">
    <ele>144.1</ele>
    <time>2021-04-20T19:19:56Z</time>
   </trkpt>
   <trkpt lat="47.3806880" lon="-122.0422790">
    <ele>144.1</ele>
    <time>2021-04-20T19:19:57Z</time>
   </trkpt>
   <trkpt lat="47.3806850" lon="-122.0422920">
    <ele>144.1</ele>
    <time>2021-04-20T19:19:58Z</time>
   </trkpt>
   <trkpt lat="47.3806780" lon="-122.0423090">
    <ele>144.1</ele>
    <time>2021-04-20T19:19:59Z</time>
   </trkpt>
   <trkpt lat="47.3806720" lon="-122.0423220">
    <ele>144.1</ele>
    <time>2021-04-20T19:20:00Z</time>
   </trkpt>
   <trkpt lat="47.3806680" lon="-122.0423310">
    <ele>144.1</ele>
    <time>2021-04-20T19:20:01Z</time>
   </trkpt>
   <trkpt lat="47.3806660" lon="-122.0423520">
    <ele>144.2</ele>
    <time>2021-04-20T19:20:02Z</time>
   </trkpt>
   <trkpt lat="47.3806610" lon="-122.0423710">
    <ele>144.2</ele>
    <time>2021-04-20T19:20:03Z</time>
   </trkpt>
   <trkpt lat="47.3806550" lon="-122.0423870">
    <ele>144.2</ele>
    <time>2021-04-20T19:20:04Z</time>
   </trkpt>
   <trkpt lat="47.3806510" lon="-122.0424090">
    <ele>144.1</ele>
    <time>2021-04-20T19:20:05Z</time>
   </trkpt>
   <trkpt lat="47.3806480" lon="-122.0424330">
    <ele>144.1</ele>
    <time>2021-04-20T19:20:06Z</time>
   </trkpt>
   <trkpt lat="47.3806440" lon="-122.0424490">
    <ele>144.0</ele>
    <time>2021-04-20T19:20:07Z</time>
   </trkpt>
   <trkpt lat="47.3806330" lon="-122.0424690">
    <ele>144.0</ele>
    <time>2021-04-20T19:20:08Z</time>
   </trkpt>
   <trkpt lat="47.3806260" lon="-122.0424810">
    <ele>144.0</ele>
    <time>2021-04-20T19:20:09Z</time>
   </trkpt>
   <trkpt lat="47.3806200" lon="-122.0424920">
    <ele>143.9</ele>
    <time>2021-04-20T19:20:10Z</time>
   </trkpt>
   <trkpt lat="47.3806100" lon="-122.0424980">
    <ele>143.9</ele>
    <time>2021-04-20T19:20:11Z</time>
   </trkpt>
   <trkpt lat="47.3806030" lon="-122.0425010">
    <ele>143.9</ele>
    <time>2021-04-20T19:20:12Z</time>
   </trkpt>
   <trkpt lat="47.3806000" lon="-122.0425100">
    <ele>143.9</ele>
    <time>2021-04-20T19:20:13Z</time>
   </trkpt>
   <trkpt lat="47.3805930" lon="-122.0425220">
    <ele>143.8</ele>
    <time>2021-04-20T19:20:14Z</time>
   </trkpt>
   <trkpt lat="47.3805910" lon="-122.0425350">
    <ele>143.8</ele>
    <time>2021-04-20T19:20:15Z</time>
   </trkpt>
   <trkpt lat="47.3805730" lon="-122.0425530">
    <ele>143.8</ele>
    <time>2021-04-20T19:20:16Z</time>
   </trkpt>
   <trkpt lat="47.3805630" lon="-122.0425690">
    <ele>143.7</ele>
    <time>2021-04-20T19:20:17Z</time>
   </trkpt>
   <trkpt lat="47.3805510" lon="-122.0425770">
    <ele>143.7</ele>
    <time>2021-04-20T19:20:18Z</time>
   </trkpt>
   <trkpt lat="47.3805260" lon="-122.0426080">
    <ele>143.6</ele>
    <time>2021-04-20T19:20:19Z</time>
   </trkpt>
   <trkpt lat="47.3805180" lon="-122.0426190">
    <ele>143.6</ele>
    <time>2021-04-20T19:20:20Z</time>
   </trkpt>
   <trkpt lat="47.3805150" lon="-122.0426290">
    <ele>143.6</ele>
    <time>2021-04-20T19:20:21Z</time>
   </trkpt>
   <trkpt lat="47.3805070" lon="-122.0426390">
    <ele>143.6</ele>
    <time>2021-04-20T19:20:22Z</time>
   </trkpt>
   <trkpt lat="47.3804950" lon="-122.0426510">
    <ele>143.5</ele>
    <time>2021-04-20T19:20:23Z</time>
   </trkpt>
   <trkpt lat="47.3804860" lon="-122.0426560">
    <ele>143.5</ele>
    <time>2021-04-20T19:20:24Z</time>
   </trkpt>
   <trkpt lat="47.3804850" lon="-122.0426600">
    <ele>143.5</ele>
    <time>2021-04-20T19:20:25Z</time>
   </trkpt>
   <trkpt lat="47.3804810" lon="-122.0426590">
    <ele>143.5</ele>
    <time>2021-04-20T19:20:26Z</time>
   </trkpt>
   <trkpt lat="47.3804740" lon="-122.0426530">
    <ele>143.5</ele>
    <time>2021-04-20T19:20:27Z</time>
   </trkpt>
   <trkpt lat="47.3804630" lon="-122.0426610">
    <ele>143.5</ele>
    <time>2021-04-20T19:20:28Z</time>
   </trkpt>
   <trkpt lat="47.3804540" lon="-122.0426680">
    <ele>143.4</ele>
    <time>2021-04-20T19:20:29Z</time>
   </trkpt>
   <trkpt lat="47.3804420" lon="-122.0426720">
    <ele>143.4</ele>
    <time>2021-04-20T19:20:30Z</time>
   </trkpt>
   <trkpt lat="47.3804330" lon="-122.0426780">
    <ele>143.4</ele>
    <time>2021-04-20T19:20:31Z</time>
   </trkpt>
   <trkpt lat="47.3804180" lon="-122.0426760">
    <ele>143.4</ele>
    <time>2021-04-20T19:20:32Z</time>
   </trkpt>
   <trkpt lat="47.3804100" lon="-122.0426800">
    <ele>143.4</ele>
    <time>2021-04-20T19:20:33Z</time>
   </trkpt>
   <trkpt lat="47.3804010" lon="-122.0426850">
    <ele>143.3</ele>
    <time>2021-04-20T19:20:34Z</time>
   </trkpt>
   <trkpt lat="47.3803920" lon="-122.0426890">
    <ele>143.3</ele>
    <time>2021-04-20T19:20:35Z</time>
   </trkpt>
   <trkpt lat="47.3803670" lon="-122.0426890">
    <ele>143.3</ele>
    <time>2021-04-20T19:20:36Z</time>
   </trkpt>
   <trkpt lat="47.3803620" lon="-122.0426920">
    <ele>143.3</ele>
    <time>2021-04-20T19:20:37Z</time>
   </trkpt>
   <trkpt lat="47.3803460" lon="-122.0426950">
    <ele>143.3</ele>
    <time>2021-04-20T19:20:38Z</time>
   </trkpt>
   <trkpt lat="47.3803390" lon="-122.0426920">
    <ele>143.2</ele>
    <time>2021-04-20T19:20:39Z</time>
   </trkpt>
   <trkpt lat="47.3803270" lon="-122.0426900">
    <ele>143.2</ele>
    <time>2021-04-20T19:20:40Z</time>
   </trkpt>
   <trkpt lat="47.3803150" lon="-122.0426790">
    <ele>143.2</ele>
    <time>2021-04-20T19:20:41Z</time>
   </trkpt>
   <trkpt lat="47.3803020" lon="-122.0426730">
    <ele>143.2</ele>
    <time>2021-04-20T19:20:42Z</time>
   </trkpt>
   <trkpt lat="47.3802960" lon="-122.0426630">
    <ele>143.2</ele>
    <time>2021-04-20T19:20:43Z</time>
   </trkpt>
   <trkpt lat="47.3802950" lon="-122.0426580">
    <ele>143.2</ele>
    <time>2021-04-20T19:20:44Z</time>
   </trkpt>
   <trkpt lat="47.3802900" lon="-122.0426510">
    <ele>143.2</ele>
    <time>2021-04-20T19:20:45Z</time>
   </trkpt>
   <trkpt lat="47.3802780" lon="-122.0426450">
    <ele>143.2</ele>
    <time>2021-04-20T19:20:46Z</time>
   </trkpt>
   <trkpt lat="47.3802660" lon="-122.0426410">
    <ele>143.2</ele>
    <time>2021-04-20T19:20:47Z</time>
   </trkpt>
   <trkpt lat="47.3802540" lon="-122.0426410">
    <ele>143.2</ele>
    <time>2021-04-20T19:20:48Z</time>
   </trkpt>
   <trkpt lat="47.3802440" lon="-122.0426380">
    <ele>143.2</ele>
    <time>2021-04-20T19:20:49Z</time>
   </trkpt>
   <trkpt lat="47.3802370" lon="-122.0426340">
    <ele>143.1</ele>
    <time>2021-04-20T19:20:50Z</time>
   </trkpt>
   <trkpt lat="47.3802250" lon="-122.0426270">
    <ele>143.1</ele>
    <time>2021-04-20T19:20:51Z</time>
   </trkpt>
   <trkpt lat="47.3802100" lon="-122.0426190">
    <ele>143.1</ele>
    <time>2021-04-20T19:20:52Z</time>
   </trkpt>
   <trkpt lat="47.3802050" lon="-122.0426100">
    <ele>143.1</ele>
    <time>2021-04-20T19:20:53Z</time>
   </trkpt>
   <trkpt lat="47.3801990" lon="-122.0426100">
    <ele>143.1</ele>
    <time>2021-04-20T19:20:54Z</time>
   </trkpt>
   <trkpt lat="47.3801890" lon="-122.0425970">
    <ele>143.1</ele>
    <time>2021-04-20T19:20:55Z</time>
   </trkpt>
   <trkpt lat="47.3801820" lon="-122.0425890">
    <ele>143.1</ele>
    <time>2021-04-20T19:20:56Z</time>
   </trkpt>
   <trkpt lat="47.3801630" lon="-122.0425730">
    <ele>143.1</ele>
    <time>2021-04-20T19:20:57Z</time>
   </trkpt>
   <trkpt lat="47.3801560" lon="-122.0425640">
    <ele>143.0</ele>
    <time>2021-04-20T19:20:58Z</time>
   </trkpt>
   <trkpt lat="47.3801490" lon="-122.0425560">
    <ele>143.0</ele>
    <time>2021-04-20T19:20:59Z</time>
   </trkpt>
   <trkpt lat="47.3801430" lon="-122.0425470">
    <ele>143.0</ele>
    <time>2021-04-20T19:21:00Z</time>
   </trkpt>
   <trkpt lat="47.3801240" lon="-122.0425320">
    <ele>143.0</ele>
    <time>2021-04-20T19:21:01Z</time>
   </trkpt>
   <trkpt lat="47.3801040" lon="-122.0425100">
    <ele>143.0</ele>
    <time>2021-04-20T19:21:02Z</time>
   </trkpt>
   <trkpt lat="47.3801010" lon="-122.0425010">
    <ele>143.0</ele>
    <time>2021-04-20T19:21:03Z</time>
   </trkpt>
   <trkpt lat="47.3800980" lon="-122.0424930">
    <ele>143.0</ele>
    <time>2021-04-20T19:21:04Z</time>
   </trkpt>
   <trkpt lat="47.3800850" lon="-122.0424740">
    <ele>143.0</ele>
    <time>2021-04-20T19:21:05Z</time>
   </trkpt>
   <trkpt lat="47.3800790" lon="-122.0424610">
    <ele>143.0</ele>
    <time>2021-04-20T19:21:06Z</time>
   </trkpt>
   <trkpt lat="47.3800710" lon="-122.0424600">
    <ele>143.0</ele>
    <time>2021-04-20T19:21:07Z</time>
   </trkpt>
   <trkpt lat="47.3800480" lon="-122.0424430">
    <ele>143.0</ele>
    <time>2021-04-20T19:21:08Z</time>
   </trkpt>
   <trkpt lat="47.3800400" lon="-122.0424410">
    <ele>143.0</ele>
    <time>2021-04-20T19:21:09Z</time>
   </trkpt>
   <trkpt lat="47.3800300" lon="-122.0424350">
    <ele>142.9</ele>
    <time>2021-04-20T19:21:10Z</time>
   </trkpt>
   <trkpt lat="47.3800160" lon="-122.0424200">
    <ele>142.9</ele>
    <time>2021-04-20T19:21:11Z</time>
   </trkpt>
   <trkpt lat="47.3799960" lon="-122.0423990">
    <ele>142.9</ele>
    <time>2021-04-20T19:21:12Z</time>
   </trkpt>
   <trkpt lat="47.3799890" lon="-122.0423870">
    <ele>142.9</ele>
    <time>2021-04-20T19:21:13Z</time>
   </trkpt>
   <trkpt lat="47.3799820" lon="-122.0423760">
    <ele>142.9</ele>
    <time>2021-04-20T19:21:14Z</time>
   </trkpt>
   <trkpt lat="47.3799750" lon="-122.0423640">
    <ele>142.9</ele>
    <time>2021-04-20T19:21:15Z</time>
   </trkpt>
   <trkpt lat="47.3799690" lon="-122.0423370">
    <ele>142.9</ele>
    <time>2021-04-20T19:21:16Z</time>
   </trkpt>
   <trkpt lat="47.3799670" lon="-122.0423250">
    <ele>142.9</ele>
    <time>2021-04-20T19:21:17Z</time>
   </trkpt>
   <trkpt lat="47.3799640" lon="-122.0423110">
    <ele>142.9</ele>
    <time>2021-04-20T19:21:18Z</time>
   </trkpt>
   <trkpt lat="47.3799630" lon="-122.0422920">
    <ele>142.9</ele>
    <time>2021-04-20T19:21:19Z</time>
   </trkpt>
   <trkpt lat="47.3799580" lon="-122.0422860">
    <ele>142.9</ele>
    <time>2021-04-20T19:21:20Z</time>
   </trkpt>
   <trkpt lat="47.3799510" lon="-122.0422760">
    <ele>142.9</ele>
    <time>2021-04-20T19:21:21Z</time>
   </trkpt>
   <trkpt lat="47.3799430" lon="-122.0422760">
    <ele>142.9</ele>
    <time>2021-04-20T19:21:22Z</time>
   </trkpt>
   <trkpt lat="47.3799350" lon="-122.0422570">
    <ele>142.9</ele>
    <time>2021-04-20T19:21:23Z</time>
   </trkpt>
   <trkpt lat="47.3799220" lon="-122.0422400">
    <ele>142.9</ele>
    <time>2021-04-20T19:21:24Z</time>
   </trkpt>
   <trkpt lat="47.3799130" lon="-122.0422300">
    <ele>142.9</ele>
    <time>2021-04-20T19:21:25Z</time>
   </trkpt>
   <trkpt lat="47.3799020" lon="-122.0422260">
    <ele>142.9</ele>
    <time>2021-04-20T19:21:26Z</time>
   </trkpt>
   <trkpt lat="47.3798860" lon="-122.0422140">
    <ele>142.9</ele>
    <time>2021-04-20T19:21:28Z</time>
   </trkpt>
   <trkpt lat="47.3798810" lon="-122.0422030">
    <ele>142.9</ele>
    <time>2021-04-20T19:21:29Z</time>
   </trkpt>
   <trkpt lat="47.3798730" lon="-122.0421930">
    <ele>142.9</ele>
    <time>2021-04-20T19:21:30Z</time>
   </trkpt>
   <trkpt lat="47.3798660" lon="-122.0421810">
    <ele>142.9</ele>
    <time>2021-04-20T19:21:31Z</time>
   </trkpt>
   <trkpt lat="47.3798470" lon="-122.0421620">
    <ele>142.9</ele>
    <time>2021-04-20T19:21:32Z</time>
   </trkpt>
   <trkpt lat="47.3798380" lon="-122.0421550">
    <ele>142.9</ele>
    <time>2021-04-20T19:21:33Z</time>
   </trkpt>
   <trkpt lat="47.3798290" lon="-122.0421490">
    <ele>142.9</ele>
    <time>2021-04-20T19:21:34Z</time>
   </trkpt>
   <trkpt lat="47.3798220" lon="-122.0421320">
    <ele>142.9</ele>
    <time>2021-04-20T19:21:35Z</time>
   </trkpt>
   <trkpt lat="47.3798070" lon="-122.0421240">
    <ele>142.9</ele>
    <time>2021-04-20T19:21:36Z</time>
   </trkpt>
   <trkpt lat="47.3797930" lon="-122.0421110">
    <ele>142.9</ele>
    <time>2021-04-20T19:21:37Z</time>
   </trkpt>
   <trkpt lat="47.3797880" lon="-122.0421070">
    <ele>142.9</ele>
    <time>2021-04-20T19:21:38Z</time>
   </trkpt>
   <trkpt lat="47.3797810" lon="-122.0421030">
    <ele>142.9</ele>
    <time>2021-04-20T19:21:39Z</time>
   </trkpt>
   <trkpt lat="47.3797770" lon="-122.0420960">
    <ele>142.9</ele>
    <time>2021-04-20T19:21:40Z</time>
   </trkpt>
   <trkpt lat="47.3797770" lon="-122.0420820">
    <ele>142.9</ele>
    <time>2021-04-20T19:21:41Z</time>
   </trkpt>
   <trkpt lat="47.3797630" lon="-122.0420660">
    <ele>142.9</ele>
    <time>2021-04-20T19:21:42Z</time>
   </trkpt>
   <trkpt lat="47.3797580" lon="-122.0420600">
    <ele>142.9</ele>
    <time>2021-04-20T19:21:43Z</time>
   </trkpt>
   <trkpt lat="47.3797570" lon="-122.0420580">
    <ele>142.9</ele>
    <time>2021-04-20T19:21:44Z</time>
   </trkpt>
   <trkpt lat="47.3797530" lon="-122.0420550">
    <ele>142.9</ele>
    <time>2021-04-20T19:21:45Z</time>
   </trkpt>
   <trkpt lat="47.3797480" lon="-122.0420450">
    <ele>142.9</ele>
    <time>2021-04-20T19:21:46Z</time>
   </trkpt>
   <trkpt lat="47.3797470" lon="-122.0420380">
    <ele>142.9</ele>
    <time>2021-04-20T19:21:47Z</time>
   </trkpt>
   <trkpt lat="47.3797380" lon="-122.0420270">
    <ele>142.9</ele>
    <time>2021-04-20T19:21:48Z</time>
   </trkpt>
   <trkpt lat="47.3797330" lon="-122.0420090">
    <ele>142.9</ele>
    <time>2021-04-20T19:21:49Z</time>
   </trkpt>
   <trkpt lat="47.3797260" lon="-122.0419830">
    <ele>142.9</ele>
    <time>2021-04-20T19:21:50Z</time>
   </trkpt>
   <trkpt lat="47.3797170" lon="-122.0419590">
    <ele>143.0</ele>
    <time>2021-04-20T19:21:51Z</time>
   </trkpt>
   <trkpt lat="47.3797070" lon="-122.0419410">
    <ele>143.0</ele>
    <time>2021-04-20T19:21:52Z</time>
   </trkpt>
   <trkpt lat="47.3796850" lon="-122.0419080">
    <ele>143.0</ele>
    <time>2021-04-20T19:21:53Z</time>
   </trkpt>
   <trkpt lat="47.3796800" lon="-122.0418760">
    <ele>143.0</ele>
    <time>2021-04-20T19:21:54Z</time>
   </trkpt>
   <trkpt lat="47.3796770" lon="-122.0418610">
    <ele>143.0</ele>
    <time>2021-04-20T19:21:55Z</time>
   </trkpt>
   <trkpt lat="47.3796750" lon="-122.0418450">
    <ele>143.0</ele>
    <time>2021-04-20T19:21:56Z</time>
   </trkpt>
   <trkpt lat="47.3796740" lon="-122.0418270">
    <ele>143.0</ele>
    <time>2021-04-20T19:21:57Z</time>
   </trkpt>
   <trkpt lat="47.3796690" lon="-122.0418050">
    <ele>143.0</ele>
    <time>2021-04-20T19:21:58Z</time>
   </trkpt>
   <trkpt lat="47.3796650" lon="-122.0417900">
    <ele>143.0</ele>
    <time>2021-04-20T19:21:59Z</time>
   </trkpt>
   <trkpt lat="47.3796630" lon="-122.0417730">
    <ele>143.0</ele>
    <time>2021-04-20T19:22:00Z</time>
   </trkpt>
   <trkpt lat="47.3796700" lon="-122.0417520">
    <ele>143.0</ele>
    <time>2021-04-20T19:22:01Z</time>
   </trkpt>
   <trkpt lat="47.3796690" lon="-122.0417460">
    <ele>143.0</ele>
    <time>2021-04-20T19:22:02Z</time>
   </trkpt>
   <trkpt lat="47.3796680" lon="-122.0417360">
    <ele>143.0</ele>
    <time>2021-04-20T19:22:03Z</time>
   </trkpt>
   <trkpt lat="47.3796660" lon="-122.0417250">
    <ele>143.0</ele>
    <time>2021-04-20T19:22:04Z</time>
   </trkpt>
   <trkpt lat="47.3796630" lon="-122.0417010">
    <ele>143.0</ele>
    <time>2021-04-20T19:22:05Z</time>
   </trkpt>
   <trkpt lat="47.3796620" lon="-122.0416840">
    <ele>143.0</ele>
    <time>2021-04-20T19:22:06Z</time>
   </trkpt>
   <trkpt lat="47.3796600" lon="-122.0416670">
    <ele>143.0</ele>
    <time>2021-04-20T19:22:07Z</time>
   </trkpt>
   <trkpt lat="47.3796620" lon="-122.0416470">
    <ele>143.0</ele>
    <time>2021-04-20T19:22:08Z</time>
   </trkpt>
   <trkpt lat="47.3796600" lon="-122.0416330">
    <ele>143.0</ele>
    <time>2021-04-20T19:22:09Z</time>
   </trkpt>
   <trkpt lat="47.3796580" lon="-122.0416210">
    <ele>143.0</ele>
    <time>2021-04-20T19:22:10Z</time>
   </trkpt>
   <trkpt lat="47.3796530" lon="-122.0416090">
    <ele>143.0</ele>
    <time>2021-04-20T19:22:11Z</time>
   </trkpt>
   <trkpt lat="47.3796520" lon="-122.0415900">
    <ele>143.0</ele>
    <time>2021-04-20T19:22:12Z</time>
   </trkpt>
   <trkpt lat="47.3796490" lon="-122.0415730">
    <ele>142.8</ele>
    <time>2021-04-20T19:22:13Z</time>
   </trkpt>
   <trkpt lat="47.3796480" lon="-122.0415560">
    <ele>142.8</ele>
    <time>2021-04-20T19:22:14Z</time>
   </trkpt>
   <trkpt lat="47.3796520" lon="-122.0415380">
    <ele>142.8</ele>
    <time>2021-04-20T19:22:15Z</time>
   </trkpt>
   <trkpt lat="47.3796540" lon="-122.0415170">
    <ele>142.8</ele>
    <time>2021-04-20T19:22:16Z</time>
   </trkpt>
   <trkpt lat="47.3796530" lon="-122.0414910">
    <ele>142.8</ele>
    <time>2021-04-20T19:22:17Z</time>
   </trkpt>
   <trkpt lat="47.3796540" lon="-122.0414720">
    <ele>142.8</ele>
    <time>2021-04-20T19:22:18Z</time>
   </trkpt>
   <trkpt lat="47.3796540" lon="-122.0414460">
    <ele>142.8</ele>
    <time>2021-04-20T19:22:19Z</time>
   </trkpt>
   <trkpt lat="47.3796540" lon="-122.0414310">
    <ele>142.8</ele>
    <time>2021-04-20T19:22:20Z</time>
   </trkpt>
   <trkpt lat="47.3796540" lon="-122.0414160">
    <ele>142.8</ele>
    <time>2021-04-20T19:22:21Z</time>
   </trkpt>
   <trkpt lat="47.3796580" lon="-122.0413890">
    <ele>142.8</ele>
    <time>2021-04-20T19:22:22Z</time>
   </trkpt>
   <trkpt lat="47.3796610" lon="-122.0413720">
    <ele>142.8</ele>
    <time>2021-04-20T19:22:23Z</time>
   </trkpt>
   <trkpt lat="47.3796610" lon="-122.0413510">
    <ele>142.9</ele>
    <time>2021-04-20T19:22:24Z</time>
   </trkpt>
   <trkpt lat="47.3796610" lon="-122.0413320">
    <ele>142.9</ele>
    <time>2021-04-20T19:22:25Z</time>
   </trkpt>
   <trkpt lat="47.3796670" lon="-122.0413000">
    <ele>142.9</ele>
    <time>2021-04-20T19:22:26Z</time>
   </trkpt>
   <trkpt lat="47.3796670" lon="-122.0412890">
    <ele>142.9</ele>
    <time>2021-04-20T19:22:27Z</time>
   </trkpt>
   <trkpt lat="47.3796670" lon="-122.0412780">
    <ele>142.9</ele>
    <time>2021-04-20T19:22:28Z</time>
   </trkpt>
   <trkpt lat="47.3796640" lon="-122.0412570">
    <ele>142.9</ele>
    <time>2021-04-20T19:22:29Z</time>
   </trkpt>
   <trkpt lat="47.3796650" lon="-122.0412450">
    <ele>142.9</ele>
    <time>2021-04-20T19:22:30Z</time>
   </trkpt>
   <trkpt lat="47.3796590" lon="-122.0412300">
    <ele>143.0</ele>
    <time>2021-04-20T19:22:31Z</time>
   </trkpt>
   <trkpt lat="47.3796570" lon="-122.0412110">
    <ele>143.0</ele>
    <time>2021-04-20T19:22:32Z</time>
   </trkpt>
   <trkpt lat="47.3796570" lon="-122.0411870">
    <ele>143.0</ele>
    <time>2021-04-20T19:22:33Z</time>
   </trkpt>
   <trkpt lat="47.3796610" lon="-122.0411640">
    <ele>143.0</ele>
    <time>2021-04-20T19:22:34Z</time>
   </trkpt>
   <trkpt lat="47.3796590" lon="-122.0411430">
    <ele>143.0</ele>
    <time>2021-04-20T19:22:35Z</time>
   </trkpt>
   <trkpt lat="47.3796560" lon="-122.0411130">
    <ele>143.1</ele>
    <time>2021-04-20T19:22:36Z</time>
   </trkpt>
   <trkpt lat="47.3796560" lon="-122.0411010">
    <ele>143.1</ele>
    <time>2021-04-20T19:22:37Z</time>
   </trkpt>
   <trkpt lat="47.3796550" lon="-122.0410890">
    <ele>143.1</ele>
    <time>2021-04-20T19:22:38Z</time>
   </trkpt>
   <trkpt lat="47.3796520" lon="-122.0410680">
    <ele>143.1</ele>
    <time>2021-04-20T19:22:39Z</time>
   </trkpt>
   <trkpt lat="47.3796500" lon="-122.0410520">
    <ele>143.1</ele>
    <time>2021-04-20T19:22:40Z</time>
   </trkpt>
   <trkpt lat="47.3796490" lon="-122.0410360">
    <ele>143.1</ele>
    <time>2021-04-20T19:22:41Z</time>
   </trkpt>
   <trkpt lat="47.3796370" lon="-122.0409990">
    <ele>143.1</ele>
    <time>2021-04-20T19:22:42Z</time>
   </trkpt>
   <trkpt lat="47.3796320" lon="-122.0409860">
    <ele>143.2</ele>
    <time>2021-04-20T19:22:43Z</time>
   </trkpt>
   <trkpt lat="47.3796270" lon="-122.0409420">
    <ele>143.2</ele>
    <time>2021-04-20T19:22:44Z</time>
   </trkpt>
   <trkpt lat="47.3796280" lon="-122.0409290">
    <ele>143.2</ele>
    <time>2021-04-20T19:22:45Z</time>
   </trkpt>
   <trkpt lat="47.3796290" lon="-122.0409120">
    <ele>143.2</ele>
    <time>2021-04-20T19:22:46Z</time>
   </trkpt>
   <trkpt lat="47.3796260" lon="-122.0408860">
    <ele>143.2</ele>
    <time>2021-04-20T19:22:47Z</time>
   </trkpt>
   <trkpt lat="47.3796310" lon="-122.0408690">
    <ele>143.2</ele>
    <time>2021-04-20T19:22:48Z</time>
   </trkpt>
   <trkpt lat="47.3796270" lon="-122.0408540">
    <ele>143.2</ele>
    <time>2021-04-20T19:22:49Z</time>
   </trkpt>
   <trkpt lat="47.3796280" lon="-122.0408370">
    <ele>143.2</ele>
    <time>2021-04-20T19:22:50Z</time>
   </trkpt>
   <trkpt lat="47.3796070" lon="-122.0408040">
    <ele>143.3</ele>
    <time>2021-04-20T19:22:51Z</time>
   </trkpt>
   <trkpt lat="47.3796040" lon="-122.0407940">
    <ele>143.3</ele>
    <time>2021-04-20T19:22:52Z</time>
   </trkpt>
   <trkpt lat="47.3796080" lon="-122.0407790">
    <ele>143.3</ele>
    <time>2021-04-20T19:22:53Z</time>
   </trkpt>
   <trkpt lat="47.3796100" lon="-122.0407700">
    <ele>143.3</ele>
    <time>2021-04-20T19:22:54Z</time>
   </trkpt>
   <trkpt lat="47.3796090" lon="-122.0407580">
    <ele>143.3</ele>
    <time>2021-04-20T19:22:55Z</time>
   </trkpt>
   <trkpt lat="47.3796050" lon="-122.0407420">
    <ele>143.3</ele>
    <time>2021-04-20T19:22:56Z</time>
   </trkpt>
   <trkpt lat="47.3796020" lon="-122.0407220">
    <ele>143.3</ele>
    <time>2021-04-20T19:22:57Z</time>
   </trkpt>
   <trkpt lat="47.3796050" lon="-122.0407000">
    <ele>143.3</ele>
    <time>2021-04-20T19:22:58Z</time>
   </trkpt>
   <trkpt lat="47.3796100" lon="-122.0406790">
    <ele>143.3</ele>
    <time>2021-04-20T19:22:59Z</time>
   </trkpt>
   <trkpt lat="47.3796160" lon="-122.0406560">
    <ele>143.3</ele>
    <time>2021-04-20T19:23:00Z</time>
   </trkpt>
   <trkpt lat="47.3796190" lon="-122.0406420">
    <ele>143.3</ele>
    <time>2021-04-20T19:23:01Z</time>
   </trkpt>
   <trkpt lat="47.3796250" lon="-122.0406300">
    <ele>143.3</ele>
    <time>2021-04-20T19:23:02Z</time>
   </trkpt>
   <trkpt lat="47.3796320" lon="-122.0406200">
    <ele>143.3</ele>
    <time>2021-04-20T19:23:03Z</time>
   </trkpt>
   <trkpt lat="47.3796370" lon="-122.0405920">
    <ele>143.4</ele>
    <time>2021-04-20T19:23:04Z</time>
   </trkpt>
   <trkpt lat="47.3796390" lon="-122.0405800">
    <ele>143.4</ele>
    <time>2021-04-20T19:23:05Z</time>
   </trkpt>
   <trkpt lat="47.3796400" lon="-122.0405670">
    <ele>143.4</ele>
    <time>2021-04-20T19:23:06Z</time>
   </trkpt>
   <trkpt lat="47.3796400" lon="-122.0405530">
    <ele>143.4</ele>
    <time>2021-04-20T19:23:07Z</time>
   </trkpt>
   <trkpt lat="47.3796430" lon="-122.0405360">
    <ele>143.4</ele>
    <time>2021-04-20T19:23:08Z</time>
   </trkpt>
   <trkpt lat="47.3796450" lon="-122.0405140">
    <ele>143.4</ele>
    <time>2021-04-20T19:23:09Z</time>
   </trkpt>
   <trkpt lat="47.3796450" lon="-122.0404900">
    <ele>143.4</ele>
    <time>2021-04-20T19:23:10Z</time>
   </trkpt>
   <trkpt lat="47.3796530" lon="-122.0404730">
    <ele>143.4</ele>
    <time>2021-04-20T19:23:11Z</time>
   </trkpt>
   <trkpt lat="47.3796580" lon="-122.0404410">
    <ele>143.4</ele>
    <time>2021-04-20T19:23:12Z</time>
   </trkpt>
   <trkpt lat="47.3796590" lon="-122.0404270">
    <ele>143.4</ele>
    <time>2021-04-20T19:23:13Z</time>
   </trkpt>
   <trkpt lat="47.3796600" lon="-122.0404130">
    <ele>143.4</ele>
    <time>2021-04-20T19:23:14Z</time>
   </trkpt>
   <trkpt lat="47.3796640" lon="-122.0403770">
    <ele>143.4</ele>
    <time>2021-04-20T19:23:15Z</time>
   </trkpt>
   <trkpt lat="47.3796640" lon="-122.0403660">
    <ele>143.4</ele>
    <time>2021-04-20T19:23:16Z</time>
   </trkpt>
   <trkpt lat="47.3796650" lon="-122.0403540">
    <ele>143.4</ele>
    <time>2021-04-20T19:23:17Z</time>
   </trkpt>
   <trkpt lat="47.3796660" lon="-122.0403420">
    <ele>143.3</ele>
    <time>2021-04-20T19:23:18Z</time>
   </trkpt>
   <trkpt lat="47.3796680" lon="-122.0403290">
    <ele>143.3</ele>
    <time>2021-04-20T19:23:19Z</time>
   </trkpt>
   <trkpt lat="47.3796700" lon="-122.0403110">
    <ele>143.3</ele>
    <time>2021-04-20T19:23:20Z</time>
   </trkpt>
   <trkpt lat="47.3796710" lon="-122.0402980">
    <ele>143.3</ele>
    <time>2021-04-20T19:23:21Z</time>
   </trkpt>
   <trkpt lat="47.3796710" lon="-122.0402840">
    <ele>143.3</ele>
    <time>2021-04-20T19:23:22Z</time>
   </trkpt>
   <trkpt lat="47.3796700" lon="-122.0402740">
    <ele>143.3</ele>
    <time>2021-04-20T19:23:23Z</time>
   </trkpt>
   <trkpt lat="47.3796650" lon="-122.0402670">
    <ele>143.3</ele>
    <time>2021-04-20T19:23:24Z</time>
   </trkpt>
   <trkpt lat="47.3796640" lon="-122.0402550">
    <ele>143.3</ele>
    <time>2021-04-20T19:23:25Z</time>
   </trkpt>
   <trkpt lat="47.3796630" lon="-122.0402390">
    <ele>143.3</ele>
    <time>2021-04-20T19:23:26Z</time>
   </trkpt>
   <trkpt lat="47.3796560" lon="-122.0402240">
    <ele>143.3</ele>
    <time>2021-04-20T19:23:27Z</time>
   </trkpt>
   <trkpt lat="47.3796510" lon="-122.0402040">
    <ele>143.3</ele>
    <time>2021-04-20T19:23:28Z</time>
   </trkpt>
   <trkpt lat="47.3796530" lon="-122.0401870">
    <ele>143.3</ele>
    <time>2021-04-20T19:23:29Z</time>
   </trkpt>
   <trkpt lat="47.3796500" lon="-122.0401720">
    <ele>143.3</ele>
    <time>2021-04-20T19:23:30Z</time>
   </trkpt>
   <trkpt lat="47.3796530" lon="-122.0401400">
    <ele>143.3</ele>
    <time>2021-04-20T19:23:31Z</time>
   </trkpt>
   <trkpt lat="47.3796530" lon="-122.0401280">
    <ele>143.3</ele>
    <time>2021-04-20T19:23:32Z</time>
   </trkpt>
   <trkpt lat="47.3796540" lon="-122.0401150">
    <ele>143.3</ele>
    <time>2021-04-20T19:23:33Z</time>
   </trkpt>
   <trkpt lat="47.3796540" lon="-122.0400940">
    <ele>143.3</ele>
    <time>2021-04-20T19:23:34Z</time>
   </trkpt>
   <trkpt lat="47.3796480" lon="-122.0400940">
    <ele>143.3</ele>
    <time>2021-04-20T19:23:35Z</time>
   </trkpt>
   <trkpt lat="47.3796410" lon="-122.0400800">
    <ele>143.3</ele>
    <time>2021-04-20T19:23:36Z</time>
   </trkpt>
   <trkpt lat="47.3796490" lon="-122.0400640">
    <ele>143.3</ele>
    <time>2021-04-20T19:23:37Z</time>
   </trkpt>
   <trkpt lat="47.3796500" lon="-122.0400520">
    <ele>143.3</ele>
    <time>2021-04-20T19:23:38Z</time>
   </trkpt>
   <trkpt lat="47.3796510" lon="-122.0400390">
    <ele>143.3</ele>
    <time>2021-04-20T19:23:39Z</time>
   </trkpt>
   <trkpt lat="47.3796510" lon="-122.0400120">
    <ele>143.3</ele>
    <time>2021-04-20T19:23:40Z</time>
   </trkpt>
   <trkpt lat="47.3796540" lon="-122.0399970">
    <ele>143.3</ele>
    <time>2021-04-20T19:23:41Z</time>
   </trkpt>
   <trkpt lat="47.3796570" lon="-122.0399820">
    <ele>143.3</ele>
    <time>2021-04-20T19:23:42Z</time>
   </trkpt>
   <trkpt lat="47.3796600" lon="-122.0399560">
    <ele>143.3</ele>
    <time>2021-04-20T19:23:43Z</time>
   </trkpt>
   <trkpt lat="47.3796550" lon="-122.0399380">
    <ele>143.3</ele>
    <time>2021-04-20T19:23:44Z</time>
   </trkpt>
   <trkpt lat="47.3796540" lon="-122.0399250">
    <ele>143.3</ele>
    <time>2021-04-20T19:23:45Z</time>
   </trkpt>
   <trkpt lat="47.3796580" lon="-122.0399140">
    <ele>143.3</ele>
    <time>2021-04-20T19:23:46Z</time>
   </trkpt>
   <trkpt lat="47.3796620" lon="-122.0398990">
    <ele>143.3</ele>
    <time>2021-04-20T19:23:47Z</time>
   </trkpt>
   <trkpt lat="47.3796650" lon="-122.0398840">
    <ele>143.3</ele>
    <time>2021-04-20T19:23:48Z</time>
   </trkpt>
   <trkpt lat="47.3796660" lon="-122.0398690">
    <ele>143.3</ele>
    <time>2021-04-20T19:23:49Z</time>
   </trkpt>
   <trkpt lat="47.3796760" lon="-122.0398570">
    <ele>143.3</ele>
    <time>2021-04-20T19:23:50Z</time>
   </trkpt>
   <trkpt lat="47.3796870" lon="-122.0398270">
    <ele>143.3</ele>
    <time>2021-04-20T19:23:51Z</time>
   </trkpt>
   <trkpt lat="47.3796880" lon="-122.0398160">
    <ele>143.3</ele>
    <time>2021-04-20T19:23:52Z</time>
   </trkpt>
   <trkpt lat="47.3796900" lon="-122.0398050">
    <ele>143.3</ele>
    <time>2021-04-20T19:23:53Z</time>
   </trkpt>
   <trkpt lat="47.3796940" lon="-122.0397810">
    <ele>143.3</ele>
    <time>2021-04-20T19:23:54Z</time>
   </trkpt>
   <trkpt lat="47.3797010" lon="-122.0397610">
    <ele>143.3</ele>
    <time>2021-04-20T19:23:55Z</time>
   </trkpt>
   <trkpt lat="47.3797090" lon="-122.0397430">
    <ele>143.3</ele>
    <time>2021-04-20T19:23:56Z</time>
   </trkpt>
   <trkpt lat="47.3797150" lon="-122.0397280">
    <ele>143.3</ele>
    <time>2021-04-20T19:23:57Z</time>
   </trkpt>
   <trkpt lat="47.3797200" lon="-122.0397210">
    <ele>143.3</ele>
    <time>2021-04-20T19:23:58Z</time>
   </trkpt>
   <trkpt lat="47.3797310" lon="-122.0396910">
    <ele>143.4</ele>
    <time>2021-04-20T19:23:59Z</time>
   </trkpt>
   <trkpt lat="47.3797350" lon="-122.0396820">
    <ele>143.4</ele>
    <time>2021-04-20T19:24:00Z</time>
   </trkpt>
   <trkpt lat="47.3797390" lon="-122.0396720">
    <ele>143.4</ele>
    <time>2021-04-20T19:24:01Z</time>
   </trkpt>
   <trkpt lat="47.3797450" lon="-122.0396460">
    <ele>143.4</ele>
    <time>2021-04-20T19:24:02Z</time>
   </trkpt>
   <trkpt lat="47.3797460" lon="-122.0396320">
    <ele>143.4</ele>
    <time>2021-04-20T19:24:03Z</time>
   </trkpt>
   <trkpt lat="47.3797480" lon="-122.0396170">
    <ele>143.4</ele>
    <time>2021-04-20T19:24:04Z</time>
   </trkpt>
   <trkpt lat="47.3797550" lon="-122.0395820">
    <ele>143.4</ele>
    <time>2021-04-20T19:24:05Z</time>
   </trkpt>
   <trkpt lat="47.3797560" lon="-122.0395700">
    <ele>143.4</ele>
    <time>2021-04-20T19:24:06Z</time>
   </trkpt>
   <trkpt lat="47.3797570" lon="-122.0395580">
    <ele>143.4</ele>
    <time>2021-04-20T19:24:07Z</time>
   </trkpt>
   <trkpt lat="47.3797580" lon="-122.0395440">
    <ele>143.4</ele>
    <time>2021-04-20T19:24:08Z</time>
   </trkpt>
   <trkpt lat="47.3797660" lon="-122.0395310">
    <ele>143.4</ele>
    <time>2021-04-20T19:24:09Z</time>
   </trkpt>
   <trkpt lat="47.3797650" lon="-122.0395190">
    <ele>143.4</ele>
    <time>2021-04-20T19:24:10Z</time>
   </trkpt>
   <trkpt lat="47.3797730" lon="-122.0394990">
    <ele>143.4</ele>
    <time>2021-04-20T19:24:11Z</time>
   </trkpt>
   <trkpt lat="47.3797700" lon="-122.0394760">
    <ele>143.5</ele>
    <time>2021-04-20T19:24:12Z</time>
   </trkpt>
   <trkpt lat="47.3797740" lon="-122.0394590">
    <ele>143.5</ele>
    <time>2021-04-20T19:24:13Z</time>
   </trkpt>
   <trkpt lat="47.3797740" lon="-122.0394460">
    <ele>143.5</ele>
    <time>2021-04-20T19:24:14Z</time>
   </trkpt>
   <trkpt lat="47.3797760" lon="-122.0394350">
    <ele>143.5</ele>
    <time>2021-04-20T19:24:15Z</time>
   </trkpt>
   <trkpt lat="47.3797750" lon="-122.0394250">
    <ele>143.5</ele>
    <time>2021-04-20T19:24:16Z</time>
   </trkpt>
   <trkpt lat="47.3797780" lon="-122.0394090">
    <ele>143.5</ele>
    <time>2021-04-20T19:24:17Z</time>
   </trkpt>
   <trkpt lat="47.3797800" lon="-122.0393890">
    <ele>143.5</ele>
    <time>2021-04-20T19:24:18Z</time>
   </trkpt>
   <trkpt lat="47.3797770" lon="-122.0393630">
    <ele>143.5</ele>
    <time>2021-04-20T19:24:19Z</time>
   </trkpt>
   <trkpt lat="47.3797770" lon="-122.0393480">
    <ele>143.5</ele>
    <time>2021-04-20T19:24:20Z</time>
   </trkpt>
   <trkpt lat="47.3797780" lon="-122.0393340">
    <ele>143.5</ele>
    <time>2021-04-20T19:24:21Z</time>
   </trkpt>
   <trkpt lat="47.3797820" lon="-122.0393150">
    <ele>143.6</ele>
    <time>2021-04-20T19:24:22Z</time>
   </trkpt>
   <trkpt lat="47.3797850" lon="-122.0392950">
    <ele>143.6</ele>
    <time>2021-04-20T19:24:23Z</time>
   </trkpt>
   <trkpt lat="47.3797980" lon="-122.0392790">
    <ele>143.6</ele>
    <time>2021-04-20T19:24:24Z</time>
   </trkpt>
   <trkpt lat="47.3797990" lon="-122.0392580">
    <ele>143.6</ele>
    <time>2021-04-20T19:24:25Z</time>
   </trkpt>
   <trkpt lat="47.3798040" lon="-122.0392390">
    <ele>143.6</ele>
    <time>2021-04-20T19:24:26Z</time>
   </trkpt>
   <trkpt lat="47.3798140" lon="-122.0392190">
    <ele>143.6</ele>
    <time>2021-04-20T19:24:27Z</time>
   </trkpt>
   <trkpt lat="47.3798190" lon="-122.0392070">
    <ele>143.7</ele>
    <time>2021-04-20T19:24:28Z</time>
   </trkpt>
   <trkpt lat="47.3798290" lon="-122.0391920">
    <ele>143.7</ele>
    <time>2021-04-20T19:24:29Z</time>
   </trkpt>
   <trkpt lat="47.3798270" lon="-122.0391770">
    <ele>143.7</ele>
    <time>2021-04-20T19:24:30Z</time>
   </trkpt>
   <trkpt lat="47.3798300" lon="-122.0391670">
    <ele>143.7</ele>
    <time>2021-04-20T19:24:31Z</time>
   </trkpt>
   <trkpt lat="47.3798320" lon="-122.0391590">
    <ele>143.7</ele>
    <time>2021-04-20T19:24:32Z</time>
   </trkpt>
   <trkpt lat="47.3798400" lon="-122.0391480">
    <ele>143.7</ele>
    <time>2021-04-20T19:24:33Z</time>
   </trkpt>
   <trkpt lat="47.3798500" lon="-122.0391410">
    <ele>143.7</ele>
    <time>2021-04-20T19:24:34Z</time>
   </trkpt>
   <trkpt lat="47.3798570" lon="-122.0391380">
    <ele>143.7</ele>
    <time>2021-04-20T19:24:35Z</time>
   </trkpt>
   <trkpt lat="47.3798580" lon="-122.0391360">
    <ele>143.7</ele>
    <time>2021-04-20T19:24:36Z</time>
   </trkpt>
   <trkpt lat="47.3798740" lon="-122.0391130">
    <ele>143.7</ele>
    <time>2021-04-20T19:24:37Z</time>
   </trkpt>
   <trkpt lat="47.3798710" lon="-122.0391150">
    <ele>143.7</ele>
    <time>2021-04-20T19:24:38Z</time>
   </trkpt>
   <trkpt lat="47.3798660" lon="-122.0391100">
    <ele>143.7</ele>
    <time>2021-04-20T19:24:39Z</time>
   </trkpt>
   <trkpt lat="47.3798610" lon="-122.0391050">
    <ele>143.7</ele>
    <time>2021-04-20T19:24:40Z</time>
   </trkpt>
   <trkpt lat="47.3798560" lon="-122.0390990">
    <ele>143.7</ele>
    <time>2021-04-20T19:24:41Z</time>
   </trkpt>
   <trkpt lat="47.3798510" lon="-122.0390940">
    <ele>143.7</ele>
    <time>2021-04-20T19:24:42Z</time>
   </trkpt>
   <trkpt lat="47.3798460" lon="-122.0390890">
    <ele>143.7</ele>
    <time>2021-04-20T19:24:43Z</time>
   </trkpt>
   <trkpt lat="47.3798410" lon="-122.0390840">
    <ele>143.7</ele>
    <time>2021-04-20T19:24:44Z</time>
   </trkpt>
   <trkpt lat="47.3798360" lon="-122.0390790">
    <ele>143.7</ele>
    <time>2021-04-20T19:24:45Z</time>
   </trkpt>
   <trkpt lat="47.3798290" lon="-122.0390760">
    <ele>143.7</ele>
    <time>2021-04-20T19:24:46Z</time>
   </trkpt>
   <trkpt lat="47.3798070" lon="-122.0390650">
    <ele>143.7</ele>
    <time>2021-04-20T19:24:47Z</time>
   </trkpt>
   <trkpt lat="47.3797890" lon="-122.0390390">
    <ele>143.7</ele>
    <time>2021-04-20T19:24:48Z</time>
   </trkpt>
   <trkpt lat="47.3797840" lon="-122.0390320">
    <ele>143.7</ele>
    <time>2021-04-20T19:24:49Z</time>
   </trkpt>
   <trkpt lat="47.3797800" lon="-122.0390250">
    <ele>143.7</ele>
    <time>2021-04-20T19:24:50Z</time>
   </trkpt>
   <trkpt lat="47.3797640" lon="-122.0390050">
    <ele>143.8</ele>
    <time>2021-04-20T19:24:51Z</time>
   </trkpt>
   <trkpt lat="47.3797560" lon="-122.0389990">
    <ele>143.8</ele>
    <time>2021-04-20T19:24:52Z</time>
   </trkpt>
   <trkpt lat="47.3797480" lon="-122.0389920">
    <ele>143.8</ele>
    <time>2021-04-20T19:24:53Z</time>
   </trkpt>
   <trkpt lat="47.3797380" lon="-122.0389740">
    <ele>143.8</ele>
    <time>2021-04-20T19:24:54Z</time>
   </trkpt>
   <trkpt lat="47.3797290" lon="-122.0389650">
    <ele>143.8</ele>
    <time>2021-04-20T19:24:55Z</time>
   </trkpt>
   <trkpt lat="47.3797200" lon="-122.0389550">
    <ele>143.7</ele>
    <time>2021-04-20T19:24:56Z</time>
   </trkpt>
   <trkpt lat="47.3796990" lon="-122.0389430">
    <ele>143.7</ele>
    <time>2021-04-20T19:24:57Z</time>
   </trkpt>
   <trkpt lat="47.3796860" lon="-122.0389380">
    <ele>143.7</ele>
    <time>2021-04-20T19:24:58Z</time>
   </trkpt>
   <trkpt lat="47.3796740" lon="-122.0389320">
    <ele>143.7</ele>
    <time>2021-04-20T19:24:59Z</time>
   </trkpt>
   <trkpt lat="47.3796510" lon="-122.0389260">
    <ele>143.7</ele>
    <time>2021-04-20T19:25:00Z</time>
   </trkpt>
   <trkpt lat="47.3796440" lon="-122.0389210">
    <ele>143.7</ele>
    <time>2021-04-20T19:25:01Z</time>
   </trkpt>
   <trkpt lat="47.3796370" lon="-122.0389160">
    <ele>143.7</ele>
    <time>2021-04-20T19:25:02Z</time>
   </trkpt>
   <trkpt lat="47.3796300" lon="-122.0389110">
    <ele>143.6</ele>
    <time>2021-04-20T19:25:03Z</time>
   </trkpt>
   <trkpt lat="47.3796100" lon="-122.0389000">
    <ele>143.6</ele>
    <time>2021-04-20T19:25:04Z</time>
   </trkpt>
   <trkpt lat="47.3796000" lon="-122.0388930">
    <ele>143.6</ele>
    <time>2021-04-20T19:25:05Z</time>
   </trkpt>
   <trkpt lat="47.3795900" lon="-122.0388870">
    <ele>143.6</ele>
    <time>2021-04-20T19:25:06Z</time>
   </trkpt>
   <trkpt lat="47.3795790" lon="-122.0388750">
    <ele>143.6</ele>
    <time>2021-04-20T19:25:07Z</time>
   </trkpt>
   <trkpt lat="47.3795630" lon="-122.0388710">
    <ele>143.6</ele>
    <time>2021-04-20T19:25:08Z</time>
   </trkpt>
   <trkpt lat="47.3795460" lon="-122.0388680">
    <ele>143.6</ele>
    <time>2021-04-20T19:25:09Z</time>
   </trkpt>
   <trkpt lat="47.3795410" lon="-122.0388650">
    <ele>143.6</ele>
    <time>2021-04-20T19:25:10Z</time>
   </trkpt>
   <trkpt lat="47.3795350" lon="-122.0388710">
    <ele>143.6</ele>
    <time>2021-04-20T19:25:11Z</time>
   </trkpt>
   <trkpt lat="47.3795190" lon="-122.0388720">
    <ele>143.6</ele>
    <time>2021-04-20T19:25:12Z</time>
   </trkpt>
   <trkpt lat="47.3795080" lon="-122.0388730">
    <ele>143.6</ele>
    <time>2021-04-20T19:25:13Z</time>
   </trkpt>
   <trkpt lat="47.3794970" lon="-122.0388730">
    <ele>143.6</ele>
    <time>2021-04-20T19:25:14Z</time>
   </trkpt>
   <trkpt lat="47.3794870" lon="-122.0388760">
    <ele>143.6</ele>
    <time>2021-04-20T19:25:15Z</time>
   </trkpt>
   <trkpt lat="47.3794790" lon="-122.0388800">
    <ele>143.6</ele>
    <time>2021-04-20T19:25:16Z</time>
   </trkpt>
   <trkpt lat="47.3794680" lon="-122.0388830">
    <ele>143.6</ele>
    <time>2021-04-20T19:25:17Z</time>
   </trkpt>
   <trkpt lat="47.3794410" lon="-122.0388960">
    <ele>143.7</ele>
    <time>2021-04-20T19:25:18Z</time>
   </trkpt>
   <trkpt lat="47.3794310" lon="-122.0389000">
    <ele>143.7</ele>
    <time>2021-04-20T19:25:19Z</time>
   </trkpt>
   <trkpt lat="47.3794100" lon="-122.0389100">
    <ele>143.7</ele>
    <time>2021-04-20T19:25:20Z</time>
   </trkpt>
   <trkpt lat="47.3794000" lon="-122.0389140">
    <ele>143.7</ele>
    <time>2021-04-20T19:25:21Z</time>
   </trkpt>
   <trkpt lat="47.3793900" lon="-122.0389180">
    <ele>143.8</ele>
    <time>2021-04-20T19:25:22Z</time>
   </trkpt>
   <trkpt lat="47.3793700" lon="-122.0389350">
    <ele>143.8</ele>
    <time>2021-04-20T19:25:23Z</time>
   </trkpt>
   <trkpt lat="47.3793630" lon="-122.0389440">
    <ele>143.8</ele>
    <time>2021-04-20T19:25:24Z</time>
   </trkpt>
   <trkpt lat="47.3793570" lon="-122.0389520">
    <ele>143.8</ele>
    <time>2021-04-20T19:25:25Z</time>
   </trkpt>
   <trkpt lat="47.3793380" lon="-122.0389600">
    <ele>143.8</ele>
    <time>2021-04-20T19:25:26Z</time>
   </trkpt>
   <trkpt lat="47.3793280" lon="-122.0389640">
    <ele>143.8</ele>
    <time>2021-04-20T19:25:27Z</time>
   </trkpt>
   <trkpt lat="47.3793170" lon="-122.0389670">
    <ele>143.8</ele>
    <time>2021-04-20T19:25:28Z</time>
   </trkpt>
   <trkpt lat="47.3793050" lon="-122.0389770">
    <ele>143.8</ele>
    <time>2021-04-20T19:25:29Z</time>
   </trkpt>
   <trkpt lat="47.3792900" lon="-122.0389930">
    <ele>143.8</ele>
    <time>2021-04-20T19:25:30Z</time>
   </trkpt>
   <trkpt lat="47.3792760" lon="-122.0390080">
    <ele>143.7</ele>
    <time>2021-04-20T19:25:31Z</time>
   </trkpt>
   <trkpt lat="47.3792640" lon="-122.0390230">
    <ele>143.7</ele>
    <time>2021-04-20T19:25:32Z</time>
   </trkpt>
   <trkpt lat="47.3792570" lon="-122.0390340">
    <ele>143.7</ele>
    <time>2021-04-20T19:25:33Z</time>
   </trkpt>
   <trkpt lat="47.3792460" lon="-122.0390460">
    <ele>143.7</ele>
    <time>2021-04-20T19:25:34Z</time>
   </trkpt>
   <trkpt lat="47.3792420" lon="-122.0390570">
    <ele>143.7</ele>
    <time>2021-04-20T19:25:35Z</time>
   </trkpt>
   <trkpt lat="47.3792400" lon="-122.0390630">
    <ele>143.7</ele>
    <time>2021-04-20T19:25:36Z</time>
   </trkpt>
   <trkpt lat="47.3792310" lon="-122.0390720">
    <ele>143.7</ele>
    <time>2021-04-20T19:25:37Z</time>
   </trkpt>
   <trkpt lat="47.3792180" lon="-122.0390830">
    <ele>143.7</ele>
    <time>2021-04-20T19:25:38Z</time>
   </trkpt>
   <trkpt lat="47.3791990" lon="-122.0390990">
    <ele>143.7</ele>
    <time>2021-04-20T19:25:39Z</time>
   </trkpt>
   <trkpt lat="47.3791920" lon="-122.0391040">
    <ele>143.7</ele>
    <time>2021-04-20T19:25:40Z</time>
   </trkpt>
   <trkpt lat="47.3791850" lon="-122.0391100">
    <ele>143.7</ele>
    <time>2021-04-20T19:25:41Z</time>
   </trkpt>
   <trkpt lat="47.3791690" lon="-122.0391300">
    <ele>143.7</ele>
    <time>2021-04-20T19:25:42Z</time>
   </trkpt>
   <trkpt lat="47.3791580" lon="-122.0391410">
    <ele>143.7</ele>
    <time>2021-04-20T19:25:43Z</time>
   </trkpt>
   <trkpt lat="47.3791440" lon="-122.0391500">
    <ele>143.7</ele>
    <time>2021-04-20T19:25:44Z</time>
   </trkpt>
   <trkpt lat="47.3791350" lon="-122.0391580">
    <ele>143.7</ele>
    <time>2021-04-20T19:25:45Z</time>
   </trkpt>
   <trkpt lat="47.3791260" lon="-122.0391580">
    <ele>143.7</ele>
    <time>2021-04-20T19:25:46Z</time>
   </trkpt>
   <trkpt lat="47.3791140" lon="-122.0391760">
    <ele>143.7</ele>
    <time>2021-04-20T19:25:47Z</time>
   </trkpt>
   <trkpt lat="47.3791050" lon="-122.0391810">
    <ele>143.7</ele>
    <time>2021-04-20T19:25:48Z</time>
   </trkpt>
   <trkpt lat="47.3790950" lon="-122.0391830">
    <ele>143.7</ele>
    <time>2021-04-20T19:25:49Z</time>
   </trkpt>
   <trkpt lat="47.3790780" lon="-122.0392040">
    <ele>143.7</ele>
    <time>2021-04-20T19:25:50Z</time>
   </trkpt>
   <trkpt lat="47.3790730" lon="-122.0392130">
    <ele>143.7</ele>
    <time>2021-04-20T19:25:51Z</time>
   </trkpt>
   <trkpt lat="47.3790670" lon="-122.0392220">
    <ele>143.7</ele>
    <time>2021-04-20T19:25:52Z</time>
   </trkpt>
   <trkpt lat="47.3790610" lon="-122.0392250">
    <ele>143.7</ele>
    <time>2021-04-20T19:25:53Z</time>
   </trkpt>
   <trkpt lat="47.3790520" lon="-122.0392360">
    <ele>143.7</ele>
    <time>2021-04-20T19:25:54Z</time>
   </trkpt>
   <trkpt lat="47.3790370" lon="-122.0392520">
    <ele>143.7</ele>
    <time>2021-04-20T19:25:55Z</time>
   </trkpt>
   <trkpt lat="47.3790260" lon="-122.0392710">
    <ele>143.7</ele>
    <time>2021-04-20T19:25:56Z</time>
   </trkpt>
   <trkpt lat="47.3790220" lon="-122.0392790">
    <ele>143.6</ele>
    <time>2021-04-20T19:25:57Z</time>
   </trkpt>
   <trkpt lat="47.3790170" lon="-122.0392870">
    <ele>143.6</ele>
    <time>2021-04-20T19:25:58Z</time>
   </trkpt>
   <trkpt lat="47.3790120" lon="-122.0392950">
    <ele>143.6</ele>
    <time>2021-04-20T19:25:59Z</time>
   </trkpt>
   <trkpt lat="47.3789990" lon="-122.0393140">
    <ele>143.6</ele>
    <time>2021-04-20T19:26:00Z</time>
   </trkpt>
   <trkpt lat="47.3789950" lon="-122.0393250">
    <ele>143.6</ele>
    <time>2021-04-20T19:26:01Z</time>
   </trkpt>
  </trkseg>
 </trk>
</gpx>
