<?xml version="1.0" encoding="UTF-8"?>
<gpx creator="StravaGPX" version="1.1" xmlns="http://www.topografix.com/GPX/1/1" xmlns:xsi="http://www.w3.org/2001/XMLSchema-instance" xsi:schemaLocation="http://www.topografix.com/GPX/1/1 http://www.topografix.com/GPX/1/1/gpx.xsd">
 <metadata>
  <time>2021-05-11T18:50:33Z</time>
 </metadata>
 <trk>
  <name>Cool down </name>
  <type>walking</type>
  <trkseg>
   <trkpt lat="47.3781010" lon="-122.0388860">
    <ele>146.7</ele>
    <time>2021-05-11T18:50:33Z</time>
   </trkpt>
   <trkpt lat="47.3780880" lon="-122.0388750">
    <ele>146.6</ele>
    <time>2021-05-11T18:50:34Z</time>
   </trkpt>
   <trkpt lat="47.3780710" lon="-122.0388770">
    <ele>146.5</ele>
    <time>2021-05-11T18:50:35Z</time>
   </trkpt>
   <trkpt lat="47.3780520" lon="-122.0388780">
    <ele>146.4</ele>
    <time>2021-05-11T18:50:36Z</time>
   </trkpt>
   <trkpt lat="47.3780420" lon="-122.0388820">
    <ele>146.4</ele>
    <time>2021-05-11T18:50:37Z</time>
   </trkpt>
   <trkpt lat="47.3780320" lon="-122.0388860">
    <ele>146.3</ele>
    <time>2021-05-11T18:50:38Z</time>
   </trkpt>
   <trkpt lat="47.3780100" lon="-122.0388920">
    <ele>146.2</ele>
    <time>2021-05-11T18:50:39Z</time>
   </trkpt>
   <trkpt lat="47.3780010" lon="-122.0388960">
    <ele>146.1</ele>
    <time>2021-05-11T18:50:40Z</time>
   </trkpt>
   <trkpt lat="47.3779910" lon="-122.0388990">
    <ele>146.0</ele>
    <time>2021-05-11T18:50:41Z</time>
   </trkpt>
   <trkpt lat="47.3779780" lon="-122.0389040">
    <ele>145.9</ele>
    <time>2021-05-11T18:50:42Z</time>
   </trkpt>
   <trkpt lat="47.3779640" lon="-122.0389060">
    <ele>145.9</ele>
    <time>2021-05-11T18:50:43Z</time>
   </trkpt>
   <trkpt lat="47.3779540" lon="-122.0389030">
    <ele>145.8</ele>
    <time>2021-05-11T18:50:44Z</time>
   </trkpt>
   <trkpt lat="47.3779440" lon="-122.0389010">
    <ele>145.7</ele>
    <time>2021-05-11T18:50:45Z</time>
   </trkpt>
   <trkpt lat="47.3779320" lon="-122.0388960">
    <ele>145.7</ele>
    <time>2021-05-11T18:50:46Z</time>
   </trkpt>
   <trkpt lat="47.3779170" lon="-122.0388950">
    <ele>145.6</ele>
    <time>2021-05-11T18:50:47Z</time>
   </trkpt>
   <trkpt lat="47.3779040" lon="-122.0388930">
    <ele>145.5</ele>
    <time>2021-05-11T18:50:48Z</time>
   </trkpt>
   <trkpt lat="47.3778850" lon="-122.0389010">
    <ele>145.3</ele>
    <time>2021-05-11T18:50:49Z</time>
   </trkpt>
   <trkpt lat="47.3778740" lon="-122.0389060">
    <ele>145.3</ele>
    <time>2021-05-11T18:50:50Z</time>
   </trkpt>
   <trkpt lat="47.3778630" lon="-122.0389090">
    <ele>145.2</ele>
    <time>2021-05-11T18:50:51Z</time>
   </trkpt>
   <trkpt lat="47.3778540" lon="-122.0389110">
    <ele>145.1</ele>
    <time>2021-05-11T18:50:52Z</time>
   </trkpt>
   <trkpt lat="47.3778420" lon="-122.0389150">
    <ele>145.1</ele>
    <time>2021-05-11T18:50:53Z</time>
   </trkpt>
   <trkpt lat="47.3778260" lon="-122.0389210">
    <ele>144.9</ele>
    <time>2021-05-11T18:50:54Z</time>
   </trkpt>
   <trkpt lat="47.3778150" lon="-122.0389210">
    <ele>144.9</ele>
    <time>2021-05-11T18:50:55Z</time>
   </trkpt>
   <trkpt lat="47.3777940" lon="-122.0389180">
    <ele>144.8</ele>
    <time>2021-05-11T18:50:56Z</time>
   </trkpt>
   <trkpt lat="47.3777850" lon="-122.0389190">
    <ele>144.7</ele>
    <time>2021-05-11T18:50:57Z</time>
   </trkpt>
   <trkpt lat="47.3777770" lon="-122.0389190">
    <ele>144.7</ele>
    <time>2021-05-11T18:50:58Z</time>
   </trkpt>
   <trkpt lat="47.3777630" lon="-122.0389100">
    <ele>144.6</ele>
    <time>2021-05-11T18:50:59Z</time>
   </trkpt>
   <trkpt lat="47.3777490" lon="-122.0389110">
    <ele>144.5</ele>
    <time>2021-05-11T18:51:00Z</time>
   </trkpt>
   <trkpt lat="47.3777290" lon="-122.0389130">
    <ele>144.4</ele>
    <time>2021-05-11T18:51:01Z</time>
   </trkpt>
   <trkpt lat="47.3777200" lon="-122.0389130">
    <ele>144.3</ele>
    <time>2021-05-11T18:51:02Z</time>
   </trkpt>
   <trkpt lat="47.3777110" lon="-122.0389130">
    <ele>144.3</ele>
    <time>2021-05-11T18:51:03Z</time>
   </trkpt>
   <trkpt lat="47.3776970" lon="-122.0389160">
    <ele>144.2</ele>
    <time>2021-05-11T18:51:04Z</time>
   </trkpt>
   <trkpt lat="47.3776810" lon="-122.0389210">
    <ele>144.1</ele>
    <time>2021-05-11T18:51:05Z</time>
   </trkpt>
   <trkpt lat="47.3776700" lon="-122.0389210">
    <ele>144.1</ele>
    <time>2021-05-11T18:51:06Z</time>
   </trkpt>
   <trkpt lat="47.3776590" lon="-122.0389190">
    <ele>144.0</ele>
    <time>2021-05-11T18:51:07Z</time>
   </trkpt>
   <trkpt lat="47.3776450" lon="-122.0389140">
    <ele>143.9</ele>
    <time>2021-05-11T18:51:08Z</time>
   </trkpt>
   <trkpt lat="47.3776260" lon="-122.0389110">
    <ele>143.9</ele>
    <time>2021-05-11T18:51:09Z</time>
   </trkpt>
   <trkpt lat="47.3776170" lon="-122.0389120">
    <ele>143.8</ele>
    <time>2021-05-11T18:51:10Z</time>
   </trkpt>
   <trkpt lat="47.3776080" lon="-122.0389130">
    <ele>143.8</ele>
    <time>2021-05-11T18:51:11Z</time>
   </trkpt>
   <trkpt lat="47.3775980" lon="-122.0389080">
    <ele>143.8</ele>
    <time>2021-05-11T18:51:12Z</time>
   </trkpt>
   <trkpt lat="47.3775880" lon="-122.0389080">
    <ele>143.7</ele>
    <time>2021-05-11T18:51:13Z</time>
   </trkpt>
   <trkpt lat="47.3775750" lon="-122.0389110">
    <ele>143.7</ele>
    <time>2021-05-11T18:51:14Z</time>
   </trkpt>
   <trkpt lat="47.3775550" lon="-122.0389020">
    <ele>143.6</ele>
    <time>2021-05-11T18:51:15Z</time>
   </trkpt>
   <trkpt lat="47.3775470" lon="-122.0389000">
    <ele>143.6</ele>
    <time>2021-05-11T18:51:16Z</time>
   </trkpt>
   <trkpt lat="47.3775390" lon="-122.0388980">
    <ele>143.5</ele>
    <time>2021-05-11T18:51:17Z</time>
   </trkpt>
   <trkpt lat="47.3775270" lon="-122.0388980">
    <ele>143.5</ele>
    <time>2021-05-11T18:51:18Z</time>
   </trkpt>
   <trkpt lat="47.3775190" lon="-122.0388980">
    <ele>143.5</ele>
    <time>2021-05-11T18:51:19Z</time>
   </trkpt>
   <trkpt lat="47.3775110" lon="-122.0389040">
    <ele>143.4</ele>
    <time>2021-05-11T18:51:20Z</time>
   </trkpt>
   <trkpt lat="47.3775010" lon="-122.0389090">
    <ele>143.4</ele>
    <time>2021-05-11T18:51:21Z</time>
   </trkpt>
   <trkpt lat="47.3774910" lon="-122.0389180">
    <ele>143.4</ele>
    <time>2021-05-11T18:51:22Z</time>
   </trkpt>
   <trkpt lat="47.3774840" lon="-122.0389230">
    <ele>143.3</ele>
    <time>2021-05-11T18:51:23Z</time>
   </trkpt>
   <trkpt lat="47.3774620" lon="-122.0389290">
    <ele>143.3</ele>
    <time>2021-05-11T18:51:24Z</time>
   </trkpt>
   <trkpt lat="47.3774540" lon="-122.0389380">
    <ele>143.3</ele>
    <time>2021-05-11T18:51:25Z</time>
   </trkpt>
   <trkpt lat="47.3774450" lon="-122.0389370">
    <ele>143.3</ele>
    <time>2021-05-11T18:51:26Z</time>
   </trkpt>
   <trkpt lat="47.3774340" lon="-122.0389330">
    <ele>143.3</ele>
    <time>2021-05-11T18:51:27Z</time>
   </trkpt>
   <trkpt lat="47.3774200" lon="-122.0389420">
    <ele>143.2</ele>
    <time>2021-05-11T18:51:28Z</time>
   </trkpt>
   <trkpt lat="47.3774030" lon="-122.0389460">
    <ele>143.2</ele>
    <time>2021-05-11T18:51:29Z</time>
   </trkpt>
   <trkpt lat="47.3773930" lon="-122.0389400">
    <ele>143.2</ele>
    <time>2021-05-11T18:51:30Z</time>
   </trkpt>
   <trkpt lat="47.3773850" lon="-122.0389430">
    <ele>143.2</ele>
    <time>2021-05-11T18:51:31Z</time>
   </trkpt>
   <trkpt lat="47.3773720" lon="-122.0389510">
    <ele>143.1</ele>
    <time>2021-05-11T18:51:32Z</time>
   </trkpt>
   <trkpt lat="47.3773560" lon="-122.0389530">
    <ele>143.0</ele>
    <time>2021-05-11T18:51:33Z</time>
   </trkpt>
   <trkpt lat="47.3773390" lon="-122.0389510">
    <ele>142.9</ele>
    <time>2021-05-11T18:51:34Z</time>
   </trkpt>
   <trkpt lat="47.3773240" lon="-122.0389490">
    <ele>142.9</ele>
    <time>2021-05-11T18:51:35Z</time>
   </trkpt>
   <trkpt lat="47.3772970" lon="-122.0389630">
    <ele>142.8</ele>
    <time>2021-05-11T18:51:36Z</time>
   </trkpt>
   <trkpt lat="47.3772850" lon="-122.0389710">
    <ele>142.8</ele>
    <time>2021-05-11T18:51:37Z</time>
   </trkpt>
   <trkpt lat="47.3772720" lon="-122.0389710">
    <ele>142.8</ele>
    <time>2021-05-11T18:51:38Z</time>
   </trkpt>
   <trkpt lat="47.3772740" lon="-122.0389510">
    <ele>142.8</ele>
    <time>2021-05-11T18:51:39Z</time>
   </trkpt>
   <trkpt lat="47.3772670" lon="-122.0389490">
    <ele>142.7</ele>
    <time>2021-05-11T18:51:40Z</time>
   </trkpt>
   <trkpt lat="47.3772580" lon="-122.0389390">
    <ele>142.7</ele>
    <time>2021-05-11T18:51:41Z</time>
   </trkpt>
   <trkpt lat="47.3772490" lon="-122.0389290">
    <ele>142.7</ele>
    <time>2021-05-11T18:51:42Z</time>
   </trkpt>
   <trkpt lat="47.3772430" lon="-122.0389230">
    <ele>142.7</ele>
    <time>2021-05-11T18:51:43Z</time>
   </trkpt>
   <trkpt lat="47.3772350" lon="-122.0389240">
    <ele>142.7</ele>
    <time>2021-05-11T18:51:44Z</time>
   </trkpt>
   <trkpt lat="47.3772240" lon="-122.0389240">
    <ele>142.6</ele>
    <time>2021-05-11T18:51:45Z</time>
   </trkpt>
   <trkpt lat="47.3772220" lon="-122.0389220">
    <ele>142.6</ele>
    <time>2021-05-11T18:51:46Z</time>
   </trkpt>
   <trkpt lat="47.3772200" lon="-122.0389190">
    <ele>142.6</ele>
    <time>2021-05-11T18:51:47Z</time>
   </trkpt>
   <trkpt lat="47.3772080" lon="-122.0389100">
    <ele>142.6</ele>
    <time>2021-05-11T18:51:48Z</time>
   </trkpt>
   <trkpt lat="47.3772090" lon="-122.0389010">
    <ele>142.6</ele>
    <time>2021-05-11T18:51:49Z</time>
   </trkpt>
   <trkpt lat="47.3772000" lon="-122.0388930">
    <ele>142.5</ele>
    <time>2021-05-11T18:51:50Z</time>
   </trkpt>
   <trkpt lat="47.3771900" lon="-122.0388900">
    <ele>142.5</ele>
    <time>2021-05-11T18:51:51Z</time>
   </trkpt>
   <trkpt lat="47.3771780" lon="-122.0388830">
    <ele>142.5</ele>
    <time>2021-05-11T18:51:52Z</time>
   </trkpt>
   <trkpt lat="47.3771690" lon="-122.0388770">
    <ele>142.5</ele>
    <time>2021-05-11T18:51:53Z</time>
   </trkpt>
   <trkpt lat="47.3771490" lon="-122.0388740">
    <ele>142.4</ele>
    <time>2021-05-11T18:51:54Z</time>
   </trkpt>
   <trkpt lat="47.3771410" lon="-122.0388740">
    <ele>142.4</ele>
    <time>2021-05-11T18:51:55Z</time>
   </trkpt>
   <trkpt lat="47.3771330" lon="-122.0388730">
    <ele>142.4</ele>
    <time>2021-05-11T18:51:56Z</time>
   </trkpt>
   <trkpt lat="47.3771130" lon="-122.0388720">
    <ele>142.4</ele>
    <time>2021-05-11T18:51:57Z</time>
   </trkpt>
   <trkpt lat="47.3771020" lon="-122.0388740">
    <ele>142.4</ele>
    <time>2021-05-11T18:51:58Z</time>
   </trkpt>
   <trkpt lat="47.3770920" lon="-122.0388750">
    <ele>142.4</ele>
    <time>2021-05-11T18:51:59Z</time>
   </trkpt>
   <trkpt lat="47.3770790" lon="-122.0388820">
    <ele>142.4</ele>
    <time>2021-05-11T18:52:00Z</time>
   </trkpt>
   <trkpt lat="47.3770640" lon="-122.0388920">
    <ele>142.4</ele>
    <time>2021-05-11T18:52:01Z</time>
   </trkpt>
   <trkpt lat="47.3770440" lon="-122.0388940">
    <ele>142.4</ele>
    <time>2021-05-11T18:52:02Z</time>
   </trkpt>
   <trkpt lat="47.3770360" lon="-122.0388950">
    <ele>142.4</ele>
    <time>2021-05-11T18:52:03Z</time>
   </trkpt>
   <trkpt lat="47.3770270" lon="-122.0388960">
    <ele>142.4</ele>
    <time>2021-05-11T18:52:04Z</time>
   </trkpt>
   <trkpt lat="47.3770140" lon="-122.0388980">
    <ele>142.4</ele>
    <time>2021-05-11T18:52:05Z</time>
   </trkpt>
   <trkpt lat="47.3770000" lon="-122.0389020">
    <ele>142.4</ele>
    <time>2021-05-11T18:52:06Z</time>
   </trkpt>
   <trkpt lat="47.3769880" lon="-122.0389060">
    <ele>142.4</ele>
    <time>2021-05-11T18:52:07Z</time>
   </trkpt>
   <trkpt lat="47.3769770" lon="-122.0389100">
    <ele>142.4</ele>
    <time>2021-05-11T18:52:08Z</time>
   </trkpt>
   <trkpt lat="47.3769700" lon="-122.0389160">
    <ele>142.4</ele>
    <time>2021-05-11T18:52:09Z</time>
   </trkpt>
   <trkpt lat="47.3769500" lon="-122.0389220">
    <ele>142.4</ele>
    <time>2021-05-11T18:52:10Z</time>
   </trkpt>
   <trkpt lat="47.3769400" lon="-122.0389240">
    <ele>142.4</ele>
    <time>2021-05-11T18:52:11Z</time>
   </trkpt>
   <trkpt lat="47.3769310" lon="-122.0389270">
    <ele>142.4</ele>
    <time>2021-05-11T18:52:12Z</time>
   </trkpt>
   <trkpt lat="47.3769180" lon="-122.0389290">
    <ele>142.4</ele>
    <time>2021-05-11T18:52:13Z</time>
   </trkpt>
   <trkpt lat="47.3769030" lon="-122.0389340">
    <ele>142.4</ele>
    <time>2021-05-11T18:52:14Z</time>
   </trkpt>
   <trkpt lat="47.3768870" lon="-122.0389410">
    <ele>142.4</ele>
    <time>2021-05-11T18:52:15Z</time>
   </trkpt>
   <trkpt lat="47.3768730" lon="-122.0389460">
    <ele>142.4</ele>
    <time>2021-05-11T18:52:16Z</time>
   </trkpt>
   <trkpt lat="47.3768620" lon="-122.0389550">
    <ele>142.4</ele>
    <time>2021-05-11T18:52:17Z</time>
   </trkpt>
   <trkpt lat="47.3768500" lon="-122.0389620">
    <ele>142.4</ele>
    <time>2021-05-11T18:52:18Z</time>
   </trkpt>
   <trkpt lat="47.3768390" lon="-122.0389630">
    <ele>142.4</ele>
    <time>2021-05-11T18:52:19Z</time>
   </trkpt>
   <trkpt lat="47.3768280" lon="-122.0389680">
    <ele>142.4</ele>
    <time>2021-05-11T18:52:20Z</time>
   </trkpt>
   <trkpt lat="47.3768090" lon="-122.0389740">
    <ele>142.4</ele>
    <time>2021-05-11T18:52:21Z</time>
   </trkpt>
   <trkpt lat="47.3767940" lon="-122.0389690">
    <ele>142.4</ele>
    <time>2021-05-11T18:52:22Z</time>
   </trkpt>
   <trkpt lat="47.3767810" lon="-122.0389680">
    <ele>142.4</ele>
    <time>2021-05-11T18:52:23Z</time>
   </trkpt>
   <trkpt lat="47.3767720" lon="-122.0389710">
    <ele>142.4</ele>
    <time>2021-05-11T18:52:24Z</time>
   </trkpt>
   <trkpt lat="47.3767590" lon="-122.0389740">
    <ele>142.4</ele>
    <time>2021-05-11T18:52:25Z</time>
   </trkpt>
   <trkpt lat="47.3767490" lon="-122.0389700">
    <ele>142.4</ele>
    <time>2021-05-11T18:52:26Z</time>
   </trkpt>
   <trkpt lat="47.3767440" lon="-122.0389640">
    <ele>142.4</ele>
    <time>2021-05-11T18:52:27Z</time>
   </trkpt>
   <trkpt lat="47.3767330" lon="-122.0389520">
    <ele>142.4</ele>
    <time>2021-05-11T18:52:28Z</time>
   </trkpt>
   <trkpt lat="47.3767200" lon="-122.0389450">
    <ele>142.4</ele>
    <time>2021-05-11T18:52:29Z</time>
   </trkpt>
   <trkpt lat="47.3767120" lon="-122.0389400">
    <ele>142.4</ele>
    <time>2021-05-11T18:52:31Z</time>
   </trkpt>
   <trkpt lat="47.3767000" lon="-122.0389390">
    <ele>142.4</ele>
    <time>2021-05-11T18:52:32Z</time>
   </trkpt>
   <trkpt lat="47.3766910" lon="-122.0389290">
    <ele>142.4</ele>
    <time>2021-05-11T18:52:33Z</time>
   </trkpt>
   <trkpt lat="47.3766780" lon="-122.0389240">
    <ele>142.4</ele>
    <time>2021-05-11T18:52:34Z</time>
   </trkpt>
   <trkpt lat="47.3766710" lon="-122.0389280">
    <ele>142.4</ele>
    <time>2021-05-11T18:52:35Z</time>
   </trkpt>
   <trkpt lat="47.3766640" lon="-122.0389170">
    <ele>142.4</ele>
    <time>2021-05-11T18:52:36Z</time>
   </trkpt>
   <trkpt lat="47.3766530" lon="-122.0389130">
    <ele>142.4</ele>
    <time>2021-05-11T18:52:37Z</time>
   </trkpt>
   <trkpt lat="47.3766400" lon="-122.0389050">
    <ele>142.5</ele>
    <time>2021-05-11T18:52:38Z</time>
   </trkpt>
   <trkpt lat="47.3766330" lon="-122.0389080">
    <ele>142.5</ele>
    <time>2021-05-11T18:52:39Z</time>
   </trkpt>
   <trkpt lat="47.3766190" lon="-122.0389060">
    <ele>142.5</ele>
    <time>2021-05-11T18:52:40Z</time>
   </trkpt>
   <trkpt lat="47.3766040" lon="-122.0389060">
    <ele>142.5</ele>
    <time>2021-05-11T18:52:41Z</time>
   </trkpt>
   <trkpt lat="47.3765890" lon="-122.0389000">
    <ele>142.5</ele>
    <time>2021-05-11T18:52:42Z</time>
   </trkpt>
   <trkpt lat="47.3765760" lon="-122.0388950">
    <ele>142.5</ele>
    <time>2021-05-11T18:52:43Z</time>
   </trkpt>
   <trkpt lat="47.3765630" lon="-122.0388940">
    <ele>142.5</ele>
    <time>2021-05-11T18:52:44Z</time>
   </trkpt>
   <trkpt lat="47.3765470" lon="-122.0388910">
    <ele>142.5</ele>
    <time>2021-05-11T18:52:45Z</time>
   </trkpt>
   <trkpt lat="47.3765350" lon="-122.0388890">
    <ele>142.6</ele>
    <time>2021-05-11T18:52:46Z</time>
   </trkpt>
   <trkpt lat="47.3765240" lon="-122.0388880">
    <ele>142.6</ele>
    <time>2021-05-11T18:52:47Z</time>
   </trkpt>
   <trkpt lat="47.3765140" lon="-122.0388860">
    <ele>142.6</ele>
    <time>2021-05-11T18:52:48Z</time>
   </trkpt>
   <trkpt lat="47.3765010" lon="-122.0388830">
    <ele>142.6</ele>
    <time>2021-05-11T18:52:49Z</time>
   </trkpt>
   <trkpt lat="47.3764950" lon="-122.0388740">
    <ele>142.6</ele>
    <time>2021-05-11T18:52:50Z</time>
   </trkpt>
   <trkpt lat="47.3764850" lon="-122.0388670">
    <ele>142.7</ele>
    <time>2021-05-11T18:52:51Z</time>
   </trkpt>
   <trkpt lat="47.3764700" lon="-122.0388570">
    <ele>142.7</ele>
    <time>2021-05-11T18:52:52Z</time>
   </trkpt>
   <trkpt lat="47.3764620" lon="-122.0388510">
    <ele>142.7</ele>
    <time>2021-05-11T18:52:53Z</time>
   </trkpt>
   <trkpt lat="47.3764530" lon="-122.0388420">
    <ele>142.8</ele>
    <time>2021-05-11T18:52:54Z</time>
   </trkpt>
   <trkpt lat="47.3764360" lon="-122.0388270">
    <ele>142.8</ele>
    <time>2021-05-11T18:52:55Z</time>
   </trkpt>
   <trkpt lat="47.3764280" lon="-122.0388220">
    <ele>142.8</ele>
    <time>2021-05-11T18:52:56Z</time>
   </trkpt>
   <trkpt lat="47.3764190" lon="-122.0388160">
    <ele>142.8</ele>
    <time>2021-05-11T18:52:57Z</time>
   </trkpt>
   <trkpt lat="47.3764100" lon="-122.0388010">
    <ele>142.9</ele>
    <time>2021-05-11T18:52:58Z</time>
   </trkpt>
   <trkpt lat="47.3763970" lon="-122.0387930">
    <ele>142.9</ele>
    <time>2021-05-11T18:52:59Z</time>
   </trkpt>
   <trkpt lat="47.3763890" lon="-122.0387890">
    <ele>142.9</ele>
    <time>2021-05-11T18:53:00Z</time>
   </trkpt>
   <trkpt lat="47.3763740" lon="-122.0387850">
    <ele>143.0</ele>
    <time>2021-05-11T18:53:01Z</time>
   </trkpt>
   <trkpt lat="47.3763680" lon="-122.0387830">
    <ele>143.0</ele>
    <time>2021-05-11T18:53:02Z</time>
   </trkpt>
   <trkpt lat="47.3763590" lon="-122.0387810">
    <ele>143.0</ele>
    <time>2021-05-11T18:53:03Z</time>
   </trkpt>
   <trkpt lat="47.3763440" lon="-122.0387730">
    <ele>143.1</ele>
    <time>2021-05-11T18:53:04Z</time>
   </trkpt>
   <trkpt lat="47.3763370" lon="-122.0387670">
    <ele>143.1</ele>
    <time>2021-05-11T18:53:05Z</time>
   </trkpt>
   <trkpt lat="47.3763290" lon="-122.0387600">
    <ele>143.1</ele>
    <time>2021-05-11T18:53:06Z</time>
   </trkpt>
   <trkpt lat="47.3763210" lon="-122.0387540">
    <ele>143.1</ele>
    <time>2021-05-11T18:53:07Z</time>
   </trkpt>
   <trkpt lat="47.3763160" lon="-122.0387390">
    <ele>143.2</ele>
    <time>2021-05-11T18:53:08Z</time>
   </trkpt>
   <trkpt lat="47.3763020" lon="-122.0387350">
    <ele>143.2</ele>
    <time>2021-05-11T18:53:09Z</time>
   </trkpt>
   <trkpt lat="47.3762950" lon="-122.0387290">
    <ele>143.2</ele>
    <time>2021-05-11T18:53:10Z</time>
   </trkpt>
   <trkpt lat="47.3762870" lon="-122.0387240">
    <ele>143.2</ele>
    <time>2021-05-11T18:53:11Z</time>
   </trkpt>
   <trkpt lat="47.3762760" lon="-122.0387090">
    <ele>143.3</ele>
    <time>2021-05-11T18:53:12Z</time>
   </trkpt>
   <trkpt lat="47.3762670" lon="-122.0386930">
    <ele>143.3</ele>
    <time>2021-05-11T18:53:13Z</time>
   </trkpt>
   <trkpt lat="47.3762620" lon="-122.0386850">
    <ele>143.3</ele>
    <time>2021-05-11T18:53:14Z</time>
   </trkpt>
   <trkpt lat="47.3762560" lon="-122.0386740">
    <ele>143.3</ele>
    <time>2021-05-11T18:53:15Z</time>
   </trkpt>
   <trkpt lat="47.3762510" lon="-122.0386720">
    <ele>143.3</ele>
    <time>2021-05-11T18:53:16Z</time>
   </trkpt>
   <trkpt lat="47.3762460" lon="-122.0386600">
    <ele>143.4</ele>
    <time>2021-05-11T18:53:17Z</time>
   </trkpt>
   <trkpt lat="47.3762410" lon="-122.0386520">
    <ele>143.4</ele>
    <time>2021-05-11T18:53:18Z</time>
   </trkpt>
   <trkpt lat="47.3762370" lon="-122.0386340">
    <ele>143.4</ele>
    <time>2021-05-11T18:53:19Z</time>
   </trkpt>
   <trkpt lat="47.3762330" lon="-122.0386290">
    <ele>143.4</ele>
    <time>2021-05-11T18:53:20Z</time>
   </trkpt>
   <trkpt lat="47.3762260" lon="-122.0386210">
    <ele>143.4</ele>
    <time>2021-05-11T18:53:21Z</time>
   </trkpt>
   <trkpt lat="47.3762160" lon="-122.0386120">
    <ele>143.4</ele>
    <time>2021-05-11T18:53:22Z</time>
   </trkpt>
   <trkpt lat="47.3762020" lon="-122.0386040">
    <ele>143.4</ele>
    <time>2021-05-11T18:53:23Z</time>
   </trkpt>
   <trkpt lat="47.3761680" lon="-122.0385930">
    <ele>143.4</ele>
    <time>2021-05-11T18:53:25Z</time>
   </trkpt>
   <trkpt lat="47.3761600" lon="-122.0385910">
    <ele>143.4</ele>
    <time>2021-05-11T18:53:26Z</time>
   </trkpt>
   <trkpt lat="47.3761530" lon="-122.0385900">
    <ele>143.4</ele>
    <time>2021-05-11T18:53:27Z</time>
   </trkpt>
   <trkpt lat="47.3761450" lon="-122.0385880">
    <ele>143.4</ele>
    <time>2021-05-11T18:53:28Z</time>
   </trkpt>
   <trkpt lat="47.3761370" lon="-122.0385870">
    <ele>143.4</ele>
    <time>2021-05-11T18:53:29Z</time>
   </trkpt>
   <trkpt lat="47.3761350" lon="-122.0385840">
    <ele>143.4</ele>
    <time>2021-05-11T18:53:30Z</time>
   </trkpt>
   <trkpt lat="47.3761260" lon="-122.0385870">
    <ele>143.4</ele>
    <time>2021-05-11T18:53:31Z</time>
   </trkpt>
   <trkpt lat="47.3761130" lon="-122.0385900">
    <ele>143.4</ele>
    <time>2021-05-11T18:53:32Z</time>
   </trkpt>
   <trkpt lat="47.3761020" lon="-122.0385860">
    <ele>143.4</ele>
    <time>2021-05-11T18:53:33Z</time>
   </trkpt>
   <trkpt lat="47.3760890" lon="-122.0385850">
    <ele>143.4</ele>
    <time>2021-05-11T18:53:34Z</time>
   </trkpt>
   <trkpt lat="47.3760820" lon="-122.0385890">
    <ele>143.4</ele>
    <time>2021-05-11T18:53:35Z</time>
   </trkpt>
   <trkpt lat="47.3760690" lon="-122.0385930">
    <ele>143.4</ele>
    <time>2021-05-11T18:53:36Z</time>
   </trkpt>
   <trkpt lat="47.3760460" lon="-122.0385960">
    <ele>143.4</ele>
    <time>2021-05-11T18:53:37Z</time>
   </trkpt>
   <trkpt lat="47.3760390" lon="-122.0385960">
    <ele>143.4</ele>
    <time>2021-05-11T18:53:38Z</time>
   </trkpt>
   <trkpt lat="47.3760310" lon="-122.0385970">
    <ele>143.4</ele>
    <time>2021-05-11T18:53:39Z</time>
   </trkpt>
   <trkpt lat="47.3760130" lon="-122.0385980">
    <ele>143.3</ele>
    <time>2021-05-11T18:53:40Z</time>
   </trkpt>
   <trkpt lat="47.3759950" lon="-122.0385980">
    <ele>143.3</ele>
    <time>2021-05-11T18:53:41Z</time>
   </trkpt>
   <trkpt lat="47.3759750" lon="-122.0386000">
    <ele>143.2</ele>
    <time>2021-05-11T18:53:42Z</time>
   </trkpt>
   <trkpt lat="47.3759670" lon="-122.0386040">
    <ele>143.2</ele>
    <time>2021-05-11T18:53:43Z</time>
   </trkpt>
   <trkpt lat="47.3759590" lon="-122.0386090">
    <ele>143.2</ele>
    <time>2021-05-11T18:53:44Z</time>
   </trkpt>
   <trkpt lat="47.3759450" lon="-122.0386110">
    <ele>143.2</ele>
    <time>2021-05-11T18:53:45Z</time>
   </trkpt>
   <trkpt lat="47.3759370" lon="-122.0386100">
    <ele>143.2</ele>
    <time>2021-05-11T18:53:46Z</time>
   </trkpt>
   <trkpt lat="47.3759290" lon="-122.0386100">
    <ele>143.1</ele>
    <time>2021-05-11T18:53:47Z</time>
   </trkpt>
   <trkpt lat="47.3759210" lon="-122.0386100">
    <ele>143.1</ele>
    <time>2021-05-11T18:53:48Z</time>
   </trkpt>
   <trkpt lat="47.3759100" lon="-122.0386220">
    <ele>143.1</ele>
    <time>2021-05-11T18:53:49Z</time>
   </trkpt>
   <trkpt lat="47.3759060" lon="-122.0386250">
    <ele>143.1</ele>
    <time>2021-05-11T18:53:50Z</time>
   </trkpt>
   <trkpt lat="47.3759010" lon="-122.0386290">
    <ele>143.1</ele>
    <time>2021-05-11T18:53:51Z</time>
   </trkpt>
   <trkpt lat="47.3758970" lon="-122.0386320">
    <ele>143.0</ele>
    <time>2021-05-11T18:53:52Z</time>
   </trkpt>
   <trkpt lat="47.3758920" lon="-122.0386360">
    <ele>143.0</ele>
    <time>2021-05-11T18:53:53Z</time>
   </trkpt>
   <trkpt lat="47.3758870" lon="-122.0386390">
    <ele>143.0</ele>
    <time>2021-05-11T18:53:54Z</time>
   </trkpt>
   <trkpt lat="47.3758830" lon="-122.0386430">
    <ele>143.0</ele>
    <time>2021-05-11T18:53:55Z</time>
   </trkpt>
   <trkpt lat="47.3758780" lon="-122.0386460">
    <ele>143.0</ele>
    <time>2021-05-11T18:53:56Z</time>
   </trkpt>
   <trkpt lat="47.3758690" lon="-122.0386440">
    <ele>143.0</ele>
    <time>2021-05-11T18:53:57Z</time>
   </trkpt>
   <trkpt lat="47.3758560" lon="-122.0386540">
    <ele>142.9</ele>
    <time>2021-05-11T18:53:58Z</time>
   </trkpt>
   <trkpt lat="47.3758470" lon="-122.0386610">
    <ele>142.9</ele>
    <time>2021-05-11T18:53:59Z</time>
   </trkpt>
   <trkpt lat="47.3758290" lon="-122.0386630">
    <ele>142.9</ele>
    <time>2021-05-11T18:54:00Z</time>
   </trkpt>
   <trkpt lat="47.3758200" lon="-122.0386630">
    <ele>142.9</ele>
    <time>2021-05-11T18:54:01Z</time>
   </trkpt>
   <trkpt lat="47.3758090" lon="-122.0386660">
    <ele>142.9</ele>
    <time>2021-05-11T18:54:02Z</time>
   </trkpt>
   <trkpt lat="47.3758000" lon="-122.0386590">
    <ele>142.9</ele>
    <time>2021-05-11T18:54:03Z</time>
   </trkpt>
   <trkpt lat="47.3757950" lon="-122.0386580">
    <ele>142.9</ele>
    <time>2021-05-11T18:54:04Z</time>
   </trkpt>
   <trkpt lat="47.3757880" lon="-122.0386510">
    <ele>142.9</ele>
    <time>2021-05-11T18:54:05Z</time>
   </trkpt>
   <trkpt lat="47.3757820" lon="-122.0386490">
    <ele>142.9</ele>
    <time>2021-05-11T18:54:06Z</time>
   </trkpt>
   <trkpt lat="47.3757680" lon="-122.0386480">
    <ele>142.9</ele>
    <time>2021-05-11T18:54:07Z</time>
   </trkpt>
   <trkpt lat="47.3757580" lon="-122.0386470">
    <ele>142.9</ele>
    <time>2021-05-11T18:54:08Z</time>
   </trkpt>
   <trkpt lat="47.3757370" lon="-122.0386460">
    <ele>142.9</ele>
    <time>2021-05-11T18:54:09Z</time>
   </trkpt>
   <trkpt lat="47.3757280" lon="-122.0386450">
    <ele>142.9</ele>
    <time>2021-05-11T18:54:10Z</time>
   </trkpt>
   <trkpt lat="47.3757190" lon="-122.0386440">
    <ele>142.9</ele>
    <time>2021-05-11T18:54:11Z</time>
   </trkpt>
   <trkpt lat="47.3756970" lon="-122.0386430">
    <ele>142.9</ele>
    <time>2021-05-11T18:54:12Z</time>
   </trkpt>
   <trkpt lat="47.3756870" lon="-122.0386410">
    <ele>142.9</ele>
    <time>2021-05-11T18:54:13Z</time>
   </trkpt>
   <trkpt lat="47.3756760" lon="-122.0386380">
    <ele>142.9</ele>
    <time>2021-05-11T18:54:14Z</time>
   </trkpt>
   <trkpt lat="47.3756650" lon="-122.0386360">
    <ele>142.9</ele>
    <time>2021-05-11T18:54:15Z</time>
   </trkpt>
   <trkpt lat="47.3756500" lon="-122.0386270">
    <ele>142.9</ele>
    <time>2021-05-11T18:54:16Z</time>
   </trkpt>
   <trkpt lat="47.3756360" lon="-122.0386200">
    <ele>142.9</ele>
    <time>2021-05-11T18:54:17Z</time>
   </trkpt>
   <trkpt lat="47.3756150" lon="-122.0386210">
    <ele>142.9</ele>
    <time>2021-05-11T18:54:18Z</time>
   </trkpt>
   <trkpt lat="47.3756080" lon="-122.0386200">
    <ele>142.9</ele>
    <time>2021-05-11T18:54:19Z</time>
   </trkpt>
   <trkpt lat="47.3756000" lon="-122.0386190">
    <ele>142.9</ele>
    <time>2021-05-11T18:54:20Z</time>
   </trkpt>
   <trkpt lat="47.3755820" lon="-122.0386130">
    <ele>142.9</ele>
    <time>2021-05-11T18:54:21Z</time>
   </trkpt>
   <trkpt lat="47.3755670" lon="-122.0386080">
    <ele>142.9</ele>
    <time>2021-05-11T18:54:22Z</time>
   </trkpt>
   <trkpt lat="47.3755540" lon="-122.0386080">
    <ele>142.9</ele>
    <time>2021-05-11T18:54:23Z</time>
   </trkpt>
   <trkpt lat="47.3755440" lon="-122.0386120">
    <ele>142.9</ele>
    <time>2021-05-11T18:54:24Z</time>
   </trkpt>
   <trkpt lat="47.3755360" lon="-122.0386110">
    <ele>142.9</ele>
    <time>2021-05-11T18:54:25Z</time>
   </trkpt>
   <trkpt lat="47.3755280" lon="-122.0386210">
    <ele>142.9</ele>
    <time>2021-05-11T18:54:26Z</time>
   </trkpt>
   <trkpt lat="47.3755180" lon="-122.0386320">
    <ele>142.9</ele>
    <time>2021-05-11T18:54:27Z</time>
   </trkpt>
   <trkpt lat="47.3755080" lon="-122.0386390">
    <ele>142.9</ele>
    <time>2021-05-11T18:54:28Z</time>
   </trkpt>
   <trkpt lat="47.3755050" lon="-122.0386420">
    <ele>142.9</ele>
    <time>2021-05-11T18:54:29Z</time>
   </trkpt>
   <trkpt lat="47.3755010" lon="-122.0386450">
    <ele>142.9</ele>
    <time>2021-05-11T18:54:30Z</time>
   </trkpt>
   <trkpt lat="47.3754910" lon="-122.0386490">
    <ele>142.9</ele>
    <time>2021-05-11T18:54:31Z</time>
   </trkpt>
   <trkpt lat="47.3754830" lon="-122.0386590">
    <ele>142.9</ele>
    <time>2021-05-11T18:54:32Z</time>
   </trkpt>
   <trkpt lat="47.3754710" lon="-122.0386690">
    <ele>142.9</ele>
    <time>2021-05-11T18:54:33Z</time>
   </trkpt>
   <trkpt lat="47.3754670" lon="-122.0386770">
    <ele>142.9</ele>
    <time>2021-05-11T18:54:34Z</time>
   </trkpt>
   <trkpt lat="47.3754620" lon="-122.0386850">
    <ele>142.9</ele>
    <time>2021-05-11T18:54:35Z</time>
   </trkpt>
   <trkpt lat="47.3754570" lon="-122.0386930">
    <ele>142.9</ele>
    <time>2021-05-11T18:54:37Z</time>
   </trkpt>
   <trkpt lat="47.3754530" lon="-122.0387010">
    <ele>142.9</ele>
    <time>2021-05-11T18:54:38Z</time>
   </trkpt>
   <trkpt lat="47.3754480" lon="-122.0387090">
    <ele>142.9</ele>
    <time>2021-05-11T18:54:39Z</time>
   </trkpt>
   <trkpt lat="47.3754430" lon="-122.0387170">
    <ele>142.9</ele>
    <time>2021-05-11T18:54:40Z</time>
   </trkpt>
   <trkpt lat="47.3754390" lon="-122.0387250">
    <ele>142.9</ele>
    <time>2021-05-11T18:54:41Z</time>
   </trkpt>
   <trkpt lat="47.3754340" lon="-122.0387330">
    <ele>142.9</ele>
    <time>2021-05-11T18:54:42Z</time>
   </trkpt>
   <trkpt lat="47.3754260" lon="-122.0387590">
    <ele>142.9</ele>
    <time>2021-05-11T18:54:43Z</time>
   </trkpt>
   <trkpt lat="47.3754280" lon="-122.0387760">
    <ele>142.9</ele>
    <time>2021-05-11T18:54:44Z</time>
   </trkpt>
   <trkpt lat="47.3754280" lon="-122.0387860">
    <ele>142.9</ele>
    <time>2021-05-11T18:54:45Z</time>
   </trkpt>
   <trkpt lat="47.3754280" lon="-122.0387860">
    <ele>142.9</ele>
    <time>2021-05-11T18:54:46Z</time>
   </trkpt>
   <trkpt lat="47.3754180" lon="-122.0388110">
    <ele>142.9</ele>
    <time>2021-05-11T18:54:47Z</time>
   </trkpt>
   <trkpt lat="47.3754130" lon="-122.0388230">
    <ele>142.9</ele>
    <time>2021-05-11T18:54:48Z</time>
   </trkpt>
   <trkpt lat="47.3754120" lon="-122.0388440">
    <ele>142.9</ele>
    <time>2021-05-11T18:54:49Z</time>
   </trkpt>
   <trkpt lat="47.3754040" lon="-122.0388630">
    <ele>142.9</ele>
    <time>2021-05-11T18:54:50Z</time>
   </trkpt>
   <trkpt lat="47.3753930" lon="-122.0389070">
    <ele>142.9</ele>
    <time>2021-05-11T18:54:51Z</time>
   </trkpt>
   <trkpt lat="47.3753930" lon="-122.0389250">
    <ele>142.9</ele>
    <time>2021-05-11T18:54:52Z</time>
   </trkpt>
   <trkpt lat="47.3753960" lon="-122.0389570">
    <ele>142.9</ele>
    <time>2021-05-11T18:54:53Z</time>
   </trkpt>
   <trkpt lat="47.3753950" lon="-122.0389700">
    <ele>142.9</ele>
    <time>2021-05-11T18:54:54Z</time>
   </trkpt>
   <trkpt lat="47.3753870" lon="-122.0389890">
    <ele>142.9</ele>
    <time>2021-05-11T18:54:55Z</time>
   </trkpt>
   <trkpt lat="47.3753850" lon="-122.0389980">
    <ele>142.9</ele>
    <time>2021-05-11T18:54:56Z</time>
   </trkpt>
   <trkpt lat="47.3753840" lon="-122.0390170">
    <ele>142.9</ele>
    <time>2021-05-11T18:54:57Z</time>
   </trkpt>
   <trkpt lat="47.3753810" lon="-122.0390690">
    <ele>142.9</ele>
    <time>2021-05-11T18:54:58Z</time>
   </trkpt>
   <trkpt lat="47.3753820" lon="-122.0390900">
    <ele>142.9</ele>
    <time>2021-05-11T18:54:59Z</time>
   </trkpt>
   <trkpt lat="47.3753860" lon="-122.0391410">
    <ele>142.8</ele>
    <time>2021-05-11T18:55:00Z</time>
   </trkpt>
   <trkpt lat="47.3753870" lon="-122.0391600">
    <ele>142.8</ele>
    <time>2021-05-11T18:55:01Z</time>
   </trkpt>
   <trkpt lat="47.3753810" lon="-122.0391840">
    <ele>142.8</ele>
    <time>2021-05-11T18:55:02Z</time>
   </trkpt>
   <trkpt lat="47.3753770" lon="-122.0392020">
    <ele>142.8</ele>
    <time>2021-05-11T18:55:03Z</time>
   </trkpt>
   <trkpt lat="47.3753710" lon="-122.0392200">
    <ele>142.8</ele>
    <time>2021-05-11T18:55:04Z</time>
   </trkpt>
   <trkpt lat="47.3753670" lon="-122.0392460">
    <ele>142.8</ele>
    <time>2021-05-11T18:55:05Z</time>
   </trkpt>
   <trkpt lat="47.3753600" lon="-122.0392700">
    <ele>142.8</ele>
    <time>2021-05-11T18:55:06Z</time>
   </trkpt>
   <trkpt lat="47.3753570" lon="-122.0392920">
    <ele>142.8</ele>
    <time>2021-05-11T18:55:07Z</time>
   </trkpt>
   <trkpt lat="47.3753490" lon="-122.0393050">
    <ele>142.8</ele>
    <time>2021-05-11T18:55:08Z</time>
   </trkpt>
   <trkpt lat="47.3753470" lon="-122.0393150">
    <ele>142.8</ele>
    <time>2021-05-11T18:55:09Z</time>
   </trkpt>
   <trkpt lat="47.3753480" lon="-122.0393230">
    <ele>142.8</ele>
    <time>2021-05-11T18:55:10Z</time>
   </trkpt>
   <trkpt lat="47.3753390" lon="-122.0393350">
    <ele>142.8</ele>
    <time>2021-05-11T18:55:11Z</time>
   </trkpt>
   <trkpt lat="47.3753270" lon="-122.0393300">
    <ele>142.8</ele>
    <time>2021-05-11T18:55:12Z</time>
   </trkpt>
   <trkpt lat="47.3753220" lon="-122.0393350">
    <ele>142.8</ele>
    <time>2021-05-11T18:55:13Z</time>
   </trkpt>
   <trkpt lat="47.3753220" lon="-122.0393440">
    <ele>142.8</ele>
    <time>2021-05-11T18:55:14Z</time>
   </trkpt>
   <trkpt lat="47.3753190" lon="-122.0393640">
    <ele>142.8</ele>
    <time>2021-05-11T18:55:15Z</time>
   </trkpt>
   <trkpt lat="47.3753180" lon="-122.0393800">
    <ele>142.8</ele>
    <time>2021-05-11T18:55:16Z</time>
   </trkpt>
   <trkpt lat="47.3753210" lon="-122.0394070">
    <ele>142.8</ele>
    <time>2021-05-11T18:55:17Z</time>
   </trkpt>
   <trkpt lat="47.3753200" lon="-122.0394360">
    <ele>142.8</ele>
    <time>2021-05-11T18:55:18Z</time>
   </trkpt>
   <trkpt lat="47.3753170" lon="-122.0394750">
    <ele>142.8</ele>
    <time>2021-05-11T18:55:20Z</time>
   </trkpt>
   <trkpt lat="47.3753160" lon="-122.0394880">
    <ele>142.8</ele>
    <time>2021-05-11T18:55:21Z</time>
   </trkpt>
   <trkpt lat="47.3753100" lon="-122.0394990">
    <ele>142.8</ele>
    <time>2021-05-11T18:55:22Z</time>
   </trkpt>
   <trkpt lat="47.3753050" lon="-122.0395110">
    <ele>142.8</ele>
    <time>2021-05-11T18:55:23Z</time>
   </trkpt>
   <trkpt lat="47.3753030" lon="-122.0395220">
    <ele>142.8</ele>
    <time>2021-05-11T18:55:24Z</time>
   </trkpt>
   <trkpt lat="47.3752930" lon="-122.0395440">
    <ele>142.8</ele>
    <time>2021-05-11T18:55:25Z</time>
   </trkpt>
   <trkpt lat="47.3752860" lon="-122.0395630">
    <ele>142.8</ele>
    <time>2021-05-11T18:55:26Z</time>
   </trkpt>
   <trkpt lat="47.3752850" lon="-122.0395830">
    <ele>142.8</ele>
    <time>2021-05-11T18:55:27Z</time>
   </trkpt>
   <trkpt lat="47.3752850" lon="-122.0396300">
    <ele>142.8</ele>
    <time>2021-05-11T18:55:28Z</time>
   </trkpt>
   <trkpt lat="47.3752850" lon="-122.0396510">
    <ele>142.8</ele>
    <time>2021-05-11T18:55:29Z</time>
   </trkpt>
   <trkpt lat="47.3752880" lon="-122.0396950">
    <ele>142.8</ele>
    <time>2021-05-11T18:55:30Z</time>
   </trkpt>
   <trkpt lat="47.3752900" lon="-122.0397100">
    <ele>142.8</ele>
    <time>2021-05-11T18:55:31Z</time>
   </trkpt>
   <trkpt lat="47.3752950" lon="-122.0397330">
    <ele>142.8</ele>
    <time>2021-05-11T18:55:32Z</time>
   </trkpt>
   <trkpt lat="47.3752890" lon="-122.0397540">
    <ele>142.8</ele>
    <time>2021-05-11T18:55:33Z</time>
   </trkpt>
   <trkpt lat="47.3752890" lon="-122.0397790">
    <ele>142.9</ele>
    <time>2021-05-11T18:55:34Z</time>
   </trkpt>
   <trkpt lat="47.3752870" lon="-122.0398030">
    <ele>142.9</ele>
    <time>2021-05-11T18:55:35Z</time>
   </trkpt>
   <trkpt lat="47.3752850" lon="-122.0398260">
    <ele>142.9</ele>
    <time>2021-05-11T18:55:36Z</time>
   </trkpt>
   <trkpt lat="47.3752790" lon="-122.0398530">
    <ele>142.9</ele>
    <time>2021-05-11T18:55:37Z</time>
   </trkpt>
   <trkpt lat="47.3752820" lon="-122.0398810">
    <ele>143.0</ele>
    <time>2021-05-11T18:55:38Z</time>
   </trkpt>
   <trkpt lat="47.3752860" lon="-122.0398930">
    <ele>143.0</ele>
    <time>2021-05-11T18:55:39Z</time>
   </trkpt>
   <trkpt lat="47.3752870" lon="-122.0399070">
    <ele>143.0</ele>
    <time>2021-05-11T18:55:40Z</time>
   </trkpt>
   <trkpt lat="47.3752870" lon="-122.0399340">
    <ele>143.0</ele>
    <time>2021-05-11T18:55:41Z</time>
   </trkpt>
   <trkpt lat="47.3753000" lon="-122.0399450">
    <ele>143.0</ele>
    <time>2021-05-11T18:55:42Z</time>
   </trkpt>
   <trkpt lat="47.3753030" lon="-122.0399590">
    <ele>143.0</ele>
    <time>2021-05-11T18:55:43Z</time>
   </trkpt>
   <trkpt lat="47.3753100" lon="-122.0399720">
    <ele>143.0</ele>
    <time>2021-05-11T18:55:44Z</time>
   </trkpt>
   <trkpt lat="47.3753150" lon="-122.0399930">
    <ele>143.0</ele>
    <time>2021-05-11T18:55:45Z</time>
   </trkpt>
   <trkpt lat="47.3753160" lon="-122.0400060">
    <ele>143.0</ele>
    <time>2021-05-11T18:55:46Z</time>
   </trkpt>
   <trkpt lat="47.3753160" lon="-122.0400190">
    <ele>143.0</ele>
    <time>2021-05-11T18:55:47Z</time>
   </trkpt>
   <trkpt lat="47.3753170" lon="-122.0400320">
    <ele>143.0</ele>
    <time>2021-05-11T18:55:48Z</time>
   </trkpt>
   <trkpt lat="47.3753230" lon="-122.0400300">
    <ele>143.0</ele>
    <time>2021-05-11T18:55:49Z</time>
   </trkpt>
   <trkpt lat="47.3753280" lon="-122.0400350">
    <ele>143.0</ele>
    <time>2021-05-11T18:55:50Z</time>
   </trkpt>
   <trkpt lat="47.3753320" lon="-122.0400470">
    <ele>143.0</ele>
    <time>2021-05-11T18:55:51Z</time>
   </trkpt>
   <trkpt lat="47.3753350" lon="-122.0400640">
    <ele>143.0</ele>
    <time>2021-05-11T18:55:52Z</time>
   </trkpt>
   <trkpt lat="47.3753360" lon="-122.0400750">
    <ele>143.0</ele>
    <time>2021-05-11T18:55:53Z</time>
   </trkpt>
   <trkpt lat="47.3753400" lon="-122.0400800">
    <ele>143.0</ele>
    <time>2021-05-11T18:55:54Z</time>
   </trkpt>
   <trkpt lat="47.3753400" lon="-122.0400930">
    <ele>143.0</ele>
    <time>2021-05-11T18:55:55Z</time>
   </trkpt>
   <trkpt lat="47.3753420" lon="-122.0401130">
    <ele>143.0</ele>
    <time>2021-05-11T18:55:56Z</time>
   </trkpt>
   <trkpt lat="47.3753440" lon="-122.0401210">
    <ele>143.0</ele>
    <time>2021-05-11T18:55:57Z</time>
   </trkpt>
   <trkpt lat="47.3753480" lon="-122.0401380">
    <ele>143.0</ele>
    <time>2021-05-11T18:55:58Z</time>
   </trkpt>
   <trkpt lat="47.3753530" lon="-122.0401380">
    <ele>143.0</ele>
    <time>2021-05-11T18:55:59Z</time>
   </trkpt>
   <trkpt lat="47.3753570" lon="-122.0401490">
    <ele>143.0</ele>
    <time>2021-05-11T18:56:00Z</time>
   </trkpt>
   <trkpt lat="47.3753610" lon="-122.0401520">
    <ele>143.0</ele>
    <time>2021-05-11T18:56:01Z</time>
   </trkpt>
   <trkpt lat="47.3753610" lon="-122.0401670">
    <ele>143.1</ele>
    <time>2021-05-11T18:56:02Z</time>
   </trkpt>
   <trkpt lat="47.3753670" lon="-122.0401750">
    <ele>143.1</ele>
    <time>2021-05-11T18:56:03Z</time>
   </trkpt>
   <trkpt lat="47.3753740" lon="-122.0401870">
    <ele>143.1</ele>
    <time>2021-05-11T18:56:04Z</time>
   </trkpt>
   <trkpt lat="47.3753770" lon="-122.0402000">
    <ele>143.1</ele>
    <time>2021-05-11T18:56:05Z</time>
   </trkpt>
   <trkpt lat="47.3753810" lon="-122.0402100">
    <ele>143.0</ele>
    <time>2021-05-11T18:56:06Z</time>
   </trkpt>
   <trkpt lat="47.3753860" lon="-122.0402120">
    <ele>143.0</ele>
    <time>2021-05-11T18:56:07Z</time>
   </trkpt>
   <trkpt lat="47.3753950" lon="-122.0402160">
    <ele>143.0</ele>
    <time>2021-05-11T18:56:08Z</time>
   </trkpt>
   <trkpt lat="47.3753980" lon="-122.0402180">
    <ele>143.0</ele>
    <time>2021-05-11T18:56:09Z</time>
   </trkpt>
   <trkpt lat="47.3754020" lon="-122.0402140">
    <ele>143.0</ele>
    <time>2021-05-11T18:56:10Z</time>
   </trkpt>
   <trkpt lat="47.3754070" lon="-122.0402130">
    <ele>143.0</ele>
    <time>2021-05-11T18:56:11Z</time>
   </trkpt>
   <trkpt lat="47.3754110" lon="-122.0402110">
    <ele>143.0</ele>
    <time>2021-05-11T18:56:12Z</time>
   </trkpt>
   <trkpt lat="47.3754130" lon="-122.0402080">
    <ele>143.0</ele>
    <time>2021-05-11T18:56:13Z</time>
   </trkpt>
   <trkpt lat="47.3754070" lon="-122.0402100">
    <ele>142.9</ele>
    <time>2021-05-11T18:56:14Z</time>
   </trkpt>
   <trkpt lat="47.3754040" lon="-122.0402030">
    <ele>142.9</ele>
    <time>2021-05-11T18:56:15Z</time>
   </trkpt>
   <trkpt lat="47.3754060" lon="-122.0401990">
    <ele>142.9</ele>
    <time>2021-05-11T18:56:16Z</time>
   </trkpt>
   <trkpt lat="47.3754120" lon="-122.0401990">
    <ele>142.9</ele>
    <time>2021-05-11T18:56:17Z</time>
   </trkpt>
   <trkpt lat="47.3754120" lon="-122.0402020">
    <ele>142.9</ele>
    <time>2021-05-11T18:56:18Z</time>
   </trkpt>
   <trkpt lat="47.3754100" lon="-122.0402050">
    <ele>142.9</ele>
    <time>2021-05-11T18:56:19Z</time>
   </trkpt>
   <trkpt lat="47.3754100" lon="-122.0402070">
    <ele>142.9</ele>
    <time>2021-05-11T18:56:20Z</time>
   </trkpt>
   <trkpt lat="47.3754140" lon="-122.0402080">
    <ele>142.9</ele>
    <time>2021-05-11T18:56:21Z</time>
   </trkpt>
   <trkpt lat="47.3754230" lon="-122.0402130">
    <ele>142.9</ele>
    <time>2021-05-11T18:56:22Z</time>
   </trkpt>
   <trkpt lat="47.3754330" lon="-122.0402420">
    <ele>142.8</ele>
    <time>2021-05-11T18:56:23Z</time>
   </trkpt>
   <trkpt lat="47.3754390" lon="-122.0402490">
    <ele>142.8</ele>
    <time>2021-05-11T18:56:24Z</time>
   </trkpt>
   <trkpt lat="47.3754460" lon="-122.0402550">
    <ele>142.8</ele>
    <time>2021-05-11T18:56:25Z</time>
   </trkpt>
   <trkpt lat="47.3754600" lon="-122.0402670">
    <ele>142.8</ele>
    <time>2021-05-11T18:56:26Z</time>
   </trkpt>
   <trkpt lat="47.3754660" lon="-122.0402770">
    <ele>142.7</ele>
    <time>2021-05-11T18:56:27Z</time>
   </trkpt>
   <trkpt lat="47.3754710" lon="-122.0402850">
    <ele>142.7</ele>
    <time>2021-05-11T18:56:28Z</time>
   </trkpt>
   <trkpt lat="47.3754760" lon="-122.0402990">
    <ele>142.7</ele>
    <time>2021-05-11T18:56:29Z</time>
   </trkpt>
   <trkpt lat="47.3754820" lon="-122.0403100">
    <ele>142.7</ele>
    <time>2021-05-11T18:56:30Z</time>
   </trkpt>
   <trkpt lat="47.3754880" lon="-122.0403220">
    <ele>142.7</ele>
    <time>2021-05-11T18:56:31Z</time>
   </trkpt>
   <trkpt lat="47.3754970" lon="-122.0403320">
    <ele>142.7</ele>
    <time>2021-05-11T18:56:32Z</time>
   </trkpt>
   <trkpt lat="47.3755030" lon="-122.0403480">
    <ele>142.7</ele>
    <time>2021-05-11T18:56:33Z</time>
   </trkpt>
   <trkpt lat="47.3755040" lon="-122.0403540">
    <ele>142.7</ele>
    <time>2021-05-11T18:56:34Z</time>
   </trkpt>
   <trkpt lat="47.3755090" lon="-122.0403640">
    <ele>142.7</ele>
    <time>2021-05-11T18:56:35Z</time>
   </trkpt>
   <trkpt lat="47.3755170" lon="-122.0403740">
    <ele>142.6</ele>
    <time>2021-05-11T18:56:36Z</time>
   </trkpt>
   <trkpt lat="47.3755260" lon="-122.0403830">
    <ele>142.6</ele>
    <time>2021-05-11T18:56:37Z</time>
   </trkpt>
   <trkpt lat="47.3755310" lon="-122.0403970">
    <ele>142.6</ele>
    <time>2021-05-11T18:56:38Z</time>
   </trkpt>
   <trkpt lat="47.3755430" lon="-122.0404000">
    <ele>142.6</ele>
    <time>2021-05-11T18:56:39Z</time>
   </trkpt>
   <trkpt lat="47.3755510" lon="-122.0404130">
    <ele>142.6</ele>
    <time>2021-05-11T18:56:40Z</time>
   </trkpt>
   <trkpt lat="47.3755560" lon="-122.0404250">
    <ele>142.6</ele>
    <time>2021-05-11T18:56:41Z</time>
   </trkpt>
   <trkpt lat="47.3755650" lon="-122.0404350">
    <ele>142.6</ele>
    <time>2021-05-11T18:56:42Z</time>
   </trkpt>
   <trkpt lat="47.3755680" lon="-122.0404520">
    <ele>142.6</ele>
    <time>2021-05-11T18:56:43Z</time>
   </trkpt>
   <trkpt lat="47.3755780" lon="-122.0404800">
    <ele>142.6</ele>
    <time>2021-05-11T18:56:44Z</time>
   </trkpt>
   <trkpt lat="47.3755820" lon="-122.0404890">
    <ele>142.6</ele>
    <time>2021-05-11T18:56:45Z</time>
   </trkpt>
   <trkpt lat="47.3755870" lon="-122.0404980">
    <ele>142.6</ele>
    <time>2021-05-11T18:56:46Z</time>
   </trkpt>
   <trkpt lat="47.3755950" lon="-122.0405120">
    <ele>142.6</ele>
    <time>2021-05-11T18:56:47Z</time>
   </trkpt>
   <trkpt lat="47.3756040" lon="-122.0405210">
    <ele>142.6</ele>
    <time>2021-05-11T18:56:48Z</time>
   </trkpt>
   <trkpt lat="47.3756140" lon="-122.0405290">
    <ele>142.6</ele>
    <time>2021-05-11T18:56:49Z</time>
   </trkpt>
   <trkpt lat="47.3756210" lon="-122.0405350">
    <ele>142.6</ele>
    <time>2021-05-11T18:56:51Z</time>
   </trkpt>
   <trkpt lat="47.3756320" lon="-122.0405350">
    <ele>142.7</ele>
    <time>2021-05-11T18:56:52Z</time>
   </trkpt>
   <trkpt lat="47.3756390" lon="-122.0405410">
    <ele>142.7</ele>
    <time>2021-05-11T18:56:53Z</time>
   </trkpt>
   <trkpt lat="47.3756450" lon="-122.0405480">
    <ele>142.7</ele>
    <time>2021-05-11T18:56:54Z</time>
   </trkpt>
   <trkpt lat="47.3756520" lon="-122.0405540">
    <ele>142.7</ele>
    <time>2021-05-11T18:56:55Z</time>
   </trkpt>
   <trkpt lat="47.3756620" lon="-122.0405560">
    <ele>142.7</ele>
    <time>2021-05-11T18:56:56Z</time>
   </trkpt>
   <trkpt lat="47.3756760" lon="-122.0405630">
    <ele>142.7</ele>
    <time>2021-05-11T18:56:57Z</time>
   </trkpt>
   <trkpt lat="47.3756860" lon="-122.0405610">
    <ele>142.7</ele>
    <time>2021-05-11T18:56:58Z</time>
   </trkpt>
   <trkpt lat="47.3756950" lon="-122.0405560">
    <ele>142.7</ele>
    <time>2021-05-11T18:56:59Z</time>
   </trkpt>
   <trkpt lat="47.3757050" lon="-122.0405570">
    <ele>142.7</ele>
    <time>2021-05-11T18:57:00Z</time>
   </trkpt>
   <trkpt lat="47.3757120" lon="-122.0405480">
    <ele>142.7</ele>
    <time>2021-05-11T18:57:01Z</time>
   </trkpt>
   <trkpt lat="47.3757200" lon="-122.0405340">
    <ele>142.7</ele>
    <time>2021-05-11T18:57:02Z</time>
   </trkpt>
   <trkpt lat="47.3757250" lon="-122.0405240">
    <ele>142.7</ele>
    <time>2021-05-11T18:57:03Z</time>
   </trkpt>
   <trkpt lat="47.3757380" lon="-122.0405100">
    <ele>142.7</ele>
    <time>2021-05-11T18:57:04Z</time>
   </trkpt>
   <trkpt lat="47.3757520" lon="-122.0404920">
    <ele>142.8</ele>
    <time>2021-05-11T18:57:05Z</time>
   </trkpt>
   <trkpt lat="47.3757660" lon="-122.0404760">
    <ele>142.8</ele>
    <time>2021-05-11T18:57:06Z</time>
   </trkpt>
   <trkpt lat="47.3757750" lon="-122.0404600">
    <ele>142.8</ele>
    <time>2021-05-11T18:57:07Z</time>
   </trkpt>
   <trkpt lat="47.3757900" lon="-122.0404380">
    <ele>142.8</ele>
    <time>2021-05-11T18:57:08Z</time>
   </trkpt>
   <trkpt lat="47.3757950" lon="-122.0404270">
    <ele>142.8</ele>
    <time>2021-05-11T18:57:09Z</time>
   </trkpt>
   <trkpt lat="47.3758000" lon="-122.0404170">
    <ele>142.8</ele>
    <time>2021-05-11T18:57:10Z</time>
   </trkpt>
   <trkpt lat="47.3758090" lon="-122.0404100">
    <ele>142.8</ele>
    <time>2021-05-11T18:57:11Z</time>
   </trkpt>
   <trkpt lat="47.3758250" lon="-122.0403880">
    <ele>142.8</ele>
    <time>2021-05-11T18:57:12Z</time>
   </trkpt>
   <trkpt lat="47.3758390" lon="-122.0403770">
    <ele>142.8</ele>
    <time>2021-05-11T18:57:13Z</time>
   </trkpt>
   <trkpt lat="47.3758410" lon="-122.0403680">
    <ele>142.7</ele>
    <time>2021-05-11T18:57:14Z</time>
   </trkpt>
   <trkpt lat="47.3758460" lon="-122.0403560">
    <ele>142.7</ele>
    <time>2021-05-11T18:57:15Z</time>
   </trkpt>
   <trkpt lat="47.3758620" lon="-122.0403430">
    <ele>142.7</ele>
    <time>2021-05-11T18:57:16Z</time>
   </trkpt>
   <trkpt lat="47.3758780" lon="-122.0403290">
    <ele>142.7</ele>
    <time>2021-05-11T18:57:17Z</time>
   </trkpt>
   <trkpt lat="47.3759030" lon="-122.0403120">
    <ele>142.7</ele>
    <time>2021-05-11T18:57:18Z</time>
   </trkpt>
   <trkpt lat="47.3759140" lon="-122.0403040">
    <ele>142.7</ele>
    <time>2021-05-11T18:57:19Z</time>
   </trkpt>
   <trkpt lat="47.3759320" lon="-122.0403060">
    <ele>142.6</ele>
    <time>2021-05-11T18:57:20Z</time>
   </trkpt>
   <trkpt lat="47.3759420" lon="-122.0403020">
    <ele>142.6</ele>
    <time>2021-05-11T18:57:21Z</time>
   </trkpt>
   <trkpt lat="47.3759510" lon="-122.0402970">
    <ele>142.6</ele>
    <time>2021-05-11T18:57:22Z</time>
   </trkpt>
   <trkpt lat="47.3759650" lon="-122.0402810">
    <ele>142.6</ele>
    <time>2021-05-11T18:57:23Z</time>
   </trkpt>
   <trkpt lat="47.3759790" lon="-122.0402770">
    <ele>142.6</ele>
    <time>2021-05-11T18:57:24Z</time>
   </trkpt>
   <trkpt lat="47.3759940" lon="-122.0402650">
    <ele>142.6</ele>
    <time>2021-05-11T18:57:25Z</time>
   </trkpt>
   <trkpt lat="47.3760110" lon="-122.0402540">
    <ele>142.6</ele>
    <time>2021-05-11T18:57:26Z</time>
   </trkpt>
   <trkpt lat="47.3760450" lon="-122.0402390">
    <ele>142.7</ele>
    <time>2021-05-11T18:57:27Z</time>
   </trkpt>
   <trkpt lat="47.3760580" lon="-122.0402320">
    <ele>142.7</ele>
    <time>2021-05-11T18:57:28Z</time>
   </trkpt>
   <trkpt lat="47.3760810" lon="-122.0402400">
    <ele>142.7</ele>
    <time>2021-05-11T18:57:29Z</time>
   </trkpt>
   <trkpt lat="47.3760880" lon="-122.0402440">
    <ele>142.7</ele>
    <time>2021-05-11T18:57:30Z</time>
   </trkpt>
   <trkpt lat="47.3760960" lon="-122.0402470">
    <ele>142.7</ele>
    <time>2021-05-11T18:57:31Z</time>
   </trkpt>
   <trkpt lat="47.3761090" lon="-122.0402490">
    <ele>142.7</ele>
    <time>2021-05-11T18:57:32Z</time>
   </trkpt>
   <trkpt lat="47.3761200" lon="-122.0402580">
    <ele>142.7</ele>
    <time>2021-05-11T18:57:33Z</time>
   </trkpt>
   <trkpt lat="47.3761410" lon="-122.0402770">
    <ele>142.7</ele>
    <time>2021-05-11T18:57:35Z</time>
   </trkpt>
   <trkpt lat="47.3761590" lon="-122.0402860">
    <ele>142.7</ele>
    <time>2021-05-11T18:57:36Z</time>
   </trkpt>
   <trkpt lat="47.3761670" lon="-122.0402890">
    <ele>142.7</ele>
    <time>2021-05-11T18:57:37Z</time>
   </trkpt>
   <trkpt lat="47.3761800" lon="-122.0402970">
    <ele>142.7</ele>
    <time>2021-05-11T18:57:38Z</time>
   </trkpt>
   <trkpt lat="47.3761930" lon="-122.0403080">
    <ele>142.7</ele>
    <time>2021-05-11T18:57:39Z</time>
   </trkpt>
   <trkpt lat="47.3762140" lon="-122.0403120">
    <ele>142.7</ele>
    <time>2021-05-11T18:57:40Z</time>
   </trkpt>
   <trkpt lat="47.3762210" lon="-122.0403110">
    <ele>142.7</ele>
    <time>2021-05-11T18:57:41Z</time>
   </trkpt>
   <trkpt lat="47.3762290" lon="-122.0403100">
    <ele>142.7</ele>
    <time>2021-05-11T18:57:42Z</time>
   </trkpt>
   <trkpt lat="47.3762370" lon="-122.0403130">
    <ele>142.7</ele>
    <time>2021-05-11T18:57:43Z</time>
   </trkpt>
   <trkpt lat="47.3762460" lon="-122.0403110">
    <ele>142.7</ele>
    <time>2021-05-11T18:57:44Z</time>
   </trkpt>
   <trkpt lat="47.3762610" lon="-122.0403100">
    <ele>142.7</ele>
    <time>2021-05-11T18:57:45Z</time>
   </trkpt>
   <trkpt lat="47.3762680" lon="-122.0403180">
    <ele>142.7</ele>
    <time>2021-05-11T18:57:46Z</time>
   </trkpt>
   <trkpt lat="47.3762780" lon="-122.0403250">
    <ele>142.7</ele>
    <time>2021-05-11T18:57:47Z</time>
   </trkpt>
   <trkpt lat="47.3762870" lon="-122.0403320">
    <ele>142.7</ele>
    <time>2021-05-11T18:57:48Z</time>
   </trkpt>
   <trkpt lat="47.3762970" lon="-122.0403450">
    <ele>142.7</ele>
    <time>2021-05-11T18:57:49Z</time>
   </trkpt>
   <trkpt lat="47.3763100" lon="-122.0403560">
    <ele>142.7</ele>
    <time>2021-05-11T18:57:50Z</time>
   </trkpt>
   <trkpt lat="47.3763220" lon="-122.0403730">
    <ele>142.8</ele>
    <time>2021-05-11T18:57:51Z</time>
   </trkpt>
   <trkpt lat="47.3763320" lon="-122.0403830">
    <ele>142.8</ele>
    <time>2021-05-11T18:57:52Z</time>
   </trkpt>
   <trkpt lat="47.3763430" lon="-122.0403830">
    <ele>142.8</ele>
    <time>2021-05-11T18:57:53Z</time>
   </trkpt>
   <trkpt lat="47.3763630" lon="-122.0403780">
    <ele>142.8</ele>
    <time>2021-05-11T18:57:54Z</time>
   </trkpt>
   <trkpt lat="47.3763820" lon="-122.0403640">
    <ele>142.8</ele>
    <time>2021-05-11T18:57:55Z</time>
   </trkpt>
   <trkpt lat="47.3763940" lon="-122.0403520">
    <ele>142.8</ele>
    <time>2021-05-11T18:57:56Z</time>
   </trkpt>
   <trkpt lat="47.3764110" lon="-122.0403400">
    <ele>142.8</ele>
    <time>2021-05-11T18:57:57Z</time>
   </trkpt>
   <trkpt lat="47.3764180" lon="-122.0403300">
    <ele>142.8</ele>
    <time>2021-05-11T18:57:58Z</time>
   </trkpt>
   <trkpt lat="47.3764240" lon="-122.0403190">
    <ele>142.8</ele>
    <time>2021-05-11T18:57:59Z</time>
   </trkpt>
   <trkpt lat="47.3764410" lon="-122.0403030">
    <ele>142.8</ele>
    <time>2021-05-11T18:58:00Z</time>
   </trkpt>
   <trkpt lat="47.3764480" lon="-122.0402970">
    <ele>142.8</ele>
    <time>2021-05-11T18:58:01Z</time>
   </trkpt>
   <trkpt lat="47.3764560" lon="-122.0402910">
    <ele>142.8</ele>
    <time>2021-05-11T18:58:02Z</time>
   </trkpt>
   <trkpt lat="47.3764660" lon="-122.0402750">
    <ele>142.8</ele>
    <time>2021-05-11T18:58:03Z</time>
   </trkpt>
   <trkpt lat="47.3764700" lon="-122.0402730">
    <ele>142.8</ele>
    <time>2021-05-11T18:58:04Z</time>
   </trkpt>
   <trkpt lat="47.3764830" lon="-122.0402600">
    <ele>142.8</ele>
    <time>2021-05-11T18:58:05Z</time>
   </trkpt>
   <trkpt lat="47.3764970" lon="-122.0402440">
    <ele>142.8</ele>
    <time>2021-05-11T18:58:06Z</time>
   </trkpt>
   <trkpt lat="47.3765080" lon="-122.0402390">
    <ele>142.8</ele>
    <time>2021-05-11T18:58:07Z</time>
   </trkpt>
   <trkpt lat="47.3765190" lon="-122.0402350">
    <ele>142.8</ele>
    <time>2021-05-11T18:58:08Z</time>
   </trkpt>
   <trkpt lat="47.3765280" lon="-122.0402290">
    <ele>142.8</ele>
    <time>2021-05-11T18:58:09Z</time>
   </trkpt>
   <trkpt lat="47.3765370" lon="-122.0402150">
    <ele>142.8</ele>
    <time>2021-05-11T18:58:10Z</time>
   </trkpt>
   <trkpt lat="47.3765440" lon="-122.0402010">
    <ele>142.9</ele>
    <time>2021-05-11T18:58:11Z</time>
   </trkpt>
   <trkpt lat="47.3765600" lon="-122.0401930">
    <ele>142.9</ele>
    <time>2021-05-11T18:58:12Z</time>
   </trkpt>
   <trkpt lat="47.3765730" lon="-122.0401730">
    <ele>142.9</ele>
    <time>2021-05-11T18:58:13Z</time>
   </trkpt>
   <trkpt lat="47.3765960" lon="-122.0401600">
    <ele>142.9</ele>
    <time>2021-05-11T18:58:14Z</time>
   </trkpt>
   <trkpt lat="47.3766030" lon="-122.0401570">
    <ele>142.9</ele>
    <time>2021-05-11T18:58:15Z</time>
   </trkpt>
   <trkpt lat="47.3766110" lon="-122.0401530">
    <ele>142.9</ele>
    <time>2021-05-11T18:58:16Z</time>
   </trkpt>
   <trkpt lat="47.3766190" lon="-122.0401400">
    <ele>142.9</ele>
    <time>2021-05-11T18:58:17Z</time>
   </trkpt>
   <trkpt lat="47.3766260" lon="-122.0401280">
    <ele>143.0</ele>
    <time>2021-05-11T18:58:18Z</time>
   </trkpt>
   <trkpt lat="47.3766420" lon="-122.0401280">
    <ele>143.0</ele>
    <time>2021-05-11T18:58:19Z</time>
   </trkpt>
   <trkpt lat="47.3766540" lon="-122.0401250">
    <ele>143.0</ele>
    <time>2021-05-11T18:58:20Z</time>
   </trkpt>
   <trkpt lat="47.3766690" lon="-122.0401210">
    <ele>143.0</ele>
    <time>2021-05-11T18:58:21Z</time>
   </trkpt>
   <trkpt lat="47.3766800" lon="-122.0401150">
    <ele>143.0</ele>
    <time>2021-05-11T18:58:22Z</time>
   </trkpt>
   <trkpt lat="47.3766820" lon="-122.0401130">
    <ele>143.0</ele>
    <time>2021-05-11T18:58:23Z</time>
   </trkpt>
   <trkpt lat="47.3766930" lon="-122.0401040">
    <ele>143.0</ele>
    <time>2021-05-11T18:58:24Z</time>
   </trkpt>
   <trkpt lat="47.3767050" lon="-122.0400980">
    <ele>143.0</ele>
    <time>2021-05-11T18:58:25Z</time>
   </trkpt>
   <trkpt lat="47.3767190" lon="-122.0400910">
    <ele>143.1</ele>
    <time>2021-05-11T18:58:26Z</time>
   </trkpt>
   <trkpt lat="47.3767340" lon="-122.0400870">
    <ele>143.2</ele>
    <time>2021-05-11T18:58:27Z</time>
   </trkpt>
   <trkpt lat="47.3767480" lon="-122.0400740">
    <ele>143.3</ele>
    <time>2021-05-11T18:58:28Z</time>
   </trkpt>
   <trkpt lat="47.3767560" lon="-122.0400640">
    <ele>143.4</ele>
    <time>2021-05-11T18:58:29Z</time>
   </trkpt>
   <trkpt lat="47.3767610" lon="-122.0400580">
    <ele>143.5</ele>
    <time>2021-05-11T18:58:30Z</time>
   </trkpt>
   <trkpt lat="47.3767650" lon="-122.0400420">
    <ele>143.5</ele>
    <time>2021-05-11T18:58:31Z</time>
   </trkpt>
   <trkpt lat="47.3767750" lon="-122.0400240">
    <ele>143.7</ele>
    <time>2021-05-11T18:58:32Z</time>
   </trkpt>
   <trkpt lat="47.3767860" lon="-122.0400050">
    <ele>143.8</ele>
    <time>2021-05-11T18:58:33Z</time>
   </trkpt>
   <trkpt lat="47.3768000" lon="-122.0399910">
    <ele>143.9</ele>
    <time>2021-05-11T18:58:34Z</time>
   </trkpt>
   <trkpt lat="47.3768090" lon="-122.0399780">
    <ele>144.0</ele>
    <time>2021-05-11T18:58:35Z</time>
   </trkpt>
   <trkpt lat="47.3768260" lon="-122.0399660">
    <ele>144.2</ele>
    <time>2021-05-11T18:58:36Z</time>
   </trkpt>
   <trkpt lat="47.3768350" lon="-122.0399580">
    <ele>144.3</ele>
    <time>2021-05-11T18:58:37Z</time>
   </trkpt>
   <trkpt lat="47.3768450" lon="-122.0399510">
    <ele>144.4</ele>
    <time>2021-05-11T18:58:38Z</time>
   </trkpt>
   <trkpt lat="47.3768480" lon="-122.0399440">
    <ele>144.4</ele>
    <time>2021-05-11T18:58:39Z</time>
   </trkpt>
   <trkpt lat="47.3768610" lon="-122.0399430">
    <ele>144.5</ele>
    <time>2021-05-11T18:58:40Z</time>
   </trkpt>
   <trkpt lat="47.3768770" lon="-122.0399340">
    <ele>144.7</ele>
    <time>2021-05-11T18:58:41Z</time>
   </trkpt>
   <trkpt lat="47.3768880" lon="-122.0399260">
    <ele>144.8</ele>
    <time>2021-05-11T18:58:42Z</time>
   </trkpt>
   <trkpt lat="47.3768960" lon="-122.0399220">
    <ele>144.8</ele>
    <time>2021-05-11T18:58:43Z</time>
   </trkpt>
   <trkpt lat="47.3769070" lon="-122.0399110">
    <ele>145.3</ele>
    <time>2021-05-11T18:58:44Z</time>
   </trkpt>
   <trkpt lat="47.3769220" lon="-122.0398920">
    <ele>145.4</ele>
    <time>2021-05-11T18:58:45Z</time>
   </trkpt>
   <trkpt lat="47.3769310" lon="-122.0398860">
    <ele>145.4</ele>
    <time>2021-05-11T18:58:46Z</time>
   </trkpt>
   <trkpt lat="47.3769410" lon="-122.0398800">
    <ele>145.4</ele>
    <time>2021-05-11T18:58:47Z</time>
   </trkpt>
   <trkpt lat="47.3769430" lon="-122.0398690">
    <ele>145.4</ele>
    <time>2021-05-11T18:58:49Z</time>
   </trkpt>
   <trkpt lat="47.3769540" lon="-122.0398670">
    <ele>145.5</ele>
    <time>2021-05-11T18:58:50Z</time>
   </trkpt>
   <trkpt lat="47.3769710" lon="-122.0398590">
    <ele>145.5</ele>
    <time>2021-05-11T18:58:51Z</time>
   </trkpt>
   <trkpt lat="47.3769900" lon="-122.0398430">
    <ele>145.6</ele>
    <time>2021-05-11T18:58:52Z</time>
   </trkpt>
   <trkpt lat="47.3769970" lon="-122.0398400">
    <ele>145.6</ele>
    <time>2021-05-11T18:58:53Z</time>
   </trkpt>
   <trkpt lat="47.3770040" lon="-122.0398360">
    <ele>145.6</ele>
    <time>2021-05-11T18:58:54Z</time>
   </trkpt>
   <trkpt lat="47.3770110" lon="-122.0398320">
    <ele>145.6</ele>
    <time>2021-05-11T18:58:55Z</time>
   </trkpt>
   <trkpt lat="47.3770240" lon="-122.0398320">
    <ele>145.7</ele>
    <time>2021-05-11T18:58:56Z</time>
   </trkpt>
   <trkpt lat="47.3770350" lon="-122.0398210">
    <ele>145.7</ele>
    <time>2021-05-11T18:58:57Z</time>
   </trkpt>
   <trkpt lat="47.3770450" lon="-122.0398060">
    <ele>145.7</ele>
    <time>2021-05-11T18:58:58Z</time>
   </trkpt>
   <trkpt lat="47.3770520" lon="-122.0397980">
    <ele>145.7</ele>
    <time>2021-05-11T18:58:59Z</time>
   </trkpt>
   <trkpt lat="47.3770590" lon="-122.0397920">
    <ele>145.8</ele>
    <time>2021-05-11T18:59:00Z</time>
   </trkpt>
   <trkpt lat="47.3770650" lon="-122.0397820">
    <ele>145.8</ele>
    <time>2021-05-11T18:59:01Z</time>
   </trkpt>
   <trkpt lat="47.3770780" lon="-122.0397680">
    <ele>145.8</ele>
    <time>2021-05-11T18:59:02Z</time>
   </trkpt>
   <trkpt lat="47.3770810" lon="-122.0397660">
    <ele>145.8</ele>
    <time>2021-05-11T18:59:03Z</time>
   </trkpt>
   <trkpt lat="47.3770860" lon="-122.0397650">
    <ele>145.8</ele>
    <time>2021-05-11T18:59:04Z</time>
   </trkpt>
   <trkpt lat="47.3770910" lon="-122.0397700">
    <ele>145.9</ele>
    <time>2021-05-11T18:59:05Z</time>
   </trkpt>
   <trkpt lat="47.3770940" lon="-122.0397670">
    <ele>145.9</ele>
    <time>2021-05-11T18:59:06Z</time>
   </trkpt>
   <trkpt lat="47.3771120" lon="-122.0397680">
    <ele>145.9</ele>
    <time>2021-05-11T18:59:07Z</time>
   </trkpt>
   <trkpt lat="47.3771160" lon="-122.0397640">
    <ele>145.9</ele>
    <time>2021-05-11T18:59:08Z</time>
   </trkpt>
   <trkpt lat="47.3771200" lon="-122.0397610">
    <ele>145.9</ele>
    <time>2021-05-11T18:59:09Z</time>
   </trkpt>
   <trkpt lat="47.3771210" lon="-122.0397540">
    <ele>145.9</ele>
    <time>2021-05-11T18:59:10Z</time>
   </trkpt>
   <trkpt lat="47.3771320" lon="-122.0397400">
    <ele>146.0</ele>
    <time>2021-05-11T18:59:11Z</time>
   </trkpt>
   <trkpt lat="47.3771420" lon="-122.0397380">
    <ele>146.0</ele>
    <time>2021-05-11T18:59:12Z</time>
   </trkpt>
   <trkpt lat="47.3771630" lon="-122.0397310">
    <ele>146.1</ele>
    <time>2021-05-11T18:59:13Z</time>
   </trkpt>
   <trkpt lat="47.3771750" lon="-122.0397430">
    <ele>146.1</ele>
    <time>2021-05-11T18:59:14Z</time>
   </trkpt>
   <trkpt lat="47.3771910" lon="-122.0397370">
    <ele>146.1</ele>
    <time>2021-05-11T18:59:15Z</time>
   </trkpt>
   <trkpt lat="47.3772070" lon="-122.0397300">
    <ele>146.2</ele>
    <time>2021-05-11T18:59:16Z</time>
   </trkpt>
   <trkpt lat="47.3772140" lon="-122.0397270">
    <ele>146.2</ele>
    <time>2021-05-11T18:59:17Z</time>
   </trkpt>
   <trkpt lat="47.3772200" lon="-122.0397240">
    <ele>146.2</ele>
    <time>2021-05-11T18:59:18Z</time>
   </trkpt>
   <trkpt lat="47.3772270" lon="-122.0397210">
    <ele>146.2</ele>
    <time>2021-05-11T18:59:19Z</time>
   </trkpt>
   <trkpt lat="47.3772350" lon="-122.0397140">
    <ele>146.3</ele>
    <time>2021-05-11T18:59:20Z</time>
   </trkpt>
   <trkpt lat="47.3772430" lon="-122.0397120">
    <ele>146.3</ele>
    <time>2021-05-11T18:59:21Z</time>
   </trkpt>
   <trkpt lat="47.3772540" lon="-122.0397030">
    <ele>146.3</ele>
    <time>2021-05-11T18:59:22Z</time>
   </trkpt>
   <trkpt lat="47.3772700" lon="-122.0396830">
    <ele>146.4</ele>
    <time>2021-05-11T18:59:23Z</time>
   </trkpt>
   <trkpt lat="47.3772760" lon="-122.0396720">
    <ele>146.4</ele>
    <time>2021-05-11T18:59:24Z</time>
   </trkpt>
   <trkpt lat="47.3772830" lon="-122.0396600">
    <ele>146.4</ele>
    <time>2021-05-11T18:59:25Z</time>
   </trkpt>
   <trkpt lat="47.3772890" lon="-122.0396490">
    <ele>146.4</ele>
    <time>2021-05-11T18:59:26Z</time>
   </trkpt>
   <trkpt lat="47.3772960" lon="-122.0396380">
    <ele>146.4</ele>
    <time>2021-05-11T18:59:27Z</time>
   </trkpt>
   <trkpt lat="47.3773020" lon="-122.0396270">
    <ele>146.5</ele>
    <time>2021-05-11T18:59:28Z</time>
   </trkpt>
   <trkpt lat="47.3773090" lon="-122.0396150">
    <ele>146.5</ele>
    <time>2021-05-11T18:59:29Z</time>
   </trkpt>
   <trkpt lat="47.3773150" lon="-122.0396040">
    <ele>146.5</ele>
    <time>2021-05-11T18:59:30Z</time>
   </trkpt>
   <trkpt lat="47.3773180" lon="-122.0395890">
    <ele>146.5</ele>
    <time>2021-05-11T18:59:31Z</time>
   </trkpt>
   <trkpt lat="47.3773180" lon="-122.0395750">
    <ele>146.6</ele>
    <time>2021-05-11T18:59:32Z</time>
   </trkpt>
   <trkpt lat="47.3773220" lon="-122.0395680">
    <ele>146.6</ele>
    <time>2021-05-11T18:59:33Z</time>
   </trkpt>
   <trkpt lat="47.3773360" lon="-122.0395640">
    <ele>146.6</ele>
    <time>2021-05-11T18:59:34Z</time>
   </trkpt>
   <trkpt lat="47.3773540" lon="-122.0395520">
    <ele>146.7</ele>
    <time>2021-05-11T18:59:35Z</time>
   </trkpt>
   <trkpt lat="47.3773630" lon="-122.0395470">
    <ele>146.7</ele>
    <time>2021-05-11T18:59:36Z</time>
   </trkpt>
   <trkpt lat="47.3773720" lon="-122.0395420">
    <ele>146.7</ele>
    <time>2021-05-11T18:59:37Z</time>
   </trkpt>
   <trkpt lat="47.3773810" lon="-122.0395370">
    <ele>146.7</ele>
    <time>2021-05-11T18:59:38Z</time>
   </trkpt>
   <trkpt lat="47.3773870" lon="-122.0395360">
    <ele>146.7</ele>
    <time>2021-05-11T18:59:39Z</time>
   </trkpt>
   <trkpt lat="47.3773960" lon="-122.0395370">
    <ele>146.8</ele>
    <time>2021-05-11T18:59:40Z</time>
   </trkpt>
   <trkpt lat="47.3773990" lon="-122.0395340">
    <ele>146.8</ele>
    <time>2021-05-11T18:59:41Z</time>
   </trkpt>
   <trkpt lat="47.3774080" lon="-122.0395310">
    <ele>146.8</ele>
    <time>2021-05-11T18:59:42Z</time>
   </trkpt>
   <trkpt lat="47.3774110" lon="-122.0395260">
    <ele>146.8</ele>
    <time>2021-05-11T18:59:43Z</time>
   </trkpt>
   <trkpt lat="47.3774150" lon="-122.0395290">
    <ele>146.8</ele>
    <time>2021-05-11T18:59:44Z</time>
   </trkpt>
   <trkpt lat="47.3774310" lon="-122.0395220">
    <ele>146.9</ele>
    <time>2021-05-11T18:59:45Z</time>
   </trkpt>
   <trkpt lat="47.3774420" lon="-122.0395210">
    <ele>146.9</ele>
    <time>2021-05-11T18:59:46Z</time>
   </trkpt>
   <trkpt lat="47.3774530" lon="-122.0395200">
    <ele>146.9</ele>
    <time>2021-05-11T18:59:47Z</time>
   </trkpt>
   <trkpt lat="47.3774590" lon="-122.0395180">
    <ele>146.9</ele>
    <time>2021-05-11T18:59:48Z</time>
   </trkpt>
   <trkpt lat="47.3774620" lon="-122.0395200">
    <ele>146.9</ele>
    <time>2021-05-11T18:59:49Z</time>
   </trkpt>
   <trkpt lat="47.3774750" lon="-122.0395200">
    <ele>147.0</ele>
    <time>2021-05-11T18:59:50Z</time>
   </trkpt>
   <trkpt lat="47.3774860" lon="-122.0395220">
    <ele>147.0</ele>
    <time>2021-05-11T18:59:51Z</time>
   </trkpt>
   <trkpt lat="47.3774920" lon="-122.0395260">
    <ele>147.0</ele>
    <time>2021-05-11T18:59:52Z</time>
   </trkpt>
   <trkpt lat="47.3775050" lon="-122.0395250">
    <ele>147.1</ele>
    <time>2021-05-11T18:59:53Z</time>
   </trkpt>
   <trkpt lat="47.3775150" lon="-122.0395170">
    <ele>147.1</ele>
    <time>2021-05-11T18:59:54Z</time>
   </trkpt>
   <trkpt lat="47.3775260" lon="-122.0395270">
    <ele>147.1</ele>
    <time>2021-05-11T18:59:55Z</time>
   </trkpt>
   <trkpt lat="47.3775410" lon="-122.0395220">
    <ele>147.2</ele>
    <time>2021-05-11T18:59:56Z</time>
   </trkpt>
   <trkpt lat="47.3775430" lon="-122.0395250">
    <ele>147.2</ele>
    <time>2021-05-11T18:59:57Z</time>
   </trkpt>
   <trkpt lat="47.3775560" lon="-122.0395180">
    <ele>147.2</ele>
    <time>2021-05-11T18:59:58Z</time>
   </trkpt>
   <trkpt lat="47.3775630" lon="-122.0395130">
    <ele>147.2</ele>
    <time>2021-05-11T18:59:59Z</time>
   </trkpt>
   <trkpt lat="47.3775700" lon="-122.0395090">
    <ele>147.2</ele>
    <time>2021-05-11T19:00:00Z</time>
   </trkpt>
   <trkpt lat="47.3775770" lon="-122.0395040">
    <ele>147.3</ele>
    <time>2021-05-11T19:00:01Z</time>
   </trkpt>
   <trkpt lat="47.3775840" lon="-122.0395000">
    <ele>147.3</ele>
    <time>2021-05-11T19:00:02Z</time>
   </trkpt>
   <trkpt lat="47.3775890" lon="-122.0394960">
    <ele>147.3</ele>
    <time>2021-05-11T19:00:03Z</time>
   </trkpt>
   <trkpt lat="47.3775850" lon="-122.0394920">
    <ele>147.3</ele>
    <time>2021-05-11T19:00:04Z</time>
   </trkpt>
   <trkpt lat="47.3775890" lon="-122.0394820">
    <ele>147.3</ele>
    <time>2021-05-11T19:00:05Z</time>
   </trkpt>
   <trkpt lat="47.3776000" lon="-122.0394700">
    <ele>147.4</ele>
    <time>2021-05-11T19:00:06Z</time>
   </trkpt>
   <trkpt lat="47.3776000" lon="-122.0394690">
    <ele>147.4</ele>
    <time>2021-05-11T19:00:07Z</time>
   </trkpt>
   <trkpt lat="47.3776060" lon="-122.0394700">
    <ele>147.4</ele>
    <time>2021-05-11T19:00:08Z</time>
   </trkpt>
   <trkpt lat="47.3776200" lon="-122.0394590">
    <ele>147.4</ele>
    <time>2021-05-11T19:00:09Z</time>
   </trkpt>
   <trkpt lat="47.3776260" lon="-122.0394570">
    <ele>147.4</ele>
    <time>2021-05-11T19:00:10Z</time>
   </trkpt>
   <trkpt lat="47.3776320" lon="-122.0394540">
    <ele>147.5</ele>
    <time>2021-05-11T19:00:11Z</time>
   </trkpt>
   <trkpt lat="47.3776380" lon="-122.0394510">
    <ele>147.5</ele>
    <time>2021-05-11T19:00:12Z</time>
   </trkpt>
   <trkpt lat="47.3776440" lon="-122.0394480">
    <ele>147.5</ele>
    <time>2021-05-11T19:00:13Z</time>
   </trkpt>
   <trkpt lat="47.3776500" lon="-122.0394460">
    <ele>147.5</ele>
    <time>2021-05-11T19:00:14Z</time>
   </trkpt>
   <trkpt lat="47.3776560" lon="-122.0394430">
    <ele>147.5</ele>
    <time>2021-05-11T19:00:15Z</time>
   </trkpt>
   <trkpt lat="47.3776680" lon="-122.0394360">
    <ele>147.5</ele>
    <time>2021-05-11T19:00:16Z</time>
   </trkpt>
   <trkpt lat="47.3776750" lon="-122.0394440">
    <ele>147.5</ele>
    <time>2021-05-11T19:00:17Z</time>
   </trkpt>
   <trkpt lat="47.3776840" lon="-122.0394460">
    <ele>147.6</ele>
    <time>2021-05-11T19:00:18Z</time>
   </trkpt>
   <trkpt lat="47.3777010" lon="-122.0394570">
    <ele>147.6</ele>
    <time>2021-05-11T19:00:19Z</time>
   </trkpt>
   <trkpt lat="47.3777100" lon="-122.0394530">
    <ele>147.6</ele>
    <time>2021-05-11T19:00:20Z</time>
   </trkpt>
   <trkpt lat="47.3777200" lon="-122.0394490">
    <ele>147.6</ele>
    <time>2021-05-11T19:00:21Z</time>
   </trkpt>
   <trkpt lat="47.3777300" lon="-122.0394450">
    <ele>147.6</ele>
    <time>2021-05-11T19:00:22Z</time>
   </trkpt>
   <trkpt lat="47.3777390" lon="-122.0394410">
    <ele>147.6</ele>
    <time>2021-05-11T19:00:23Z</time>
   </trkpt>
   <trkpt lat="47.3777490" lon="-122.0394370">
    <ele>147.6</ele>
    <time>2021-05-11T19:00:24Z</time>
   </trkpt>
   <trkpt lat="47.3777580" lon="-122.0394330">
    <ele>147.6</ele>
    <time>2021-05-11T19:00:25Z</time>
   </trkpt>
   <trkpt lat="47.3777680" lon="-122.0394290">
    <ele>147.7</ele>
    <time>2021-05-11T19:00:26Z</time>
   </trkpt>
   <trkpt lat="47.3777780" lon="-122.0394220">
    <ele>147.7</ele>
    <time>2021-05-11T19:00:27Z</time>
   </trkpt>
   <trkpt lat="47.3777890" lon="-122.0394160">
    <ele>147.7</ele>
    <time>2021-05-11T19:00:28Z</time>
   </trkpt>
   <trkpt lat="47.3778020" lon="-122.0394160">
    <ele>147.7</ele>
    <time>2021-05-11T19:00:29Z</time>
   </trkpt>
   <trkpt lat="47.3778120" lon="-122.0394080">
    <ele>147.7</ele>
    <time>2021-05-11T19:00:30Z</time>
   </trkpt>
   <trkpt lat="47.3778220" lon="-122.0393980">
    <ele>147.7</ele>
    <time>2021-05-11T19:00:31Z</time>
   </trkpt>
   <trkpt lat="47.3778340" lon="-122.0393910">
    <ele>147.7</ele>
    <time>2021-05-11T19:00:32Z</time>
   </trkpt>
   <trkpt lat="47.3778440" lon="-122.0393790">
    <ele>147.7</ele>
    <time>2021-05-11T19:00:33Z</time>
   </trkpt>
   <trkpt lat="47.3778620" lon="-122.0393760">
    <ele>147.7</ele>
    <time>2021-05-11T19:00:34Z</time>
   </trkpt>
   <trkpt lat="47.3778890" lon="-122.0393680">
    <ele>147.7</ele>
    <time>2021-05-11T19:00:35Z</time>
   </trkpt>
   <trkpt lat="47.3779000" lon="-122.0393650">
    <ele>147.7</ele>
    <time>2021-05-11T19:00:36Z</time>
   </trkpt>
   <trkpt lat="47.3779170" lon="-122.0393640">
    <ele>147.7</ele>
    <time>2021-05-11T19:00:37Z</time>
   </trkpt>
   <trkpt lat="47.3779220" lon="-122.0393600">
    <ele>147.7</ele>
    <time>2021-05-11T19:00:38Z</time>
   </trkpt>
   <trkpt lat="47.3779330" lon="-122.0393630">
    <ele>147.7</ele>
    <time>2021-05-11T19:00:39Z</time>
   </trkpt>
   <trkpt lat="47.3779410" lon="-122.0393640">
    <ele>147.7</ele>
    <time>2021-05-11T19:00:40Z</time>
   </trkpt>
   <trkpt lat="47.3779460" lon="-122.0393580">
    <ele>147.7</ele>
    <time>2021-05-11T19:00:41Z</time>
   </trkpt>
   <trkpt lat="47.3779520" lon="-122.0393430">
    <ele>147.7</ele>
    <time>2021-05-11T19:00:42Z</time>
   </trkpt>
   <trkpt lat="47.3779640" lon="-122.0393370">
    <ele>147.7</ele>
    <time>2021-05-11T19:00:43Z</time>
   </trkpt>
   <trkpt lat="47.3779810" lon="-122.0393320">
    <ele>147.8</ele>
    <time>2021-05-11T19:00:44Z</time>
   </trkpt>
   <trkpt lat="47.3779910" lon="-122.0393300">
    <ele>147.8</ele>
    <time>2021-05-11T19:00:45Z</time>
   </trkpt>
   <trkpt lat="47.3780020" lon="-122.0393270">
    <ele>147.8</ele>
    <time>2021-05-11T19:00:46Z</time>
   </trkpt>
   <trkpt lat="47.3780050" lon="-122.0393340">
    <ele>147.8</ele>
    <time>2021-05-11T19:00:47Z</time>
   </trkpt>
   <trkpt lat="47.3780170" lon="-122.0393390">
    <ele>147.8</ele>
    <time>2021-05-11T19:00:48Z</time>
   </trkpt>
   <trkpt lat="47.3780220" lon="-122.0393440">
    <ele>147.8</ele>
    <time>2021-05-11T19:00:49Z</time>
   </trkpt>
   <trkpt lat="47.3780300" lon="-122.0393470">
    <ele>147.8</ele>
    <time>2021-05-11T19:00:50Z</time>
   </trkpt>
   <trkpt lat="47.3780420" lon="-122.0393480">
    <ele>147.8</ele>
    <time>2021-05-11T19:00:51Z</time>
   </trkpt>
   <trkpt lat="47.3780490" lon="-122.0393470">
    <ele>147.8</ele>
    <time>2021-05-11T19:00:52Z</time>
   </trkpt>
   <trkpt lat="47.3780560" lon="-122.0393450">
    <ele>147.8</ele>
    <time>2021-05-11T19:00:53Z</time>
   </trkpt>
   <trkpt lat="47.3780740" lon="-122.0393420">
    <ele>147.8</ele>
    <time>2021-05-11T19:00:55Z</time>
   </trkpt>
   <trkpt lat="47.3780870" lon="-122.0393420">
    <ele>147.8</ele>
    <time>2021-05-11T19:00:56Z</time>
   </trkpt>
   <trkpt lat="47.3781030" lon="-122.0393390">
    <ele>147.8</ele>
    <time>2021-05-11T19:00:57Z</time>
   </trkpt>
   <trkpt lat="47.3781110" lon="-122.0393360">
    <ele>147.8</ele>
    <time>2021-05-11T19:00:58Z</time>
   </trkpt>
   <trkpt lat="47.3781180" lon="-122.0393320">
    <ele>147.7</ele>
    <time>2021-05-11T19:00:59Z</time>
   </trkpt>
   <trkpt lat="47.3781240" lon="-122.0393270">
    <ele>147.7</ele>
    <time>2021-05-11T19:01:00Z</time>
   </trkpt>
   <trkpt lat="47.3781290" lon="-122.0393220">
    <ele>147.7</ele>
    <time>2021-05-11T19:01:01Z</time>
   </trkpt>
   <trkpt lat="47.3781450" lon="-122.0393100">
    <ele>147.7</ele>
    <time>2021-05-11T19:01:02Z</time>
   </trkpt>
   <trkpt lat="47.3781540" lon="-122.0393030">
    <ele>147.7</ele>
    <time>2021-05-11T19:01:03Z</time>
   </trkpt>
   <trkpt lat="47.3781640" lon="-122.0392960">
    <ele>147.7</ele>
    <time>2021-05-11T19:01:04Z</time>
   </trkpt>
   <trkpt lat="47.3781690" lon="-122.0392970">
    <ele>147.7</ele>
    <time>2021-05-11T19:01:05Z</time>
   </trkpt>
   <trkpt lat="47.3781780" lon="-122.0392930">
    <ele>147.7</ele>
    <time>2021-05-11T19:01:06Z</time>
   </trkpt>
   <trkpt lat="47.3781910" lon="-122.0392910">
    <ele>147.7</ele>
    <time>2021-05-11T19:01:07Z</time>
   </trkpt>
   <trkpt lat="47.3782130" lon="-122.0392910">
    <ele>147.7</ele>
    <time>2021-05-11T19:01:08Z</time>
   </trkpt>
   <trkpt lat="47.3782220" lon="-122.0392880">
    <ele>147.7</ele>
    <time>2021-05-11T19:01:09Z</time>
   </trkpt>
   <trkpt lat="47.3782300" lon="-122.0392860">
    <ele>147.7</ele>
    <time>2021-05-11T19:01:10Z</time>
   </trkpt>
   <trkpt lat="47.3782410" lon="-122.0392880">
    <ele>147.7</ele>
    <time>2021-05-11T19:01:11Z</time>
   </trkpt>
   <trkpt lat="47.3782520" lon="-122.0392880">
    <ele>147.7</ele>
    <time>2021-05-11T19:01:12Z</time>
   </trkpt>
   <trkpt lat="47.3782640" lon="-122.0392810">
    <ele>147.7</ele>
    <time>2021-05-11T19:01:13Z</time>
   </trkpt>
   <trkpt lat="47.3782720" lon="-122.0392830">
    <ele>147.6</ele>
    <time>2021-05-11T19:01:14Z</time>
   </trkpt>
   <trkpt lat="47.3782820" lon="-122.0392820">
    <ele>147.6</ele>
    <time>2021-05-11T19:01:15Z</time>
   </trkpt>
   <trkpt lat="47.3782910" lon="-122.0392870">
    <ele>147.6</ele>
    <time>2021-05-11T19:01:16Z</time>
   </trkpt>
   <trkpt lat="47.3782960" lon="-122.0393050">
    <ele>147.6</ele>
    <time>2021-05-11T19:01:17Z</time>
   </trkpt>
   <trkpt lat="47.3783050" lon="-122.0393150">
    <ele>147.6</ele>
    <time>2021-05-11T19:01:18Z</time>
   </trkpt>
   <trkpt lat="47.3783130" lon="-122.0393250">
    <ele>147.6</ele>
    <time>2021-05-11T19:01:19Z</time>
   </trkpt>
   <trkpt lat="47.3783230" lon="-122.0393250">
    <ele>147.6</ele>
    <time>2021-05-11T19:01:20Z</time>
   </trkpt>
   <trkpt lat="47.3783300" lon="-122.0393230">
    <ele>147.6</ele>
    <time>2021-05-11T19:01:21Z</time>
   </trkpt>
   <trkpt lat="47.3783440" lon="-122.0393190">
    <ele>147.6</ele>
    <time>2021-05-11T19:01:22Z</time>
   </trkpt>
   <trkpt lat="47.3783490" lon="-122.0393010">
    <ele>147.5</ele>
    <time>2021-05-11T19:01:23Z</time>
   </trkpt>
   <trkpt lat="47.3783550" lon="-122.0392950">
    <ele>147.2</ele>
    <time>2021-05-11T19:01:24Z</time>
   </trkpt>
   <trkpt lat="47.3783720" lon="-122.0392930">
    <ele>147.2</ele>
    <time>2021-05-11T19:01:25Z</time>
   </trkpt>
   <trkpt lat="47.3783830" lon="-122.0392980">
    <ele>147.1</ele>
    <time>2021-05-11T19:01:26Z</time>
   </trkpt>
   <trkpt lat="47.3783930" lon="-122.0393000">
    <ele>147.1</ele>
    <time>2021-05-11T19:01:27Z</time>
   </trkpt>
   <trkpt lat="47.3784090" lon="-122.0393060">
    <ele>147.1</ele>
    <time>2021-05-11T19:01:28Z</time>
   </trkpt>
   <trkpt lat="47.3784120" lon="-122.0393180">
    <ele>147.0</ele>
    <time>2021-05-11T19:01:29Z</time>
   </trkpt>
   <trkpt lat="47.3784270" lon="-122.0393340">
    <ele>147.0</ele>
    <time>2021-05-11T19:01:30Z</time>
   </trkpt>
   <trkpt lat="47.3784380" lon="-122.0393360">
    <ele>146.9</ele>
    <time>2021-05-11T19:01:31Z</time>
   </trkpt>
   <trkpt lat="47.3784480" lon="-122.0393380">
    <ele>146.9</ele>
    <time>2021-05-11T19:01:32Z</time>
   </trkpt>
   <trkpt lat="47.3784660" lon="-122.0393430">
    <ele>146.8</ele>
    <time>2021-05-11T19:01:33Z</time>
   </trkpt>
   <trkpt lat="47.3784760" lon="-122.0393480">
    <ele>146.8</ele>
    <time>2021-05-11T19:01:34Z</time>
   </trkpt>
   <trkpt lat="47.3784850" lon="-122.0393530">
    <ele>146.8</ele>
    <time>2021-05-11T19:01:35Z</time>
   </trkpt>
   <trkpt lat="47.3784980" lon="-122.0393520">
    <ele>146.7</ele>
    <time>2021-05-11T19:01:36Z</time>
   </trkpt>
   <trkpt lat="47.3785060" lon="-122.0393530">
    <ele>146.7</ele>
    <time>2021-05-11T19:01:37Z</time>
   </trkpt>
   <trkpt lat="47.3785190" lon="-122.0393500">
    <ele>146.6</ele>
    <time>2021-05-11T19:01:38Z</time>
   </trkpt>
   <trkpt lat="47.3785320" lon="-122.0393500">
    <ele>146.6</ele>
    <time>2021-05-11T19:01:39Z</time>
   </trkpt>
   <trkpt lat="47.3785470" lon="-122.0393560">
    <ele>146.5</ele>
    <time>2021-05-11T19:01:40Z</time>
   </trkpt>
   <trkpt lat="47.3785610" lon="-122.0393610">
    <ele>146.4</ele>
    <time>2021-05-11T19:01:41Z</time>
   </trkpt>
   <trkpt lat="47.3785750" lon="-122.0393630">
    <ele>146.3</ele>
    <time>2021-05-11T19:01:42Z</time>
   </trkpt>
   <trkpt lat="47.3785910" lon="-122.0393630">
    <ele>146.3</ele>
    <time>2021-05-11T19:01:43Z</time>
   </trkpt>
   <trkpt lat="47.3786030" lon="-122.0393640">
    <ele>146.2</ele>
    <time>2021-05-11T19:01:44Z</time>
   </trkpt>
   <trkpt lat="47.3786310" lon="-122.0393880">
    <ele>146.0</ele>
    <time>2021-05-11T19:01:45Z</time>
   </trkpt>
   <trkpt lat="47.3786380" lon="-122.0393980">
    <ele>146.0</ele>
    <time>2021-05-11T19:01:46Z</time>
   </trkpt>
   <trkpt lat="47.3786480" lon="-122.0394110">
    <ele>145.9</ele>
    <time>2021-05-11T19:01:47Z</time>
   </trkpt>
   <trkpt lat="47.3786590" lon="-122.0394260">
    <ele>145.8</ele>
    <time>2021-05-11T19:01:48Z</time>
   </trkpt>
   <trkpt lat="47.3786810" lon="-122.0394700">
    <ele>145.5</ele>
    <time>2021-05-11T19:01:49Z</time>
   </trkpt>
   <trkpt lat="47.3786880" lon="-122.0394840">
    <ele>145.4</ele>
    <time>2021-05-11T19:01:50Z</time>
   </trkpt>
   <trkpt lat="47.3787030" lon="-122.0395020">
    <ele>145.3</ele>
    <time>2021-05-11T19:01:51Z</time>
   </trkpt>
   <trkpt lat="47.3787110" lon="-122.0395180">
    <ele>145.2</ele>
    <time>2021-05-11T19:01:52Z</time>
   </trkpt>
   <trkpt lat="47.3787240" lon="-122.0395240">
    <ele>145.1</ele>
    <time>2021-05-11T19:01:53Z</time>
   </trkpt>
   <trkpt lat="47.3787290" lon="-122.0395320">
    <ele>145.1</ele>
    <time>2021-05-11T19:01:54Z</time>
   </trkpt>
   <trkpt lat="47.3787400" lon="-122.0395480">
    <ele>145.0</ele>
    <time>2021-05-11T19:01:55Z</time>
   </trkpt>
   <trkpt lat="47.3787490" lon="-122.0395590">
    <ele>144.9</ele>
    <time>2021-05-11T19:01:56Z</time>
   </trkpt>
   <trkpt lat="47.3787660" lon="-122.0395800">
    <ele>144.7</ele>
    <time>2021-05-11T19:01:57Z</time>
   </trkpt>
   <trkpt lat="47.3787730" lon="-122.0395890">
    <ele>144.7</ele>
    <time>2021-05-11T19:01:58Z</time>
   </trkpt>
   <trkpt lat="47.3787800" lon="-122.0395990">
    <ele>144.6</ele>
    <time>2021-05-11T19:01:59Z</time>
   </trkpt>
   <trkpt lat="47.3787880" lon="-122.0396110">
    <ele>144.5</ele>
    <time>2021-05-11T19:02:00Z</time>
   </trkpt>
   <trkpt lat="47.3788050" lon="-122.0396250">
    <ele>144.4</ele>
    <time>2021-05-11T19:02:01Z</time>
   </trkpt>
   <trkpt lat="47.3788160" lon="-122.0396350">
    <ele>144.3</ele>
    <time>2021-05-11T19:02:02Z</time>
   </trkpt>
   <trkpt lat="47.3788280" lon="-122.0396410">
    <ele>144.2</ele>
    <time>2021-05-11T19:02:03Z</time>
   </trkpt>
   <trkpt lat="47.3788340" lon="-122.0396430">
    <ele>144.2</ele>
    <time>2021-05-11T19:02:04Z</time>
   </trkpt>
   <trkpt lat="47.3788470" lon="-122.0396430">
    <ele>144.1</ele>
    <time>2021-05-11T19:02:05Z</time>
   </trkpt>
   <trkpt lat="47.3788540" lon="-122.0396380">
    <ele>144.1</ele>
    <time>2021-05-11T19:02:06Z</time>
   </trkpt>
   <trkpt lat="47.3788700" lon="-122.0396370">
    <ele>143.9</ele>
    <time>2021-05-11T19:02:07Z</time>
   </trkpt>
   <trkpt lat="47.3788740" lon="-122.0396320">
    <ele>143.7</ele>
    <time>2021-05-11T19:02:08Z</time>
   </trkpt>
   <trkpt lat="47.3788870" lon="-122.0396240">
    <ele>143.6</ele>
    <time>2021-05-11T19:02:09Z</time>
   </trkpt>
   <trkpt lat="47.3788990" lon="-122.0396110">
    <ele>143.6</ele>
    <time>2021-05-11T19:02:10Z</time>
   </trkpt>
   <trkpt lat="47.3789140" lon="-122.0395950">
    <ele>143.6</ele>
    <time>2021-05-11T19:02:11Z</time>
   </trkpt>
   <trkpt lat="47.3789250" lon="-122.0395810">
    <ele>143.6</ele>
    <time>2021-05-11T19:02:12Z</time>
   </trkpt>
   <trkpt lat="47.3789390" lon="-122.0395670">
    <ele>143.6</ele>
    <time>2021-05-11T19:02:13Z</time>
   </trkpt>
   <trkpt lat="47.3789420" lon="-122.0395600">
    <ele>143.6</ele>
    <time>2021-05-11T19:02:14Z</time>
   </trkpt>
   <trkpt lat="47.3789450" lon="-122.0395470">
    <ele>143.6</ele>
    <time>2021-05-11T19:02:15Z</time>
   </trkpt>
   <trkpt lat="47.3789520" lon="-122.0395340">
    <ele>143.6</ele>
    <time>2021-05-11T19:02:16Z</time>
   </trkpt>
   <trkpt lat="47.3789570" lon="-122.0395250">
    <ele>143.6</ele>
    <time>2021-05-11T19:02:17Z</time>
   </trkpt>
   <trkpt lat="47.3789630" lon="-122.0395160">
    <ele>143.6</ele>
    <time>2021-05-11T19:02:18Z</time>
   </trkpt>
   <trkpt lat="47.3789680" lon="-122.0395070">
    <ele>143.6</ele>
    <time>2021-05-11T19:02:19Z</time>
   </trkpt>
   <trkpt lat="47.3789750" lon="-122.0394660">
    <ele>143.6</ele>
    <time>2021-05-11T19:02:20Z</time>
   </trkpt>
   <trkpt lat="47.3789780" lon="-122.0394540">
    <ele>143.6</ele>
    <time>2021-05-11T19:02:21Z</time>
   </trkpt>
   <trkpt lat="47.3789770" lon="-122.0394400">
    <ele>143.6</ele>
    <time>2021-05-11T19:02:22Z</time>
   </trkpt>
   <trkpt lat="47.3789910" lon="-122.0394160">
    <ele>143.6</ele>
    <time>2021-05-11T19:02:23Z</time>
   </trkpt>
   <trkpt lat="47.3789980" lon="-122.0393640">
    <ele>143.6</ele>
    <time>2021-05-11T19:02:24Z</time>
   </trkpt>
   <trkpt lat="47.3790000" lon="-122.0393460">
    <ele>143.6</ele>
    <time>2021-05-11T19:02:25Z</time>
   </trkpt>
   <trkpt lat="47.3790190" lon="-122.0393250">
    <ele>143.6</ele>
    <time>2021-05-11T19:02:26Z</time>
   </trkpt>
   <trkpt lat="47.3790260" lon="-122.0393190">
    <ele>143.6</ele>
    <time>2021-05-11T19:02:27Z</time>
   </trkpt>
   <trkpt lat="47.3790330" lon="-122.0393140">
    <ele>143.6</ele>
    <time>2021-05-11T19:02:28Z</time>
   </trkpt>
   <trkpt lat="47.3790500" lon="-122.0392960">
    <ele>143.6</ele>
    <time>2021-05-11T19:02:29Z</time>
   </trkpt>
   <trkpt lat="47.3790580" lon="-122.0392850">
    <ele>143.6</ele>
    <time>2021-05-11T19:02:30Z</time>
   </trkpt>
   <trkpt lat="47.3790660" lon="-122.0392730">
    <ele>143.6</ele>
    <time>2021-05-11T19:02:31Z</time>
   </trkpt>
   <trkpt lat="47.3790740" lon="-122.0392650">
    <ele>143.6</ele>
    <time>2021-05-11T19:02:32Z</time>
   </trkpt>
   <trkpt lat="47.3790770" lon="-122.0392550">
    <ele>143.6</ele>
    <time>2021-05-11T19:02:33Z</time>
   </trkpt>
   <trkpt lat="47.3790750" lon="-122.0392530">
    <ele>143.6</ele>
    <time>2021-05-11T19:02:34Z</time>
   </trkpt>
   <trkpt lat="47.3790720" lon="-122.0392340">
    <ele>143.6</ele>
    <time>2021-05-11T19:02:35Z</time>
   </trkpt>
   <trkpt lat="47.3790710" lon="-122.0392340">
    <ele>143.6</ele>
    <time>2021-05-11T19:02:36Z</time>
   </trkpt>
   <trkpt lat="47.3790710" lon="-122.0392320">
    <ele>143.6</ele>
    <time>2021-05-11T19:02:37Z</time>
   </trkpt>
   <trkpt lat="47.3790730" lon="-122.0392170">
    <ele>143.6</ele>
    <time>2021-05-11T19:02:38Z</time>
   </trkpt>
   <trkpt lat="47.3790730" lon="-122.0391870">
    <ele>143.6</ele>
    <time>2021-05-11T19:02:39Z</time>
   </trkpt>
   <trkpt lat="47.3790750" lon="-122.0391760">
    <ele>143.6</ele>
    <time>2021-05-11T19:02:40Z</time>
   </trkpt>
   <trkpt lat="47.3790720" lon="-122.0391780">
    <ele>143.6</ele>
    <time>2021-05-11T19:02:41Z</time>
   </trkpt>
   <trkpt lat="47.3790720" lon="-122.0391750">
    <ele>143.6</ele>
    <time>2021-05-11T19:02:42Z</time>
   </trkpt>
   <trkpt lat="47.3790620" lon="-122.0391730">
    <ele>143.6</ele>
    <time>2021-05-11T19:02:43Z</time>
   </trkpt>
   <trkpt lat="47.3790630" lon="-122.0391660">
    <ele>143.6</ele>
    <time>2021-05-11T19:02:44Z</time>
   </trkpt>
   <trkpt lat="47.3790670" lon="-122.0391680">
    <ele>143.6</ele>
    <time>2021-05-11T19:02:45Z</time>
   </trkpt>
   <trkpt lat="47.3790710" lon="-122.0391690">
    <ele>143.6</ele>
    <time>2021-05-11T19:02:46Z</time>
   </trkpt>
   <trkpt lat="47.3790730" lon="-122.0391660">
    <ele>143.6</ele>
    <time>2021-05-11T19:02:47Z</time>
   </trkpt>
   <trkpt lat="47.3790700" lon="-122.0391640">
    <ele>143.6</ele>
    <time>2021-05-11T19:02:48Z</time>
   </trkpt>
   <trkpt lat="47.3790680" lon="-122.0391720">
    <ele>143.6</ele>
    <time>2021-05-11T19:02:49Z</time>
   </trkpt>
   <trkpt lat="47.3790720" lon="-122.0391750">
    <ele>143.6</ele>
    <time>2021-05-11T19:02:50Z</time>
   </trkpt>
   <trkpt lat="47.3790730" lon="-122.0391720">
    <ele>143.6</ele>
    <time>2021-05-11T19:02:51Z</time>
   </trkpt>
   <trkpt lat="47.3790630" lon="-122.0391740">
    <ele>143.6</ele>
    <time>2021-05-11T19:02:52Z</time>
   </trkpt>
   <trkpt lat="47.3790600" lon="-122.0391790">
    <ele>143.6</ele>
    <time>2021-05-11T19:02:53Z</time>
   </trkpt>
   <trkpt lat="47.3790600" lon="-122.0391790">
    <ele>143.6</ele>
    <time>2021-05-11T19:02:54Z</time>
   </trkpt>
   <trkpt lat="47.3790600" lon="-122.0391790">
    <ele>143.6</ele>
    <time>2021-05-11T19:02:55Z</time>
   </trkpt>
   <trkpt lat="47.3790600" lon="-122.0391790">
    <ele>143.6</ele>
    <time>2021-05-11T19:02:56Z</time>
   </trkpt>
   <trkpt lat="47.3790600" lon="-122.0391790">
    <ele>143.6</ele>
    <time>2021-05-11T19:02:57Z</time>
   </trkpt>
   <trkpt lat="47.3790600" lon="-122.0391790">
    <ele>143.6</ele>
    <time>2021-05-11T19:02:58Z</time>
   </trkpt>
   <trkpt lat="47.3790230" lon="-122.0392230">
    <ele>143.7</ele>
    <time>2021-05-11T19:02:59Z</time>
   </trkpt>
   <trkpt lat="47.3790230" lon="-122.0392210">
    <ele>143.7</ele>
    <time>2021-05-11T19:03:01Z</time>
   </trkpt>
   <trkpt lat="47.3790230" lon="-122.0392200">
    <ele>143.7</ele>
    <time>2021-05-11T19:03:02Z</time>
   </trkpt>
   <trkpt lat="47.3790240" lon="-122.0392230">
    <ele>143.7</ele>
    <time>2021-05-11T19:03:03Z</time>
   </trkpt>
   <trkpt lat="47.3790250" lon="-122.0392240">
    <ele>143.7</ele>
    <time>2021-05-11T19:03:04Z</time>
   </trkpt>
   <trkpt lat="47.3790240" lon="-122.0392250">
    <ele>143.7</ele>
    <time>2021-05-11T19:03:05Z</time>
   </trkpt>
   <trkpt lat="47.3790270" lon="-122.0392260">
    <ele>143.7</ele>
    <time>2021-05-11T19:03:06Z</time>
   </trkpt>
   <trkpt lat="47.3790300" lon="-122.0392250">
    <ele>143.7</ele>
    <time>2021-05-11T19:03:07Z</time>
   </trkpt>
   <trkpt lat="47.3790310" lon="-122.0392250">
    <ele>143.7</ele>
    <time>2021-05-11T19:03:08Z</time>
   </trkpt>
   <trkpt lat="47.3790320" lon="-122.0392220">
    <ele>143.7</ele>
    <time>2021-05-11T19:03:09Z</time>
   </trkpt>
   <trkpt lat="47.3790360" lon="-122.0392230">
    <ele>143.7</ele>
    <time>2021-05-11T19:03:10Z</time>
   </trkpt>
   <trkpt lat="47.3790400" lon="-122.0392200">
    <ele>143.7</ele>
    <time>2021-05-11T19:03:11Z</time>
   </trkpt>
   <trkpt lat="47.3790420" lon="-122.0392200">
    <ele>143.7</ele>
    <time>2021-05-11T19:03:12Z</time>
   </trkpt>
   <trkpt lat="47.3790450" lon="-122.0392210">
    <ele>143.7</ele>
    <time>2021-05-11T19:03:13Z</time>
   </trkpt>
   <trkpt lat="47.3790460" lon="-122.0392200">
    <ele>143.7</ele>
    <time>2021-05-11T19:03:14Z</time>
   </trkpt>
   <trkpt lat="47.3790490" lon="-122.0392150">
    <ele>143.7</ele>
    <time>2021-05-11T19:03:15Z</time>
   </trkpt>
   <trkpt lat="47.3790490" lon="-122.0392150">
    <ele>143.7</ele>
    <time>2021-05-11T19:03:16Z</time>
   </trkpt>
   <trkpt lat="47.3790490" lon="-122.0392150">
    <ele>143.7</ele>
    <time>2021-05-11T19:03:17Z</time>
   </trkpt>
   <trkpt lat="47.3790490" lon="-122.0392150">
    <ele>143.7</ele>
    <time>2021-05-11T19:03:18Z</time>
   </trkpt>
   <trkpt lat="47.3790490" lon="-122.0392150">
    <ele>143.7</ele>
    <time>2021-05-11T19:03:19Z</time>
   </trkpt>
   <trkpt lat="47.3790490" lon="-122.0392150">
    <ele>143.7</ele>
    <time>2021-05-11T19:03:20Z</time>
   </trkpt>
   <trkpt lat="47.3790490" lon="-122.0392150">
    <ele>143.7</ele>
    <time>2021-05-11T19:03:21Z</time>
   </trkpt>
   <trkpt lat="47.3790490" lon="-122.0392150">
    <ele>143.7</ele>
    <time>2021-05-11T19:03:22Z</time>
   </trkpt>
   <trkpt lat="47.3790490" lon="-122.0392150">
    <ele>143.7</ele>
    <time>2021-05-11T19:03:23Z</time>
   </trkpt>
   <trkpt lat="47.3790490" lon="-122.0392150">
    <ele>143.7</ele>
    <time>2021-05-11T19:03:24Z</time>
   </trkpt>
  </trkseg>
 </trk>
</gpx>
