<?xml version="1.0" encoding="UTF-8"?>
<gpx creator="StravaGPX" version="1.1" xmlns="http://www.topografix.com/GPX/1/1" xmlns:xsi="http://www.w3.org/2001/XMLSchema-instance" xsi:schemaLocation="http://www.topografix.com/GPX/1/1 http://www.topografix.com/GPX/1/1/gpx.xsd">
 <metadata>
  <time>2021-06-21T21:00:15Z</time>
 </metadata>
 <trk>
  <name>Absolutely melting 🥵</name>
  <type>running</type>
  <trkseg>
   <trkpt lat="47.5594890" lon="-122.0624870">
    <ele>11.1</ele>
    <time>2021-06-21T21:00:15Z</time>
   </trkpt>
   <trkpt lat="47.5594920" lon="-122.0624360">
    <ele>11.0</ele>
    <time>2021-06-21T21:00:16Z</time>
   </trkpt>
   <trkpt lat="47.5594850" lon="-122.0623970">
    <ele>11.0</ele>
    <time>2021-06-21T21:00:17Z</time>
   </trkpt>
   <trkpt lat="47.5594720" lon="-122.0623370">
    <ele>11.0</ele>
    <time>2021-06-21T21:00:18Z</time>
   </trkpt>
   <trkpt lat="47.5594620" lon="-122.0622580">
    <ele>11.0</ele>
    <time>2021-06-21T21:00:19Z</time>
   </trkpt>
   <trkpt lat="47.5594550" lon="-122.0622100">
    <ele>11.0</ele>
    <time>2021-06-21T21:00:20Z</time>
   </trkpt>
   <trkpt lat="47.5594440" lon="-122.0621520">
    <ele>10.9</ele>
    <time>2021-06-21T21:00:21Z</time>
   </trkpt>
   <trkpt lat="47.5594350" lon="-122.0621030">
    <ele>10.9</ele>
    <time>2021-06-21T21:00:22Z</time>
   </trkpt>
   <trkpt lat="47.5594140" lon="-122.0620460">
    <ele>10.9</ele>
    <time>2021-06-21T21:00:23Z</time>
   </trkpt>
   <trkpt lat="47.5593990" lon="-122.0619940">
    <ele>11.0</ele>
    <time>2021-06-21T21:00:24Z</time>
   </trkpt>
   <trkpt lat="47.5593960" lon="-122.0619340">
    <ele>11.0</ele>
    <time>2021-06-21T21:00:25Z</time>
   </trkpt>
   <trkpt lat="47.5593860" lon="-122.0618850">
    <ele>11.0</ele>
    <time>2021-06-21T21:00:26Z</time>
   </trkpt>
   <trkpt lat="47.5593730" lon="-122.0618300">
    <ele>11.0</ele>
    <time>2021-06-21T21:00:27Z</time>
   </trkpt>
   <trkpt lat="47.5593730" lon="-122.0617680">
    <ele>11.0</ele>
    <time>2021-06-21T21:00:28Z</time>
   </trkpt>
   <trkpt lat="47.5593510" lon="-122.0617000">
    <ele>11.0</ele>
    <time>2021-06-21T21:00:29Z</time>
   </trkpt>
   <trkpt lat="47.5593330" lon="-122.0616370">
    <ele>11.0</ele>
    <time>2021-06-21T21:00:30Z</time>
   </trkpt>
   <trkpt lat="47.5593190" lon="-122.0615830">
    <ele>11.0</ele>
    <time>2021-06-21T21:00:31Z</time>
   </trkpt>
   <trkpt lat="47.5593210" lon="-122.0615280">
    <ele>11.1</ele>
    <time>2021-06-21T21:00:32Z</time>
   </trkpt>
   <trkpt lat="47.5593180" lon="-122.0614750">
    <ele>11.1</ele>
    <time>2021-06-21T21:00:33Z</time>
   </trkpt>
   <trkpt lat="47.5593140" lon="-122.0614290">
    <ele>11.1</ele>
    <time>2021-06-21T21:00:34Z</time>
   </trkpt>
   <trkpt lat="47.5593090" lon="-122.0613640">
    <ele>11.2</ele>
    <time>2021-06-21T21:00:35Z</time>
   </trkpt>
   <trkpt lat="47.5593130" lon="-122.0613090">
    <ele>11.2</ele>
    <time>2021-06-21T21:00:36Z</time>
   </trkpt>
   <trkpt lat="47.5593080" lon="-122.0612520">
    <ele>11.2</ele>
    <time>2021-06-21T21:00:37Z</time>
   </trkpt>
   <trkpt lat="47.5593040" lon="-122.0611980">
    <ele>11.3</ele>
    <time>2021-06-21T21:00:38Z</time>
   </trkpt>
   <trkpt lat="47.5592970" lon="-122.0611320">
    <ele>11.3</ele>
    <time>2021-06-21T21:00:39Z</time>
   </trkpt>
   <trkpt lat="47.5592930" lon="-122.0611040">
    <ele>11.3</ele>
    <time>2021-06-21T21:00:40Z</time>
   </trkpt>
   <trkpt lat="47.5592850" lon="-122.0610490">
    <ele>11.3</ele>
    <time>2021-06-21T21:00:41Z</time>
   </trkpt>
   <trkpt lat="47.5592690" lon="-122.0609950">
    <ele>11.4</ele>
    <time>2021-06-21T21:00:42Z</time>
   </trkpt>
   <trkpt lat="47.5592630" lon="-122.0609340">
    <ele>11.4</ele>
    <time>2021-06-21T21:00:43Z</time>
   </trkpt>
   <trkpt lat="47.5592150" lon="-122.0608780">
    <ele>11.4</ele>
    <time>2021-06-21T21:00:44Z</time>
   </trkpt>
   <trkpt lat="47.5592220" lon="-122.0608220">
    <ele>11.5</ele>
    <time>2021-06-21T21:00:45Z</time>
   </trkpt>
   <trkpt lat="47.5592210" lon="-122.0607710">
    <ele>11.5</ele>
    <time>2021-06-21T21:00:46Z</time>
   </trkpt>
   <trkpt lat="47.5592100" lon="-122.0607150">
    <ele>11.5</ele>
    <time>2021-06-21T21:00:47Z</time>
   </trkpt>
   <trkpt lat="47.5592210" lon="-122.0606590">
    <ele>11.6</ele>
    <time>2021-06-21T21:00:48Z</time>
   </trkpt>
   <trkpt lat="47.5592100" lon="-122.0606040">
    <ele>11.6</ele>
    <time>2021-06-21T21:00:49Z</time>
   </trkpt>
   <trkpt lat="47.5592240" lon="-122.0605420">
    <ele>11.7</ele>
    <time>2021-06-21T21:00:50Z</time>
   </trkpt>
   <trkpt lat="47.5592180" lon="-122.0604880">
    <ele>11.7</ele>
    <time>2021-06-21T21:00:51Z</time>
   </trkpt>
   <trkpt lat="47.5592220" lon="-122.0604200">
    <ele>11.7</ele>
    <time>2021-06-21T21:00:52Z</time>
   </trkpt>
   <trkpt lat="47.5592330" lon="-122.0603770">
    <ele>11.7</ele>
    <time>2021-06-21T21:00:53Z</time>
   </trkpt>
   <trkpt lat="47.5592320" lon="-122.0603140">
    <ele>11.7</ele>
    <time>2021-06-21T21:00:54Z</time>
   </trkpt>
   <trkpt lat="47.5592500" lon="-122.0602690">
    <ele>11.7</ele>
    <time>2021-06-21T21:00:55Z</time>
   </trkpt>
   <trkpt lat="47.5592550" lon="-122.0602090">
    <ele>11.8</ele>
    <time>2021-06-21T21:00:56Z</time>
   </trkpt>
   <trkpt lat="47.5592600" lon="-122.0601510">
    <ele>11.8</ele>
    <time>2021-06-21T21:00:57Z</time>
   </trkpt>
   <trkpt lat="47.5592690" lon="-122.0601030">
    <ele>11.8</ele>
    <time>2021-06-21T21:00:58Z</time>
   </trkpt>
   <trkpt lat="47.5592810" lon="-122.0600470">
    <ele>11.8</ele>
    <time>2021-06-21T21:00:59Z</time>
   </trkpt>
   <trkpt lat="47.5592840" lon="-122.0599890">
    <ele>11.9</ele>
    <time>2021-06-21T21:01:00Z</time>
   </trkpt>
   <trkpt lat="47.5592840" lon="-122.0599430">
    <ele>11.9</ele>
    <time>2021-06-21T21:01:01Z</time>
   </trkpt>
   <trkpt lat="47.5592920" lon="-122.0598800">
    <ele>11.9</ele>
    <time>2021-06-21T21:01:02Z</time>
   </trkpt>
   <trkpt lat="47.5593100" lon="-122.0598300">
    <ele>11.9</ele>
    <time>2021-06-21T21:01:03Z</time>
   </trkpt>
   <trkpt lat="47.5593080" lon="-122.0597700">
    <ele>11.9</ele>
    <time>2021-06-21T21:01:04Z</time>
   </trkpt>
   <trkpt lat="47.5593180" lon="-122.0597230">
    <ele>11.9</ele>
    <time>2021-06-21T21:01:05Z</time>
   </trkpt>
   <trkpt lat="47.5593200" lon="-122.0596680">
    <ele>11.9</ele>
    <time>2021-06-21T21:01:06Z</time>
   </trkpt>
   <trkpt lat="47.5593250" lon="-122.0595980">
    <ele>12.0</ele>
    <time>2021-06-21T21:01:07Z</time>
   </trkpt>
   <trkpt lat="47.5593360" lon="-122.0595480">
    <ele>12.0</ele>
    <time>2021-06-21T21:01:08Z</time>
   </trkpt>
   <trkpt lat="47.5593340" lon="-122.0594890">
    <ele>12.0</ele>
    <time>2021-06-21T21:01:09Z</time>
   </trkpt>
   <trkpt lat="47.5593480" lon="-122.0594350">
    <ele>12.0</ele>
    <time>2021-06-21T21:01:10Z</time>
   </trkpt>
   <trkpt lat="47.5593470" lon="-122.0593790">
    <ele>12.1</ele>
    <time>2021-06-21T21:01:11Z</time>
   </trkpt>
   <trkpt lat="47.5593500" lon="-122.0593220">
    <ele>12.1</ele>
    <time>2021-06-21T21:01:12Z</time>
   </trkpt>
   <trkpt lat="47.5593600" lon="-122.0592760">
    <ele>12.1</ele>
    <time>2021-06-21T21:01:13Z</time>
   </trkpt>
   <trkpt lat="47.5593540" lon="-122.0592060">
    <ele>12.2</ele>
    <time>2021-06-21T21:01:14Z</time>
   </trkpt>
   <trkpt lat="47.5593630" lon="-122.0591460">
    <ele>12.2</ele>
    <time>2021-06-21T21:01:15Z</time>
   </trkpt>
   <trkpt lat="47.5593590" lon="-122.0591010">
    <ele>12.2</ele>
    <time>2021-06-21T21:01:16Z</time>
   </trkpt>
   <trkpt lat="47.5593640" lon="-122.0590350">
    <ele>12.3</ele>
    <time>2021-06-21T21:01:17Z</time>
   </trkpt>
   <trkpt lat="47.5593780" lon="-122.0589920">
    <ele>12.3</ele>
    <time>2021-06-21T21:01:18Z</time>
   </trkpt>
   <trkpt lat="47.5593740" lon="-122.0589280">
    <ele>12.3</ele>
    <time>2021-06-21T21:01:19Z</time>
   </trkpt>
   <trkpt lat="47.5593810" lon="-122.0588790">
    <ele>12.4</ele>
    <time>2021-06-21T21:01:20Z</time>
   </trkpt>
   <trkpt lat="47.5593710" lon="-122.0588120">
    <ele>12.4</ele>
    <time>2021-06-21T21:01:21Z</time>
   </trkpt>
   <trkpt lat="47.5593760" lon="-122.0587450">
    <ele>12.5</ele>
    <time>2021-06-21T21:01:22Z</time>
   </trkpt>
   <trkpt lat="47.5593790" lon="-122.0587030">
    <ele>12.5</ele>
    <time>2021-06-21T21:01:23Z</time>
   </trkpt>
   <trkpt lat="47.5593760" lon="-122.0586360">
    <ele>12.6</ele>
    <time>2021-06-21T21:01:24Z</time>
   </trkpt>
   <trkpt lat="47.5593780" lon="-122.0585880">
    <ele>12.6</ele>
    <time>2021-06-21T21:01:25Z</time>
   </trkpt>
   <trkpt lat="47.5593670" lon="-122.0585160">
    <ele>12.6</ele>
    <time>2021-06-21T21:01:26Z</time>
   </trkpt>
   <trkpt lat="47.5593670" lon="-122.0584640">
    <ele>12.6</ele>
    <time>2021-06-21T21:01:27Z</time>
   </trkpt>
   <trkpt lat="47.5593460" lon="-122.0584110">
    <ele>12.6</ele>
    <time>2021-06-21T21:01:28Z</time>
   </trkpt>
   <trkpt lat="47.5593420" lon="-122.0583880">
    <ele>12.6</ele>
    <time>2021-06-21T21:01:29Z</time>
   </trkpt>
   <trkpt lat="47.5593320" lon="-122.0583390">
    <ele>12.6</ele>
    <time>2021-06-21T21:01:30Z</time>
   </trkpt>
   <trkpt lat="47.5593150" lon="-122.0582820">
    <ele>12.6</ele>
    <time>2021-06-21T21:01:31Z</time>
   </trkpt>
   <trkpt lat="47.5593170" lon="-122.0582250">
    <ele>12.6</ele>
    <time>2021-06-21T21:01:32Z</time>
   </trkpt>
   <trkpt lat="47.5593150" lon="-122.0581740">
    <ele>12.6</ele>
    <time>2021-06-21T21:01:33Z</time>
   </trkpt>
   <trkpt lat="47.5593070" lon="-122.0581190">
    <ele>12.6</ele>
    <time>2021-06-21T21:01:34Z</time>
   </trkpt>
   <trkpt lat="47.5593060" lon="-122.0580690">
    <ele>12.6</ele>
    <time>2021-06-21T21:01:35Z</time>
   </trkpt>
   <trkpt lat="47.5593100" lon="-122.0580120">
    <ele>12.6</ele>
    <time>2021-06-21T21:01:36Z</time>
   </trkpt>
   <trkpt lat="47.5593260" lon="-122.0579590">
    <ele>12.6</ele>
    <time>2021-06-21T21:01:37Z</time>
   </trkpt>
   <trkpt lat="47.5593350" lon="-122.0579160">
    <ele>12.6</ele>
    <time>2021-06-21T21:01:38Z</time>
   </trkpt>
   <trkpt lat="47.5593290" lon="-122.0578710">
    <ele>12.6</ele>
    <time>2021-06-21T21:01:39Z</time>
   </trkpt>
   <trkpt lat="47.5593260" lon="-122.0578090">
    <ele>12.7</ele>
    <time>2021-06-21T21:01:40Z</time>
   </trkpt>
   <trkpt lat="47.5593220" lon="-122.0577870">
    <ele>12.7</ele>
    <time>2021-06-21T21:01:41Z</time>
   </trkpt>
   <trkpt lat="47.5593010" lon="-122.0577390">
    <ele>12.8</ele>
    <time>2021-06-21T21:01:42Z</time>
   </trkpt>
   <trkpt lat="47.5592910" lon="-122.0577200">
    <ele>12.8</ele>
    <time>2021-06-21T21:01:43Z</time>
   </trkpt>
   <trkpt lat="47.5592660" lon="-122.0576690">
    <ele>12.8</ele>
    <time>2021-06-21T21:01:44Z</time>
   </trkpt>
   <trkpt lat="47.5592510" lon="-122.0576290">
    <ele>12.9</ele>
    <time>2021-06-21T21:01:45Z</time>
   </trkpt>
   <trkpt lat="47.5592140" lon="-122.0576020">
    <ele>12.9</ele>
    <time>2021-06-21T21:01:46Z</time>
   </trkpt>
   <trkpt lat="47.5592080" lon="-122.0575620">
    <ele>12.9</ele>
    <time>2021-06-21T21:01:47Z</time>
   </trkpt>
   <trkpt lat="47.5591920" lon="-122.0575260">
    <ele>12.9</ele>
    <time>2021-06-21T21:01:48Z</time>
   </trkpt>
   <trkpt lat="47.5591710" lon="-122.0574860">
    <ele>12.9</ele>
    <time>2021-06-21T21:01:49Z</time>
   </trkpt>
   <trkpt lat="47.5591560" lon="-122.0574360">
    <ele>12.9</ele>
    <time>2021-06-21T21:01:50Z</time>
   </trkpt>
   <trkpt lat="47.5591250" lon="-122.0573780">
    <ele>12.9</ele>
    <time>2021-06-21T21:01:51Z</time>
   </trkpt>
   <trkpt lat="47.5591080" lon="-122.0573370">
    <ele>12.9</ele>
    <time>2021-06-21T21:01:52Z</time>
   </trkpt>
   <trkpt lat="47.5590830" lon="-122.0573020">
    <ele>12.9</ele>
    <time>2021-06-21T21:01:53Z</time>
   </trkpt>
   <trkpt lat="47.5590700" lon="-122.0572460">
    <ele>12.9</ele>
    <time>2021-06-21T21:01:54Z</time>
   </trkpt>
   <trkpt lat="47.5590440" lon="-122.0572150">
    <ele>12.9</ele>
    <time>2021-06-21T21:01:55Z</time>
   </trkpt>
   <trkpt lat="47.5590100" lon="-122.0571630">
    <ele>12.9</ele>
    <time>2021-06-21T21:01:56Z</time>
   </trkpt>
   <trkpt lat="47.5589890" lon="-122.0571180">
    <ele>12.9</ele>
    <time>2021-06-21T21:01:57Z</time>
   </trkpt>
   <trkpt lat="47.5589570" lon="-122.0570600">
    <ele>12.9</ele>
    <time>2021-06-21T21:01:58Z</time>
   </trkpt>
   <trkpt lat="47.5589410" lon="-122.0570060">
    <ele>12.9</ele>
    <time>2021-06-21T21:01:59Z</time>
   </trkpt>
   <trkpt lat="47.5589100" lon="-122.0569540">
    <ele>12.9</ele>
    <time>2021-06-21T21:02:00Z</time>
   </trkpt>
   <trkpt lat="47.5588920" lon="-122.0569080">
    <ele>12.9</ele>
    <time>2021-06-21T21:02:01Z</time>
   </trkpt>
   <trkpt lat="47.5588650" lon="-122.0568720">
    <ele>12.9</ele>
    <time>2021-06-21T21:02:02Z</time>
   </trkpt>
   <trkpt lat="47.5588380" lon="-122.0568230">
    <ele>12.9</ele>
    <time>2021-06-21T21:02:03Z</time>
   </trkpt>
   <trkpt lat="47.5588090" lon="-122.0567710">
    <ele>12.9</ele>
    <time>2021-06-21T21:02:04Z</time>
   </trkpt>
   <trkpt lat="47.5587970" lon="-122.0567510">
    <ele>12.9</ele>
    <time>2021-06-21T21:02:05Z</time>
   </trkpt>
   <trkpt lat="47.5587720" lon="-122.0567000">
    <ele>12.9</ele>
    <time>2021-06-21T21:02:06Z</time>
   </trkpt>
   <trkpt lat="47.5587480" lon="-122.0566580">
    <ele>12.9</ele>
    <time>2021-06-21T21:02:07Z</time>
   </trkpt>
   <trkpt lat="47.5587310" lon="-122.0566050">
    <ele>13.0</ele>
    <time>2021-06-21T21:02:08Z</time>
   </trkpt>
   <trkpt lat="47.5587190" lon="-122.0565590">
    <ele>13.0</ele>
    <time>2021-06-21T21:02:09Z</time>
   </trkpt>
   <trkpt lat="47.5586940" lon="-122.0565130">
    <ele>13.0</ele>
    <time>2021-06-21T21:02:10Z</time>
   </trkpt>
   <trkpt lat="47.5586760" lon="-122.0564660">
    <ele>13.0</ele>
    <time>2021-06-21T21:02:11Z</time>
   </trkpt>
   <trkpt lat="47.5586610" lon="-122.0564250">
    <ele>13.0</ele>
    <time>2021-06-21T21:02:13Z</time>
   </trkpt>
   <trkpt lat="47.5586370" lon="-122.0563800">
    <ele>13.0</ele>
    <time>2021-06-21T21:02:14Z</time>
   </trkpt>
   <trkpt lat="47.5586220" lon="-122.0563400">
    <ele>13.0</ele>
    <time>2021-06-21T21:02:15Z</time>
   </trkpt>
   <trkpt lat="47.5585980" lon="-122.0563090">
    <ele>13.0</ele>
    <time>2021-06-21T21:02:16Z</time>
   </trkpt>
   <trkpt lat="47.5585770" lon="-122.0562590">
    <ele>13.0</ele>
    <time>2021-06-21T21:02:17Z</time>
   </trkpt>
   <trkpt lat="47.5585410" lon="-122.0562300">
    <ele>13.1</ele>
    <time>2021-06-21T21:02:18Z</time>
   </trkpt>
   <trkpt lat="47.5585350" lon="-122.0561730">
    <ele>13.1</ele>
    <time>2021-06-21T21:02:19Z</time>
   </trkpt>
   <trkpt lat="47.5585170" lon="-122.0561380">
    <ele>13.1</ele>
    <time>2021-06-21T21:02:20Z</time>
   </trkpt>
   <trkpt lat="47.5584810" lon="-122.0560930">
    <ele>13.1</ele>
    <time>2021-06-21T21:02:21Z</time>
   </trkpt>
   <trkpt lat="47.5584650" lon="-122.0560540">
    <ele>13.1</ele>
    <time>2021-06-21T21:02:22Z</time>
   </trkpt>
   <trkpt lat="47.5584360" lon="-122.0560250">
    <ele>13.2</ele>
    <time>2021-06-21T21:02:23Z</time>
   </trkpt>
   <trkpt lat="47.5584280" lon="-122.0559870">
    <ele>13.2</ele>
    <time>2021-06-21T21:02:24Z</time>
   </trkpt>
   <trkpt lat="47.5583990" lon="-122.0559530">
    <ele>13.2</ele>
    <time>2021-06-21T21:02:25Z</time>
   </trkpt>
   <trkpt lat="47.5583730" lon="-122.0559190">
    <ele>13.2</ele>
    <time>2021-06-21T21:02:26Z</time>
   </trkpt>
   <trkpt lat="47.5583530" lon="-122.0558880">
    <ele>13.2</ele>
    <time>2021-06-21T21:02:27Z</time>
   </trkpt>
   <trkpt lat="47.5583240" lon="-122.0558490">
    <ele>13.2</ele>
    <time>2021-06-21T21:02:28Z</time>
   </trkpt>
   <trkpt lat="47.5583030" lon="-122.0558110">
    <ele>13.2</ele>
    <time>2021-06-21T21:02:29Z</time>
   </trkpt>
   <trkpt lat="47.5582780" lon="-122.0557640">
    <ele>13.2</ele>
    <time>2021-06-21T21:02:30Z</time>
   </trkpt>
   <trkpt lat="47.5582530" lon="-122.0557280">
    <ele>13.2</ele>
    <time>2021-06-21T21:02:31Z</time>
   </trkpt>
   <trkpt lat="47.5582320" lon="-122.0556910">
    <ele>13.2</ele>
    <time>2021-06-21T21:02:32Z</time>
   </trkpt>
   <trkpt lat="47.5582180" lon="-122.0556460">
    <ele>13.2</ele>
    <time>2021-06-21T21:02:33Z</time>
   </trkpt>
   <trkpt lat="47.5582050" lon="-122.0555980">
    <ele>13.2</ele>
    <time>2021-06-21T21:02:34Z</time>
   </trkpt>
   <trkpt lat="47.5581960" lon="-122.0555530">
    <ele>13.2</ele>
    <time>2021-06-21T21:02:35Z</time>
   </trkpt>
   <trkpt lat="47.5581780" lon="-122.0554890">
    <ele>13.2</ele>
    <time>2021-06-21T21:02:36Z</time>
   </trkpt>
   <trkpt lat="47.5581620" lon="-122.0554460">
    <ele>13.2</ele>
    <time>2021-06-21T21:02:37Z</time>
   </trkpt>
   <trkpt lat="47.5581320" lon="-122.0553840">
    <ele>13.2</ele>
    <time>2021-06-21T21:02:38Z</time>
   </trkpt>
   <trkpt lat="47.5581100" lon="-122.0553380">
    <ele>13.2</ele>
    <time>2021-06-21T21:02:39Z</time>
   </trkpt>
   <trkpt lat="47.5580980" lon="-122.0553200">
    <ele>13.1</ele>
    <time>2021-06-21T21:02:40Z</time>
   </trkpt>
   <trkpt lat="47.5580740" lon="-122.0552710">
    <ele>13.1</ele>
    <time>2021-06-21T21:02:41Z</time>
   </trkpt>
   <trkpt lat="47.5580570" lon="-122.0552280">
    <ele>13.1</ele>
    <time>2021-06-21T21:02:42Z</time>
   </trkpt>
   <trkpt lat="47.5580380" lon="-122.0551550">
    <ele>13.1</ele>
    <time>2021-06-21T21:02:43Z</time>
   </trkpt>
   <trkpt lat="47.5580120" lon="-122.0551290">
    <ele>13.1</ele>
    <time>2021-06-21T21:02:44Z</time>
   </trkpt>
   <trkpt lat="47.5579880" lon="-122.0550690">
    <ele>13.1</ele>
    <time>2021-06-21T21:02:45Z</time>
   </trkpt>
   <trkpt lat="47.5579630" lon="-122.0550240">
    <ele>13.1</ele>
    <time>2021-06-21T21:02:46Z</time>
   </trkpt>
   <trkpt lat="47.5579390" lon="-122.0549810">
    <ele>13.1</ele>
    <time>2021-06-21T21:02:47Z</time>
   </trkpt>
   <trkpt lat="47.5579180" lon="-122.0549350">
    <ele>13.1</ele>
    <time>2021-06-21T21:02:48Z</time>
   </trkpt>
   <trkpt lat="47.5578950" lon="-122.0549010">
    <ele>13.1</ele>
    <time>2021-06-21T21:02:49Z</time>
   </trkpt>
   <trkpt lat="47.5578710" lon="-122.0548490">
    <ele>13.1</ele>
    <time>2021-06-21T21:02:50Z</time>
   </trkpt>
   <trkpt lat="47.5578440" lon="-122.0548070">
    <ele>13.1</ele>
    <time>2021-06-21T21:02:51Z</time>
   </trkpt>
   <trkpt lat="47.5578140" lon="-122.0547530">
    <ele>13.2</ele>
    <time>2021-06-21T21:02:52Z</time>
   </trkpt>
   <trkpt lat="47.5577920" lon="-122.0547210">
    <ele>13.2</ele>
    <time>2021-06-21T21:02:53Z</time>
   </trkpt>
   <trkpt lat="47.5577640" lon="-122.0546880">
    <ele>13.2</ele>
    <time>2021-06-21T21:02:54Z</time>
   </trkpt>
   <trkpt lat="47.5577410" lon="-122.0546490">
    <ele>13.2</ele>
    <time>2021-06-21T21:02:55Z</time>
   </trkpt>
   <trkpt lat="47.5577170" lon="-122.0546300">
    <ele>13.2</ele>
    <time>2021-06-21T21:02:56Z</time>
   </trkpt>
   <trkpt lat="47.5576840" lon="-122.0545870">
    <ele>13.2</ele>
    <time>2021-06-21T21:02:57Z</time>
   </trkpt>
   <trkpt lat="47.5576630" lon="-122.0545580">
    <ele>13.2</ele>
    <time>2021-06-21T21:02:58Z</time>
   </trkpt>
   <trkpt lat="47.5576300" lon="-122.0545120">
    <ele>13.3</ele>
    <time>2021-06-21T21:02:59Z</time>
   </trkpt>
   <trkpt lat="47.5576110" lon="-122.0544740">
    <ele>13.3</ele>
    <time>2021-06-21T21:03:00Z</time>
   </trkpt>
   <trkpt lat="47.5575920" lon="-122.0544430">
    <ele>13.3</ele>
    <time>2021-06-21T21:03:01Z</time>
   </trkpt>
   <trkpt lat="47.5575720" lon="-122.0544010">
    <ele>13.3</ele>
    <time>2021-06-21T21:03:02Z</time>
   </trkpt>
   <trkpt lat="47.5575420" lon="-122.0543700">
    <ele>13.3</ele>
    <time>2021-06-21T21:03:03Z</time>
   </trkpt>
   <trkpt lat="47.5575220" lon="-122.0543230">
    <ele>13.3</ele>
    <time>2021-06-21T21:03:04Z</time>
   </trkpt>
   <trkpt lat="47.5574890" lon="-122.0542800">
    <ele>13.3</ele>
    <time>2021-06-21T21:03:05Z</time>
   </trkpt>
   <trkpt lat="47.5574740" lon="-122.0542640">
    <ele>13.3</ele>
    <time>2021-06-21T21:03:06Z</time>
   </trkpt>
   <trkpt lat="47.5574450" lon="-122.0542290">
    <ele>13.3</ele>
    <time>2021-06-21T21:03:07Z</time>
   </trkpt>
   <trkpt lat="47.5574280" lon="-122.0541850">
    <ele>13.3</ele>
    <time>2021-06-21T21:03:08Z</time>
   </trkpt>
   <trkpt lat="47.5573990" lon="-122.0541420">
    <ele>13.3</ele>
    <time>2021-06-21T21:03:09Z</time>
   </trkpt>
   <trkpt lat="47.5573680" lon="-122.0541100">
    <ele>13.3</ele>
    <time>2021-06-21T21:03:10Z</time>
   </trkpt>
   <trkpt lat="47.5573590" lon="-122.0540990">
    <ele>13.3</ele>
    <time>2021-06-21T21:03:11Z</time>
   </trkpt>
   <trkpt lat="47.5573000" lon="-122.0540490">
    <ele>13.3</ele>
    <time>2021-06-21T21:03:12Z</time>
   </trkpt>
   <trkpt lat="47.5572650" lon="-122.0540090">
    <ele>13.3</ele>
    <time>2021-06-21T21:04:01Z</time>
   </trkpt>
   <trkpt lat="47.5572290" lon="-122.0539700">
    <ele>13.4</ele>
    <time>2021-06-21T21:04:02Z</time>
   </trkpt>
   <trkpt lat="47.5571940" lon="-122.0539300">
    <ele>13.4</ele>
    <time>2021-06-21T21:04:03Z</time>
   </trkpt>
   <trkpt lat="47.5571590" lon="-122.0538910">
    <ele>13.4</ele>
    <time>2021-06-21T21:04:04Z</time>
   </trkpt>
   <trkpt lat="47.5571260" lon="-122.0538790">
    <ele>13.4</ele>
    <time>2021-06-21T21:04:05Z</time>
   </trkpt>
   <trkpt lat="47.5570920" lon="-122.0538660">
    <ele>13.4</ele>
    <time>2021-06-21T21:04:06Z</time>
   </trkpt>
   <trkpt lat="47.5570540" lon="-122.0538080">
    <ele>13.4</ele>
    <time>2021-06-21T21:04:07Z</time>
   </trkpt>
   <trkpt lat="47.5570260" lon="-122.0537760">
    <ele>13.4</ele>
    <time>2021-06-21T21:04:08Z</time>
   </trkpt>
   <trkpt lat="47.5570050" lon="-122.0537290">
    <ele>13.4</ele>
    <time>2021-06-21T21:04:09Z</time>
   </trkpt>
   <trkpt lat="47.5569710" lon="-122.0536870">
    <ele>13.4</ele>
    <time>2021-06-21T21:04:10Z</time>
   </trkpt>
   <trkpt lat="47.5569510" lon="-122.0536720">
    <ele>13.4</ele>
    <time>2021-06-21T21:04:11Z</time>
   </trkpt>
   <trkpt lat="47.5569290" lon="-122.0536460">
    <ele>13.4</ele>
    <time>2021-06-21T21:04:12Z</time>
   </trkpt>
   <trkpt lat="47.5568950" lon="-122.0536180">
    <ele>13.4</ele>
    <time>2021-06-21T21:04:13Z</time>
   </trkpt>
   <trkpt lat="47.5568630" lon="-122.0535790">
    <ele>13.4</ele>
    <time>2021-06-21T21:04:14Z</time>
   </trkpt>
   <trkpt lat="47.5568390" lon="-122.0535560">
    <ele>13.4</ele>
    <time>2021-06-21T21:04:15Z</time>
   </trkpt>
   <trkpt lat="47.5568090" lon="-122.0535340">
    <ele>13.4</ele>
    <time>2021-06-21T21:04:16Z</time>
   </trkpt>
   <trkpt lat="47.5567830" lon="-122.0535090">
    <ele>13.4</ele>
    <time>2021-06-21T21:04:17Z</time>
   </trkpt>
   <trkpt lat="47.5567490" lon="-122.0534780">
    <ele>13.4</ele>
    <time>2021-06-21T21:04:18Z</time>
   </trkpt>
   <trkpt lat="47.5567220" lon="-122.0534350">
    <ele>13.4</ele>
    <time>2021-06-21T21:04:19Z</time>
   </trkpt>
   <trkpt lat="47.5567000" lon="-122.0533990">
    <ele>13.4</ele>
    <time>2021-06-21T21:04:20Z</time>
   </trkpt>
   <trkpt lat="47.5566700" lon="-122.0533630">
    <ele>13.4</ele>
    <time>2021-06-21T21:04:21Z</time>
   </trkpt>
   <trkpt lat="47.5566490" lon="-122.0533320">
    <ele>13.4</ele>
    <time>2021-06-21T21:04:22Z</time>
   </trkpt>
   <trkpt lat="47.5566210" lon="-122.0533040">
    <ele>13.3</ele>
    <time>2021-06-21T21:04:23Z</time>
   </trkpt>
   <trkpt lat="47.5565970" lon="-122.0532730">
    <ele>13.3</ele>
    <time>2021-06-21T21:04:24Z</time>
   </trkpt>
   <trkpt lat="47.5565660" lon="-122.0532390">
    <ele>13.3</ele>
    <time>2021-06-21T21:04:25Z</time>
   </trkpt>
   <trkpt lat="47.5565370" lon="-122.0531940">
    <ele>13.3</ele>
    <time>2021-06-21T21:04:26Z</time>
   </trkpt>
   <trkpt lat="47.5565140" lon="-122.0531710">
    <ele>13.3</ele>
    <time>2021-06-21T21:04:27Z</time>
   </trkpt>
   <trkpt lat="47.5564940" lon="-122.0531080">
    <ele>13.3</ele>
    <time>2021-06-21T21:04:28Z</time>
   </trkpt>
   <trkpt lat="47.5564770" lon="-122.0530720">
    <ele>13.3</ele>
    <time>2021-06-21T21:04:29Z</time>
   </trkpt>
   <trkpt lat="47.5564430" lon="-122.0530340">
    <ele>13.3</ele>
    <time>2021-06-21T21:04:30Z</time>
   </trkpt>
   <trkpt lat="47.5564170" lon="-122.0529920">
    <ele>13.3</ele>
    <time>2021-06-21T21:04:31Z</time>
   </trkpt>
   <trkpt lat="47.5563880" lon="-122.0529720">
    <ele>13.3</ele>
    <time>2021-06-21T21:04:32Z</time>
   </trkpt>
   <trkpt lat="47.5563570" lon="-122.0529440">
    <ele>13.3</ele>
    <time>2021-06-21T21:04:33Z</time>
   </trkpt>
   <trkpt lat="47.5563290" lon="-122.0529310">
    <ele>13.3</ele>
    <time>2021-06-21T21:04:34Z</time>
   </trkpt>
   <trkpt lat="47.5563030" lon="-122.0528820">
    <ele>13.3</ele>
    <time>2021-06-21T21:04:35Z</time>
   </trkpt>
   <trkpt lat="47.5562790" lon="-122.0528510">
    <ele>13.3</ele>
    <time>2021-06-21T21:04:36Z</time>
   </trkpt>
   <trkpt lat="47.5562560" lon="-122.0528210">
    <ele>13.3</ele>
    <time>2021-06-21T21:04:37Z</time>
   </trkpt>
   <trkpt lat="47.5562270" lon="-122.0527720">
    <ele>13.3</ele>
    <time>2021-06-21T21:04:38Z</time>
   </trkpt>
   <trkpt lat="47.5562020" lon="-122.0527340">
    <ele>13.3</ele>
    <time>2021-06-21T21:04:39Z</time>
   </trkpt>
   <trkpt lat="47.5561690" lon="-122.0526780">
    <ele>13.3</ele>
    <time>2021-06-21T21:04:40Z</time>
   </trkpt>
   <trkpt lat="47.5561450" lon="-122.0526520">
    <ele>13.3</ele>
    <time>2021-06-21T21:04:41Z</time>
   </trkpt>
   <trkpt lat="47.5561160" lon="-122.0525960">
    <ele>13.3</ele>
    <time>2021-06-21T21:04:42Z</time>
   </trkpt>
   <trkpt lat="47.5560970" lon="-122.0525450">
    <ele>13.2</ele>
    <time>2021-06-21T21:04:43Z</time>
   </trkpt>
   <trkpt lat="47.5560840" lon="-122.0524930">
    <ele>13.2</ele>
    <time>2021-06-21T21:04:44Z</time>
   </trkpt>
   <trkpt lat="47.5560670" lon="-122.0524340">
    <ele>13.2</ele>
    <time>2021-06-21T21:04:45Z</time>
   </trkpt>
   <trkpt lat="47.5560490" lon="-122.0523910">
    <ele>13.2</ele>
    <time>2021-06-21T21:04:46Z</time>
   </trkpt>
   <trkpt lat="47.5560470" lon="-122.0523260">
    <ele>13.1</ele>
    <time>2021-06-21T21:04:47Z</time>
   </trkpt>
   <trkpt lat="47.5560330" lon="-122.0522760">
    <ele>13.1</ele>
    <time>2021-06-21T21:04:48Z</time>
   </trkpt>
   <trkpt lat="47.5560180" lon="-122.0522250">
    <ele>13.1</ele>
    <time>2021-06-21T21:04:49Z</time>
   </trkpt>
   <trkpt lat="47.5560020" lon="-122.0521660">
    <ele>13.1</ele>
    <time>2021-06-21T21:04:50Z</time>
   </trkpt>
   <trkpt lat="47.5559800" lon="-122.0521280">
    <ele>13.2</ele>
    <time>2021-06-21T21:04:51Z</time>
   </trkpt>
   <trkpt lat="47.5559370" lon="-122.0521280">
    <ele>13.2</ele>
    <time>2021-06-21T21:04:52Z</time>
   </trkpt>
   <trkpt lat="47.5559020" lon="-122.0521620">
    <ele>13.2</ele>
    <time>2021-06-21T21:04:53Z</time>
   </trkpt>
   <trkpt lat="47.5558600" lon="-122.0521920">
    <ele>13.3</ele>
    <time>2021-06-21T21:04:54Z</time>
   </trkpt>
   <trkpt lat="47.5558290" lon="-122.0521960">
    <ele>13.3</ele>
    <time>2021-06-21T21:04:55Z</time>
   </trkpt>
   <trkpt lat="47.5557880" lon="-122.0521910">
    <ele>13.4</ele>
    <time>2021-06-21T21:04:56Z</time>
   </trkpt>
   <trkpt lat="47.5557470" lon="-122.0521800">
    <ele>13.4</ele>
    <time>2021-06-21T21:04:57Z</time>
   </trkpt>
   <trkpt lat="47.5557130" lon="-122.0521740">
    <ele>13.4</ele>
    <time>2021-06-21T21:04:58Z</time>
   </trkpt>
   <trkpt lat="47.5556730" lon="-122.0521820">
    <ele>13.5</ele>
    <time>2021-06-21T21:04:59Z</time>
   </trkpt>
   <trkpt lat="47.5556460" lon="-122.0521990">
    <ele>13.5</ele>
    <time>2021-06-21T21:05:00Z</time>
   </trkpt>
   <trkpt lat="47.5556080" lon="-122.0522020">
    <ele>13.5</ele>
    <time>2021-06-21T21:05:01Z</time>
   </trkpt>
   <trkpt lat="47.5555700" lon="-122.0522130">
    <ele>13.5</ele>
    <time>2021-06-21T21:05:02Z</time>
   </trkpt>
   <trkpt lat="47.5555360" lon="-122.0522290">
    <ele>13.5</ele>
    <time>2021-06-21T21:05:03Z</time>
   </trkpt>
   <trkpt lat="47.5555040" lon="-122.0522770">
    <ele>13.6</ele>
    <time>2021-06-21T21:05:04Z</time>
   </trkpt>
   <trkpt lat="47.5554870" lon="-122.0523250">
    <ele>13.6</ele>
    <time>2021-06-21T21:05:05Z</time>
   </trkpt>
   <trkpt lat="47.5554670" lon="-122.0523810">
    <ele>13.6</ele>
    <time>2021-06-21T21:05:06Z</time>
   </trkpt>
   <trkpt lat="47.5554420" lon="-122.0524090">
    <ele>13.7</ele>
    <time>2021-06-21T21:05:07Z</time>
   </trkpt>
   <trkpt lat="47.5554050" lon="-122.0524060">
    <ele>13.7</ele>
    <time>2021-06-21T21:05:08Z</time>
   </trkpt>
   <trkpt lat="47.5553500" lon="-122.0523890">
    <ele>13.8</ele>
    <time>2021-06-21T21:05:09Z</time>
   </trkpt>
   <trkpt lat="47.5553060" lon="-122.0523850">
    <ele>13.8</ele>
    <time>2021-06-21T21:05:10Z</time>
   </trkpt>
   <trkpt lat="47.5552620" lon="-122.0523860">
    <ele>13.9</ele>
    <time>2021-06-21T21:05:11Z</time>
   </trkpt>
   <trkpt lat="47.5552340" lon="-122.0523820">
    <ele>14.0</ele>
    <time>2021-06-21T21:05:12Z</time>
   </trkpt>
   <trkpt lat="47.5551950" lon="-122.0523860">
    <ele>14.0</ele>
    <time>2021-06-21T21:05:13Z</time>
   </trkpt>
   <trkpt lat="47.5551620" lon="-122.0524070">
    <ele>14.1</ele>
    <time>2021-06-21T21:05:14Z</time>
   </trkpt>
   <trkpt lat="47.5551310" lon="-122.0524220">
    <ele>14.2</ele>
    <time>2021-06-21T21:05:15Z</time>
   </trkpt>
   <trkpt lat="47.5550900" lon="-122.0524410">
    <ele>14.2</ele>
    <time>2021-06-21T21:05:16Z</time>
   </trkpt>
   <trkpt lat="47.5550600" lon="-122.0524410">
    <ele>14.3</ele>
    <time>2021-06-21T21:05:17Z</time>
   </trkpt>
   <trkpt lat="47.5550190" lon="-122.0524720">
    <ele>14.4</ele>
    <time>2021-06-21T21:05:18Z</time>
   </trkpt>
   <trkpt lat="47.5549860" lon="-122.0525000">
    <ele>14.4</ele>
    <time>2021-06-21T21:05:19Z</time>
   </trkpt>
   <trkpt lat="47.5549690" lon="-122.0525050">
    <ele>14.5</ele>
    <time>2021-06-21T21:05:20Z</time>
   </trkpt>
   <trkpt lat="47.5549290" lon="-122.0525220">
    <ele>14.5</ele>
    <time>2021-06-21T21:05:21Z</time>
   </trkpt>
   <trkpt lat="47.5548950" lon="-122.0525240">
    <ele>14.5</ele>
    <time>2021-06-21T21:05:22Z</time>
   </trkpt>
   <trkpt lat="47.5548640" lon="-122.0525070">
    <ele>14.6</ele>
    <time>2021-06-21T21:05:23Z</time>
   </trkpt>
   <trkpt lat="47.5548350" lon="-122.0524840">
    <ele>14.6</ele>
    <time>2021-06-21T21:05:24Z</time>
   </trkpt>
   <trkpt lat="47.5548080" lon="-122.0524460">
    <ele>14.5</ele>
    <time>2021-06-21T21:05:25Z</time>
   </trkpt>
   <trkpt lat="47.5547910" lon="-122.0523970">
    <ele>14.5</ele>
    <time>2021-06-21T21:05:26Z</time>
   </trkpt>
   <trkpt lat="47.5547900" lon="-122.0523380">
    <ele>14.5</ele>
    <time>2021-06-21T21:05:27Z</time>
   </trkpt>
   <trkpt lat="47.5547770" lon="-122.0522920">
    <ele>14.5</ele>
    <time>2021-06-21T21:05:28Z</time>
   </trkpt>
   <trkpt lat="47.5547600" lon="-122.0522420">
    <ele>14.4</ele>
    <time>2021-06-21T21:05:29Z</time>
   </trkpt>
   <trkpt lat="47.5547450" lon="-122.0522070">
    <ele>14.4</ele>
    <time>2021-06-21T21:05:30Z</time>
   </trkpt>
   <trkpt lat="47.5547110" lon="-122.0521850">
    <ele>14.4</ele>
    <time>2021-06-21T21:05:31Z</time>
   </trkpt>
   <trkpt lat="47.5546740" lon="-122.0521410">
    <ele>14.5</ele>
    <time>2021-06-21T21:05:32Z</time>
   </trkpt>
   <trkpt lat="47.5546380" lon="-122.0521360">
    <ele>14.5</ele>
    <time>2021-06-21T21:05:33Z</time>
   </trkpt>
   <trkpt lat="47.5546090" lon="-122.0520930">
    <ele>14.5</ele>
    <time>2021-06-21T21:05:34Z</time>
   </trkpt>
   <trkpt lat="47.5545800" lon="-122.0520540">
    <ele>14.5</ele>
    <time>2021-06-21T21:05:35Z</time>
   </trkpt>
   <trkpt lat="47.5545760" lon="-122.0520120">
    <ele>14.6</ele>
    <time>2021-06-21T21:05:36Z</time>
   </trkpt>
   <trkpt lat="47.5546240" lon="-122.0519370">
    <ele>14.6</ele>
    <time>2021-06-21T21:05:37Z</time>
   </trkpt>
   <trkpt lat="47.5546800" lon="-122.0519040">
    <ele>14.6</ele>
    <time>2021-06-21T21:05:38Z</time>
   </trkpt>
   <trkpt lat="47.5547160" lon="-122.0518870">
    <ele>14.6</ele>
    <time>2021-06-21T21:05:39Z</time>
   </trkpt>
   <trkpt lat="47.5547430" lon="-122.0518550">
    <ele>14.6</ele>
    <time>2021-06-21T21:05:40Z</time>
   </trkpt>
   <trkpt lat="47.5547600" lon="-122.0518150">
    <ele>14.6</ele>
    <time>2021-06-21T21:05:41Z</time>
   </trkpt>
   <trkpt lat="47.5547760" lon="-122.0517800">
    <ele>14.7</ele>
    <time>2021-06-21T21:05:42Z</time>
   </trkpt>
   <trkpt lat="47.5547640" lon="-122.0517400">
    <ele>14.7</ele>
    <time>2021-06-21T21:05:43Z</time>
   </trkpt>
   <trkpt lat="47.5547230" lon="-122.0516940">
    <ele>14.8</ele>
    <time>2021-06-21T21:05:44Z</time>
   </trkpt>
   <trkpt lat="47.5546880" lon="-122.0516610">
    <ele>14.8</ele>
    <time>2021-06-21T21:05:45Z</time>
   </trkpt>
   <trkpt lat="47.5546770" lon="-122.0516380">
    <ele>14.8</ele>
    <time>2021-06-21T21:05:46Z</time>
   </trkpt>
   <trkpt lat="47.5546730" lon="-122.0515920">
    <ele>14.9</ele>
    <time>2021-06-21T21:05:47Z</time>
   </trkpt>
   <trkpt lat="47.5546630" lon="-122.0515360">
    <ele>14.9</ele>
    <time>2021-06-21T21:05:48Z</time>
   </trkpt>
   <trkpt lat="47.5546440" lon="-122.0514890">
    <ele>15.0</ele>
    <time>2021-06-21T21:05:49Z</time>
   </trkpt>
   <trkpt lat="47.5546120" lon="-122.0514680">
    <ele>15.0</ele>
    <time>2021-06-21T21:05:50Z</time>
   </trkpt>
   <trkpt lat="47.5545980" lon="-122.0514080">
    <ele>15.1</ele>
    <time>2021-06-21T21:05:51Z</time>
   </trkpt>
   <trkpt lat="47.5546060" lon="-122.0513620">
    <ele>15.1</ele>
    <time>2021-06-21T21:05:52Z</time>
   </trkpt>
   <trkpt lat="47.5546400" lon="-122.0513210">
    <ele>15.2</ele>
    <time>2021-06-21T21:05:53Z</time>
   </trkpt>
   <trkpt lat="47.5546730" lon="-122.0513240">
    <ele>15.2</ele>
    <time>2021-06-21T21:05:54Z</time>
   </trkpt>
   <trkpt lat="47.5546890" lon="-122.0512840">
    <ele>15.3</ele>
    <time>2021-06-21T21:05:55Z</time>
   </trkpt>
   <trkpt lat="47.5546990" lon="-122.0512650">
    <ele>15.3</ele>
    <time>2021-06-21T21:05:56Z</time>
   </trkpt>
   <trkpt lat="47.5547090" lon="-122.0512070">
    <ele>15.3</ele>
    <time>2021-06-21T21:05:57Z</time>
   </trkpt>
   <trkpt lat="47.5547030" lon="-122.0511430">
    <ele>15.3</ele>
    <time>2021-06-21T21:05:58Z</time>
   </trkpt>
   <trkpt lat="47.5546890" lon="-122.0510630">
    <ele>15.4</ele>
    <time>2021-06-21T21:05:59Z</time>
   </trkpt>
   <trkpt lat="47.5546700" lon="-122.0510030">
    <ele>15.4</ele>
    <time>2021-06-21T21:06:00Z</time>
   </trkpt>
   <trkpt lat="47.5546490" lon="-122.0509610">
    <ele>15.4</ele>
    <time>2021-06-21T21:06:01Z</time>
   </trkpt>
   <trkpt lat="47.5546410" lon="-122.0509160">
    <ele>15.4</ele>
    <time>2021-06-21T21:06:02Z</time>
   </trkpt>
   <trkpt lat="47.5546450" lon="-122.0509000">
    <ele>15.4</ele>
    <time>2021-06-21T21:06:03Z</time>
   </trkpt>
   <trkpt lat="47.5546600" lon="-122.0508430">
    <ele>15.5</ele>
    <time>2021-06-21T21:06:04Z</time>
   </trkpt>
   <trkpt lat="47.5546630" lon="-122.0508120">
    <ele>15.5</ele>
    <time>2021-06-21T21:06:05Z</time>
   </trkpt>
   <trkpt lat="47.5546660" lon="-122.0507810">
    <ele>15.5</ele>
    <time>2021-06-21T21:06:06Z</time>
   </trkpt>
   <trkpt lat="47.5546650" lon="-122.0507180">
    <ele>15.5</ele>
    <time>2021-06-21T21:06:07Z</time>
   </trkpt>
   <trkpt lat="47.5546670" lon="-122.0506440">
    <ele>15.5</ele>
    <time>2021-06-21T21:06:08Z</time>
   </trkpt>
   <trkpt lat="47.5546610" lon="-122.0505950">
    <ele>15.5</ele>
    <time>2021-06-21T21:06:09Z</time>
   </trkpt>
   <trkpt lat="47.5546790" lon="-122.0505510">
    <ele>15.4</ele>
    <time>2021-06-21T21:06:10Z</time>
   </trkpt>
   <trkpt lat="47.5546670" lon="-122.0504970">
    <ele>15.4</ele>
    <time>2021-06-21T21:06:11Z</time>
   </trkpt>
   <trkpt lat="47.5546550" lon="-122.0504790">
    <ele>15.4</ele>
    <time>2021-06-21T21:06:12Z</time>
   </trkpt>
   <trkpt lat="47.5546160" lon="-122.0504530">
    <ele>15.4</ele>
    <time>2021-06-21T21:06:13Z</time>
   </trkpt>
   <trkpt lat="47.5545830" lon="-122.0504290">
    <ele>15.3</ele>
    <time>2021-06-21T21:06:14Z</time>
   </trkpt>
   <trkpt lat="47.5545790" lon="-122.0503600">
    <ele>15.3</ele>
    <time>2021-06-21T21:06:15Z</time>
   </trkpt>
   <trkpt lat="47.5545850" lon="-122.0503060">
    <ele>15.3</ele>
    <time>2021-06-21T21:06:16Z</time>
   </trkpt>
   <trkpt lat="47.5545870" lon="-122.0502610">
    <ele>15.2</ele>
    <time>2021-06-21T21:06:17Z</time>
   </trkpt>
   <trkpt lat="47.5545620" lon="-122.0502400">
    <ele>15.2</ele>
    <time>2021-06-21T21:06:18Z</time>
   </trkpt>
   <trkpt lat="47.5545170" lon="-122.0502490">
    <ele>15.2</ele>
    <time>2021-06-21T21:06:19Z</time>
   </trkpt>
   <trkpt lat="47.5544710" lon="-122.0502700">
    <ele>15.2</ele>
    <time>2021-06-21T21:06:20Z</time>
   </trkpt>
   <trkpt lat="47.5544370" lon="-122.0502550">
    <ele>15.3</ele>
    <time>2021-06-21T21:06:21Z</time>
   </trkpt>
   <trkpt lat="47.5544070" lon="-122.0502120">
    <ele>15.3</ele>
    <time>2021-06-21T21:06:22Z</time>
   </trkpt>
   <trkpt lat="47.5544050" lon="-122.0501930">
    <ele>15.3</ele>
    <time>2021-06-21T21:06:23Z</time>
   </trkpt>
   <trkpt lat="47.5541600" lon="-122.0499310">
    <ele>15.5</ele>
    <time>2021-06-21T21:08:00Z</time>
   </trkpt>
   <trkpt lat="47.5541290" lon="-122.0499160">
    <ele>15.5</ele>
    <time>2021-06-21T21:08:01Z</time>
   </trkpt>
   <trkpt lat="47.5540950" lon="-122.0498690">
    <ele>15.5</ele>
    <time>2021-06-21T21:08:02Z</time>
   </trkpt>
   <trkpt lat="47.5540730" lon="-122.0498360">
    <ele>15.5</ele>
    <time>2021-06-21T21:08:03Z</time>
   </trkpt>
   <trkpt lat="47.5540570" lon="-122.0498220">
    <ele>15.5</ele>
    <time>2021-06-21T21:08:04Z</time>
   </trkpt>
   <trkpt lat="47.5540290" lon="-122.0498020">
    <ele>15.5</ele>
    <time>2021-06-21T21:08:05Z</time>
   </trkpt>
   <trkpt lat="47.5539980" lon="-122.0498000">
    <ele>15.5</ele>
    <time>2021-06-21T21:08:06Z</time>
   </trkpt>
   <trkpt lat="47.5539590" lon="-122.0497870">
    <ele>15.5</ele>
    <time>2021-06-21T21:08:07Z</time>
   </trkpt>
   <trkpt lat="47.5539230" lon="-122.0497760">
    <ele>15.5</ele>
    <time>2021-06-21T21:08:08Z</time>
   </trkpt>
   <trkpt lat="47.5538900" lon="-122.0497600">
    <ele>15.4</ele>
    <time>2021-06-21T21:08:09Z</time>
   </trkpt>
   <trkpt lat="47.5538460" lon="-122.0497520">
    <ele>15.3</ele>
    <time>2021-06-21T21:08:10Z</time>
   </trkpt>
   <trkpt lat="47.5538130" lon="-122.0497210">
    <ele>15.3</ele>
    <time>2021-06-21T21:08:11Z</time>
   </trkpt>
   <trkpt lat="47.5537830" lon="-122.0496930">
    <ele>15.2</ele>
    <time>2021-06-21T21:08:12Z</time>
   </trkpt>
   <trkpt lat="47.5537540" lon="-122.0496650">
    <ele>15.1</ele>
    <time>2021-06-21T21:08:13Z</time>
   </trkpt>
   <trkpt lat="47.5537270" lon="-122.0496330">
    <ele>15.1</ele>
    <time>2021-06-21T21:08:14Z</time>
   </trkpt>
   <trkpt lat="47.5537010" lon="-122.0496020">
    <ele>15.0</ele>
    <time>2021-06-21T21:08:15Z</time>
   </trkpt>
   <trkpt lat="47.5536700" lon="-122.0495920">
    <ele>14.9</ele>
    <time>2021-06-21T21:08:16Z</time>
   </trkpt>
   <trkpt lat="47.5536520" lon="-122.0495460">
    <ele>14.9</ele>
    <time>2021-06-21T21:08:17Z</time>
   </trkpt>
   <trkpt lat="47.5536240" lon="-122.0495110">
    <ele>14.8</ele>
    <time>2021-06-21T21:08:18Z</time>
   </trkpt>
   <trkpt lat="47.5535940" lon="-122.0494730">
    <ele>14.7</ele>
    <time>2021-06-21T21:08:19Z</time>
   </trkpt>
   <trkpt lat="47.5535650" lon="-122.0494440">
    <ele>14.7</ele>
    <time>2021-06-21T21:08:20Z</time>
   </trkpt>
   <trkpt lat="47.5535420" lon="-122.0494030">
    <ele>14.7</ele>
    <time>2021-06-21T21:08:21Z</time>
   </trkpt>
   <trkpt lat="47.5535310" lon="-122.0493940">
    <ele>14.7</ele>
    <time>2021-06-21T21:08:22Z</time>
   </trkpt>
   <trkpt lat="47.5534830" lon="-122.0493770">
    <ele>14.7</ele>
    <time>2021-06-21T21:08:23Z</time>
   </trkpt>
   <trkpt lat="47.5534610" lon="-122.0493710">
    <ele>14.7</ele>
    <time>2021-06-21T21:08:24Z</time>
   </trkpt>
   <trkpt lat="47.5534240" lon="-122.0493570">
    <ele>14.8</ele>
    <time>2021-06-21T21:08:25Z</time>
   </trkpt>
   <trkpt lat="47.5533910" lon="-122.0493470">
    <ele>14.8</ele>
    <time>2021-06-21T21:08:26Z</time>
   </trkpt>
   <trkpt lat="47.5533590" lon="-122.0493250">
    <ele>14.8</ele>
    <time>2021-06-21T21:08:27Z</time>
   </trkpt>
   <trkpt lat="47.5533380" lon="-122.0492970">
    <ele>14.9</ele>
    <time>2021-06-21T21:08:28Z</time>
   </trkpt>
   <trkpt lat="47.5533090" lon="-122.0492710">
    <ele>14.9</ele>
    <time>2021-06-21T21:08:29Z</time>
   </trkpt>
   <trkpt lat="47.5532820" lon="-122.0492460">
    <ele>14.9</ele>
    <time>2021-06-21T21:08:30Z</time>
   </trkpt>
   <trkpt lat="47.5532540" lon="-122.0492010">
    <ele>15.0</ele>
    <time>2021-06-21T21:08:31Z</time>
   </trkpt>
   <trkpt lat="47.5532310" lon="-122.0491580">
    <ele>15.0</ele>
    <time>2021-06-21T21:08:32Z</time>
   </trkpt>
   <trkpt lat="47.5532020" lon="-122.0491330">
    <ele>15.0</ele>
    <time>2021-06-21T21:08:33Z</time>
   </trkpt>
   <trkpt lat="47.5531770" lon="-122.0490930">
    <ele>15.1</ele>
    <time>2021-06-21T21:08:34Z</time>
   </trkpt>
   <trkpt lat="47.5531530" lon="-122.0490500">
    <ele>15.2</ele>
    <time>2021-06-21T21:08:35Z</time>
   </trkpt>
   <trkpt lat="47.5531310" lon="-122.0490120">
    <ele>15.2</ele>
    <time>2021-06-21T21:08:36Z</time>
   </trkpt>
   <trkpt lat="47.5531130" lon="-122.0489690">
    <ele>15.3</ele>
    <time>2021-06-21T21:08:37Z</time>
   </trkpt>
   <trkpt lat="47.5530970" lon="-122.0489200">
    <ele>15.3</ele>
    <time>2021-06-21T21:08:38Z</time>
   </trkpt>
   <trkpt lat="47.5530740" lon="-122.0488820">
    <ele>15.4</ele>
    <time>2021-06-21T21:08:39Z</time>
   </trkpt>
   <trkpt lat="47.5530480" lon="-122.0488490">
    <ele>15.4</ele>
    <time>2021-06-21T21:08:40Z</time>
   </trkpt>
   <trkpt lat="47.5530180" lon="-122.0488180">
    <ele>15.4</ele>
    <time>2021-06-21T21:08:41Z</time>
   </trkpt>
   <trkpt lat="47.5529890" lon="-122.0487870">
    <ele>15.5</ele>
    <time>2021-06-21T21:08:42Z</time>
   </trkpt>
   <trkpt lat="47.5529690" lon="-122.0487530">
    <ele>15.5</ele>
    <time>2021-06-21T21:08:43Z</time>
   </trkpt>
   <trkpt lat="47.5529450" lon="-122.0487320">
    <ele>15.6</ele>
    <time>2021-06-21T21:08:44Z</time>
   </trkpt>
   <trkpt lat="47.5529340" lon="-122.0487110">
    <ele>15.6</ele>
    <time>2021-06-21T21:08:45Z</time>
   </trkpt>
   <trkpt lat="47.5529120" lon="-122.0486740">
    <ele>15.6</ele>
    <time>2021-06-21T21:08:46Z</time>
   </trkpt>
   <trkpt lat="47.5528810" lon="-122.0486470">
    <ele>15.7</ele>
    <time>2021-06-21T21:08:47Z</time>
   </trkpt>
   <trkpt lat="47.5528540" lon="-122.0486060">
    <ele>15.8</ele>
    <time>2021-06-21T21:08:48Z</time>
   </trkpt>
   <trkpt lat="47.5528310" lon="-122.0485630">
    <ele>15.9</ele>
    <time>2021-06-21T21:08:49Z</time>
   </trkpt>
   <trkpt lat="47.5528130" lon="-122.0485170">
    <ele>15.9</ele>
    <time>2021-06-21T21:08:50Z</time>
   </trkpt>
   <trkpt lat="47.5528040" lon="-122.0484640">
    <ele>16.0</ele>
    <time>2021-06-21T21:08:51Z</time>
   </trkpt>
   <trkpt lat="47.5528040" lon="-122.0484100">
    <ele>16.1</ele>
    <time>2021-06-21T21:08:52Z</time>
   </trkpt>
   <trkpt lat="47.5528130" lon="-122.0483590">
    <ele>16.2</ele>
    <time>2021-06-21T21:08:53Z</time>
   </trkpt>
   <trkpt lat="47.5528020" lon="-122.0483160">
    <ele>16.2</ele>
    <time>2021-06-21T21:08:54Z</time>
   </trkpt>
   <trkpt lat="47.5527900" lon="-122.0482710">
    <ele>16.2</ele>
    <time>2021-06-21T21:08:55Z</time>
   </trkpt>
   <trkpt lat="47.5527790" lon="-122.0482200">
    <ele>16.3</ele>
    <time>2021-06-21T21:08:56Z</time>
   </trkpt>
   <trkpt lat="47.5527680" lon="-122.0481650">
    <ele>16.3</ele>
    <time>2021-06-21T21:08:57Z</time>
   </trkpt>
   <trkpt lat="47.5527660" lon="-122.0481040">
    <ele>16.4</ele>
    <time>2021-06-21T21:08:58Z</time>
   </trkpt>
   <trkpt lat="47.5527520" lon="-122.0480560">
    <ele>16.5</ele>
    <time>2021-06-21T21:08:59Z</time>
   </trkpt>
   <trkpt lat="47.5527470" lon="-122.0480120">
    <ele>16.5</ele>
    <time>2021-06-21T21:09:00Z</time>
   </trkpt>
   <trkpt lat="47.5527310" lon="-122.0479660">
    <ele>16.6</ele>
    <time>2021-06-21T21:09:01Z</time>
   </trkpt>
   <trkpt lat="47.5527160" lon="-122.0479220">
    <ele>16.6</ele>
    <time>2021-06-21T21:09:02Z</time>
   </trkpt>
   <trkpt lat="47.5526990" lon="-122.0478780">
    <ele>16.7</ele>
    <time>2021-06-21T21:09:03Z</time>
   </trkpt>
   <trkpt lat="47.5526660" lon="-122.0478420">
    <ele>16.7</ele>
    <time>2021-06-21T21:09:04Z</time>
   </trkpt>
   <trkpt lat="47.5526470" lon="-122.0477890">
    <ele>16.7</ele>
    <time>2021-06-21T21:09:05Z</time>
   </trkpt>
   <trkpt lat="47.5526150" lon="-122.0477640">
    <ele>16.7</ele>
    <time>2021-06-21T21:09:06Z</time>
   </trkpt>
   <trkpt lat="47.5525830" lon="-122.0477250">
    <ele>16.7</ele>
    <time>2021-06-21T21:09:07Z</time>
   </trkpt>
   <trkpt lat="47.5525470" lon="-122.0477110">
    <ele>16.7</ele>
    <time>2021-06-21T21:09:08Z</time>
   </trkpt>
   <trkpt lat="47.5525070" lon="-122.0477140">
    <ele>16.7</ele>
    <time>2021-06-21T21:09:09Z</time>
   </trkpt>
   <trkpt lat="47.5524750" lon="-122.0477010">
    <ele>16.7</ele>
    <time>2021-06-21T21:09:10Z</time>
   </trkpt>
   <trkpt lat="47.5524450" lon="-122.0477050">
    <ele>16.7</ele>
    <time>2021-06-21T21:09:11Z</time>
   </trkpt>
   <trkpt lat="47.5524070" lon="-122.0476970">
    <ele>16.7</ele>
    <time>2021-06-21T21:09:12Z</time>
   </trkpt>
   <trkpt lat="47.5523710" lon="-122.0477050">
    <ele>16.7</ele>
    <time>2021-06-21T21:09:13Z</time>
   </trkpt>
   <trkpt lat="47.5523410" lon="-122.0477140">
    <ele>16.7</ele>
    <time>2021-06-21T21:09:14Z</time>
   </trkpt>
   <trkpt lat="47.5523020" lon="-122.0476970">
    <ele>16.7</ele>
    <time>2021-06-21T21:09:15Z</time>
   </trkpt>
   <trkpt lat="47.5522650" lon="-122.0477140">
    <ele>16.8</ele>
    <time>2021-06-21T21:09:16Z</time>
   </trkpt>
   <trkpt lat="47.5522320" lon="-122.0477230">
    <ele>16.8</ele>
    <time>2021-06-21T21:09:17Z</time>
   </trkpt>
   <trkpt lat="47.5522020" lon="-122.0477290">
    <ele>16.8</ele>
    <time>2021-06-21T21:09:18Z</time>
   </trkpt>
   <trkpt lat="47.5521660" lon="-122.0477300">
    <ele>16.9</ele>
    <time>2021-06-21T21:09:19Z</time>
   </trkpt>
   <trkpt lat="47.5521320" lon="-122.0477010">
    <ele>16.9</ele>
    <time>2021-06-21T21:09:20Z</time>
   </trkpt>
   <trkpt lat="47.5520970" lon="-122.0476710">
    <ele>17.0</ele>
    <time>2021-06-21T21:09:21Z</time>
   </trkpt>
   <trkpt lat="47.5520890" lon="-122.0476160">
    <ele>17.1</ele>
    <time>2021-06-21T21:09:22Z</time>
   </trkpt>
   <trkpt lat="47.5520900" lon="-122.0475460">
    <ele>17.1</ele>
    <time>2021-06-21T21:09:23Z</time>
   </trkpt>
   <trkpt lat="47.5520990" lon="-122.0474920">
    <ele>17.1</ele>
    <time>2021-06-21T21:09:24Z</time>
   </trkpt>
   <trkpt lat="47.5520960" lon="-122.0474380">
    <ele>17.1</ele>
    <time>2021-06-21T21:09:25Z</time>
   </trkpt>
   <trkpt lat="47.5521020" lon="-122.0473770">
    <ele>17.2</ele>
    <time>2021-06-21T21:09:26Z</time>
   </trkpt>
   <trkpt lat="47.5521020" lon="-122.0473180">
    <ele>17.2</ele>
    <time>2021-06-21T21:09:27Z</time>
   </trkpt>
   <trkpt lat="47.5520890" lon="-122.0472510">
    <ele>17.2</ele>
    <time>2021-06-21T21:09:28Z</time>
   </trkpt>
   <trkpt lat="47.5520830" lon="-122.0472060">
    <ele>17.3</ele>
    <time>2021-06-21T21:09:29Z</time>
   </trkpt>
   <trkpt lat="47.5520770" lon="-122.0471550">
    <ele>17.3</ele>
    <time>2021-06-21T21:09:30Z</time>
   </trkpt>
   <trkpt lat="47.5520860" lon="-122.0471020">
    <ele>17.3</ele>
    <time>2021-06-21T21:09:31Z</time>
   </trkpt>
   <trkpt lat="47.5520870" lon="-122.0470540">
    <ele>17.4</ele>
    <time>2021-06-21T21:09:32Z</time>
   </trkpt>
   <trkpt lat="47.5520920" lon="-122.0469940">
    <ele>17.5</ele>
    <time>2021-06-21T21:09:33Z</time>
   </trkpt>
   <trkpt lat="47.5520950" lon="-122.0469490">
    <ele>17.5</ele>
    <time>2021-06-21T21:09:34Z</time>
   </trkpt>
   <trkpt lat="47.5521010" lon="-122.0468740">
    <ele>17.6</ele>
    <time>2021-06-21T21:09:35Z</time>
   </trkpt>
   <trkpt lat="47.5521110" lon="-122.0468230">
    <ele>17.7</ele>
    <time>2021-06-21T21:09:36Z</time>
   </trkpt>
   <trkpt lat="47.5521130" lon="-122.0467770">
    <ele>17.7</ele>
    <time>2021-06-21T21:09:37Z</time>
   </trkpt>
   <trkpt lat="47.5521060" lon="-122.0467160">
    <ele>17.8</ele>
    <time>2021-06-21T21:09:38Z</time>
   </trkpt>
   <trkpt lat="47.5521040" lon="-122.0466660">
    <ele>17.9</ele>
    <time>2021-06-21T21:09:39Z</time>
   </trkpt>
   <trkpt lat="47.5520830" lon="-122.0466190">
    <ele>18.0</ele>
    <time>2021-06-21T21:09:40Z</time>
   </trkpt>
   <trkpt lat="47.5520790" lon="-122.0465770">
    <ele>18.0</ele>
    <time>2021-06-21T21:09:41Z</time>
   </trkpt>
   <trkpt lat="47.5520630" lon="-122.0465330">
    <ele>18.0</ele>
    <time>2021-06-21T21:09:42Z</time>
   </trkpt>
   <trkpt lat="47.5520690" lon="-122.0464710">
    <ele>18.0</ele>
    <time>2021-06-21T21:09:43Z</time>
   </trkpt>
   <trkpt lat="47.5520800" lon="-122.0464300">
    <ele>18.0</ele>
    <time>2021-06-21T21:09:44Z</time>
   </trkpt>
   <trkpt lat="47.5520930" lon="-122.0463780">
    <ele>17.9</ele>
    <time>2021-06-21T21:09:45Z</time>
   </trkpt>
   <trkpt lat="47.5521180" lon="-122.0463360">
    <ele>17.9</ele>
    <time>2021-06-21T21:09:46Z</time>
   </trkpt>
   <trkpt lat="47.5521250" lon="-122.0462870">
    <ele>17.9</ele>
    <time>2021-06-21T21:09:47Z</time>
   </trkpt>
   <trkpt lat="47.5521110" lon="-122.0462330">
    <ele>17.8</ele>
    <time>2021-06-21T21:09:48Z</time>
   </trkpt>
   <trkpt lat="47.5521050" lon="-122.0461900">
    <ele>17.8</ele>
    <time>2021-06-21T21:09:49Z</time>
   </trkpt>
   <trkpt lat="47.5521000" lon="-122.0461760">
    <ele>17.7</ele>
    <time>2021-06-21T21:09:50Z</time>
   </trkpt>
   <trkpt lat="47.5521100" lon="-122.0460980">
    <ele>17.7</ele>
    <time>2021-06-21T21:09:57Z</time>
   </trkpt>
   <trkpt lat="47.5521200" lon="-122.0460650">
    <ele>17.7</ele>
    <time>2021-06-21T21:09:58Z</time>
   </trkpt>
   <trkpt lat="47.5521290" lon="-122.0460310">
    <ele>17.6</ele>
    <time>2021-06-21T21:09:59Z</time>
   </trkpt>
   <trkpt lat="47.5521390" lon="-122.0459790">
    <ele>17.6</ele>
    <time>2021-06-21T21:10:00Z</time>
   </trkpt>
   <trkpt lat="47.5521320" lon="-122.0459160">
    <ele>17.6</ele>
    <time>2021-06-21T21:10:01Z</time>
   </trkpt>
   <trkpt lat="47.5521090" lon="-122.0458670">
    <ele>17.6</ele>
    <time>2021-06-21T21:10:02Z</time>
   </trkpt>
   <trkpt lat="47.5520950" lon="-122.0458500">
    <ele>17.6</ele>
    <time>2021-06-21T21:10:03Z</time>
   </trkpt>
   <trkpt lat="47.5521060" lon="-122.0457680">
    <ele>17.5</ele>
    <time>2021-06-21T21:10:04Z</time>
   </trkpt>
   <trkpt lat="47.5520930" lon="-122.0457140">
    <ele>17.5</ele>
    <time>2021-06-21T21:10:05Z</time>
   </trkpt>
   <trkpt lat="47.5521050" lon="-122.0456460">
    <ele>17.5</ele>
    <time>2021-06-21T21:10:06Z</time>
   </trkpt>
   <trkpt lat="47.5521080" lon="-122.0455830">
    <ele>17.5</ele>
    <time>2021-06-21T21:10:07Z</time>
   </trkpt>
   <trkpt lat="47.5521040" lon="-122.0455350">
    <ele>17.5</ele>
    <time>2021-06-21T21:10:08Z</time>
   </trkpt>
   <trkpt lat="47.5521140" lon="-122.0454890">
    <ele>17.5</ele>
    <time>2021-06-21T21:10:09Z</time>
   </trkpt>
   <trkpt lat="47.5521070" lon="-122.0454370">
    <ele>17.4</ele>
    <time>2021-06-21T21:10:10Z</time>
   </trkpt>
   <trkpt lat="47.5521080" lon="-122.0453750">
    <ele>17.4</ele>
    <time>2021-06-21T21:10:11Z</time>
   </trkpt>
   <trkpt lat="47.5521060" lon="-122.0453280">
    <ele>17.4</ele>
    <time>2021-06-21T21:10:12Z</time>
   </trkpt>
   <trkpt lat="47.5521030" lon="-122.0452740">
    <ele>17.4</ele>
    <time>2021-06-21T21:10:13Z</time>
   </trkpt>
   <trkpt lat="47.5521020" lon="-122.0452220">
    <ele>17.3</ele>
    <time>2021-06-21T21:10:14Z</time>
   </trkpt>
   <trkpt lat="47.5520910" lon="-122.0451630">
    <ele>17.3</ele>
    <time>2021-06-21T21:10:15Z</time>
   </trkpt>
   <trkpt lat="47.5521050" lon="-122.0451120">
    <ele>17.3</ele>
    <time>2021-06-21T21:10:16Z</time>
   </trkpt>
   <trkpt lat="47.5520970" lon="-122.0450640">
    <ele>17.3</ele>
    <time>2021-06-21T21:10:17Z</time>
   </trkpt>
   <trkpt lat="47.5520970" lon="-122.0450090">
    <ele>17.2</ele>
    <time>2021-06-21T21:10:18Z</time>
   </trkpt>
   <trkpt lat="47.5521090" lon="-122.0449590">
    <ele>17.2</ele>
    <time>2021-06-21T21:10:19Z</time>
   </trkpt>
   <trkpt lat="47.5521030" lon="-122.0449030">
    <ele>17.2</ele>
    <time>2021-06-21T21:10:20Z</time>
   </trkpt>
   <trkpt lat="47.5521110" lon="-122.0448470">
    <ele>17.2</ele>
    <time>2021-06-21T21:10:21Z</time>
   </trkpt>
   <trkpt lat="47.5520970" lon="-122.0447850">
    <ele>17.1</ele>
    <time>2021-06-21T21:10:22Z</time>
   </trkpt>
   <trkpt lat="47.5520970" lon="-122.0447280">
    <ele>17.1</ele>
    <time>2021-06-21T21:10:23Z</time>
   </trkpt>
   <trkpt lat="47.5521000" lon="-122.0446870">
    <ele>17.1</ele>
    <time>2021-06-21T21:10:24Z</time>
   </trkpt>
   <trkpt lat="47.5520970" lon="-122.0446340">
    <ele>17.1</ele>
    <time>2021-06-21T21:10:25Z</time>
   </trkpt>
   <trkpt lat="47.5520880" lon="-122.0445770">
    <ele>17.1</ele>
    <time>2021-06-21T21:10:26Z</time>
   </trkpt>
   <trkpt lat="47.5520830" lon="-122.0445100">
    <ele>17.1</ele>
    <time>2021-06-21T21:10:27Z</time>
   </trkpt>
   <trkpt lat="47.5520880" lon="-122.0444500">
    <ele>17.1</ele>
    <time>2021-06-21T21:10:28Z</time>
   </trkpt>
   <trkpt lat="47.5520920" lon="-122.0444000">
    <ele>17.1</ele>
    <time>2021-06-21T21:10:29Z</time>
   </trkpt>
   <trkpt lat="47.5520840" lon="-122.0443360">
    <ele>17.1</ele>
    <time>2021-06-21T21:10:30Z</time>
   </trkpt>
   <trkpt lat="47.5521010" lon="-122.0443050">
    <ele>17.1</ele>
    <time>2021-06-21T21:10:31Z</time>
   </trkpt>
   <trkpt lat="47.5521280" lon="-122.0442590">
    <ele>17.1</ele>
    <time>2021-06-21T21:10:32Z</time>
   </trkpt>
   <trkpt lat="47.5521640" lon="-122.0442340">
    <ele>17.1</ele>
    <time>2021-06-21T21:10:33Z</time>
   </trkpt>
   <trkpt lat="47.5521930" lon="-122.0442440">
    <ele>17.2</ele>
    <time>2021-06-21T21:10:34Z</time>
   </trkpt>
   <trkpt lat="47.5521860" lon="-122.0441010">
    <ele>17.3</ele>
    <time>2021-06-21T21:16:12Z</time>
   </trkpt>
   <trkpt lat="47.5522060" lon="-122.0441040">
    <ele>16.9</ele>
    <time>2021-06-21T21:16:13Z</time>
   </trkpt>
   <trkpt lat="47.5522250" lon="-122.0441080">
    <ele>16.8</ele>
    <time>2021-06-21T21:16:14Z</time>
   </trkpt>
   <trkpt lat="47.5522450" lon="-122.0441120">
    <ele>16.8</ele>
    <time>2021-06-21T21:16:15Z</time>
   </trkpt>
   <trkpt lat="47.5522960" lon="-122.0441530">
    <ele>16.6</ele>
    <time>2021-06-21T21:16:16Z</time>
   </trkpt>
   <trkpt lat="47.5523480" lon="-122.0441770">
    <ele>16.5</ele>
    <time>2021-06-21T21:16:17Z</time>
   </trkpt>
   <trkpt lat="47.5523890" lon="-122.0441960">
    <ele>16.5</ele>
    <time>2021-06-21T21:16:18Z</time>
   </trkpt>
   <trkpt lat="47.5524300" lon="-122.0442050">
    <ele>16.4</ele>
    <time>2021-06-21T21:16:19Z</time>
   </trkpt>
   <trkpt lat="47.5524730" lon="-122.0442240">
    <ele>16.4</ele>
    <time>2021-06-21T21:16:20Z</time>
   </trkpt>
   <trkpt lat="47.5525140" lon="-122.0442500">
    <ele>16.3</ele>
    <time>2021-06-21T21:16:21Z</time>
   </trkpt>
   <trkpt lat="47.5525600" lon="-122.0442720">
    <ele>16.2</ele>
    <time>2021-06-21T21:16:22Z</time>
   </trkpt>
   <trkpt lat="47.5526010" lon="-122.0442900">
    <ele>16.2</ele>
    <time>2021-06-21T21:16:23Z</time>
   </trkpt>
   <trkpt lat="47.5526400" lon="-122.0443030">
    <ele>16.2</ele>
    <time>2021-06-21T21:16:24Z</time>
   </trkpt>
   <trkpt lat="47.5526760" lon="-122.0443030">
    <ele>16.1</ele>
    <time>2021-06-21T21:16:25Z</time>
   </trkpt>
   <trkpt lat="47.5527200" lon="-122.0443250">
    <ele>16.1</ele>
    <time>2021-06-21T21:16:26Z</time>
   </trkpt>
   <trkpt lat="47.5527560" lon="-122.0443330">
    <ele>16.1</ele>
    <time>2021-06-21T21:16:27Z</time>
   </trkpt>
   <trkpt lat="47.5527960" lon="-122.0443540">
    <ele>16.0</ele>
    <time>2021-06-21T21:16:28Z</time>
   </trkpt>
   <trkpt lat="47.5528110" lon="-122.0443620">
    <ele>16.0</ele>
    <time>2021-06-21T21:16:29Z</time>
   </trkpt>
   <trkpt lat="47.5528430" lon="-122.0443860">
    <ele>16.0</ele>
    <time>2021-06-21T21:16:30Z</time>
   </trkpt>
   <trkpt lat="47.5528780" lon="-122.0444060">
    <ele>16.0</ele>
    <time>2021-06-21T21:16:31Z</time>
   </trkpt>
   <trkpt lat="47.5529120" lon="-122.0444220">
    <ele>16.0</ele>
    <time>2021-06-21T21:16:32Z</time>
   </trkpt>
   <trkpt lat="47.5529510" lon="-122.0444470">
    <ele>16.0</ele>
    <time>2021-06-21T21:16:33Z</time>
   </trkpt>
   <trkpt lat="47.5529990" lon="-122.0444600">
    <ele>16.0</ele>
    <time>2021-06-21T21:16:34Z</time>
   </trkpt>
   <trkpt lat="47.5530410" lon="-122.0444860">
    <ele>16.0</ele>
    <time>2021-06-21T21:16:35Z</time>
   </trkpt>
   <trkpt lat="47.5530800" lon="-122.0445110">
    <ele>16.0</ele>
    <time>2021-06-21T21:16:36Z</time>
   </trkpt>
   <trkpt lat="47.5531160" lon="-122.0445230">
    <ele>16.0</ele>
    <time>2021-06-21T21:16:37Z</time>
   </trkpt>
   <trkpt lat="47.5531560" lon="-122.0445470">
    <ele>16.0</ele>
    <time>2021-06-21T21:16:38Z</time>
   </trkpt>
   <trkpt lat="47.5531920" lon="-122.0445590">
    <ele>16.0</ele>
    <time>2021-06-21T21:16:39Z</time>
   </trkpt>
   <trkpt lat="47.5532380" lon="-122.0445820">
    <ele>16.0</ele>
    <time>2021-06-21T21:16:40Z</time>
   </trkpt>
   <trkpt lat="47.5532710" lon="-122.0446030">
    <ele>16.0</ele>
    <time>2021-06-21T21:16:41Z</time>
   </trkpt>
   <trkpt lat="47.5533090" lon="-122.0446140">
    <ele>15.9</ele>
    <time>2021-06-21T21:16:42Z</time>
   </trkpt>
   <trkpt lat="47.5533480" lon="-122.0446300">
    <ele>15.9</ele>
    <time>2021-06-21T21:16:43Z</time>
   </trkpt>
   <trkpt lat="47.5533810" lon="-122.0446420">
    <ele>15.9</ele>
    <time>2021-06-21T21:16:44Z</time>
   </trkpt>
   <trkpt lat="47.5534260" lon="-122.0446660">
    <ele>15.9</ele>
    <time>2021-06-21T21:16:45Z</time>
   </trkpt>
   <trkpt lat="47.5534550" lon="-122.0446800">
    <ele>15.9</ele>
    <time>2021-06-21T21:16:46Z</time>
   </trkpt>
   <trkpt lat="47.5534950" lon="-122.0447000">
    <ele>15.9</ele>
    <time>2021-06-21T21:16:47Z</time>
   </trkpt>
   <trkpt lat="47.5535340" lon="-122.0447120">
    <ele>15.9</ele>
    <time>2021-06-21T21:16:48Z</time>
   </trkpt>
   <trkpt lat="47.5535780" lon="-122.0447240">
    <ele>15.9</ele>
    <time>2021-06-21T21:16:49Z</time>
   </trkpt>
   <trkpt lat="47.5536140" lon="-122.0447360">
    <ele>15.9</ele>
    <time>2021-06-21T21:16:50Z</time>
   </trkpt>
   <trkpt lat="47.5536530" lon="-122.0447410">
    <ele>15.9</ele>
    <time>2021-06-21T21:16:51Z</time>
   </trkpt>
   <trkpt lat="47.5536910" lon="-122.0447740">
    <ele>15.9</ele>
    <time>2021-06-21T21:16:52Z</time>
   </trkpt>
   <trkpt lat="47.5537240" lon="-122.0447780">
    <ele>15.9</ele>
    <time>2021-06-21T21:16:53Z</time>
   </trkpt>
   <trkpt lat="47.5537640" lon="-122.0448050">
    <ele>15.9</ele>
    <time>2021-06-21T21:16:54Z</time>
   </trkpt>
   <trkpt lat="47.5537920" lon="-122.0448120">
    <ele>15.9</ele>
    <time>2021-06-21T21:16:55Z</time>
   </trkpt>
   <trkpt lat="47.5538300" lon="-122.0448420">
    <ele>15.9</ele>
    <time>2021-06-21T21:16:56Z</time>
   </trkpt>
   <trkpt lat="47.5538650" lon="-122.0448550">
    <ele>15.8</ele>
    <time>2021-06-21T21:16:57Z</time>
   </trkpt>
   <trkpt lat="47.5539000" lon="-122.0448620">
    <ele>15.8</ele>
    <time>2021-06-21T21:16:58Z</time>
   </trkpt>
   <trkpt lat="47.5539380" lon="-122.0448740">
    <ele>15.8</ele>
    <time>2021-06-21T21:16:59Z</time>
   </trkpt>
   <trkpt lat="47.5539730" lon="-122.0448820">
    <ele>15.8</ele>
    <time>2021-06-21T21:17:00Z</time>
   </trkpt>
   <trkpt lat="47.5540190" lon="-122.0449090">
    <ele>15.8</ele>
    <time>2021-06-21T21:17:01Z</time>
   </trkpt>
   <trkpt lat="47.5540560" lon="-122.0449180">
    <ele>15.8</ele>
    <time>2021-06-21T21:17:02Z</time>
   </trkpt>
   <trkpt lat="47.5540900" lon="-122.0449480">
    <ele>15.8</ele>
    <time>2021-06-21T21:17:03Z</time>
   </trkpt>
   <trkpt lat="47.5541280" lon="-122.0449590">
    <ele>15.8</ele>
    <time>2021-06-21T21:17:04Z</time>
   </trkpt>
   <trkpt lat="47.5541660" lon="-122.0449690">
    <ele>15.8</ele>
    <time>2021-06-21T21:17:05Z</time>
   </trkpt>
   <trkpt lat="47.5542050" lon="-122.0449950">
    <ele>15.7</ele>
    <time>2021-06-21T21:17:06Z</time>
   </trkpt>
   <trkpt lat="47.5542430" lon="-122.0450160">
    <ele>15.7</ele>
    <time>2021-06-21T21:17:07Z</time>
   </trkpt>
   <trkpt lat="47.5542710" lon="-122.0450400">
    <ele>15.7</ele>
    <time>2021-06-21T21:17:08Z</time>
   </trkpt>
   <trkpt lat="47.5543050" lon="-122.0450470">
    <ele>15.7</ele>
    <time>2021-06-21T21:17:09Z</time>
   </trkpt>
   <trkpt lat="47.5543360" lon="-122.0450640">
    <ele>15.7</ele>
    <time>2021-06-21T21:17:10Z</time>
   </trkpt>
   <trkpt lat="47.5543710" lon="-122.0450690">
    <ele>15.7</ele>
    <time>2021-06-21T21:17:11Z</time>
   </trkpt>
   <trkpt lat="47.5544110" lon="-122.0450860">
    <ele>15.7</ele>
    <time>2021-06-21T21:17:12Z</time>
   </trkpt>
   <trkpt lat="47.5544490" lon="-122.0450970">
    <ele>15.6</ele>
    <time>2021-06-21T21:17:13Z</time>
   </trkpt>
   <trkpt lat="47.5544870" lon="-122.0451130">
    <ele>15.6</ele>
    <time>2021-06-21T21:17:14Z</time>
   </trkpt>
   <trkpt lat="47.5545160" lon="-122.0451310">
    <ele>15.6</ele>
    <time>2021-06-21T21:17:15Z</time>
   </trkpt>
   <trkpt lat="47.5545530" lon="-122.0451420">
    <ele>15.6</ele>
    <time>2021-06-21T21:17:16Z</time>
   </trkpt>
   <trkpt lat="47.5545940" lon="-122.0451740">
    <ele>15.6</ele>
    <time>2021-06-21T21:17:17Z</time>
   </trkpt>
   <trkpt lat="47.5546320" lon="-122.0451870">
    <ele>15.6</ele>
    <time>2021-06-21T21:17:18Z</time>
   </trkpt>
   <trkpt lat="47.5546720" lon="-122.0452040">
    <ele>15.6</ele>
    <time>2021-06-21T21:17:19Z</time>
   </trkpt>
   <trkpt lat="47.5547070" lon="-122.0452180">
    <ele>15.5</ele>
    <time>2021-06-21T21:17:20Z</time>
   </trkpt>
   <trkpt lat="47.5547410" lon="-122.0452240">
    <ele>15.5</ele>
    <time>2021-06-21T21:17:21Z</time>
   </trkpt>
   <trkpt lat="47.5547740" lon="-122.0452510">
    <ele>15.5</ele>
    <time>2021-06-21T21:17:22Z</time>
   </trkpt>
   <trkpt lat="47.5548160" lon="-122.0452510">
    <ele>15.5</ele>
    <time>2021-06-21T21:17:23Z</time>
   </trkpt>
   <trkpt lat="47.5548570" lon="-122.0452850">
    <ele>15.5</ele>
    <time>2021-06-21T21:17:24Z</time>
   </trkpt>
   <trkpt lat="47.5548960" lon="-122.0452970">
    <ele>15.5</ele>
    <time>2021-06-21T21:17:25Z</time>
   </trkpt>
   <trkpt lat="47.5549340" lon="-122.0453140">
    <ele>15.5</ele>
    <time>2021-06-21T21:17:26Z</time>
   </trkpt>
   <trkpt lat="47.5549770" lon="-122.0453330">
    <ele>15.5</ele>
    <time>2021-06-21T21:17:27Z</time>
   </trkpt>
   <trkpt lat="47.5550100" lon="-122.0453410">
    <ele>15.4</ele>
    <time>2021-06-21T21:17:28Z</time>
   </trkpt>
   <trkpt lat="47.5550500" lon="-122.0453630">
    <ele>15.4</ele>
    <time>2021-06-21T21:17:29Z</time>
   </trkpt>
   <trkpt lat="47.5550820" lon="-122.0453700">
    <ele>15.4</ele>
    <time>2021-06-21T21:17:30Z</time>
   </trkpt>
   <trkpt lat="47.5551140" lon="-122.0454080">
    <ele>15.4</ele>
    <time>2021-06-21T21:17:31Z</time>
   </trkpt>
   <trkpt lat="47.5551470" lon="-122.0454140">
    <ele>15.4</ele>
    <time>2021-06-21T21:17:32Z</time>
   </trkpt>
   <trkpt lat="47.5551840" lon="-122.0454430">
    <ele>15.4</ele>
    <time>2021-06-21T21:17:33Z</time>
   </trkpt>
   <trkpt lat="47.5552140" lon="-122.0454710">
    <ele>15.4</ele>
    <time>2021-06-21T21:17:34Z</time>
   </trkpt>
   <trkpt lat="47.5552500" lon="-122.0454900">
    <ele>15.4</ele>
    <time>2021-06-21T21:17:35Z</time>
   </trkpt>
   <trkpt lat="47.5552880" lon="-122.0455100">
    <ele>15.5</ele>
    <time>2021-06-21T21:17:36Z</time>
   </trkpt>
   <trkpt lat="47.5553320" lon="-122.0455280">
    <ele>15.5</ele>
    <time>2021-06-21T21:17:37Z</time>
   </trkpt>
   <trkpt lat="47.5553690" lon="-122.0455610">
    <ele>15.5</ele>
    <time>2021-06-21T21:17:38Z</time>
   </trkpt>
   <trkpt lat="47.5554040" lon="-122.0455660">
    <ele>15.5</ele>
    <time>2021-06-21T21:17:39Z</time>
   </trkpt>
   <trkpt lat="47.5554280" lon="-122.0456000">
    <ele>15.5</ele>
    <time>2021-06-21T21:17:40Z</time>
   </trkpt>
   <trkpt lat="47.5554570" lon="-122.0456210">
    <ele>15.5</ele>
    <time>2021-06-21T21:17:41Z</time>
   </trkpt>
   <trkpt lat="47.5554900" lon="-122.0456440">
    <ele>15.5</ele>
    <time>2021-06-21T21:17:42Z</time>
   </trkpt>
   <trkpt lat="47.5555210" lon="-122.0456690">
    <ele>15.5</ele>
    <time>2021-06-21T21:17:43Z</time>
   </trkpt>
   <trkpt lat="47.5555580" lon="-122.0456980">
    <ele>15.6</ele>
    <time>2021-06-21T21:17:44Z</time>
   </trkpt>
   <trkpt lat="47.5555900" lon="-122.0457250">
    <ele>15.6</ele>
    <time>2021-06-21T21:17:45Z</time>
   </trkpt>
   <trkpt lat="47.5556330" lon="-122.0457340">
    <ele>15.6</ele>
    <time>2021-06-21T21:17:46Z</time>
   </trkpt>
   <trkpt lat="47.5556700" lon="-122.0457670">
    <ele>15.6</ele>
    <time>2021-06-21T21:17:47Z</time>
   </trkpt>
   <trkpt lat="47.5556860" lon="-122.0457770">
    <ele>15.6</ele>
    <time>2021-06-21T21:17:48Z</time>
   </trkpt>
   <trkpt lat="47.5557200" lon="-122.0458130">
    <ele>15.7</ele>
    <time>2021-06-21T21:17:49Z</time>
   </trkpt>
   <trkpt lat="47.5557520" lon="-122.0458380">
    <ele>15.7</ele>
    <time>2021-06-21T21:17:50Z</time>
   </trkpt>
   <trkpt lat="47.5557960" lon="-122.0458510">
    <ele>15.7</ele>
    <time>2021-06-21T21:17:51Z</time>
   </trkpt>
   <trkpt lat="47.5558300" lon="-122.0458710">
    <ele>15.7</ele>
    <time>2021-06-21T21:17:52Z</time>
   </trkpt>
   <trkpt lat="47.5558730" lon="-122.0458850">
    <ele>15.7</ele>
    <time>2021-06-21T21:17:53Z</time>
   </trkpt>
   <trkpt lat="47.5559060" lon="-122.0459040">
    <ele>15.8</ele>
    <time>2021-06-21T21:17:54Z</time>
   </trkpt>
   <trkpt lat="47.5559380" lon="-122.0459350">
    <ele>15.8</ele>
    <time>2021-06-21T21:17:55Z</time>
   </trkpt>
   <trkpt lat="47.5559740" lon="-122.0459650">
    <ele>15.8</ele>
    <time>2021-06-21T21:17:56Z</time>
   </trkpt>
   <trkpt lat="47.5560040" lon="-122.0459870">
    <ele>15.8</ele>
    <time>2021-06-21T21:17:57Z</time>
   </trkpt>
   <trkpt lat="47.5560370" lon="-122.0460110">
    <ele>15.9</ele>
    <time>2021-06-21T21:17:58Z</time>
   </trkpt>
   <trkpt lat="47.5560590" lon="-122.0460420">
    <ele>15.9</ele>
    <time>2021-06-21T21:17:59Z</time>
   </trkpt>
   <trkpt lat="47.5560970" lon="-122.0460730">
    <ele>15.9</ele>
    <time>2021-06-21T21:18:00Z</time>
   </trkpt>
   <trkpt lat="47.5561290" lon="-122.0460890">
    <ele>16.0</ele>
    <time>2021-06-21T21:18:01Z</time>
   </trkpt>
   <trkpt lat="47.5561550" lon="-122.0461080">
    <ele>16.0</ele>
    <time>2021-06-21T21:18:02Z</time>
   </trkpt>
   <trkpt lat="47.5561900" lon="-122.0461520">
    <ele>16.1</ele>
    <time>2021-06-21T21:18:03Z</time>
   </trkpt>
   <trkpt lat="47.5562200" lon="-122.0461730">
    <ele>16.1</ele>
    <time>2021-06-21T21:18:04Z</time>
   </trkpt>
   <trkpt lat="47.5562560" lon="-122.0461800">
    <ele>16.2</ele>
    <time>2021-06-21T21:18:05Z</time>
   </trkpt>
   <trkpt lat="47.5562870" lon="-122.0462020">
    <ele>16.2</ele>
    <time>2021-06-21T21:18:06Z</time>
   </trkpt>
   <trkpt lat="47.5563190" lon="-122.0462250">
    <ele>16.3</ele>
    <time>2021-06-21T21:18:07Z</time>
   </trkpt>
   <trkpt lat="47.5563590" lon="-122.0462320">
    <ele>16.3</ele>
    <time>2021-06-21T21:18:08Z</time>
   </trkpt>
   <trkpt lat="47.5563830" lon="-122.0462630">
    <ele>16.4</ele>
    <time>2021-06-21T21:18:09Z</time>
   </trkpt>
   <trkpt lat="47.5564160" lon="-122.0462940">
    <ele>16.5</ele>
    <time>2021-06-21T21:18:10Z</time>
   </trkpt>
   <trkpt lat="47.5564490" lon="-122.0463270">
    <ele>16.5</ele>
    <time>2021-06-21T21:18:11Z</time>
   </trkpt>
   <trkpt lat="47.5564910" lon="-122.0463470">
    <ele>16.6</ele>
    <time>2021-06-21T21:18:12Z</time>
   </trkpt>
   <trkpt lat="47.5565100" lon="-122.0463450">
    <ele>16.6</ele>
    <time>2021-06-21T21:18:13Z</time>
   </trkpt>
   <trkpt lat="47.5565940" lon="-122.0463960">
    <ele>16.7</ele>
    <time>2021-06-21T21:18:14Z</time>
   </trkpt>
   <trkpt lat="47.5566580" lon="-122.0464400">
    <ele>16.7</ele>
    <time>2021-06-21T21:22:13Z</time>
   </trkpt>
   <trkpt lat="47.5567220" lon="-122.0464840">
    <ele>16.6</ele>
    <time>2021-06-21T21:22:14Z</time>
   </trkpt>
   <trkpt lat="47.5567850" lon="-122.0465280">
    <ele>16.6</ele>
    <time>2021-06-21T21:22:15Z</time>
   </trkpt>
   <trkpt lat="47.5568490" lon="-122.0465720">
    <ele>16.5</ele>
    <time>2021-06-21T21:22:16Z</time>
   </trkpt>
   <trkpt lat="47.5569130" lon="-122.0466160">
    <ele>16.3</ele>
    <time>2021-06-21T21:22:17Z</time>
   </trkpt>
   <trkpt lat="47.5569610" lon="-122.0466500">
    <ele>16.2</ele>
    <time>2021-06-21T21:22:18Z</time>
   </trkpt>
   <trkpt lat="47.5569970" lon="-122.0466740">
    <ele>16.1</ele>
    <time>2021-06-21T21:22:19Z</time>
   </trkpt>
   <trkpt lat="47.5570340" lon="-122.0467090">
    <ele>16.0</ele>
    <time>2021-06-21T21:22:20Z</time>
   </trkpt>
   <trkpt lat="47.5570700" lon="-122.0467460">
    <ele>15.9</ele>
    <time>2021-06-21T21:22:21Z</time>
   </trkpt>
   <trkpt lat="47.5571010" lon="-122.0467760">
    <ele>15.8</ele>
    <time>2021-06-21T21:22:22Z</time>
   </trkpt>
   <trkpt lat="47.5571370" lon="-122.0468140">
    <ele>15.7</ele>
    <time>2021-06-21T21:22:23Z</time>
   </trkpt>
   <trkpt lat="47.5571700" lon="-122.0468350">
    <ele>15.6</ele>
    <time>2021-06-21T21:22:24Z</time>
   </trkpt>
   <trkpt lat="47.5572200" lon="-122.0468530">
    <ele>15.6</ele>
    <time>2021-06-21T21:22:25Z</time>
   </trkpt>
   <trkpt lat="47.5572490" lon="-122.0468700">
    <ele>15.5</ele>
    <time>2021-06-21T21:22:26Z</time>
   </trkpt>
   <trkpt lat="47.5572780" lon="-122.0469020">
    <ele>15.5</ele>
    <time>2021-06-21T21:22:27Z</time>
   </trkpt>
   <trkpt lat="47.5573160" lon="-122.0469380">
    <ele>15.4</ele>
    <time>2021-06-21T21:22:28Z</time>
   </trkpt>
   <trkpt lat="47.5573470" lon="-122.0469570">
    <ele>15.4</ele>
    <time>2021-06-21T21:22:29Z</time>
   </trkpt>
   <trkpt lat="47.5573830" lon="-122.0469810">
    <ele>15.3</ele>
    <time>2021-06-21T21:22:30Z</time>
   </trkpt>
   <trkpt lat="47.5574200" lon="-122.0470080">
    <ele>15.3</ele>
    <time>2021-06-21T21:22:31Z</time>
   </trkpt>
   <trkpt lat="47.5574560" lon="-122.0470310">
    <ele>15.3</ele>
    <time>2021-06-21T21:22:32Z</time>
   </trkpt>
   <trkpt lat="47.5574850" lon="-122.0470580">
    <ele>15.3</ele>
    <time>2021-06-21T21:22:33Z</time>
   </trkpt>
   <trkpt lat="47.5575170" lon="-122.0470800">
    <ele>15.3</ele>
    <time>2021-06-21T21:22:34Z</time>
   </trkpt>
   <trkpt lat="47.5575550" lon="-122.0471090">
    <ele>15.2</ele>
    <time>2021-06-21T21:22:35Z</time>
   </trkpt>
   <trkpt lat="47.5575870" lon="-122.0471310">
    <ele>15.2</ele>
    <time>2021-06-21T21:22:36Z</time>
   </trkpt>
   <trkpt lat="47.5576220" lon="-122.0471530">
    <ele>15.2</ele>
    <time>2021-06-21T21:22:37Z</time>
   </trkpt>
   <trkpt lat="47.5576640" lon="-122.0471680">
    <ele>15.2</ele>
    <time>2021-06-21T21:22:38Z</time>
   </trkpt>
   <trkpt lat="47.5577010" lon="-122.0471920">
    <ele>15.2</ele>
    <time>2021-06-21T21:22:39Z</time>
   </trkpt>
   <trkpt lat="47.5577300" lon="-122.0472310">
    <ele>15.2</ele>
    <time>2021-06-21T21:22:40Z</time>
   </trkpt>
   <trkpt lat="47.5577590" lon="-122.0472540">
    <ele>15.1</ele>
    <time>2021-06-21T21:22:41Z</time>
   </trkpt>
   <trkpt lat="47.5577950" lon="-122.0472820">
    <ele>15.1</ele>
    <time>2021-06-21T21:22:42Z</time>
   </trkpt>
   <trkpt lat="47.5578270" lon="-122.0473050">
    <ele>15.1</ele>
    <time>2021-06-21T21:22:43Z</time>
   </trkpt>
   <trkpt lat="47.5578570" lon="-122.0473280">
    <ele>15.1</ele>
    <time>2021-06-21T21:22:44Z</time>
   </trkpt>
   <trkpt lat="47.5578880" lon="-122.0473550">
    <ele>15.1</ele>
    <time>2021-06-21T21:22:45Z</time>
   </trkpt>
   <trkpt lat="47.5579270" lon="-122.0473780">
    <ele>15.1</ele>
    <time>2021-06-21T21:22:46Z</time>
   </trkpt>
   <trkpt lat="47.5579620" lon="-122.0473970">
    <ele>15.1</ele>
    <time>2021-06-21T21:22:47Z</time>
   </trkpt>
   <trkpt lat="47.5579970" lon="-122.0474210">
    <ele>15.0</ele>
    <time>2021-06-21T21:22:48Z</time>
   </trkpt>
   <trkpt lat="47.5580380" lon="-122.0474350">
    <ele>15.0</ele>
    <time>2021-06-21T21:22:49Z</time>
   </trkpt>
   <trkpt lat="47.5580690" lon="-122.0474690">
    <ele>15.0</ele>
    <time>2021-06-21T21:22:50Z</time>
   </trkpt>
   <trkpt lat="47.5581060" lon="-122.0474870">
    <ele>14.9</ele>
    <time>2021-06-21T21:22:51Z</time>
   </trkpt>
   <trkpt lat="47.5581310" lon="-122.0475190">
    <ele>14.9</ele>
    <time>2021-06-21T21:22:52Z</time>
   </trkpt>
   <trkpt lat="47.5581630" lon="-122.0475260">
    <ele>14.9</ele>
    <time>2021-06-21T21:22:53Z</time>
   </trkpt>
   <trkpt lat="47.5581970" lon="-122.0475620">
    <ele>14.9</ele>
    <time>2021-06-21T21:22:54Z</time>
   </trkpt>
   <trkpt lat="47.5582250" lon="-122.0475860">
    <ele>14.8</ele>
    <time>2021-06-21T21:22:55Z</time>
   </trkpt>
   <trkpt lat="47.5582590" lon="-122.0476050">
    <ele>14.8</ele>
    <time>2021-06-21T21:22:56Z</time>
   </trkpt>
   <trkpt lat="47.5582910" lon="-122.0476400">
    <ele>14.8</ele>
    <time>2021-06-21T21:22:57Z</time>
   </trkpt>
   <trkpt lat="47.5583290" lon="-122.0476550">
    <ele>14.8</ele>
    <time>2021-06-21T21:22:58Z</time>
   </trkpt>
   <trkpt lat="47.5583570" lon="-122.0476820">
    <ele>14.8</ele>
    <time>2021-06-21T21:22:59Z</time>
   </trkpt>
   <trkpt lat="47.5583870" lon="-122.0477030">
    <ele>14.7</ele>
    <time>2021-06-21T21:23:00Z</time>
   </trkpt>
   <trkpt lat="47.5584190" lon="-122.0477250">
    <ele>14.7</ele>
    <time>2021-06-21T21:23:01Z</time>
   </trkpt>
   <trkpt lat="47.5584610" lon="-122.0477520">
    <ele>14.7</ele>
    <time>2021-06-21T21:23:02Z</time>
   </trkpt>
   <trkpt lat="47.5584800" lon="-122.0477590">
    <ele>14.7</ele>
    <time>2021-06-21T21:23:03Z</time>
   </trkpt>
   <trkpt lat="47.5585050" lon="-122.0477970">
    <ele>14.7</ele>
    <time>2021-06-21T21:23:04Z</time>
   </trkpt>
   <trkpt lat="47.5585450" lon="-122.0478050">
    <ele>14.7</ele>
    <time>2021-06-21T21:23:05Z</time>
   </trkpt>
   <trkpt lat="47.5585770" lon="-122.0478390">
    <ele>14.7</ele>
    <time>2021-06-21T21:23:06Z</time>
   </trkpt>
   <trkpt lat="47.5586050" lon="-122.0478710">
    <ele>14.7</ele>
    <time>2021-06-21T21:23:07Z</time>
   </trkpt>
   <trkpt lat="47.5586420" lon="-122.0478910">
    <ele>14.7</ele>
    <time>2021-06-21T21:23:08Z</time>
   </trkpt>
   <trkpt lat="47.5586680" lon="-122.0479210">
    <ele>14.7</ele>
    <time>2021-06-21T21:23:09Z</time>
   </trkpt>
   <trkpt lat="47.5587020" lon="-122.0479360">
    <ele>14.7</ele>
    <time>2021-06-21T21:23:10Z</time>
   </trkpt>
   <trkpt lat="47.5587320" lon="-122.0479700">
    <ele>14.7</ele>
    <time>2021-06-21T21:23:11Z</time>
   </trkpt>
   <trkpt lat="47.5587610" lon="-122.0479790">
    <ele>14.7</ele>
    <time>2021-06-21T21:23:12Z</time>
   </trkpt>
   <trkpt lat="47.5587970" lon="-122.0480030">
    <ele>14.7</ele>
    <time>2021-06-21T21:23:13Z</time>
   </trkpt>
   <trkpt lat="47.5588240" lon="-122.0480240">
    <ele>14.7</ele>
    <time>2021-06-21T21:23:14Z</time>
   </trkpt>
   <trkpt lat="47.5588610" lon="-122.0480490">
    <ele>14.7</ele>
    <time>2021-06-21T21:23:15Z</time>
   </trkpt>
   <trkpt lat="47.5588880" lon="-122.0480800">
    <ele>14.7</ele>
    <time>2021-06-21T21:23:16Z</time>
   </trkpt>
   <trkpt lat="47.5589200" lon="-122.0480940">
    <ele>14.7</ele>
    <time>2021-06-21T21:23:17Z</time>
   </trkpt>
   <trkpt lat="47.5589490" lon="-122.0481280">
    <ele>14.7</ele>
    <time>2021-06-21T21:23:18Z</time>
   </trkpt>
   <trkpt lat="47.5589690" lon="-122.0481550">
    <ele>14.8</ele>
    <time>2021-06-21T21:23:19Z</time>
   </trkpt>
   <trkpt lat="47.5590020" lon="-122.0481770">
    <ele>14.8</ele>
    <time>2021-06-21T21:23:20Z</time>
   </trkpt>
   <trkpt lat="47.5590270" lon="-122.0481990">
    <ele>14.8</ele>
    <time>2021-06-21T21:23:21Z</time>
   </trkpt>
   <trkpt lat="47.5590580" lon="-122.0482460">
    <ele>14.8</ele>
    <time>2021-06-21T21:23:22Z</time>
   </trkpt>
   <trkpt lat="47.5590700" lon="-122.0482660">
    <ele>14.8</ele>
    <time>2021-06-21T21:23:23Z</time>
   </trkpt>
   <trkpt lat="47.5591010" lon="-122.0482880">
    <ele>14.8</ele>
    <time>2021-06-21T21:23:24Z</time>
   </trkpt>
   <trkpt lat="47.5591440" lon="-122.0482980">
    <ele>14.9</ele>
    <time>2021-06-21T21:23:25Z</time>
   </trkpt>
   <trkpt lat="47.5591770" lon="-122.0483260">
    <ele>14.9</ele>
    <time>2021-06-21T21:23:26Z</time>
   </trkpt>
   <trkpt lat="47.5592110" lon="-122.0483450">
    <ele>14.9</ele>
    <time>2021-06-21T21:23:27Z</time>
   </trkpt>
   <trkpt lat="47.5592470" lon="-122.0483700">
    <ele>14.9</ele>
    <time>2021-06-21T21:23:28Z</time>
   </trkpt>
   <trkpt lat="47.5592770" lon="-122.0483920">
    <ele>14.9</ele>
    <time>2021-06-21T21:23:29Z</time>
   </trkpt>
   <trkpt lat="47.5593170" lon="-122.0484070">
    <ele>15.0</ele>
    <time>2021-06-21T21:23:30Z</time>
   </trkpt>
   <trkpt lat="47.5593440" lon="-122.0484300">
    <ele>15.0</ele>
    <time>2021-06-21T21:23:31Z</time>
   </trkpt>
   <trkpt lat="47.5593850" lon="-122.0484520">
    <ele>15.0</ele>
    <time>2021-06-21T21:23:32Z</time>
   </trkpt>
   <trkpt lat="47.5594050" lon="-122.0484800">
    <ele>15.0</ele>
    <time>2021-06-21T21:23:33Z</time>
   </trkpt>
   <trkpt lat="47.5594400" lon="-122.0485000">
    <ele>15.0</ele>
    <time>2021-06-21T21:23:34Z</time>
   </trkpt>
   <trkpt lat="47.5594720" lon="-122.0485230">
    <ele>15.0</ele>
    <time>2021-06-21T21:23:35Z</time>
   </trkpt>
   <trkpt lat="47.5595050" lon="-122.0485530">
    <ele>15.0</ele>
    <time>2021-06-21T21:23:36Z</time>
   </trkpt>
   <trkpt lat="47.5595380" lon="-122.0485770">
    <ele>15.0</ele>
    <time>2021-06-21T21:23:37Z</time>
   </trkpt>
   <trkpt lat="47.5595630" lon="-122.0486030">
    <ele>15.0</ele>
    <time>2021-06-21T21:23:38Z</time>
   </trkpt>
   <trkpt lat="47.5595880" lon="-122.0486240">
    <ele>15.0</ele>
    <time>2021-06-21T21:23:39Z</time>
   </trkpt>
   <trkpt lat="47.5596140" lon="-122.0486530">
    <ele>15.0</ele>
    <time>2021-06-21T21:23:40Z</time>
   </trkpt>
   <trkpt lat="47.5596460" lon="-122.0486720">
    <ele>15.0</ele>
    <time>2021-06-21T21:23:41Z</time>
   </trkpt>
   <trkpt lat="47.5596870" lon="-122.0486860">
    <ele>15.0</ele>
    <time>2021-06-21T21:23:42Z</time>
   </trkpt>
   <trkpt lat="47.5597170" lon="-122.0487170">
    <ele>15.0</ele>
    <time>2021-06-21T21:23:43Z</time>
   </trkpt>
   <trkpt lat="47.5597530" lon="-122.0487390">
    <ele>15.0</ele>
    <time>2021-06-21T21:23:44Z</time>
   </trkpt>
   <trkpt lat="47.5597830" lon="-122.0487670">
    <ele>15.0</ele>
    <time>2021-06-21T21:23:45Z</time>
   </trkpt>
   <trkpt lat="47.5598080" lon="-122.0487840">
    <ele>15.0</ele>
    <time>2021-06-21T21:23:46Z</time>
   </trkpt>
   <trkpt lat="47.5598350" lon="-122.0488200">
    <ele>14.9</ele>
    <time>2021-06-21T21:23:47Z</time>
   </trkpt>
   <trkpt lat="47.5598730" lon="-122.0488550">
    <ele>14.9</ele>
    <time>2021-06-21T21:23:48Z</time>
   </trkpt>
   <trkpt lat="47.5598900" lon="-122.0488660">
    <ele>14.9</ele>
    <time>2021-06-21T21:23:49Z</time>
   </trkpt>
   <trkpt lat="47.5599230" lon="-122.0488890">
    <ele>14.9</ele>
    <time>2021-06-21T21:23:50Z</time>
   </trkpt>
   <trkpt lat="47.5599620" lon="-122.0489080">
    <ele>14.9</ele>
    <time>2021-06-21T21:23:51Z</time>
   </trkpt>
   <trkpt lat="47.5599930" lon="-122.0489330">
    <ele>14.9</ele>
    <time>2021-06-21T21:23:52Z</time>
   </trkpt>
   <trkpt lat="47.5600270" lon="-122.0489480">
    <ele>14.9</ele>
    <time>2021-06-21T21:23:53Z</time>
   </trkpt>
   <trkpt lat="47.5600640" lon="-122.0489630">
    <ele>14.8</ele>
    <time>2021-06-21T21:23:54Z</time>
   </trkpt>
   <trkpt lat="47.5600900" lon="-122.0489850">
    <ele>14.8</ele>
    <time>2021-06-21T21:23:55Z</time>
   </trkpt>
   <trkpt lat="47.5601280" lon="-122.0490010">
    <ele>14.8</ele>
    <time>2021-06-21T21:23:56Z</time>
   </trkpt>
   <trkpt lat="47.5601570" lon="-122.0490290">
    <ele>14.8</ele>
    <time>2021-06-21T21:23:57Z</time>
   </trkpt>
   <trkpt lat="47.5601880" lon="-122.0490370">
    <ele>14.8</ele>
    <time>2021-06-21T21:23:58Z</time>
   </trkpt>
   <trkpt lat="47.5602320" lon="-122.0490630">
    <ele>14.8</ele>
    <time>2021-06-21T21:23:59Z</time>
   </trkpt>
   <trkpt lat="47.5602600" lon="-122.0491000">
    <ele>14.7</ele>
    <time>2021-06-21T21:24:00Z</time>
   </trkpt>
   <trkpt lat="47.5603010" lon="-122.0491130">
    <ele>14.7</ele>
    <time>2021-06-21T21:24:01Z</time>
   </trkpt>
   <trkpt lat="47.5603330" lon="-122.0491290">
    <ele>14.7</ele>
    <time>2021-06-21T21:24:02Z</time>
   </trkpt>
   <trkpt lat="47.5603690" lon="-122.0491480">
    <ele>14.7</ele>
    <time>2021-06-21T21:24:03Z</time>
   </trkpt>
   <trkpt lat="47.5604000" lon="-122.0491760">
    <ele>14.7</ele>
    <time>2021-06-21T21:24:04Z</time>
   </trkpt>
   <trkpt lat="47.5604230" lon="-122.0492050">
    <ele>14.6</ele>
    <time>2021-06-21T21:24:05Z</time>
   </trkpt>
   <trkpt lat="47.5604630" lon="-122.0492270">
    <ele>14.6</ele>
    <time>2021-06-21T21:24:06Z</time>
   </trkpt>
   <trkpt lat="47.5604890" lon="-122.0492590">
    <ele>14.6</ele>
    <time>2021-06-21T21:24:07Z</time>
   </trkpt>
   <trkpt lat="47.5605270" lon="-122.0492790">
    <ele>14.6</ele>
    <time>2021-06-21T21:24:08Z</time>
   </trkpt>
   <trkpt lat="47.5605620" lon="-122.0493020">
    <ele>14.5</ele>
    <time>2021-06-21T21:24:09Z</time>
   </trkpt>
   <trkpt lat="47.5605890" lon="-122.0493240">
    <ele>14.5</ele>
    <time>2021-06-21T21:24:10Z</time>
   </trkpt>
   <trkpt lat="47.5606230" lon="-122.0493460">
    <ele>14.5</ele>
    <time>2021-06-21T21:24:11Z</time>
   </trkpt>
   <trkpt lat="47.5606480" lon="-122.0493610">
    <ele>14.5</ele>
    <time>2021-06-21T21:24:12Z</time>
   </trkpt>
   <trkpt lat="47.5606750" lon="-122.0493900">
    <ele>14.4</ele>
    <time>2021-06-21T21:24:13Z</time>
   </trkpt>
   <trkpt lat="47.5607020" lon="-122.0494120">
    <ele>14.4</ele>
    <time>2021-06-21T21:24:14Z</time>
   </trkpt>
   <trkpt lat="47.5607360" lon="-122.0494200">
    <ele>14.4</ele>
    <time>2021-06-21T21:24:15Z</time>
   </trkpt>
   <trkpt lat="47.5607800" lon="-122.0494490">
    <ele>14.4</ele>
    <time>2021-06-21T21:24:16Z</time>
   </trkpt>
   <trkpt lat="47.5608000" lon="-122.0494780">
    <ele>14.3</ele>
    <time>2021-06-21T21:24:17Z</time>
   </trkpt>
   <trkpt lat="47.5608380" lon="-122.0494990">
    <ele>14.3</ele>
    <time>2021-06-21T21:24:18Z</time>
   </trkpt>
   <trkpt lat="47.5608830" lon="-122.0495300">
    <ele>14.3</ele>
    <time>2021-06-21T21:24:19Z</time>
   </trkpt>
   <trkpt lat="47.5609060" lon="-122.0495450">
    <ele>14.2</ele>
    <time>2021-06-21T21:24:20Z</time>
   </trkpt>
   <trkpt lat="47.5609350" lon="-122.0495700">
    <ele>14.2</ele>
    <time>2021-06-21T21:24:21Z</time>
   </trkpt>
   <trkpt lat="47.5609660" lon="-122.0495910">
    <ele>14.2</ele>
    <time>2021-06-21T21:24:22Z</time>
   </trkpt>
   <trkpt lat="47.5610080" lon="-122.0496200">
    <ele>14.1</ele>
    <time>2021-06-21T21:24:23Z</time>
   </trkpt>
   <trkpt lat="47.5610480" lon="-122.0496450">
    <ele>14.1</ele>
    <time>2021-06-21T21:24:24Z</time>
   </trkpt>
   <trkpt lat="47.5610630" lon="-122.0496540">
    <ele>14.1</ele>
    <time>2021-06-21T21:24:25Z</time>
   </trkpt>
   <trkpt lat="47.5610870" lon="-122.0496840">
    <ele>14.0</ele>
    <time>2021-06-21T21:24:26Z</time>
   </trkpt>
   <trkpt lat="47.5611180" lon="-122.0496940">
    <ele>14.0</ele>
    <time>2021-06-21T21:24:27Z</time>
   </trkpt>
   <trkpt lat="47.5611520" lon="-122.0497170">
    <ele>14.0</ele>
    <time>2021-06-21T21:24:28Z</time>
   </trkpt>
   <trkpt lat="47.5611790" lon="-122.0497380">
    <ele>13.9</ele>
    <time>2021-06-21T21:24:29Z</time>
   </trkpt>
   <trkpt lat="47.5612140" lon="-122.0497650">
    <ele>13.9</ele>
    <time>2021-06-21T21:24:30Z</time>
   </trkpt>
   <trkpt lat="47.5612410" lon="-122.0497870">
    <ele>13.9</ele>
    <time>2021-06-21T21:24:31Z</time>
   </trkpt>
   <trkpt lat="47.5612840" lon="-122.0498140">
    <ele>13.8</ele>
    <time>2021-06-21T21:24:32Z</time>
   </trkpt>
   <trkpt lat="47.5613010" lon="-122.0498320">
    <ele>13.8</ele>
    <time>2021-06-21T21:24:33Z</time>
   </trkpt>
   <trkpt lat="47.5613270" lon="-122.0498490">
    <ele>13.8</ele>
    <time>2021-06-21T21:24:34Z</time>
   </trkpt>
   <trkpt lat="47.5613630" lon="-122.0498640">
    <ele>13.7</ele>
    <time>2021-06-21T21:24:35Z</time>
   </trkpt>
   <trkpt lat="47.5613790" lon="-122.0499010">
    <ele>13.7</ele>
    <time>2021-06-21T21:24:36Z</time>
   </trkpt>
   <trkpt lat="47.5613830" lon="-122.0499120">
    <ele>13.7</ele>
    <time>2021-06-21T21:24:37Z</time>
   </trkpt>
   <trkpt lat="47.5614170" lon="-122.0499370">
    <ele>13.7</ele>
    <time>2021-06-21T21:24:38Z</time>
   </trkpt>
   <trkpt lat="47.5614410" lon="-122.0499410">
    <ele>13.6</ele>
    <time>2021-06-21T21:27:54Z</time>
   </trkpt>
   <trkpt lat="47.5614660" lon="-122.0499440">
    <ele>13.6</ele>
    <time>2021-06-21T21:27:55Z</time>
   </trkpt>
   <trkpt lat="47.5614900" lon="-122.0499480">
    <ele>13.6</ele>
    <time>2021-06-21T21:27:56Z</time>
   </trkpt>
   <trkpt lat="47.5615340" lon="-122.0499810">
    <ele>13.6</ele>
    <time>2021-06-21T21:27:57Z</time>
   </trkpt>
   <trkpt lat="47.5615680" lon="-122.0500120">
    <ele>13.5</ele>
    <time>2021-06-21T21:27:58Z</time>
   </trkpt>
   <trkpt lat="47.5616050" lon="-122.0500420">
    <ele>13.5</ele>
    <time>2021-06-21T21:27:59Z</time>
   </trkpt>
   <trkpt lat="47.5616430" lon="-122.0500790">
    <ele>13.5</ele>
    <time>2021-06-21T21:28:00Z</time>
   </trkpt>
   <trkpt lat="47.5616830" lon="-122.0501040">
    <ele>13.5</ele>
    <time>2021-06-21T21:28:01Z</time>
   </trkpt>
   <trkpt lat="47.5617160" lon="-122.0501260">
    <ele>13.5</ele>
    <time>2021-06-21T21:28:02Z</time>
   </trkpt>
   <trkpt lat="47.5617470" lon="-122.0501500">
    <ele>13.4</ele>
    <time>2021-06-21T21:28:03Z</time>
   </trkpt>
   <trkpt lat="47.5617800" lon="-122.0501810">
    <ele>13.4</ele>
    <time>2021-06-21T21:28:04Z</time>
   </trkpt>
   <trkpt lat="47.5618130" lon="-122.0502070">
    <ele>13.4</ele>
    <time>2021-06-21T21:28:05Z</time>
   </trkpt>
   <trkpt lat="47.5618500" lon="-122.0502300">
    <ele>13.4</ele>
    <time>2021-06-21T21:28:06Z</time>
   </trkpt>
   <trkpt lat="47.5618840" lon="-122.0502500">
    <ele>13.4</ele>
    <time>2021-06-21T21:28:07Z</time>
   </trkpt>
   <trkpt lat="47.5619160" lon="-122.0502740">
    <ele>13.4</ele>
    <time>2021-06-21T21:28:08Z</time>
   </trkpt>
   <trkpt lat="47.5619530" lon="-122.0502960">
    <ele>13.4</ele>
    <time>2021-06-21T21:28:09Z</time>
   </trkpt>
   <trkpt lat="47.5619880" lon="-122.0503220">
    <ele>13.4</ele>
    <time>2021-06-21T21:28:10Z</time>
   </trkpt>
   <trkpt lat="47.5620200" lon="-122.0503460">
    <ele>13.4</ele>
    <time>2021-06-21T21:28:11Z</time>
   </trkpt>
   <trkpt lat="47.5620510" lon="-122.0503780">
    <ele>13.4</ele>
    <time>2021-06-21T21:28:12Z</time>
   </trkpt>
   <trkpt lat="47.5620850" lon="-122.0503990">
    <ele>13.4</ele>
    <time>2021-06-21T21:28:13Z</time>
   </trkpt>
   <trkpt lat="47.5621190" lon="-122.0504250">
    <ele>13.4</ele>
    <time>2021-06-21T21:28:14Z</time>
   </trkpt>
   <trkpt lat="47.5621550" lon="-122.0504520">
    <ele>13.4</ele>
    <time>2021-06-21T21:28:15Z</time>
   </trkpt>
   <trkpt lat="47.5621910" lon="-122.0504860">
    <ele>13.4</ele>
    <time>2021-06-21T21:28:16Z</time>
   </trkpt>
   <trkpt lat="47.5622260" lon="-122.0505110">
    <ele>13.4</ele>
    <time>2021-06-21T21:28:17Z</time>
   </trkpt>
   <trkpt lat="47.5622600" lon="-122.0505300">
    <ele>13.4</ele>
    <time>2021-06-21T21:28:18Z</time>
   </trkpt>
   <trkpt lat="47.5622990" lon="-122.0505530">
    <ele>13.4</ele>
    <time>2021-06-21T21:28:19Z</time>
   </trkpt>
   <trkpt lat="47.5623300" lon="-122.0505760">
    <ele>13.4</ele>
    <time>2021-06-21T21:28:20Z</time>
   </trkpt>
   <trkpt lat="47.5623600" lon="-122.0506030">
    <ele>13.4</ele>
    <time>2021-06-21T21:28:21Z</time>
   </trkpt>
   <trkpt lat="47.5623930" lon="-122.0506230">
    <ele>13.4</ele>
    <time>2021-06-21T21:28:22Z</time>
   </trkpt>
   <trkpt lat="47.5624280" lon="-122.0506460">
    <ele>13.4</ele>
    <time>2021-06-21T21:28:23Z</time>
   </trkpt>
   <trkpt lat="47.5624580" lon="-122.0506790">
    <ele>13.4</ele>
    <time>2021-06-21T21:28:24Z</time>
   </trkpt>
   <trkpt lat="47.5624970" lon="-122.0506850">
    <ele>13.4</ele>
    <time>2021-06-21T21:28:25Z</time>
   </trkpt>
   <trkpt lat="47.5625270" lon="-122.0507280">
    <ele>13.4</ele>
    <time>2021-06-21T21:28:26Z</time>
   </trkpt>
   <trkpt lat="47.5625610" lon="-122.0507360">
    <ele>13.4</ele>
    <time>2021-06-21T21:28:27Z</time>
   </trkpt>
   <trkpt lat="47.5625950" lon="-122.0507670">
    <ele>13.4</ele>
    <time>2021-06-21T21:28:28Z</time>
   </trkpt>
   <trkpt lat="47.5626300" lon="-122.0507790">
    <ele>13.4</ele>
    <time>2021-06-21T21:28:29Z</time>
   </trkpt>
   <trkpt lat="47.5626620" lon="-122.0508020">
    <ele>13.4</ele>
    <time>2021-06-21T21:28:30Z</time>
   </trkpt>
   <trkpt lat="47.5626980" lon="-122.0508270">
    <ele>13.4</ele>
    <time>2021-06-21T21:28:31Z</time>
   </trkpt>
   <trkpt lat="47.5627260" lon="-122.0508520">
    <ele>13.5</ele>
    <time>2021-06-21T21:28:32Z</time>
   </trkpt>
   <trkpt lat="47.5627620" lon="-122.0508840">
    <ele>13.5</ele>
    <time>2021-06-21T21:28:33Z</time>
   </trkpt>
   <trkpt lat="47.5627990" lon="-122.0509040">
    <ele>13.5</ele>
    <time>2021-06-21T21:28:34Z</time>
   </trkpt>
   <trkpt lat="47.5628240" lon="-122.0509280">
    <ele>13.5</ele>
    <time>2021-06-21T21:28:35Z</time>
   </trkpt>
   <trkpt lat="47.5628550" lon="-122.0509590">
    <ele>13.5</ele>
    <time>2021-06-21T21:28:36Z</time>
   </trkpt>
   <trkpt lat="47.5628820" lon="-122.0509840">
    <ele>13.5</ele>
    <time>2021-06-21T21:28:37Z</time>
   </trkpt>
   <trkpt lat="47.5629140" lon="-122.0510070">
    <ele>13.5</ele>
    <time>2021-06-21T21:28:38Z</time>
   </trkpt>
   <trkpt lat="47.5629470" lon="-122.0510280">
    <ele>13.6</ele>
    <time>2021-06-21T21:28:39Z</time>
   </trkpt>
   <trkpt lat="47.5629780" lon="-122.0510480">
    <ele>13.6</ele>
    <time>2021-06-21T21:28:40Z</time>
   </trkpt>
   <trkpt lat="47.5630070" lon="-122.0510630">
    <ele>13.6</ele>
    <time>2021-06-21T21:28:41Z</time>
   </trkpt>
   <trkpt lat="47.5630420" lon="-122.0510750">
    <ele>13.6</ele>
    <time>2021-06-21T21:28:42Z</time>
   </trkpt>
   <trkpt lat="47.5630760" lon="-122.0510960">
    <ele>13.6</ele>
    <time>2021-06-21T21:28:43Z</time>
   </trkpt>
   <trkpt lat="47.5631000" lon="-122.0511180">
    <ele>13.7</ele>
    <time>2021-06-21T21:28:44Z</time>
   </trkpt>
   <trkpt lat="47.5631330" lon="-122.0511360">
    <ele>13.7</ele>
    <time>2021-06-21T21:28:45Z</time>
   </trkpt>
   <trkpt lat="47.5631620" lon="-122.0511560">
    <ele>13.7</ele>
    <time>2021-06-21T21:28:46Z</time>
   </trkpt>
   <trkpt lat="47.5631950" lon="-122.0511880">
    <ele>13.7</ele>
    <time>2021-06-21T21:28:47Z</time>
   </trkpt>
   <trkpt lat="47.5632270" lon="-122.0512040">
    <ele>13.8</ele>
    <time>2021-06-21T21:28:48Z</time>
   </trkpt>
   <trkpt lat="47.5632520" lon="-122.0512330">
    <ele>13.8</ele>
    <time>2021-06-21T21:28:49Z</time>
   </trkpt>
   <trkpt lat="47.5632930" lon="-122.0512580">
    <ele>13.8</ele>
    <time>2021-06-21T21:28:50Z</time>
   </trkpt>
   <trkpt lat="47.5633270" lon="-122.0512870">
    <ele>13.8</ele>
    <time>2021-06-21T21:28:51Z</time>
   </trkpt>
   <trkpt lat="47.5633640" lon="-122.0513220">
    <ele>13.8</ele>
    <time>2021-06-21T21:28:52Z</time>
   </trkpt>
   <trkpt lat="47.5634010" lon="-122.0513450">
    <ele>13.8</ele>
    <time>2021-06-21T21:28:53Z</time>
   </trkpt>
   <trkpt lat="47.5634400" lon="-122.0513690">
    <ele>13.8</ele>
    <time>2021-06-21T21:28:54Z</time>
   </trkpt>
   <trkpt lat="47.5634720" lon="-122.0513990">
    <ele>13.9</ele>
    <time>2021-06-21T21:28:55Z</time>
   </trkpt>
   <trkpt lat="47.5635000" lon="-122.0514200">
    <ele>13.9</ele>
    <time>2021-06-21T21:28:56Z</time>
   </trkpt>
   <trkpt lat="47.5635360" lon="-122.0514510">
    <ele>13.9</ele>
    <time>2021-06-21T21:28:57Z</time>
   </trkpt>
   <trkpt lat="47.5635840" lon="-122.0514720">
    <ele>13.9</ele>
    <time>2021-06-21T21:28:58Z</time>
   </trkpt>
   <trkpt lat="47.5636050" lon="-122.0514870">
    <ele>13.9</ele>
    <time>2021-06-21T21:28:59Z</time>
   </trkpt>
   <trkpt lat="47.5636280" lon="-122.0515170">
    <ele>14.0</ele>
    <time>2021-06-21T21:29:00Z</time>
   </trkpt>
   <trkpt lat="47.5636550" lon="-122.0515420">
    <ele>14.0</ele>
    <time>2021-06-21T21:29:01Z</time>
   </trkpt>
   <trkpt lat="47.5636880" lon="-122.0515710">
    <ele>14.0</ele>
    <time>2021-06-21T21:29:02Z</time>
   </trkpt>
   <trkpt lat="47.5637140" lon="-122.0515940">
    <ele>14.0</ele>
    <time>2021-06-21T21:29:03Z</time>
   </trkpt>
   <trkpt lat="47.5637510" lon="-122.0516270">
    <ele>14.0</ele>
    <time>2021-06-21T21:29:04Z</time>
   </trkpt>
   <trkpt lat="47.5637860" lon="-122.0516560">
    <ele>14.0</ele>
    <time>2021-06-21T21:29:05Z</time>
   </trkpt>
   <trkpt lat="47.5638000" lon="-122.0516660">
    <ele>14.0</ele>
    <time>2021-06-21T21:29:06Z</time>
   </trkpt>
   <trkpt lat="47.5638340" lon="-122.0516810">
    <ele>14.0</ele>
    <time>2021-06-21T21:29:07Z</time>
   </trkpt>
   <trkpt lat="47.5638700" lon="-122.0517020">
    <ele>14.0</ele>
    <time>2021-06-21T21:29:08Z</time>
   </trkpt>
   <trkpt lat="47.5639050" lon="-122.0517150">
    <ele>14.0</ele>
    <time>2021-06-21T21:29:09Z</time>
   </trkpt>
   <trkpt lat="47.5639400" lon="-122.0517250">
    <ele>14.0</ele>
    <time>2021-06-21T21:29:10Z</time>
   </trkpt>
   <trkpt lat="47.5639730" lon="-122.0517530">
    <ele>14.1</ele>
    <time>2021-06-21T21:29:11Z</time>
   </trkpt>
   <trkpt lat="47.5640020" lon="-122.0517810">
    <ele>14.1</ele>
    <time>2021-06-21T21:29:12Z</time>
   </trkpt>
   <trkpt lat="47.5640400" lon="-122.0518050">
    <ele>14.1</ele>
    <time>2021-06-21T21:29:13Z</time>
   </trkpt>
   <trkpt lat="47.5640700" lon="-122.0518240">
    <ele>14.1</ele>
    <time>2021-06-21T21:29:14Z</time>
   </trkpt>
   <trkpt lat="47.5641030" lon="-122.0518520">
    <ele>14.2</ele>
    <time>2021-06-21T21:29:15Z</time>
   </trkpt>
   <trkpt lat="47.5641380" lon="-122.0518810">
    <ele>14.2</ele>
    <time>2021-06-21T21:29:16Z</time>
   </trkpt>
   <trkpt lat="47.5641670" lon="-122.0519060">
    <ele>14.2</ele>
    <time>2021-06-21T21:29:17Z</time>
   </trkpt>
   <trkpt lat="47.5641960" lon="-122.0519330">
    <ele>14.3</ele>
    <time>2021-06-21T21:29:18Z</time>
   </trkpt>
   <trkpt lat="47.5642240" lon="-122.0519480">
    <ele>14.3</ele>
    <time>2021-06-21T21:29:19Z</time>
   </trkpt>
   <trkpt lat="47.5642530" lon="-122.0519710">
    <ele>14.3</ele>
    <time>2021-06-21T21:29:20Z</time>
   </trkpt>
   <trkpt lat="47.5642890" lon="-122.0519960">
    <ele>14.4</ele>
    <time>2021-06-21T21:29:21Z</time>
   </trkpt>
   <trkpt lat="47.5643300" lon="-122.0520090">
    <ele>14.4</ele>
    <time>2021-06-21T21:29:22Z</time>
   </trkpt>
   <trkpt lat="47.5643590" lon="-122.0520410">
    <ele>14.4</ele>
    <time>2021-06-21T21:29:23Z</time>
   </trkpt>
   <trkpt lat="47.5643990" lon="-122.0520560">
    <ele>14.5</ele>
    <time>2021-06-21T21:29:24Z</time>
   </trkpt>
   <trkpt lat="47.5644270" lon="-122.0520940">
    <ele>14.5</ele>
    <time>2021-06-21T21:29:25Z</time>
   </trkpt>
   <trkpt lat="47.5644540" lon="-122.0521200">
    <ele>14.5</ele>
    <time>2021-06-21T21:29:26Z</time>
   </trkpt>
   <trkpt lat="47.5644860" lon="-122.0521510">
    <ele>14.6</ele>
    <time>2021-06-21T21:29:27Z</time>
   </trkpt>
   <trkpt lat="47.5645120" lon="-122.0521660">
    <ele>14.6</ele>
    <time>2021-06-21T21:29:28Z</time>
   </trkpt>
   <trkpt lat="47.5645440" lon="-122.0521840">
    <ele>14.6</ele>
    <time>2021-06-21T21:29:29Z</time>
   </trkpt>
   <trkpt lat="47.5645740" lon="-122.0522110">
    <ele>14.7</ele>
    <time>2021-06-21T21:29:30Z</time>
   </trkpt>
   <trkpt lat="47.5646010" lon="-122.0522320">
    <ele>14.7</ele>
    <time>2021-06-21T21:29:31Z</time>
   </trkpt>
   <trkpt lat="47.5646380" lon="-122.0522640">
    <ele>14.8</ele>
    <time>2021-06-21T21:29:32Z</time>
   </trkpt>
   <trkpt lat="47.5646670" lon="-122.0522860">
    <ele>14.8</ele>
    <time>2021-06-21T21:29:33Z</time>
   </trkpt>
   <trkpt lat="47.5647070" lon="-122.0523360">
    <ele>14.9</ele>
    <time>2021-06-21T21:29:34Z</time>
   </trkpt>
   <trkpt lat="47.5647360" lon="-122.0523950">
    <ele>15.0</ele>
    <time>2021-06-21T21:29:35Z</time>
   </trkpt>
   <trkpt lat="47.5647600" lon="-122.0524140">
    <ele>15.0</ele>
    <time>2021-06-21T21:29:36Z</time>
   </trkpt>
   <trkpt lat="47.5647690" lon="-122.0524330">
    <ele>15.0</ele>
    <time>2021-06-21T21:29:37Z</time>
   </trkpt>
  </trkseg>
 </trk>
</gpx>
