<?xml version="1.0" encoding="UTF-8"?>
<gpx creator="StravaGPX" version="1.1" xmlns="http://www.topografix.com/GPX/1/1" xmlns:xsi="http://www.w3.org/2001/XMLSchema-instance" xsi:schemaLocation="http://www.topografix.com/GPX/1/1 http://www.topografix.com/GPX/1/1/gpx.xsd">
 <metadata>
  <time>2021-07-01T01:56:11Z</time>
 </metadata>
 <trk>
  <name>Cross Train Part 1</name>
  <type>cycling</type>
  <trkseg>
   <trkpt lat="47.4035520" lon="-122.0408490">
    <ele>104.3</ele>
    <time>2021-07-01T01:56:11Z</time>
   </trkpt>
   <trkpt lat="47.4035520" lon="-122.0408640">
    <ele>104.3</ele>
    <time>2021-07-01T01:56:12Z</time>
   </trkpt>
   <trkpt lat="47.4035470" lon="-122.0408740">
    <ele>104.3</ele>
    <time>2021-07-01T01:56:13Z</time>
   </trkpt>
   <trkpt lat="47.4035420" lon="-122.0408830">
    <ele>104.3</ele>
    <time>2021-07-01T01:56:14Z</time>
   </trkpt>
   <trkpt lat="47.4035370" lon="-122.0408930">
    <ele>104.4</ele>
    <time>2021-07-01T01:56:15Z</time>
   </trkpt>
   <trkpt lat="47.4035330" lon="-122.0409020">
    <ele>104.4</ele>
    <time>2021-07-01T01:56:16Z</time>
   </trkpt>
   <trkpt lat="47.4035280" lon="-122.0409120">
    <ele>104.4</ele>
    <time>2021-07-01T01:56:17Z</time>
   </trkpt>
   <trkpt lat="47.4035230" lon="-122.0409210">
    <ele>104.4</ele>
    <time>2021-07-01T01:56:18Z</time>
   </trkpt>
   <trkpt lat="47.4035180" lon="-122.0409310">
    <ele>104.4</ele>
    <time>2021-07-01T01:56:19Z</time>
   </trkpt>
   <trkpt lat="47.4035130" lon="-122.0409400">
    <ele>104.4</ele>
    <time>2021-07-01T01:56:20Z</time>
   </trkpt>
   <trkpt lat="47.4035110" lon="-122.0409660">
    <ele>104.4</ele>
    <time>2021-07-01T01:56:21Z</time>
   </trkpt>
   <trkpt lat="47.4034980" lon="-122.0409830">
    <ele>104.4</ele>
    <time>2021-07-01T01:56:22Z</time>
   </trkpt>
   <trkpt lat="47.4034800" lon="-122.0410190">
    <ele>104.4</ele>
    <time>2021-07-01T01:56:23Z</time>
   </trkpt>
   <trkpt lat="47.4034740" lon="-122.0410330">
    <ele>104.4</ele>
    <time>2021-07-01T01:56:24Z</time>
   </trkpt>
   <trkpt lat="47.4034590" lon="-122.0410430">
    <ele>104.4</ele>
    <time>2021-07-01T01:56:25Z</time>
   </trkpt>
   <trkpt lat="47.4034420" lon="-122.0410590">
    <ele>104.5</ele>
    <time>2021-07-01T01:56:26Z</time>
   </trkpt>
   <trkpt lat="47.4034350" lon="-122.0411020">
    <ele>104.5</ele>
    <time>2021-07-01T01:56:27Z</time>
   </trkpt>
   <trkpt lat="47.4034120" lon="-122.0411410">
    <ele>104.5</ele>
    <time>2021-07-01T01:56:28Z</time>
   </trkpt>
   <trkpt lat="47.4033810" lon="-122.0411870">
    <ele>104.6</ele>
    <time>2021-07-01T01:56:29Z</time>
   </trkpt>
   <trkpt lat="47.4033510" lon="-122.0412110">
    <ele>104.6</ele>
    <time>2021-07-01T01:56:30Z</time>
   </trkpt>
   <trkpt lat="47.4033140" lon="-122.0412460">
    <ele>104.7</ele>
    <time>2021-07-01T01:56:31Z</time>
   </trkpt>
   <trkpt lat="47.4032960" lon="-122.0412620">
    <ele>104.7</ele>
    <time>2021-07-01T01:56:32Z</time>
   </trkpt>
   <trkpt lat="47.4032820" lon="-122.0413000">
    <ele>104.8</ele>
    <time>2021-07-01T01:56:33Z</time>
   </trkpt>
   <trkpt lat="47.4032510" lon="-122.0413400">
    <ele>104.8</ele>
    <time>2021-07-01T01:56:34Z</time>
   </trkpt>
   <trkpt lat="47.4032190" lon="-122.0413660">
    <ele>104.8</ele>
    <time>2021-07-01T01:56:35Z</time>
   </trkpt>
   <trkpt lat="47.4032060" lon="-122.0413740">
    <ele>104.8</ele>
    <time>2021-07-01T01:56:36Z</time>
   </trkpt>
   <trkpt lat="47.4031720" lon="-122.0414090">
    <ele>104.9</ele>
    <time>2021-07-01T01:56:37Z</time>
   </trkpt>
   <trkpt lat="47.4031590" lon="-122.0414180">
    <ele>104.9</ele>
    <time>2021-07-01T01:56:38Z</time>
   </trkpt>
   <trkpt lat="47.4031170" lon="-122.0414630">
    <ele>104.9</ele>
    <time>2021-07-01T01:56:39Z</time>
   </trkpt>
   <trkpt lat="47.4031050" lon="-122.0415160">
    <ele>104.9</ele>
    <time>2021-07-01T01:56:40Z</time>
   </trkpt>
   <trkpt lat="47.4030550" lon="-122.0415890">
    <ele>105.0</ele>
    <time>2021-07-01T01:56:41Z</time>
   </trkpt>
   <trkpt lat="47.4030380" lon="-122.0416400">
    <ele>105.0</ele>
    <time>2021-07-01T01:56:42Z</time>
   </trkpt>
   <trkpt lat="47.4030260" lon="-122.0416620">
    <ele>105.0</ele>
    <time>2021-07-01T01:56:43Z</time>
   </trkpt>
   <trkpt lat="47.4030000" lon="-122.0416920">
    <ele>105.1</ele>
    <time>2021-07-01T01:56:44Z</time>
   </trkpt>
   <trkpt lat="47.4029750" lon="-122.0417210">
    <ele>105.1</ele>
    <time>2021-07-01T01:56:45Z</time>
   </trkpt>
   <trkpt lat="47.4029460" lon="-122.0417510">
    <ele>105.1</ele>
    <time>2021-07-01T01:56:46Z</time>
   </trkpt>
   <trkpt lat="47.4029220" lon="-122.0417860">
    <ele>105.2</ele>
    <time>2021-07-01T01:56:47Z</time>
   </trkpt>
   <trkpt lat="47.4028960" lon="-122.0418140">
    <ele>105.2</ele>
    <time>2021-07-01T01:56:48Z</time>
   </trkpt>
   <trkpt lat="47.4028490" lon="-122.0418490">
    <ele>105.2</ele>
    <time>2021-07-01T01:56:49Z</time>
   </trkpt>
   <trkpt lat="47.4027820" lon="-122.0419020">
    <ele>105.3</ele>
    <time>2021-07-01T01:56:50Z</time>
   </trkpt>
   <trkpt lat="47.4027430" lon="-122.0419670">
    <ele>105.3</ele>
    <time>2021-07-01T01:56:51Z</time>
   </trkpt>
   <trkpt lat="47.4026950" lon="-122.0420060">
    <ele>105.4</ele>
    <time>2021-07-01T01:56:52Z</time>
   </trkpt>
   <trkpt lat="47.4026430" lon="-122.0420660">
    <ele>105.4</ele>
    <time>2021-07-01T01:56:53Z</time>
   </trkpt>
   <trkpt lat="47.4025800" lon="-122.0421380">
    <ele>105.5</ele>
    <time>2021-07-01T01:56:54Z</time>
   </trkpt>
   <trkpt lat="47.4025090" lon="-122.0422060">
    <ele>105.5</ele>
    <time>2021-07-01T01:56:55Z</time>
   </trkpt>
   <trkpt lat="47.4024490" lon="-122.0422520">
    <ele>105.6</ele>
    <time>2021-07-01T01:56:56Z</time>
   </trkpt>
   <trkpt lat="47.4023920" lon="-122.0423070">
    <ele>105.6</ele>
    <time>2021-07-01T01:56:57Z</time>
   </trkpt>
   <trkpt lat="47.4023390" lon="-122.0423670">
    <ele>105.7</ele>
    <time>2021-07-01T01:56:58Z</time>
   </trkpt>
   <trkpt lat="47.4022810" lon="-122.0424280">
    <ele>105.7</ele>
    <time>2021-07-01T01:56:59Z</time>
   </trkpt>
   <trkpt lat="47.4022190" lon="-122.0424800">
    <ele>105.8</ele>
    <time>2021-07-01T01:57:00Z</time>
   </trkpt>
   <trkpt lat="47.4021390" lon="-122.0425230">
    <ele>105.9</ele>
    <time>2021-07-01T01:57:01Z</time>
   </trkpt>
   <trkpt lat="47.4020830" lon="-122.0425540">
    <ele>106.0</ele>
    <time>2021-07-01T01:57:02Z</time>
   </trkpt>
   <trkpt lat="47.4020380" lon="-122.0425750">
    <ele>106.0</ele>
    <time>2021-07-01T01:57:03Z</time>
   </trkpt>
   <trkpt lat="47.4019820" lon="-122.0426000">
    <ele>106.1</ele>
    <time>2021-07-01T01:57:04Z</time>
   </trkpt>
   <trkpt lat="47.4019370" lon="-122.0426150">
    <ele>106.1</ele>
    <time>2021-07-01T01:57:05Z</time>
   </trkpt>
   <trkpt lat="47.4018910" lon="-122.0426570">
    <ele>106.2</ele>
    <time>2021-07-01T01:57:06Z</time>
   </trkpt>
   <trkpt lat="47.4018390" lon="-122.0426970">
    <ele>106.2</ele>
    <time>2021-07-01T01:57:07Z</time>
   </trkpt>
   <trkpt lat="47.4017730" lon="-122.0427690">
    <ele>106.3</ele>
    <time>2021-07-01T01:57:08Z</time>
   </trkpt>
   <trkpt lat="47.4016830" lon="-122.0428030">
    <ele>106.3</ele>
    <time>2021-07-01T01:57:09Z</time>
   </trkpt>
   <trkpt lat="47.4016320" lon="-122.0428370">
    <ele>106.3</ele>
    <time>2021-07-01T01:57:10Z</time>
   </trkpt>
   <trkpt lat="47.4015450" lon="-122.0428780">
    <ele>106.4</ele>
    <time>2021-07-01T01:57:11Z</time>
   </trkpt>
   <trkpt lat="47.4014520" lon="-122.0429480">
    <ele>106.4</ele>
    <time>2021-07-01T01:57:12Z</time>
   </trkpt>
   <trkpt lat="47.4013780" lon="-122.0430110">
    <ele>106.5</ele>
    <time>2021-07-01T01:57:13Z</time>
   </trkpt>
   <trkpt lat="47.4013120" lon="-122.0430500">
    <ele>106.5</ele>
    <time>2021-07-01T01:57:14Z</time>
   </trkpt>
   <trkpt lat="47.4012340" lon="-122.0430890">
    <ele>106.7</ele>
    <time>2021-07-01T01:57:15Z</time>
   </trkpt>
   <trkpt lat="47.4011660" lon="-122.0431230">
    <ele>106.8</ele>
    <time>2021-07-01T01:57:16Z</time>
   </trkpt>
   <trkpt lat="47.4011150" lon="-122.0431730">
    <ele>106.9</ele>
    <time>2021-07-01T01:57:17Z</time>
   </trkpt>
   <trkpt lat="47.4010270" lon="-122.0432070">
    <ele>107.0</ele>
    <time>2021-07-01T01:57:18Z</time>
   </trkpt>
   <trkpt lat="47.4009260" lon="-122.0432160">
    <ele>107.0</ele>
    <time>2021-07-01T01:57:19Z</time>
   </trkpt>
   <trkpt lat="47.4008450" lon="-122.0432370">
    <ele>107.1</ele>
    <time>2021-07-01T01:57:20Z</time>
   </trkpt>
   <trkpt lat="47.4007180" lon="-122.0432530">
    <ele>107.2</ele>
    <time>2021-07-01T01:57:21Z</time>
   </trkpt>
   <trkpt lat="47.4006550" lon="-122.0432980">
    <ele>107.3</ele>
    <time>2021-07-01T01:57:22Z</time>
   </trkpt>
   <trkpt lat="47.4005710" lon="-122.0433210">
    <ele>107.4</ele>
    <time>2021-07-01T01:57:23Z</time>
   </trkpt>
   <trkpt lat="47.4005250" lon="-122.0433150">
    <ele>107.5</ele>
    <time>2021-07-01T01:57:24Z</time>
   </trkpt>
   <trkpt lat="47.4004760" lon="-122.0433180">
    <ele>107.5</ele>
    <time>2021-07-01T01:57:25Z</time>
   </trkpt>
   <trkpt lat="47.4004200" lon="-122.0433100">
    <ele>107.6</ele>
    <time>2021-07-01T01:57:26Z</time>
   </trkpt>
   <trkpt lat="47.4003600" lon="-122.0432790">
    <ele>107.7</ele>
    <time>2021-07-01T01:57:27Z</time>
   </trkpt>
   <trkpt lat="47.4003030" lon="-122.0432470">
    <ele>107.7</ele>
    <time>2021-07-01T01:57:28Z</time>
   </trkpt>
   <trkpt lat="47.4002370" lon="-122.0432190">
    <ele>107.8</ele>
    <time>2021-07-01T01:57:29Z</time>
   </trkpt>
   <trkpt lat="47.4001520" lon="-122.0432290">
    <ele>107.8</ele>
    <time>2021-07-01T01:57:30Z</time>
   </trkpt>
   <trkpt lat="47.4000720" lon="-122.0432450">
    <ele>107.9</ele>
    <time>2021-07-01T01:57:31Z</time>
   </trkpt>
   <trkpt lat="47.4000200" lon="-122.0432800">
    <ele>107.9</ele>
    <time>2021-07-01T01:57:32Z</time>
   </trkpt>
   <trkpt lat="47.3999560" lon="-122.0432960">
    <ele>108.0</ele>
    <time>2021-07-01T01:57:33Z</time>
   </trkpt>
   <trkpt lat="47.3999230" lon="-122.0432970">
    <ele>108.0</ele>
    <time>2021-07-01T01:57:34Z</time>
   </trkpt>
   <trkpt lat="47.3998660" lon="-122.0432950">
    <ele>108.1</ele>
    <time>2021-07-01T01:57:35Z</time>
   </trkpt>
   <trkpt lat="47.3997940" lon="-122.0433270">
    <ele>108.1</ele>
    <time>2021-07-01T01:57:36Z</time>
   </trkpt>
   <trkpt lat="47.3997360" lon="-122.0433430">
    <ele>108.2</ele>
    <time>2021-07-01T01:57:37Z</time>
   </trkpt>
   <trkpt lat="47.3996970" lon="-122.0433470">
    <ele>108.2</ele>
    <time>2021-07-01T01:57:38Z</time>
   </trkpt>
   <trkpt lat="47.3996500" lon="-122.0433400">
    <ele>108.3</ele>
    <time>2021-07-01T01:57:39Z</time>
   </trkpt>
   <trkpt lat="47.3996070" lon="-122.0433230">
    <ele>108.3</ele>
    <time>2021-07-01T01:57:40Z</time>
   </trkpt>
   <trkpt lat="47.3995600" lon="-122.0433420">
    <ele>108.4</ele>
    <time>2021-07-01T01:57:41Z</time>
   </trkpt>
   <trkpt lat="47.3994940" lon="-122.0433320">
    <ele>108.4</ele>
    <time>2021-07-01T01:57:42Z</time>
   </trkpt>
   <trkpt lat="47.3994300" lon="-122.0433320">
    <ele>108.5</ele>
    <time>2021-07-01T01:57:43Z</time>
   </trkpt>
   <trkpt lat="47.3993640" lon="-122.0433130">
    <ele>108.5</ele>
    <time>2021-07-01T01:57:44Z</time>
   </trkpt>
   <trkpt lat="47.3993050" lon="-122.0433020">
    <ele>108.6</ele>
    <time>2021-07-01T01:57:45Z</time>
   </trkpt>
   <trkpt lat="47.3992430" lon="-122.0432820">
    <ele>108.6</ele>
    <time>2021-07-01T01:57:46Z</time>
   </trkpt>
   <trkpt lat="47.3991810" lon="-122.0432760">
    <ele>108.7</ele>
    <time>2021-07-01T01:57:47Z</time>
   </trkpt>
   <trkpt lat="47.3991160" lon="-122.0432130">
    <ele>108.8</ele>
    <time>2021-07-01T01:57:48Z</time>
   </trkpt>
   <trkpt lat="47.3990490" lon="-122.0432010">
    <ele>108.8</ele>
    <time>2021-07-01T01:57:49Z</time>
   </trkpt>
   <trkpt lat="47.3989850" lon="-122.0431740">
    <ele>108.9</ele>
    <time>2021-07-01T01:57:50Z</time>
   </trkpt>
   <trkpt lat="47.3989410" lon="-122.0431730">
    <ele>109.0</ele>
    <time>2021-07-01T01:57:51Z</time>
   </trkpt>
   <trkpt lat="47.3988960" lon="-122.0432040">
    <ele>109.0</ele>
    <time>2021-07-01T01:57:52Z</time>
   </trkpt>
   <trkpt lat="47.3988410" lon="-122.0432040">
    <ele>109.1</ele>
    <time>2021-07-01T01:57:53Z</time>
   </trkpt>
   <trkpt lat="47.3987920" lon="-122.0432240">
    <ele>109.2</ele>
    <time>2021-07-01T01:57:54Z</time>
   </trkpt>
   <trkpt lat="47.3987600" lon="-122.0432460">
    <ele>109.2</ele>
    <time>2021-07-01T01:57:55Z</time>
   </trkpt>
   <trkpt lat="47.3987450" lon="-122.0432550">
    <ele>109.2</ele>
    <time>2021-07-01T01:57:56Z</time>
   </trkpt>
   <trkpt lat="47.3987050" lon="-122.0433030">
    <ele>109.3</ele>
    <time>2021-07-01T01:57:57Z</time>
   </trkpt>
   <trkpt lat="47.3986770" lon="-122.0433170">
    <ele>109.3</ele>
    <time>2021-07-01T01:57:59Z</time>
   </trkpt>
   <trkpt lat="47.3986430" lon="-122.0433140">
    <ele>110.1</ele>
    <time>2021-07-01T01:58:00Z</time>
   </trkpt>
   <trkpt lat="47.3986180" lon="-122.0433310">
    <ele>110.4</ele>
    <time>2021-07-01T01:58:01Z</time>
   </trkpt>
   <trkpt lat="47.3985830" lon="-122.0433150">
    <ele>110.8</ele>
    <time>2021-07-01T01:58:02Z</time>
   </trkpt>
   <trkpt lat="47.3985400" lon="-122.0432930">
    <ele>111.3</ele>
    <time>2021-07-01T01:58:03Z</time>
   </trkpt>
   <trkpt lat="47.3985040" lon="-122.0432820">
    <ele>111.8</ele>
    <time>2021-07-01T01:58:04Z</time>
   </trkpt>
   <trkpt lat="47.3984750" lon="-122.0432880">
    <ele>112.2</ele>
    <time>2021-07-01T01:58:05Z</time>
   </trkpt>
   <trkpt lat="47.3984630" lon="-122.0432910">
    <ele>112.4</ele>
    <time>2021-07-01T01:58:06Z</time>
   </trkpt>
   <trkpt lat="47.3984180" lon="-122.0432690">
    <ele>113.1</ele>
    <time>2021-07-01T01:58:07Z</time>
   </trkpt>
   <trkpt lat="47.3983790" lon="-122.0432580">
    <ele>113.6</ele>
    <time>2021-07-01T01:58:08Z</time>
   </trkpt>
   <trkpt lat="47.3983380" lon="-122.0432540">
    <ele>114.2</ele>
    <time>2021-07-01T01:58:09Z</time>
   </trkpt>
   <trkpt lat="47.3982990" lon="-122.0432800">
    <ele>114.8</ele>
    <time>2021-07-01T01:58:10Z</time>
   </trkpt>
   <trkpt lat="47.3982690" lon="-122.0432830">
    <ele>115.2</ele>
    <time>2021-07-01T01:58:11Z</time>
   </trkpt>
   <trkpt lat="47.3982430" lon="-122.0433010">
    <ele>115.5</ele>
    <time>2021-07-01T01:58:12Z</time>
   </trkpt>
   <trkpt lat="47.3982130" lon="-122.0433110">
    <ele>115.9</ele>
    <time>2021-07-01T01:58:13Z</time>
   </trkpt>
   <trkpt lat="47.3981780" lon="-122.0433210">
    <ele>116.2</ele>
    <time>2021-07-01T01:58:14Z</time>
   </trkpt>
   <trkpt lat="47.3981630" lon="-122.0433190">
    <ele>116.4</ele>
    <time>2021-07-01T01:58:15Z</time>
   </trkpt>
   <trkpt lat="47.3981340" lon="-122.0433300">
    <ele>116.6</ele>
    <time>2021-07-01T01:58:16Z</time>
   </trkpt>
   <trkpt lat="47.3981180" lon="-122.0433720">
    <ele>116.8</ele>
    <time>2021-07-01T01:58:17Z</time>
   </trkpt>
   <trkpt lat="47.3980880" lon="-122.0433980">
    <ele>117.0</ele>
    <time>2021-07-01T01:58:18Z</time>
   </trkpt>
   <trkpt lat="47.3980790" lon="-122.0434080">
    <ele>117.1</ele>
    <time>2021-07-01T01:58:19Z</time>
   </trkpt>
   <trkpt lat="47.3980430" lon="-122.0434210">
    <ele>117.3</ele>
    <time>2021-07-01T01:58:20Z</time>
   </trkpt>
   <trkpt lat="47.3980260" lon="-122.0434220">
    <ele>117.3</ele>
    <time>2021-07-01T01:58:21Z</time>
   </trkpt>
   <trkpt lat="47.3980090" lon="-122.0434220">
    <ele>117.4</ele>
    <time>2021-07-01T01:58:22Z</time>
   </trkpt>
   <trkpt lat="47.3979760" lon="-122.0434220">
    <ele>117.5</ele>
    <time>2021-07-01T01:58:23Z</time>
   </trkpt>
   <trkpt lat="47.3979390" lon="-122.0434380">
    <ele>117.6</ele>
    <time>2021-07-01T01:58:24Z</time>
   </trkpt>
   <trkpt lat="47.3979240" lon="-122.0434440">
    <ele>117.7</ele>
    <time>2021-07-01T01:58:25Z</time>
   </trkpt>
   <trkpt lat="47.3978910" lon="-122.0434530">
    <ele>117.7</ele>
    <time>2021-07-01T01:58:26Z</time>
   </trkpt>
   <trkpt lat="47.3978530" lon="-122.0434520">
    <ele>117.8</ele>
    <time>2021-07-01T01:58:27Z</time>
   </trkpt>
   <trkpt lat="47.3978440" lon="-122.0434670">
    <ele>117.9</ele>
    <time>2021-07-01T01:58:28Z</time>
   </trkpt>
   <trkpt lat="47.3978310" lon="-122.0434680">
    <ele>117.9</ele>
    <time>2021-07-01T01:58:29Z</time>
   </trkpt>
   <trkpt lat="47.3978180" lon="-122.0434700">
    <ele>117.9</ele>
    <time>2021-07-01T01:58:30Z</time>
   </trkpt>
   <trkpt lat="47.3977760" lon="-122.0434590">
    <ele>118.0</ele>
    <time>2021-07-01T01:58:31Z</time>
   </trkpt>
   <trkpt lat="47.3977310" lon="-122.0434470">
    <ele>118.1</ele>
    <time>2021-07-01T01:58:32Z</time>
   </trkpt>
   <trkpt lat="47.3976980" lon="-122.0434320">
    <ele>118.1</ele>
    <time>2021-07-01T01:58:33Z</time>
   </trkpt>
   <trkpt lat="47.3976640" lon="-122.0434380">
    <ele>118.2</ele>
    <time>2021-07-01T01:58:34Z</time>
   </trkpt>
   <trkpt lat="47.3976480" lon="-122.0434420">
    <ele>118.2</ele>
    <time>2021-07-01T01:58:35Z</time>
   </trkpt>
   <trkpt lat="47.3976170" lon="-122.0434580">
    <ele>118.3</ele>
    <time>2021-07-01T01:58:36Z</time>
   </trkpt>
   <trkpt lat="47.3975890" lon="-122.0434670">
    <ele>118.3</ele>
    <time>2021-07-01T01:58:37Z</time>
   </trkpt>
   <trkpt lat="47.3975590" lon="-122.0434610">
    <ele>118.4</ele>
    <time>2021-07-01T01:58:38Z</time>
   </trkpt>
   <trkpt lat="47.3975130" lon="-122.0434510">
    <ele>118.4</ele>
    <time>2021-07-01T01:58:39Z</time>
   </trkpt>
   <trkpt lat="47.3974850" lon="-122.0434430">
    <ele>118.5</ele>
    <time>2021-07-01T01:58:40Z</time>
   </trkpt>
   <trkpt lat="47.3974390" lon="-122.0434180">
    <ele>118.5</ele>
    <time>2021-07-01T01:58:41Z</time>
   </trkpt>
   <trkpt lat="47.3973840" lon="-122.0433960">
    <ele>118.6</ele>
    <time>2021-07-01T01:58:42Z</time>
   </trkpt>
   <trkpt lat="47.3973450" lon="-122.0434030">
    <ele>118.7</ele>
    <time>2021-07-01T01:58:43Z</time>
   </trkpt>
   <trkpt lat="47.3973150" lon="-122.0433940">
    <ele>118.7</ele>
    <time>2021-07-01T01:58:44Z</time>
   </trkpt>
   <trkpt lat="47.3972860" lon="-122.0433920">
    <ele>118.8</ele>
    <time>2021-07-01T01:58:45Z</time>
   </trkpt>
   <trkpt lat="47.3972470" lon="-122.0434010">
    <ele>118.8</ele>
    <time>2021-07-01T01:58:46Z</time>
   </trkpt>
   <trkpt lat="47.3971970" lon="-122.0433850">
    <ele>118.9</ele>
    <time>2021-07-01T01:58:47Z</time>
   </trkpt>
   <trkpt lat="47.3971500" lon="-122.0433690">
    <ele>119.0</ele>
    <time>2021-07-01T01:58:48Z</time>
   </trkpt>
   <trkpt lat="47.3971100" lon="-122.0433620">
    <ele>119.0</ele>
    <time>2021-07-01T01:58:49Z</time>
   </trkpt>
   <trkpt lat="47.3970780" lon="-122.0433620">
    <ele>119.1</ele>
    <time>2021-07-01T01:58:50Z</time>
   </trkpt>
   <trkpt lat="47.3970390" lon="-122.0433710">
    <ele>119.1</ele>
    <time>2021-07-01T01:58:51Z</time>
   </trkpt>
   <trkpt lat="47.3970070" lon="-122.0433790">
    <ele>119.2</ele>
    <time>2021-07-01T01:58:52Z</time>
   </trkpt>
   <trkpt lat="47.3969780" lon="-122.0433830">
    <ele>119.3</ele>
    <time>2021-07-01T01:58:53Z</time>
   </trkpt>
   <trkpt lat="47.3969480" lon="-122.0433960">
    <ele>119.3</ele>
    <time>2021-07-01T01:58:54Z</time>
   </trkpt>
   <trkpt lat="47.3968980" lon="-122.0433910">
    <ele>119.4</ele>
    <time>2021-07-01T01:58:55Z</time>
   </trkpt>
   <trkpt lat="47.3968550" lon="-122.0433780">
    <ele>119.5</ele>
    <time>2021-07-01T01:58:56Z</time>
   </trkpt>
   <trkpt lat="47.3968060" lon="-122.0433660">
    <ele>119.6</ele>
    <time>2021-07-01T01:58:57Z</time>
   </trkpt>
   <trkpt lat="47.3967560" lon="-122.0433510">
    <ele>119.7</ele>
    <time>2021-07-01T01:58:58Z</time>
   </trkpt>
   <trkpt lat="47.3967060" lon="-122.0433470">
    <ele>119.8</ele>
    <time>2021-07-01T01:58:59Z</time>
   </trkpt>
   <trkpt lat="47.3966700" lon="-122.0433390">
    <ele>119.9</ele>
    <time>2021-07-01T01:59:00Z</time>
   </trkpt>
   <trkpt lat="47.3966330" lon="-122.0433200">
    <ele>120.0</ele>
    <time>2021-07-01T01:59:01Z</time>
   </trkpt>
   <trkpt lat="47.3965880" lon="-122.0433130">
    <ele>120.1</ele>
    <time>2021-07-01T01:59:02Z</time>
   </trkpt>
   <trkpt lat="47.3965530" lon="-122.0433160">
    <ele>120.1</ele>
    <time>2021-07-01T01:59:03Z</time>
   </trkpt>
   <trkpt lat="47.3965170" lon="-122.0433320">
    <ele>120.2</ele>
    <time>2021-07-01T01:59:04Z</time>
   </trkpt>
   <trkpt lat="47.3964490" lon="-122.0433250">
    <ele>120.3</ele>
    <time>2021-07-01T01:59:05Z</time>
   </trkpt>
   <trkpt lat="47.3963820" lon="-122.0433030">
    <ele>120.5</ele>
    <time>2021-07-01T01:59:06Z</time>
   </trkpt>
   <trkpt lat="47.3963370" lon="-122.0432970">
    <ele>120.6</ele>
    <time>2021-07-01T01:59:07Z</time>
   </trkpt>
   <trkpt lat="47.3963090" lon="-122.0432920">
    <ele>120.6</ele>
    <time>2021-07-01T01:59:08Z</time>
   </trkpt>
   <trkpt lat="47.3962690" lon="-122.0432980">
    <ele>120.7</ele>
    <time>2021-07-01T01:59:09Z</time>
   </trkpt>
   <trkpt lat="47.3962270" lon="-122.0433010">
    <ele>120.8</ele>
    <time>2021-07-01T01:59:10Z</time>
   </trkpt>
   <trkpt lat="47.3961810" lon="-122.0433140">
    <ele>120.8</ele>
    <time>2021-07-01T01:59:11Z</time>
   </trkpt>
   <trkpt lat="47.3961450" lon="-122.0433230">
    <ele>120.9</ele>
    <time>2021-07-01T01:59:12Z</time>
   </trkpt>
   <trkpt lat="47.3960940" lon="-122.0433310">
    <ele>120.9</ele>
    <time>2021-07-01T01:59:13Z</time>
   </trkpt>
   <trkpt lat="47.3960630" lon="-122.0433220">
    <ele>121.0</ele>
    <time>2021-07-01T01:59:14Z</time>
   </trkpt>
   <trkpt lat="47.3960150" lon="-122.0433120">
    <ele>121.0</ele>
    <time>2021-07-01T01:59:15Z</time>
   </trkpt>
   <trkpt lat="47.3959570" lon="-122.0433070">
    <ele>121.1</ele>
    <time>2021-07-01T01:59:16Z</time>
   </trkpt>
   <trkpt lat="47.3959090" lon="-122.0432950">
    <ele>121.1</ele>
    <time>2021-07-01T01:59:17Z</time>
   </trkpt>
   <trkpt lat="47.3958680" lon="-122.0433050">
    <ele>121.2</ele>
    <time>2021-07-01T01:59:18Z</time>
   </trkpt>
   <trkpt lat="47.3958190" lon="-122.0432970">
    <ele>121.2</ele>
    <time>2021-07-01T01:59:19Z</time>
   </trkpt>
   <trkpt lat="47.3957640" lon="-122.0432690">
    <ele>121.3</ele>
    <time>2021-07-01T01:59:20Z</time>
   </trkpt>
   <trkpt lat="47.3957090" lon="-122.0432610">
    <ele>121.3</ele>
    <time>2021-07-01T01:59:21Z</time>
   </trkpt>
   <trkpt lat="47.3956860" lon="-122.0432880">
    <ele>121.4</ele>
    <time>2021-07-01T01:59:22Z</time>
   </trkpt>
   <trkpt lat="47.3956530" lon="-122.0433420">
    <ele>121.4</ele>
    <time>2021-07-01T01:59:23Z</time>
   </trkpt>
   <trkpt lat="47.3956160" lon="-122.0433400">
    <ele>121.5</ele>
    <time>2021-07-01T01:59:24Z</time>
   </trkpt>
   <trkpt lat="47.3955620" lon="-122.0433420">
    <ele>121.5</ele>
    <time>2021-07-01T01:59:25Z</time>
   </trkpt>
   <trkpt lat="47.3954980" lon="-122.0433510">
    <ele>121.6</ele>
    <time>2021-07-01T01:59:26Z</time>
   </trkpt>
   <trkpt lat="47.3954700" lon="-122.0433540">
    <ele>121.6</ele>
    <time>2021-07-01T01:59:27Z</time>
   </trkpt>
   <trkpt lat="47.3954290" lon="-122.0433330">
    <ele>121.7</ele>
    <time>2021-07-01T01:59:28Z</time>
   </trkpt>
   <trkpt lat="47.3954000" lon="-122.0433490">
    <ele>121.7</ele>
    <time>2021-07-01T01:59:29Z</time>
   </trkpt>
   <trkpt lat="47.3953740" lon="-122.0433790">
    <ele>121.7</ele>
    <time>2021-07-01T01:59:30Z</time>
   </trkpt>
   <trkpt lat="47.3953400" lon="-122.0433910">
    <ele>121.8</ele>
    <time>2021-07-01T01:59:31Z</time>
   </trkpt>
   <trkpt lat="47.3953010" lon="-122.0433800">
    <ele>121.8</ele>
    <time>2021-07-01T01:59:32Z</time>
   </trkpt>
   <trkpt lat="47.3951980" lon="-122.0433370">
    <ele>121.9</ele>
    <time>2021-07-01T01:59:33Z</time>
   </trkpt>
   <trkpt lat="47.3951410" lon="-122.0433460">
    <ele>122.0</ele>
    <time>2021-07-01T01:59:34Z</time>
   </trkpt>
   <trkpt lat="47.3950960" lon="-122.0433370">
    <ele>122.0</ele>
    <time>2021-07-01T01:59:35Z</time>
   </trkpt>
   <trkpt lat="47.3950640" lon="-122.0433590">
    <ele>122.1</ele>
    <time>2021-07-01T01:59:36Z</time>
   </trkpt>
   <trkpt lat="47.3950180" lon="-122.0433770">
    <ele>122.1</ele>
    <time>2021-07-01T01:59:37Z</time>
   </trkpt>
   <trkpt lat="47.3949630" lon="-122.0433940">
    <ele>122.2</ele>
    <time>2021-07-01T01:59:38Z</time>
   </trkpt>
   <trkpt lat="47.3949250" lon="-122.0434320">
    <ele>122.2</ele>
    <time>2021-07-01T01:59:39Z</time>
   </trkpt>
   <trkpt lat="47.3948900" lon="-122.0434810">
    <ele>122.3</ele>
    <time>2021-07-01T01:59:40Z</time>
   </trkpt>
   <trkpt lat="47.3948350" lon="-122.0435010">
    <ele>122.4</ele>
    <time>2021-07-01T01:59:41Z</time>
   </trkpt>
   <trkpt lat="47.3947770" lon="-122.0435040">
    <ele>122.4</ele>
    <time>2021-07-01T01:59:42Z</time>
   </trkpt>
   <trkpt lat="47.3947270" lon="-122.0435100">
    <ele>122.5</ele>
    <time>2021-07-01T01:59:43Z</time>
   </trkpt>
   <trkpt lat="47.3946550" lon="-122.0435040">
    <ele>122.5</ele>
    <time>2021-07-01T01:59:44Z</time>
   </trkpt>
   <trkpt lat="47.3945930" lon="-122.0434970">
    <ele>122.5</ele>
    <time>2021-07-01T01:59:45Z</time>
   </trkpt>
   <trkpt lat="47.3945510" lon="-122.0435000">
    <ele>122.5</ele>
    <time>2021-07-01T01:59:46Z</time>
   </trkpt>
   <trkpt lat="47.3945080" lon="-122.0435000">
    <ele>122.6</ele>
    <time>2021-07-01T01:59:47Z</time>
   </trkpt>
   <trkpt lat="47.3944610" lon="-122.0435110">
    <ele>122.6</ele>
    <time>2021-07-01T01:59:48Z</time>
   </trkpt>
   <trkpt lat="47.3944330" lon="-122.0435160">
    <ele>122.6</ele>
    <time>2021-07-01T01:59:49Z</time>
   </trkpt>
   <trkpt lat="47.3944180" lon="-122.0435160">
    <ele>122.6</ele>
    <time>2021-07-01T01:59:50Z</time>
   </trkpt>
   <trkpt lat="47.3943740" lon="-122.0435820">
    <ele>122.8</ele>
    <time>2021-07-01T01:59:51Z</time>
   </trkpt>
   <trkpt lat="47.3943410" lon="-122.0436080">
    <ele>122.9</ele>
    <time>2021-07-01T01:59:52Z</time>
   </trkpt>
   <trkpt lat="47.3942590" lon="-122.0436330">
    <ele>123.0</ele>
    <time>2021-07-01T01:59:53Z</time>
   </trkpt>
   <trkpt lat="47.3942020" lon="-122.0436320">
    <ele>123.1</ele>
    <time>2021-07-01T01:59:54Z</time>
   </trkpt>
   <trkpt lat="47.3941620" lon="-122.0436400">
    <ele>123.2</ele>
    <time>2021-07-01T01:59:55Z</time>
   </trkpt>
   <trkpt lat="47.3941160" lon="-122.0436640">
    <ele>123.3</ele>
    <time>2021-07-01T01:59:56Z</time>
   </trkpt>
   <trkpt lat="47.3940690" lon="-122.0436470">
    <ele>123.3</ele>
    <time>2021-07-01T01:59:57Z</time>
   </trkpt>
   <trkpt lat="47.3940290" lon="-122.0436660">
    <ele>123.4</ele>
    <time>2021-07-01T01:59:58Z</time>
   </trkpt>
   <trkpt lat="47.3940080" lon="-122.0436700">
    <ele>123.4</ele>
    <time>2021-07-01T01:59:59Z</time>
   </trkpt>
   <trkpt lat="47.3939630" lon="-122.0436830">
    <ele>123.5</ele>
    <time>2021-07-01T02:00:00Z</time>
   </trkpt>
   <trkpt lat="47.3939220" lon="-122.0437070">
    <ele>123.5</ele>
    <time>2021-07-01T02:00:01Z</time>
   </trkpt>
   <trkpt lat="47.3938770" lon="-122.0437010">
    <ele>123.6</ele>
    <time>2021-07-01T02:00:02Z</time>
   </trkpt>
   <trkpt lat="47.3938310" lon="-122.0436910">
    <ele>123.6</ele>
    <time>2021-07-01T02:00:03Z</time>
   </trkpt>
   <trkpt lat="47.3937730" lon="-122.0437000">
    <ele>123.7</ele>
    <time>2021-07-01T02:00:05Z</time>
   </trkpt>
   <trkpt lat="47.3937210" lon="-122.0437210">
    <ele>123.8</ele>
    <time>2021-07-01T02:00:06Z</time>
   </trkpt>
   <trkpt lat="47.3937030" lon="-122.0437560">
    <ele>123.8</ele>
    <time>2021-07-01T02:00:07Z</time>
   </trkpt>
   <trkpt lat="47.3936700" lon="-122.0437750">
    <ele>123.9</ele>
    <time>2021-07-01T02:00:08Z</time>
   </trkpt>
   <trkpt lat="47.3936360" lon="-122.0437920">
    <ele>123.9</ele>
    <time>2021-07-01T02:00:09Z</time>
   </trkpt>
   <trkpt lat="47.3935860" lon="-122.0438070">
    <ele>124.0</ele>
    <time>2021-07-01T02:00:10Z</time>
   </trkpt>
   <trkpt lat="47.3935340" lon="-122.0438250">
    <ele>124.1</ele>
    <time>2021-07-01T02:00:11Z</time>
   </trkpt>
   <trkpt lat="47.3934610" lon="-122.0438510">
    <ele>124.2</ele>
    <time>2021-07-01T02:00:12Z</time>
   </trkpt>
   <trkpt lat="47.3934220" lon="-122.0438930">
    <ele>124.3</ele>
    <time>2021-07-01T02:00:13Z</time>
   </trkpt>
   <trkpt lat="47.3933740" lon="-122.0439190">
    <ele>124.3</ele>
    <time>2021-07-01T02:00:14Z</time>
   </trkpt>
   <trkpt lat="47.3933240" lon="-122.0439490">
    <ele>124.4</ele>
    <time>2021-07-01T02:00:15Z</time>
   </trkpt>
   <trkpt lat="47.3932750" lon="-122.0439770">
    <ele>124.5</ele>
    <time>2021-07-01T02:00:16Z</time>
   </trkpt>
   <trkpt lat="47.3932480" lon="-122.0440080">
    <ele>124.5</ele>
    <time>2021-07-01T02:00:17Z</time>
   </trkpt>
   <trkpt lat="47.3932050" lon="-122.0440110">
    <ele>124.6</ele>
    <time>2021-07-01T02:00:18Z</time>
   </trkpt>
   <trkpt lat="47.3931540" lon="-122.0440240">
    <ele>124.6</ele>
    <time>2021-07-01T02:00:19Z</time>
   </trkpt>
   <trkpt lat="47.3931050" lon="-122.0440610">
    <ele>124.7</ele>
    <time>2021-07-01T02:00:20Z</time>
   </trkpt>
   <trkpt lat="47.3930420" lon="-122.0440910">
    <ele>124.8</ele>
    <time>2021-07-01T02:00:21Z</time>
   </trkpt>
   <trkpt lat="47.3929890" lon="-122.0441110">
    <ele>124.8</ele>
    <time>2021-07-01T02:00:22Z</time>
   </trkpt>
   <trkpt lat="47.3929380" lon="-122.0441310">
    <ele>124.9</ele>
    <time>2021-07-01T02:00:23Z</time>
   </trkpt>
   <trkpt lat="47.3928980" lon="-122.0441440">
    <ele>125.0</ele>
    <time>2021-07-01T02:00:24Z</time>
   </trkpt>
   <trkpt lat="47.3928430" lon="-122.0441450">
    <ele>125.0</ele>
    <time>2021-07-01T02:00:25Z</time>
   </trkpt>
   <trkpt lat="47.3927960" lon="-122.0441410">
    <ele>125.1</ele>
    <time>2021-07-01T02:00:26Z</time>
   </trkpt>
   <trkpt lat="47.3927600" lon="-122.0441690">
    <ele>125.2</ele>
    <time>2021-07-01T02:00:27Z</time>
   </trkpt>
   <trkpt lat="47.3927130" lon="-122.0442060">
    <ele>125.3</ele>
    <time>2021-07-01T02:00:28Z</time>
   </trkpt>
   <trkpt lat="47.3926590" lon="-122.0442060">
    <ele>125.4</ele>
    <time>2021-07-01T02:00:29Z</time>
   </trkpt>
   <trkpt lat="47.3926180" lon="-122.0442200">
    <ele>125.5</ele>
    <time>2021-07-01T02:00:30Z</time>
   </trkpt>
   <trkpt lat="47.3925770" lon="-122.0442280">
    <ele>125.5</ele>
    <time>2021-07-01T02:00:31Z</time>
   </trkpt>
   <trkpt lat="47.3925380" lon="-122.0442400">
    <ele>125.6</ele>
    <time>2021-07-01T02:00:32Z</time>
   </trkpt>
   <trkpt lat="47.3925100" lon="-122.0442560">
    <ele>125.7</ele>
    <time>2021-07-01T02:00:33Z</time>
   </trkpt>
   <trkpt lat="47.3924830" lon="-122.0442770">
    <ele>125.7</ele>
    <time>2021-07-01T02:00:34Z</time>
   </trkpt>
   <trkpt lat="47.3924490" lon="-122.0443030">
    <ele>125.8</ele>
    <time>2021-07-01T02:00:35Z</time>
   </trkpt>
   <trkpt lat="47.3924220" lon="-122.0443370">
    <ele>125.9</ele>
    <time>2021-07-01T02:00:36Z</time>
   </trkpt>
   <trkpt lat="47.3923930" lon="-122.0443610">
    <ele>125.9</ele>
    <time>2021-07-01T02:00:37Z</time>
   </trkpt>
   <trkpt lat="47.3923620" lon="-122.0443810">
    <ele>125.9</ele>
    <time>2021-07-01T02:00:38Z</time>
   </trkpt>
   <trkpt lat="47.3923260" lon="-122.0443870">
    <ele>126.0</ele>
    <time>2021-07-01T02:00:39Z</time>
   </trkpt>
   <trkpt lat="47.3922900" lon="-122.0444100">
    <ele>126.0</ele>
    <time>2021-07-01T02:00:40Z</time>
   </trkpt>
   <trkpt lat="47.3922440" lon="-122.0444030">
    <ele>126.1</ele>
    <time>2021-07-01T02:00:41Z</time>
   </trkpt>
   <trkpt lat="47.3922120" lon="-122.0444020">
    <ele>126.1</ele>
    <time>2021-07-01T02:00:42Z</time>
   </trkpt>
   <trkpt lat="47.3921780" lon="-122.0444040">
    <ele>126.2</ele>
    <time>2021-07-01T02:00:43Z</time>
   </trkpt>
   <trkpt lat="47.3921300" lon="-122.0444320">
    <ele>126.2</ele>
    <time>2021-07-01T02:00:44Z</time>
   </trkpt>
   <trkpt lat="47.3920900" lon="-122.0444400">
    <ele>126.3</ele>
    <time>2021-07-01T02:00:45Z</time>
   </trkpt>
   <trkpt lat="47.3920530" lon="-122.0444690">
    <ele>126.3</ele>
    <time>2021-07-01T02:00:46Z</time>
   </trkpt>
   <trkpt lat="47.3920110" lon="-122.0444710">
    <ele>126.4</ele>
    <time>2021-07-01T02:00:47Z</time>
   </trkpt>
   <trkpt lat="47.3919880" lon="-122.0445110">
    <ele>126.4</ele>
    <time>2021-07-01T02:00:48Z</time>
   </trkpt>
   <trkpt lat="47.3919540" lon="-122.0445410">
    <ele>126.4</ele>
    <time>2021-07-01T02:00:49Z</time>
   </trkpt>
   <trkpt lat="47.3919200" lon="-122.0445340">
    <ele>126.4</ele>
    <time>2021-07-01T02:00:50Z</time>
   </trkpt>
   <trkpt lat="47.3918710" lon="-122.0445590">
    <ele>126.5</ele>
    <time>2021-07-01T02:00:51Z</time>
   </trkpt>
   <trkpt lat="47.3918250" lon="-122.0446040">
    <ele>126.5</ele>
    <time>2021-07-01T02:00:52Z</time>
   </trkpt>
   <trkpt lat="47.3917810" lon="-122.0446140">
    <ele>126.6</ele>
    <time>2021-07-01T02:00:53Z</time>
   </trkpt>
   <trkpt lat="47.3917450" lon="-122.0446350">
    <ele>126.6</ele>
    <time>2021-07-01T02:00:54Z</time>
   </trkpt>
   <trkpt lat="47.3917070" lon="-122.0446500">
    <ele>126.6</ele>
    <time>2021-07-01T02:00:55Z</time>
   </trkpt>
   <trkpt lat="47.3916680" lon="-122.0446900">
    <ele>126.7</ele>
    <time>2021-07-01T02:00:56Z</time>
   </trkpt>
   <trkpt lat="47.3916290" lon="-122.0447340">
    <ele>126.7</ele>
    <time>2021-07-01T02:00:57Z</time>
   </trkpt>
   <trkpt lat="47.3915890" lon="-122.0447480">
    <ele>126.8</ele>
    <time>2021-07-01T02:00:58Z</time>
   </trkpt>
   <trkpt lat="47.3915450" lon="-122.0448070">
    <ele>126.8</ele>
    <time>2021-07-01T02:00:59Z</time>
   </trkpt>
   <trkpt lat="47.3915020" lon="-122.0448590">
    <ele>126.9</ele>
    <time>2021-07-01T02:01:00Z</time>
   </trkpt>
   <trkpt lat="47.3914730" lon="-122.0448940">
    <ele>126.9</ele>
    <time>2021-07-01T02:01:01Z</time>
   </trkpt>
   <trkpt lat="47.3914240" lon="-122.0449840">
    <ele>127.0</ele>
    <time>2021-07-01T02:01:02Z</time>
   </trkpt>
   <trkpt lat="47.3913770" lon="-122.0450270">
    <ele>127.1</ele>
    <time>2021-07-01T02:01:03Z</time>
   </trkpt>
   <trkpt lat="47.3913290" lon="-122.0450410">
    <ele>127.1</ele>
    <time>2021-07-01T02:01:04Z</time>
   </trkpt>
   <trkpt lat="47.3912810" lon="-122.0450540">
    <ele>127.2</ele>
    <time>2021-07-01T02:01:05Z</time>
   </trkpt>
   <trkpt lat="47.3912360" lon="-122.0450570">
    <ele>127.2</ele>
    <time>2021-07-01T02:01:06Z</time>
   </trkpt>
   <trkpt lat="47.3912050" lon="-122.0450870">
    <ele>127.2</ele>
    <time>2021-07-01T02:01:07Z</time>
   </trkpt>
   <trkpt lat="47.3911700" lon="-122.0451100">
    <ele>127.3</ele>
    <time>2021-07-01T02:01:08Z</time>
   </trkpt>
   <trkpt lat="47.3911300" lon="-122.0451290">
    <ele>127.3</ele>
    <time>2021-07-01T02:01:09Z</time>
   </trkpt>
   <trkpt lat="47.3910970" lon="-122.0451320">
    <ele>127.4</ele>
    <time>2021-07-01T02:01:10Z</time>
   </trkpt>
   <trkpt lat="47.3910560" lon="-122.0451580">
    <ele>127.4</ele>
    <time>2021-07-01T02:01:11Z</time>
   </trkpt>
   <trkpt lat="47.3910260" lon="-122.0451690">
    <ele>127.4</ele>
    <time>2021-07-01T02:01:12Z</time>
   </trkpt>
   <trkpt lat="47.3909950" lon="-122.0451950">
    <ele>127.5</ele>
    <time>2021-07-01T02:01:13Z</time>
   </trkpt>
   <trkpt lat="47.3909570" lon="-122.0452500">
    <ele>127.5</ele>
    <time>2021-07-01T02:01:14Z</time>
   </trkpt>
   <trkpt lat="47.3909230" lon="-122.0452960">
    <ele>127.5</ele>
    <time>2021-07-01T02:01:15Z</time>
   </trkpt>
   <trkpt lat="47.3909070" lon="-122.0453510">
    <ele>127.5</ele>
    <time>2021-07-01T02:01:16Z</time>
   </trkpt>
   <trkpt lat="47.3908780" lon="-122.0453840">
    <ele>127.5</ele>
    <time>2021-07-01T02:01:17Z</time>
   </trkpt>
   <trkpt lat="47.3908320" lon="-122.0454200">
    <ele>127.6</ele>
    <time>2021-07-01T02:01:18Z</time>
   </trkpt>
   <trkpt lat="47.3908030" lon="-122.0454500">
    <ele>127.6</ele>
    <time>2021-07-01T02:01:19Z</time>
   </trkpt>
   <trkpt lat="47.3907750" lon="-122.0454800">
    <ele>127.6</ele>
    <time>2021-07-01T02:01:20Z</time>
   </trkpt>
   <trkpt lat="47.3907440" lon="-122.0455150">
    <ele>127.6</ele>
    <time>2021-07-01T02:01:21Z</time>
   </trkpt>
   <trkpt lat="47.3907190" lon="-122.0455470">
    <ele>127.6</ele>
    <time>2021-07-01T02:01:22Z</time>
   </trkpt>
   <trkpt lat="47.3906980" lon="-122.0455870">
    <ele>127.7</ele>
    <time>2021-07-01T02:01:23Z</time>
   </trkpt>
   <trkpt lat="47.3906730" lon="-122.0456300">
    <ele>127.7</ele>
    <time>2021-07-01T02:01:24Z</time>
   </trkpt>
   <trkpt lat="47.3906440" lon="-122.0456670">
    <ele>127.8</ele>
    <time>2021-07-01T02:01:25Z</time>
   </trkpt>
   <trkpt lat="47.3906160" lon="-122.0456980">
    <ele>127.8</ele>
    <time>2021-07-01T02:01:26Z</time>
   </trkpt>
   <trkpt lat="47.3904270" lon="-122.0457300">
    <ele>128.0</ele>
    <time>2021-07-01T02:01:27Z</time>
   </trkpt>
   <trkpt lat="47.3904090" lon="-122.0457640">
    <ele>128.0</ele>
    <time>2021-07-01T02:01:28Z</time>
   </trkpt>
   <trkpt lat="47.3902980" lon="-122.0460100">
    <ele>128.3</ele>
    <time>2021-07-01T02:01:29Z</time>
   </trkpt>
   <trkpt lat="47.3902490" lon="-122.0460600">
    <ele>128.4</ele>
    <time>2021-07-01T02:01:30Z</time>
   </trkpt>
   <trkpt lat="47.3902120" lon="-122.0461250">
    <ele>128.5</ele>
    <time>2021-07-01T02:01:31Z</time>
   </trkpt>
   <trkpt lat="47.3901820" lon="-122.0461800">
    <ele>128.6</ele>
    <time>2021-07-01T02:01:32Z</time>
   </trkpt>
   <trkpt lat="47.3901520" lon="-122.0462210">
    <ele>128.7</ele>
    <time>2021-07-01T02:01:33Z</time>
   </trkpt>
   <trkpt lat="47.3901330" lon="-122.0462340">
    <ele>128.7</ele>
    <time>2021-07-01T02:01:34Z</time>
   </trkpt>
   <trkpt lat="47.3901070" lon="-122.0462960">
    <ele>128.8</ele>
    <time>2021-07-01T02:01:35Z</time>
   </trkpt>
   <trkpt lat="47.3900870" lon="-122.0463250">
    <ele>128.8</ele>
    <time>2021-07-01T02:01:36Z</time>
   </trkpt>
   <trkpt lat="47.3900590" lon="-122.0463410">
    <ele>128.9</ele>
    <time>2021-07-01T02:01:37Z</time>
   </trkpt>
   <trkpt lat="47.3900190" lon="-122.0463610">
    <ele>128.9</ele>
    <time>2021-07-01T02:01:38Z</time>
   </trkpt>
   <trkpt lat="47.3900040" lon="-122.0463820">
    <ele>128.9</ele>
    <time>2021-07-01T02:01:39Z</time>
   </trkpt>
   <trkpt lat="47.3899710" lon="-122.0464030">
    <ele>129.0</ele>
    <time>2021-07-01T02:01:40Z</time>
   </trkpt>
   <trkpt lat="47.3899410" lon="-122.0464220">
    <ele>129.0</ele>
    <time>2021-07-01T02:01:41Z</time>
   </trkpt>
   <trkpt lat="47.3899240" lon="-122.0464380">
    <ele>129.1</ele>
    <time>2021-07-01T02:01:42Z</time>
   </trkpt>
   <trkpt lat="47.3898950" lon="-122.0464590">
    <ele>129.1</ele>
    <time>2021-07-01T02:01:43Z</time>
   </trkpt>
   <trkpt lat="47.3898650" lon="-122.0464690">
    <ele>129.2</ele>
    <time>2021-07-01T02:01:44Z</time>
   </trkpt>
   <trkpt lat="47.3898230" lon="-122.0464910">
    <ele>129.2</ele>
    <time>2021-07-01T02:01:45Z</time>
   </trkpt>
   <trkpt lat="47.3898030" lon="-122.0464960">
    <ele>129.3</ele>
    <time>2021-07-01T02:01:46Z</time>
   </trkpt>
   <trkpt lat="47.3897660" lon="-122.0465180">
    <ele>129.3</ele>
    <time>2021-07-01T02:01:47Z</time>
   </trkpt>
   <trkpt lat="47.3897560" lon="-122.0465500">
    <ele>129.3</ele>
    <time>2021-07-01T02:01:48Z</time>
   </trkpt>
   <trkpt lat="47.3897390" lon="-122.0465450">
    <ele>129.4</ele>
    <time>2021-07-01T02:01:49Z</time>
   </trkpt>
   <trkpt lat="47.3897100" lon="-122.0465960">
    <ele>129.4</ele>
    <time>2021-07-01T02:01:50Z</time>
   </trkpt>
   <trkpt lat="47.3896880" lon="-122.0466240">
    <ele>129.5</ele>
    <time>2021-07-01T02:01:51Z</time>
   </trkpt>
   <trkpt lat="47.3896750" lon="-122.0466600">
    <ele>129.5</ele>
    <time>2021-07-01T02:01:52Z</time>
   </trkpt>
   <trkpt lat="47.3896680" lon="-122.0466690">
    <ele>129.5</ele>
    <time>2021-07-01T02:01:53Z</time>
   </trkpt>
   <trkpt lat="47.3896380" lon="-122.0466870">
    <ele>129.5</ele>
    <time>2021-07-01T02:01:54Z</time>
   </trkpt>
   <trkpt lat="47.3896080" lon="-122.0466960">
    <ele>129.6</ele>
    <time>2021-07-01T02:01:55Z</time>
   </trkpt>
   <trkpt lat="47.3895840" lon="-122.0467300">
    <ele>129.6</ele>
    <time>2021-07-01T02:01:56Z</time>
   </trkpt>
   <trkpt lat="47.3895720" lon="-122.0467450">
    <ele>129.6</ele>
    <time>2021-07-01T02:01:57Z</time>
   </trkpt>
   <trkpt lat="47.3895600" lon="-122.0467640">
    <ele>129.6</ele>
    <time>2021-07-01T02:01:58Z</time>
   </trkpt>
   <trkpt lat="47.3895380" lon="-122.0468010">
    <ele>129.7</ele>
    <time>2021-07-01T02:01:59Z</time>
   </trkpt>
   <trkpt lat="47.3895120" lon="-122.0468170">
    <ele>129.7</ele>
    <time>2021-07-01T02:02:00Z</time>
   </trkpt>
   <trkpt lat="47.3894900" lon="-122.0468400">
    <ele>129.7</ele>
    <time>2021-07-01T02:02:01Z</time>
   </trkpt>
   <trkpt lat="47.3894660" lon="-122.0468710">
    <ele>129.8</ele>
    <time>2021-07-01T02:02:02Z</time>
   </trkpt>
   <trkpt lat="47.3894420" lon="-122.0469000">
    <ele>129.8</ele>
    <time>2021-07-01T02:02:03Z</time>
   </trkpt>
   <trkpt lat="47.3894350" lon="-122.0469090">
    <ele>129.8</ele>
    <time>2021-07-01T02:02:04Z</time>
   </trkpt>
   <trkpt lat="47.3894190" lon="-122.0469110">
    <ele>129.8</ele>
    <time>2021-07-01T02:02:05Z</time>
   </trkpt>
   <trkpt lat="47.3894040" lon="-122.0469210">
    <ele>129.8</ele>
    <time>2021-07-01T02:02:06Z</time>
   </trkpt>
   <trkpt lat="47.3893760" lon="-122.0469530">
    <ele>129.9</ele>
    <time>2021-07-01T02:02:07Z</time>
   </trkpt>
   <trkpt lat="47.3893560" lon="-122.0469980">
    <ele>129.9</ele>
    <time>2021-07-01T02:02:08Z</time>
   </trkpt>
   <trkpt lat="47.3893310" lon="-122.0470290">
    <ele>129.9</ele>
    <time>2021-07-01T02:02:09Z</time>
   </trkpt>
   <trkpt lat="47.3893150" lon="-122.0470730">
    <ele>130.0</ele>
    <time>2021-07-01T02:02:11Z</time>
   </trkpt>
   <trkpt lat="47.3893000" lon="-122.0471080">
    <ele>130.0</ele>
    <time>2021-07-01T02:02:12Z</time>
   </trkpt>
   <trkpt lat="47.3892810" lon="-122.0471720">
    <ele>130.0</ele>
    <time>2021-07-01T02:02:13Z</time>
   </trkpt>
   <trkpt lat="47.3892560" lon="-122.0471920">
    <ele>130.0</ele>
    <time>2021-07-01T02:02:14Z</time>
   </trkpt>
   <trkpt lat="47.3892220" lon="-122.0472050">
    <ele>130.0</ele>
    <time>2021-07-01T02:02:15Z</time>
   </trkpt>
   <trkpt lat="47.3891900" lon="-122.0472280">
    <ele>130.0</ele>
    <time>2021-07-01T02:02:16Z</time>
   </trkpt>
   <trkpt lat="47.3891660" lon="-122.0472700">
    <ele>130.0</ele>
    <time>2021-07-01T02:02:17Z</time>
   </trkpt>
   <trkpt lat="47.3891200" lon="-122.0473070">
    <ele>130.0</ele>
    <time>2021-07-01T02:02:18Z</time>
   </trkpt>
   <trkpt lat="47.3890840" lon="-122.0473310">
    <ele>130.0</ele>
    <time>2021-07-01T02:02:19Z</time>
   </trkpt>
   <trkpt lat="47.3890580" lon="-122.0473610">
    <ele>130.1</ele>
    <time>2021-07-01T02:02:20Z</time>
   </trkpt>
   <trkpt lat="47.3890260" lon="-122.0473760">
    <ele>130.1</ele>
    <time>2021-07-01T02:02:21Z</time>
   </trkpt>
   <trkpt lat="47.3889800" lon="-122.0473940">
    <ele>130.1</ele>
    <time>2021-07-01T02:02:22Z</time>
   </trkpt>
   <trkpt lat="47.3889450" lon="-122.0474140">
    <ele>130.2</ele>
    <time>2021-07-01T02:02:23Z</time>
   </trkpt>
   <trkpt lat="47.3889170" lon="-122.0474530">
    <ele>130.2</ele>
    <time>2021-07-01T02:02:24Z</time>
   </trkpt>
   <trkpt lat="47.3888700" lon="-122.0475120">
    <ele>130.3</ele>
    <time>2021-07-01T02:02:25Z</time>
   </trkpt>
   <trkpt lat="47.3888390" lon="-122.0475310">
    <ele>130.3</ele>
    <time>2021-07-01T02:02:26Z</time>
   </trkpt>
   <trkpt lat="47.3888270" lon="-122.0475380">
    <ele>130.3</ele>
    <time>2021-07-01T02:02:27Z</time>
   </trkpt>
   <trkpt lat="47.3888030" lon="-122.0475950">
    <ele>130.4</ele>
    <time>2021-07-01T02:02:28Z</time>
   </trkpt>
   <trkpt lat="47.3887760" lon="-122.0476340">
    <ele>130.4</ele>
    <time>2021-07-01T02:02:29Z</time>
   </trkpt>
   <trkpt lat="47.3887380" lon="-122.0476720">
    <ele>130.4</ele>
    <time>2021-07-01T02:02:30Z</time>
   </trkpt>
   <trkpt lat="47.3887000" lon="-122.0477280">
    <ele>130.5</ele>
    <time>2021-07-01T02:02:31Z</time>
   </trkpt>
   <trkpt lat="47.3886630" lon="-122.0477270">
    <ele>130.6</ele>
    <time>2021-07-01T02:02:32Z</time>
   </trkpt>
   <trkpt lat="47.3886360" lon="-122.0477710">
    <ele>130.6</ele>
    <time>2021-07-01T02:02:33Z</time>
   </trkpt>
   <trkpt lat="47.3886070" lon="-122.0478030">
    <ele>130.7</ele>
    <time>2021-07-01T02:02:34Z</time>
   </trkpt>
   <trkpt lat="47.3885720" lon="-122.0478320">
    <ele>130.7</ele>
    <time>2021-07-01T02:02:35Z</time>
   </trkpt>
   <trkpt lat="47.3885450" lon="-122.0478650">
    <ele>130.8</ele>
    <time>2021-07-01T02:02:36Z</time>
   </trkpt>
   <trkpt lat="47.3885040" lon="-122.0478960">
    <ele>130.9</ele>
    <time>2021-07-01T02:02:37Z</time>
   </trkpt>
   <trkpt lat="47.3884880" lon="-122.0479140">
    <ele>130.9</ele>
    <time>2021-07-01T02:02:38Z</time>
   </trkpt>
   <trkpt lat="47.3884540" lon="-122.0479450">
    <ele>131.0</ele>
    <time>2021-07-01T02:02:39Z</time>
   </trkpt>
   <trkpt lat="47.3884270" lon="-122.0480090">
    <ele>131.0</ele>
    <time>2021-07-01T02:02:40Z</time>
   </trkpt>
   <trkpt lat="47.3884080" lon="-122.0480570">
    <ele>131.1</ele>
    <time>2021-07-01T02:02:41Z</time>
   </trkpt>
   <trkpt lat="47.3883820" lon="-122.0480700">
    <ele>131.1</ele>
    <time>2021-07-01T02:02:42Z</time>
   </trkpt>
   <trkpt lat="47.3883490" lon="-122.0481050">
    <ele>131.2</ele>
    <time>2021-07-01T02:02:43Z</time>
   </trkpt>
   <trkpt lat="47.3883080" lon="-122.0481280">
    <ele>131.2</ele>
    <time>2021-07-01T02:02:44Z</time>
   </trkpt>
   <trkpt lat="47.3882660" lon="-122.0481650">
    <ele>131.3</ele>
    <time>2021-07-01T02:02:45Z</time>
   </trkpt>
   <trkpt lat="47.3882420" lon="-122.0482010">
    <ele>131.3</ele>
    <time>2021-07-01T02:02:46Z</time>
   </trkpt>
   <trkpt lat="47.3882150" lon="-122.0482310">
    <ele>131.4</ele>
    <time>2021-07-01T02:02:47Z</time>
   </trkpt>
   <trkpt lat="47.3882000" lon="-122.0482490">
    <ele>131.4</ele>
    <time>2021-07-01T02:02:48Z</time>
   </trkpt>
   <trkpt lat="47.3881690" lon="-122.0482780">
    <ele>131.5</ele>
    <time>2021-07-01T02:02:49Z</time>
   </trkpt>
   <trkpt lat="47.3881480" lon="-122.0483310">
    <ele>131.5</ele>
    <time>2021-07-01T02:02:50Z</time>
   </trkpt>
   <trkpt lat="47.3881190" lon="-122.0483330">
    <ele>131.6</ele>
    <time>2021-07-01T02:02:51Z</time>
   </trkpt>
   <trkpt lat="47.3880960" lon="-122.0483690">
    <ele>131.6</ele>
    <time>2021-07-01T02:02:52Z</time>
   </trkpt>
   <trkpt lat="47.3880700" lon="-122.0484090">
    <ele>131.7</ele>
    <time>2021-07-01T02:02:53Z</time>
   </trkpt>
   <trkpt lat="47.3880430" lon="-122.0484590">
    <ele>131.7</ele>
    <time>2021-07-01T02:02:54Z</time>
   </trkpt>
   <trkpt lat="47.3880200" lon="-122.0485240">
    <ele>131.8</ele>
    <time>2021-07-01T02:02:55Z</time>
   </trkpt>
   <trkpt lat="47.3880070" lon="-122.0485630">
    <ele>131.9</ele>
    <time>2021-07-01T02:02:56Z</time>
   </trkpt>
   <trkpt lat="47.3879830" lon="-122.0485920">
    <ele>131.9</ele>
    <time>2021-07-01T02:02:57Z</time>
   </trkpt>
   <trkpt lat="47.3879480" lon="-122.0486260">
    <ele>132.0</ele>
    <time>2021-07-01T02:02:58Z</time>
   </trkpt>
   <trkpt lat="47.3879160" lon="-122.0486380">
    <ele>132.1</ele>
    <time>2021-07-01T02:02:59Z</time>
   </trkpt>
   <trkpt lat="47.3878770" lon="-122.0486630">
    <ele>132.1</ele>
    <time>2021-07-01T02:03:00Z</time>
   </trkpt>
   <trkpt lat="47.3878490" lon="-122.0487100">
    <ele>132.2</ele>
    <time>2021-07-01T02:03:01Z</time>
   </trkpt>
   <trkpt lat="47.3878190" lon="-122.0487390">
    <ele>132.3</ele>
    <time>2021-07-01T02:03:02Z</time>
   </trkpt>
   <trkpt lat="47.3877940" lon="-122.0487580">
    <ele>132.4</ele>
    <time>2021-07-01T02:03:03Z</time>
   </trkpt>
   <trkpt lat="47.3877640" lon="-122.0487810">
    <ele>132.5</ele>
    <time>2021-07-01T02:03:04Z</time>
   </trkpt>
   <trkpt lat="47.3877370" lon="-122.0487940">
    <ele>132.5</ele>
    <time>2021-07-01T02:03:05Z</time>
   </trkpt>
   <trkpt lat="47.3877110" lon="-122.0488220">
    <ele>132.6</ele>
    <time>2021-07-01T02:03:06Z</time>
   </trkpt>
   <trkpt lat="47.3876940" lon="-122.0488710">
    <ele>132.7</ele>
    <time>2021-07-01T02:03:07Z</time>
   </trkpt>
   <trkpt lat="47.3876670" lon="-122.0488800">
    <ele>132.7</ele>
    <time>2021-07-01T02:03:08Z</time>
   </trkpt>
   <trkpt lat="47.3876450" lon="-122.0489080">
    <ele>132.8</ele>
    <time>2021-07-01T02:03:09Z</time>
   </trkpt>
   <trkpt lat="47.3876140" lon="-122.0489150">
    <ele>132.9</ele>
    <time>2021-07-01T02:03:10Z</time>
   </trkpt>
   <trkpt lat="47.3875810" lon="-122.0489550">
    <ele>133.0</ele>
    <time>2021-07-01T02:03:11Z</time>
   </trkpt>
   <trkpt lat="47.3875430" lon="-122.0489870">
    <ele>133.0</ele>
    <time>2021-07-01T02:03:12Z</time>
   </trkpt>
   <trkpt lat="47.3875080" lon="-122.0490200">
    <ele>133.1</ele>
    <time>2021-07-01T02:03:13Z</time>
   </trkpt>
   <trkpt lat="47.3874860" lon="-122.0490510">
    <ele>133.1</ele>
    <time>2021-07-01T02:03:14Z</time>
   </trkpt>
   <trkpt lat="47.3874720" lon="-122.0490880">
    <ele>133.2</ele>
    <time>2021-07-01T02:03:15Z</time>
   </trkpt>
   <trkpt lat="47.3874240" lon="-122.0491030">
    <ele>133.3</ele>
    <time>2021-07-01T02:03:16Z</time>
   </trkpt>
   <trkpt lat="47.3873770" lon="-122.0491180">
    <ele>133.3</ele>
    <time>2021-07-01T02:03:17Z</time>
   </trkpt>
   <trkpt lat="47.3873400" lon="-122.0491450">
    <ele>133.4</ele>
    <time>2021-07-01T02:03:18Z</time>
   </trkpt>
   <trkpt lat="47.3873210" lon="-122.0491880">
    <ele>133.5</ele>
    <time>2021-07-01T02:03:19Z</time>
   </trkpt>
   <trkpt lat="47.3872820" lon="-122.0492370">
    <ele>133.6</ele>
    <time>2021-07-01T02:03:20Z</time>
   </trkpt>
   <trkpt lat="47.3872550" lon="-122.0492750">
    <ele>133.6</ele>
    <time>2021-07-01T02:03:21Z</time>
   </trkpt>
   <trkpt lat="47.3872260" lon="-122.0492840">
    <ele>133.7</ele>
    <time>2021-07-01T02:03:22Z</time>
   </trkpt>
   <trkpt lat="47.3871930" lon="-122.0493060">
    <ele>133.8</ele>
    <time>2021-07-01T02:03:23Z</time>
   </trkpt>
   <trkpt lat="47.3871440" lon="-122.0493470">
    <ele>133.9</ele>
    <time>2021-07-01T02:03:24Z</time>
   </trkpt>
   <trkpt lat="47.3871040" lon="-122.0493790">
    <ele>134.0</ele>
    <time>2021-07-01T02:03:25Z</time>
   </trkpt>
   <trkpt lat="47.3870700" lon="-122.0494100">
    <ele>134.0</ele>
    <time>2021-07-01T02:03:26Z</time>
   </trkpt>
   <trkpt lat="47.3870360" lon="-122.0494590">
    <ele>134.1</ele>
    <time>2021-07-01T02:03:27Z</time>
   </trkpt>
   <trkpt lat="47.3869950" lon="-122.0494810">
    <ele>134.1</ele>
    <time>2021-07-01T02:03:28Z</time>
   </trkpt>
   <trkpt lat="47.3869610" lon="-122.0494960">
    <ele>134.1</ele>
    <time>2021-07-01T02:03:29Z</time>
   </trkpt>
   <trkpt lat="47.3869170" lon="-122.0495180">
    <ele>134.2</ele>
    <time>2021-07-01T02:03:30Z</time>
   </trkpt>
   <trkpt lat="47.3868690" lon="-122.0495370">
    <ele>134.2</ele>
    <time>2021-07-01T02:03:31Z</time>
   </trkpt>
   <trkpt lat="47.3868330" lon="-122.0495670">
    <ele>134.2</ele>
    <time>2021-07-01T02:03:32Z</time>
   </trkpt>
   <trkpt lat="47.3867990" lon="-122.0495880">
    <ele>134.3</ele>
    <time>2021-07-01T02:03:33Z</time>
   </trkpt>
   <trkpt lat="47.3867650" lon="-122.0495970">
    <ele>134.3</ele>
    <time>2021-07-01T02:03:34Z</time>
   </trkpt>
   <trkpt lat="47.3867370" lon="-122.0496310">
    <ele>134.3</ele>
    <time>2021-07-01T02:03:35Z</time>
   </trkpt>
   <trkpt lat="47.3867290" lon="-122.0496520">
    <ele>134.3</ele>
    <time>2021-07-01T02:03:36Z</time>
   </trkpt>
   <trkpt lat="47.3867040" lon="-122.0496680">
    <ele>134.3</ele>
    <time>2021-07-01T02:03:37Z</time>
   </trkpt>
   <trkpt lat="47.3866770" lon="-122.0496780">
    <ele>134.3</ele>
    <time>2021-07-01T02:03:38Z</time>
   </trkpt>
   <trkpt lat="47.3866280" lon="-122.0496990">
    <ele>134.4</ele>
    <time>2021-07-01T02:03:39Z</time>
   </trkpt>
   <trkpt lat="47.3865840" lon="-122.0497100">
    <ele>134.4</ele>
    <time>2021-07-01T02:03:40Z</time>
   </trkpt>
   <trkpt lat="47.3865420" lon="-122.0497250">
    <ele>134.4</ele>
    <time>2021-07-01T02:03:41Z</time>
   </trkpt>
   <trkpt lat="47.3864930" lon="-122.0497290">
    <ele>134.5</ele>
    <time>2021-07-01T02:03:42Z</time>
   </trkpt>
   <trkpt lat="47.3864470" lon="-122.0497320">
    <ele>134.5</ele>
    <time>2021-07-01T02:03:43Z</time>
   </trkpt>
   <trkpt lat="47.3864130" lon="-122.0497330">
    <ele>134.5</ele>
    <time>2021-07-01T02:03:44Z</time>
   </trkpt>
   <trkpt lat="47.3863840" lon="-122.0497400">
    <ele>134.5</ele>
    <time>2021-07-01T02:03:45Z</time>
   </trkpt>
   <trkpt lat="47.3863400" lon="-122.0497640">
    <ele>134.5</ele>
    <time>2021-07-01T02:03:46Z</time>
   </trkpt>
   <trkpt lat="47.3862880" lon="-122.0497870">
    <ele>134.6</ele>
    <time>2021-07-01T02:03:47Z</time>
   </trkpt>
   <trkpt lat="47.3862510" lon="-122.0498120">
    <ele>134.6</ele>
    <time>2021-07-01T02:03:48Z</time>
   </trkpt>
   <trkpt lat="47.3862230" lon="-122.0498340">
    <ele>134.6</ele>
    <time>2021-07-01T02:03:49Z</time>
   </trkpt>
   <trkpt lat="47.3861960" lon="-122.0498550">
    <ele>134.6</ele>
    <time>2021-07-01T02:03:50Z</time>
   </trkpt>
   <trkpt lat="47.3861490" lon="-122.0498660">
    <ele>134.7</ele>
    <time>2021-07-01T02:03:51Z</time>
   </trkpt>
   <trkpt lat="47.3860510" lon="-122.0498710">
    <ele>134.8</ele>
    <time>2021-07-01T02:03:52Z</time>
   </trkpt>
   <trkpt lat="47.3860030" lon="-122.0498880">
    <ele>134.8</ele>
    <time>2021-07-01T02:03:53Z</time>
   </trkpt>
   <trkpt lat="47.3859710" lon="-122.0498980">
    <ele>134.9</ele>
    <time>2021-07-01T02:03:54Z</time>
   </trkpt>
   <trkpt lat="47.3859390" lon="-122.0499080">
    <ele>134.9</ele>
    <time>2021-07-01T02:03:55Z</time>
   </trkpt>
   <trkpt lat="47.3859120" lon="-122.0499280">
    <ele>134.9</ele>
    <time>2021-07-01T02:03:56Z</time>
   </trkpt>
   <trkpt lat="47.3858670" lon="-122.0499550">
    <ele>135.0</ele>
    <time>2021-07-01T02:03:57Z</time>
   </trkpt>
   <trkpt lat="47.3858260" lon="-122.0499630">
    <ele>135.0</ele>
    <time>2021-07-01T02:03:58Z</time>
   </trkpt>
   <trkpt lat="47.3857900" lon="-122.0499720">
    <ele>135.1</ele>
    <time>2021-07-01T02:03:59Z</time>
   </trkpt>
   <trkpt lat="47.3857560" lon="-122.0499830">
    <ele>135.1</ele>
    <time>2021-07-01T02:04:00Z</time>
   </trkpt>
   <trkpt lat="47.3857200" lon="-122.0499960">
    <ele>135.2</ele>
    <time>2021-07-01T02:04:01Z</time>
   </trkpt>
   <trkpt lat="47.3856820" lon="-122.0499950">
    <ele>135.2</ele>
    <time>2021-07-01T02:04:02Z</time>
   </trkpt>
   <trkpt lat="47.3856430" lon="-122.0500010">
    <ele>135.3</ele>
    <time>2021-07-01T02:04:03Z</time>
   </trkpt>
   <trkpt lat="47.3856090" lon="-122.0500220">
    <ele>135.3</ele>
    <time>2021-07-01T02:04:04Z</time>
   </trkpt>
   <trkpt lat="47.3855960" lon="-122.0500210">
    <ele>135.3</ele>
    <time>2021-07-01T02:04:05Z</time>
   </trkpt>
   <trkpt lat="47.3855670" lon="-122.0500190">
    <ele>135.4</ele>
    <time>2021-07-01T02:04:06Z</time>
   </trkpt>
   <trkpt lat="47.3855240" lon="-122.0500210">
    <ele>135.4</ele>
    <time>2021-07-01T02:04:07Z</time>
   </trkpt>
   <trkpt lat="47.3854590" lon="-122.0500070">
    <ele>135.5</ele>
    <time>2021-07-01T02:04:08Z</time>
   </trkpt>
   <trkpt lat="47.3854000" lon="-122.0499900">
    <ele>135.6</ele>
    <time>2021-07-01T02:04:09Z</time>
   </trkpt>
   <trkpt lat="47.3853600" lon="-122.0500000">
    <ele>135.7</ele>
    <time>2021-07-01T02:04:10Z</time>
   </trkpt>
   <trkpt lat="47.3853220" lon="-122.0500040">
    <ele>135.7</ele>
    <time>2021-07-01T02:04:11Z</time>
   </trkpt>
   <trkpt lat="47.3852910" lon="-122.0499970">
    <ele>135.8</ele>
    <time>2021-07-01T02:04:12Z</time>
   </trkpt>
   <trkpt lat="47.3852480" lon="-122.0499850">
    <ele>135.8</ele>
    <time>2021-07-01T02:04:13Z</time>
   </trkpt>
   <trkpt lat="47.3852080" lon="-122.0499870">
    <ele>135.9</ele>
    <time>2021-07-01T02:04:14Z</time>
   </trkpt>
   <trkpt lat="47.3851940" lon="-122.0499910">
    <ele>135.9</ele>
    <time>2021-07-01T02:04:15Z</time>
   </trkpt>
   <trkpt lat="47.3851620" lon="-122.0499970">
    <ele>136.0</ele>
    <time>2021-07-01T02:04:17Z</time>
   </trkpt>
   <trkpt lat="47.3851140" lon="-122.0500030">
    <ele>136.1</ele>
    <time>2021-07-01T02:04:18Z</time>
   </trkpt>
   <trkpt lat="47.3850680" lon="-122.0499990">
    <ele>136.1</ele>
    <time>2021-07-01T02:04:19Z</time>
   </trkpt>
   <trkpt lat="47.3850350" lon="-122.0500130">
    <ele>136.2</ele>
    <time>2021-07-01T02:04:20Z</time>
   </trkpt>
   <trkpt lat="47.3850000" lon="-122.0500200">
    <ele>136.3</ele>
    <time>2021-07-01T02:04:21Z</time>
   </trkpt>
   <trkpt lat="47.3849600" lon="-122.0500160">
    <ele>136.3</ele>
    <time>2021-07-01T02:04:22Z</time>
   </trkpt>
   <trkpt lat="47.3849110" lon="-122.0500120">
    <ele>136.4</ele>
    <time>2021-07-01T02:04:23Z</time>
   </trkpt>
   <trkpt lat="47.3848680" lon="-122.0500080">
    <ele>136.5</ele>
    <time>2021-07-01T02:04:24Z</time>
   </trkpt>
   <trkpt lat="47.3848330" lon="-122.0500030">
    <ele>136.6</ele>
    <time>2021-07-01T02:04:25Z</time>
   </trkpt>
   <trkpt lat="47.3848000" lon="-122.0500040">
    <ele>136.7</ele>
    <time>2021-07-01T02:04:26Z</time>
   </trkpt>
   <trkpt lat="47.3847670" lon="-122.0500030">
    <ele>136.8</ele>
    <time>2021-07-01T02:04:27Z</time>
   </trkpt>
   <trkpt lat="47.3847320" lon="-122.0499950">
    <ele>136.8</ele>
    <time>2021-07-01T02:04:28Z</time>
   </trkpt>
   <trkpt lat="47.3846970" lon="-122.0499850">
    <ele>136.9</ele>
    <time>2021-07-01T02:04:29Z</time>
   </trkpt>
   <trkpt lat="47.3846570" lon="-122.0499690">
    <ele>137.0</ele>
    <time>2021-07-01T02:04:30Z</time>
   </trkpt>
   <trkpt lat="47.3846200" lon="-122.0499380">
    <ele>137.0</ele>
    <time>2021-07-01T02:04:31Z</time>
   </trkpt>
   <trkpt lat="47.3845760" lon="-122.0499150">
    <ele>137.1</ele>
    <time>2021-07-01T02:04:32Z</time>
   </trkpt>
   <trkpt lat="47.3845340" lon="-122.0499030">
    <ele>137.1</ele>
    <time>2021-07-01T02:04:33Z</time>
   </trkpt>
   <trkpt lat="47.3844990" lon="-122.0499170">
    <ele>137.2</ele>
    <time>2021-07-01T02:04:34Z</time>
   </trkpt>
   <trkpt lat="47.3844700" lon="-122.0499230">
    <ele>137.2</ele>
    <time>2021-07-01T02:04:35Z</time>
   </trkpt>
   <trkpt lat="47.3844400" lon="-122.0499380">
    <ele>137.2</ele>
    <time>2021-07-01T02:04:36Z</time>
   </trkpt>
   <trkpt lat="47.3844330" lon="-122.0499420">
    <ele>137.3</ele>
    <time>2021-07-01T02:04:37Z</time>
   </trkpt>
   <trkpt lat="47.3843950" lon="-122.0499440">
    <ele>137.3</ele>
    <time>2021-07-01T02:04:38Z</time>
   </trkpt>
   <trkpt lat="47.3843380" lon="-122.0499350">
    <ele>137.4</ele>
    <time>2021-07-01T02:04:39Z</time>
   </trkpt>
   <trkpt lat="47.3842900" lon="-122.0499250">
    <ele>137.4</ele>
    <time>2021-07-01T02:04:40Z</time>
   </trkpt>
   <trkpt lat="47.3842550" lon="-122.0499070">
    <ele>137.4</ele>
    <time>2021-07-01T02:04:41Z</time>
   </trkpt>
   <trkpt lat="47.3842150" lon="-122.0498890">
    <ele>137.5</ele>
    <time>2021-07-01T02:04:42Z</time>
   </trkpt>
   <trkpt lat="47.3841730" lon="-122.0498630">
    <ele>137.5</ele>
    <time>2021-07-01T02:04:43Z</time>
   </trkpt>
   <trkpt lat="47.3841300" lon="-122.0498270">
    <ele>137.6</ele>
    <time>2021-07-01T02:04:44Z</time>
   </trkpt>
   <trkpt lat="47.3840990" lon="-122.0498080">
    <ele>137.7</ele>
    <time>2021-07-01T02:04:45Z</time>
   </trkpt>
   <trkpt lat="47.3840480" lon="-122.0497700">
    <ele>137.8</ele>
    <time>2021-07-01T02:04:46Z</time>
   </trkpt>
   <trkpt lat="47.3840060" lon="-122.0497360">
    <ele>137.9</ele>
    <time>2021-07-01T02:04:47Z</time>
   </trkpt>
   <trkpt lat="47.3839600" lon="-122.0497110">
    <ele>138.0</ele>
    <time>2021-07-01T02:04:48Z</time>
   </trkpt>
   <trkpt lat="47.3839140" lon="-122.0496920">
    <ele>138.1</ele>
    <time>2021-07-01T02:04:49Z</time>
   </trkpt>
   <trkpt lat="47.3838610" lon="-122.0496630">
    <ele>138.3</ele>
    <time>2021-07-01T02:04:50Z</time>
   </trkpt>
   <trkpt lat="47.3838060" lon="-122.0496360">
    <ele>138.4</ele>
    <time>2021-07-01T02:04:51Z</time>
   </trkpt>
   <trkpt lat="47.3837530" lon="-122.0496200">
    <ele>138.5</ele>
    <time>2021-07-01T02:04:52Z</time>
   </trkpt>
   <trkpt lat="47.3837050" lon="-122.0495870">
    <ele>138.6</ele>
    <time>2021-07-01T02:04:53Z</time>
   </trkpt>
   <trkpt lat="47.3836700" lon="-122.0495540">
    <ele>138.7</ele>
    <time>2021-07-01T02:04:54Z</time>
   </trkpt>
   <trkpt lat="47.3836260" lon="-122.0495130">
    <ele>138.8</ele>
    <time>2021-07-01T02:04:55Z</time>
   </trkpt>
   <trkpt lat="47.3835800" lon="-122.0494870">
    <ele>138.9</ele>
    <time>2021-07-01T02:04:56Z</time>
   </trkpt>
   <trkpt lat="47.3835190" lon="-122.0494440">
    <ele>139.0</ele>
    <time>2021-07-01T02:04:57Z</time>
   </trkpt>
   <trkpt lat="47.3834700" lon="-122.0494120">
    <ele>139.0</ele>
    <time>2021-07-01T02:04:58Z</time>
   </trkpt>
   <trkpt lat="47.3834120" lon="-122.0493890">
    <ele>139.1</ele>
    <time>2021-07-01T02:04:59Z</time>
   </trkpt>
   <trkpt lat="47.3833640" lon="-122.0493560">
    <ele>139.1</ele>
    <time>2021-07-01T02:05:00Z</time>
   </trkpt>
   <trkpt lat="47.3833400" lon="-122.0493370">
    <ele>139.1</ele>
    <time>2021-07-01T02:05:01Z</time>
   </trkpt>
   <trkpt lat="47.3832880" lon="-122.0492920">
    <ele>139.2</ele>
    <time>2021-07-01T02:05:02Z</time>
   </trkpt>
   <trkpt lat="47.3832420" lon="-122.0492630">
    <ele>139.3</ele>
    <time>2021-07-01T02:05:03Z</time>
   </trkpt>
   <trkpt lat="47.3832120" lon="-122.0492350">
    <ele>139.4</ele>
    <time>2021-07-01T02:05:04Z</time>
   </trkpt>
   <trkpt lat="47.3831720" lon="-122.0491960">
    <ele>139.5</ele>
    <time>2021-07-01T02:05:05Z</time>
   </trkpt>
   <trkpt lat="47.3831230" lon="-122.0491720">
    <ele>139.6</ele>
    <time>2021-07-01T02:05:06Z</time>
   </trkpt>
   <trkpt lat="47.3830840" lon="-122.0491510">
    <ele>139.7</ele>
    <time>2021-07-01T02:05:07Z</time>
   </trkpt>
   <trkpt lat="47.3830360" lon="-122.0491320">
    <ele>139.8</ele>
    <time>2021-07-01T02:05:08Z</time>
   </trkpt>
   <trkpt lat="47.3829980" lon="-122.0491170">
    <ele>139.8</ele>
    <time>2021-07-01T02:05:09Z</time>
   </trkpt>
   <trkpt lat="47.3829490" lon="-122.0490930">
    <ele>139.9</ele>
    <time>2021-07-01T02:05:10Z</time>
   </trkpt>
   <trkpt lat="47.3829110" lon="-122.0490550">
    <ele>140.0</ele>
    <time>2021-07-01T02:05:11Z</time>
   </trkpt>
   <trkpt lat="47.3828880" lon="-122.0489970">
    <ele>140.1</ele>
    <time>2021-07-01T02:05:12Z</time>
   </trkpt>
   <trkpt lat="47.3828640" lon="-122.0489590">
    <ele>140.2</ele>
    <time>2021-07-01T02:05:13Z</time>
   </trkpt>
   <trkpt lat="47.3828340" lon="-122.0489220">
    <ele>140.2</ele>
    <time>2021-07-01T02:05:14Z</time>
   </trkpt>
   <trkpt lat="47.3828100" lon="-122.0488780">
    <ele>140.3</ele>
    <time>2021-07-01T02:05:15Z</time>
   </trkpt>
   <trkpt lat="47.3827640" lon="-122.0488610">
    <ele>140.4</ele>
    <time>2021-07-01T02:05:16Z</time>
   </trkpt>
   <trkpt lat="47.3827410" lon="-122.0488480">
    <ele>140.4</ele>
    <time>2021-07-01T02:05:17Z</time>
   </trkpt>
   <trkpt lat="47.3826890" lon="-122.0488120">
    <ele>140.5</ele>
    <time>2021-07-01T02:05:18Z</time>
   </trkpt>
   <trkpt lat="47.3826330" lon="-122.0487680">
    <ele>140.6</ele>
    <time>2021-07-01T02:05:19Z</time>
   </trkpt>
   <trkpt lat="47.3825960" lon="-122.0487220">
    <ele>140.7</ele>
    <time>2021-07-01T02:05:20Z</time>
   </trkpt>
   <trkpt lat="47.3825540" lon="-122.0486840">
    <ele>140.7</ele>
    <time>2021-07-01T02:05:21Z</time>
   </trkpt>
   <trkpt lat="47.3825170" lon="-122.0486370">
    <ele>140.8</ele>
    <time>2021-07-01T02:05:22Z</time>
   </trkpt>
   <trkpt lat="47.3824760" lon="-122.0485900">
    <ele>140.9</ele>
    <time>2021-07-01T02:05:23Z</time>
   </trkpt>
   <trkpt lat="47.3824380" lon="-122.0485390">
    <ele>141.0</ele>
    <time>2021-07-01T02:05:24Z</time>
   </trkpt>
   <trkpt lat="47.3824010" lon="-122.0485110">
    <ele>141.1</ele>
    <time>2021-07-01T02:05:25Z</time>
   </trkpt>
   <trkpt lat="47.3823700" lon="-122.0484720">
    <ele>141.2</ele>
    <time>2021-07-01T02:05:26Z</time>
   </trkpt>
   <trkpt lat="47.3823380" lon="-122.0484280">
    <ele>141.2</ele>
    <time>2021-07-01T02:05:27Z</time>
   </trkpt>
   <trkpt lat="47.3823030" lon="-122.0484110">
    <ele>141.3</ele>
    <time>2021-07-01T02:05:28Z</time>
   </trkpt>
   <trkpt lat="47.3822650" lon="-122.0483970">
    <ele>141.4</ele>
    <time>2021-07-01T02:05:29Z</time>
   </trkpt>
   <trkpt lat="47.3822280" lon="-122.0483640">
    <ele>141.4</ele>
    <time>2021-07-01T02:05:30Z</time>
   </trkpt>
   <trkpt lat="47.3821880" lon="-122.0483230">
    <ele>141.5</ele>
    <time>2021-07-01T02:05:31Z</time>
   </trkpt>
   <trkpt lat="47.3821580" lon="-122.0482980">
    <ele>141.5</ele>
    <time>2021-07-01T02:05:32Z</time>
   </trkpt>
   <trkpt lat="47.3821260" lon="-122.0482740">
    <ele>141.6</ele>
    <time>2021-07-01T02:05:33Z</time>
   </trkpt>
   <trkpt lat="47.3820950" lon="-122.0482490">
    <ele>141.6</ele>
    <time>2021-07-01T02:05:34Z</time>
   </trkpt>
   <trkpt lat="47.3820650" lon="-122.0482300">
    <ele>141.6</ele>
    <time>2021-07-01T02:05:35Z</time>
   </trkpt>
   <trkpt lat="47.3820360" lon="-122.0482050">
    <ele>141.7</ele>
    <time>2021-07-01T02:05:36Z</time>
   </trkpt>
   <trkpt lat="47.3820070" lon="-122.0481810">
    <ele>141.7</ele>
    <time>2021-07-01T02:05:37Z</time>
   </trkpt>
   <trkpt lat="47.3819780" lon="-122.0481580">
    <ele>141.7</ele>
    <time>2021-07-01T02:05:38Z</time>
   </trkpt>
   <trkpt lat="47.3820590" lon="-122.0482690">
    <ele>141.8</ele>
    <time>2021-07-01T02:05:39Z</time>
   </trkpt>
   <trkpt lat="47.3818390" lon="-122.0480160">
    <ele>141.9</ele>
    <time>2021-07-01T02:05:43Z</time>
   </trkpt>
   <trkpt lat="47.3817940" lon="-122.0479640">
    <ele>141.9</ele>
    <time>2021-07-01T02:05:44Z</time>
   </trkpt>
   <trkpt lat="47.3817720" lon="-122.0479300">
    <ele>141.9</ele>
    <time>2021-07-01T02:05:45Z</time>
   </trkpt>
   <trkpt lat="47.3817510" lon="-122.0478950">
    <ele>141.9</ele>
    <time>2021-07-01T02:05:46Z</time>
   </trkpt>
   <trkpt lat="47.3817500" lon="-122.0478100">
    <ele>141.9</ele>
    <time>2021-07-01T02:05:47Z</time>
   </trkpt>
   <trkpt lat="47.3817770" lon="-122.0477550">
    <ele>141.9</ele>
    <time>2021-07-01T02:05:48Z</time>
   </trkpt>
   <trkpt lat="47.3818090" lon="-122.0476670">
    <ele>141.9</ele>
    <time>2021-07-01T02:05:49Z</time>
   </trkpt>
   <trkpt lat="47.3817830" lon="-122.0476180">
    <ele>141.8</ele>
    <time>2021-07-01T02:05:50Z</time>
   </trkpt>
   <trkpt lat="47.3817590" lon="-122.0475870">
    <ele>141.8</ele>
    <time>2021-07-01T02:05:51Z</time>
   </trkpt>
   <trkpt lat="47.3817460" lon="-122.0475800">
    <ele>141.8</ele>
    <time>2021-07-01T02:05:52Z</time>
   </trkpt>
   <trkpt lat="47.3817210" lon="-122.0474970">
    <ele>141.9</ele>
    <time>2021-07-01T02:05:53Z</time>
   </trkpt>
   <trkpt lat="47.3816940" lon="-122.0474510">
    <ele>141.9</ele>
    <time>2021-07-01T02:05:54Z</time>
   </trkpt>
   <trkpt lat="47.3816690" lon="-122.0474300">
    <ele>141.9</ele>
    <time>2021-07-01T02:05:55Z</time>
   </trkpt>
   <trkpt lat="47.3816600" lon="-122.0474180">
    <ele>141.9</ele>
    <time>2021-07-01T02:05:56Z</time>
   </trkpt>
   <trkpt lat="47.3816410" lon="-122.0474120">
    <ele>141.9</ele>
    <time>2021-07-01T02:05:57Z</time>
   </trkpt>
   <trkpt lat="47.3816280" lon="-122.0473720">
    <ele>141.9</ele>
    <time>2021-07-01T02:05:58Z</time>
   </trkpt>
   <trkpt lat="47.3815990" lon="-122.0473050">
    <ele>142.0</ele>
    <time>2021-07-01T02:05:59Z</time>
   </trkpt>
   <trkpt lat="47.3815860" lon="-122.0472610">
    <ele>142.0</ele>
    <time>2021-07-01T02:06:00Z</time>
   </trkpt>
   <trkpt lat="47.3815760" lon="-122.0471960">
    <ele>142.0</ele>
    <time>2021-07-01T02:06:01Z</time>
   </trkpt>
   <trkpt lat="47.3815600" lon="-122.0471440">
    <ele>142.1</ele>
    <time>2021-07-01T02:06:02Z</time>
   </trkpt>
   <trkpt lat="47.3815340" lon="-122.0471010">
    <ele>142.1</ele>
    <time>2021-07-01T02:06:03Z</time>
   </trkpt>
   <trkpt lat="47.3814980" lon="-122.0470610">
    <ele>142.1</ele>
    <time>2021-07-01T02:06:04Z</time>
   </trkpt>
   <trkpt lat="47.3814800" lon="-122.0470120">
    <ele>142.2</ele>
    <time>2021-07-01T02:06:05Z</time>
   </trkpt>
   <trkpt lat="47.3814590" lon="-122.0469560">
    <ele>142.2</ele>
    <time>2021-07-01T02:06:06Z</time>
   </trkpt>
   <trkpt lat="47.3814440" lon="-122.0469110">
    <ele>142.3</ele>
    <time>2021-07-01T02:06:07Z</time>
   </trkpt>
   <trkpt lat="47.3814210" lon="-122.0468690">
    <ele>142.3</ele>
    <time>2021-07-01T02:06:08Z</time>
   </trkpt>
   <trkpt lat="47.3814120" lon="-122.0468520">
    <ele>142.3</ele>
    <time>2021-07-01T02:06:09Z</time>
   </trkpt>
   <trkpt lat="47.3813980" lon="-122.0468120">
    <ele>142.4</ele>
    <time>2021-07-01T02:06:10Z</time>
   </trkpt>
   <trkpt lat="47.3813830" lon="-122.0467630">
    <ele>142.4</ele>
    <time>2021-07-01T02:06:11Z</time>
   </trkpt>
   <trkpt lat="47.3813740" lon="-122.0467170">
    <ele>142.5</ele>
    <time>2021-07-01T02:06:12Z</time>
   </trkpt>
   <trkpt lat="47.3813700" lon="-122.0467010">
    <ele>142.5</ele>
    <time>2021-07-01T02:06:13Z</time>
   </trkpt>
   <trkpt lat="47.3813470" lon="-122.0466270">
    <ele>142.6</ele>
    <time>2021-07-01T02:06:14Z</time>
   </trkpt>
   <trkpt lat="47.3813350" lon="-122.0465660">
    <ele>142.6</ele>
    <time>2021-07-01T02:06:15Z</time>
   </trkpt>
   <trkpt lat="47.3813110" lon="-122.0465170">
    <ele>142.7</ele>
    <time>2021-07-01T02:06:16Z</time>
   </trkpt>
   <trkpt lat="47.3812950" lon="-122.0464360">
    <ele>142.7</ele>
    <time>2021-07-01T02:06:17Z</time>
   </trkpt>
   <trkpt lat="47.3812660" lon="-122.0463980">
    <ele>142.8</ele>
    <time>2021-07-01T02:06:18Z</time>
   </trkpt>
   <trkpt lat="47.3812520" lon="-122.0463400">
    <ele>142.8</ele>
    <time>2021-07-01T02:06:19Z</time>
   </trkpt>
   <trkpt lat="47.3812320" lon="-122.0463070">
    <ele>142.9</ele>
    <time>2021-07-01T02:06:20Z</time>
   </trkpt>
   <trkpt lat="47.3812060" lon="-122.0462520">
    <ele>142.9</ele>
    <time>2021-07-01T02:06:21Z</time>
   </trkpt>
   <trkpt lat="47.3811880" lon="-122.0462050">
    <ele>142.9</ele>
    <time>2021-07-01T02:06:23Z</time>
   </trkpt>
   <trkpt lat="47.3811690" lon="-122.0461520">
    <ele>143.0</ele>
    <time>2021-07-01T02:06:24Z</time>
   </trkpt>
   <trkpt lat="47.3811530" lon="-122.0461050">
    <ele>143.0</ele>
    <time>2021-07-01T02:06:25Z</time>
   </trkpt>
   <trkpt lat="47.3811460" lon="-122.0460660">
    <ele>143.0</ele>
    <time>2021-07-01T02:06:26Z</time>
   </trkpt>
   <trkpt lat="47.3811470" lon="-122.0460090">
    <ele>143.1</ele>
    <time>2021-07-01T02:06:27Z</time>
   </trkpt>
   <trkpt lat="47.3811470" lon="-122.0459850">
    <ele>143.1</ele>
    <time>2021-07-01T02:06:28Z</time>
   </trkpt>
   <trkpt lat="47.3811310" lon="-122.0459220">
    <ele>143.2</ele>
    <time>2021-07-01T02:06:29Z</time>
   </trkpt>
   <trkpt lat="47.3811300" lon="-122.0458740">
    <ele>143.2</ele>
    <time>2021-07-01T02:06:30Z</time>
   </trkpt>
   <trkpt lat="47.3811250" lon="-122.0458300">
    <ele>143.2</ele>
    <time>2021-07-01T02:06:31Z</time>
   </trkpt>
   <trkpt lat="47.3811100" lon="-122.0457670">
    <ele>143.3</ele>
    <time>2021-07-01T02:06:32Z</time>
   </trkpt>
   <trkpt lat="47.3811090" lon="-122.0457380">
    <ele>143.3</ele>
    <time>2021-07-01T02:06:33Z</time>
   </trkpt>
   <trkpt lat="47.3811120" lon="-122.0456860">
    <ele>143.4</ele>
    <time>2021-07-01T02:06:34Z</time>
   </trkpt>
   <trkpt lat="47.3811210" lon="-122.0456170">
    <ele>143.4</ele>
    <time>2021-07-01T02:06:35Z</time>
   </trkpt>
   <trkpt lat="47.3811270" lon="-122.0455690">
    <ele>143.5</ele>
    <time>2021-07-01T02:06:36Z</time>
   </trkpt>
   <trkpt lat="47.3811500" lon="-122.0455250">
    <ele>143.5</ele>
    <time>2021-07-01T02:06:37Z</time>
   </trkpt>
   <trkpt lat="47.3811340" lon="-122.0454880">
    <ele>143.5</ele>
    <time>2021-07-01T02:06:38Z</time>
   </trkpt>
   <trkpt lat="47.3811270" lon="-122.0454720">
    <ele>143.6</ele>
    <time>2021-07-01T02:06:39Z</time>
   </trkpt>
   <trkpt lat="47.3811200" lon="-122.0454550">
    <ele>143.6</ele>
    <time>2021-07-01T02:06:40Z</time>
   </trkpt>
   <trkpt lat="47.3811060" lon="-122.0453810">
    <ele>143.6</ele>
    <time>2021-07-01T02:06:41Z</time>
   </trkpt>
   <trkpt lat="47.3810880" lon="-122.0453080">
    <ele>143.7</ele>
    <time>2021-07-01T02:06:42Z</time>
   </trkpt>
   <trkpt lat="47.3810720" lon="-122.0452310">
    <ele>143.8</ele>
    <time>2021-07-01T02:06:43Z</time>
   </trkpt>
   <trkpt lat="47.3810510" lon="-122.0451910">
    <ele>143.8</ele>
    <time>2021-07-01T02:06:44Z</time>
   </trkpt>
   <trkpt lat="47.3810450" lon="-122.0451260">
    <ele>143.9</ele>
    <time>2021-07-01T02:06:45Z</time>
   </trkpt>
   <trkpt lat="47.3810410" lon="-122.0450690">
    <ele>143.9</ele>
    <time>2021-07-01T02:06:46Z</time>
   </trkpt>
   <trkpt lat="47.3810180" lon="-122.0449790">
    <ele>144.0</ele>
    <time>2021-07-01T02:06:47Z</time>
   </trkpt>
   <trkpt lat="47.3810010" lon="-122.0448930">
    <ele>144.1</ele>
    <time>2021-07-01T02:06:48Z</time>
   </trkpt>
   <trkpt lat="47.3809990" lon="-122.0448110">
    <ele>144.1</ele>
    <time>2021-07-01T02:06:49Z</time>
   </trkpt>
   <trkpt lat="47.3809860" lon="-122.0447350">
    <ele>144.2</ele>
    <time>2021-07-01T02:06:50Z</time>
   </trkpt>
   <trkpt lat="47.3809790" lon="-122.0446570">
    <ele>144.3</ele>
    <time>2021-07-01T02:06:51Z</time>
   </trkpt>
   <trkpt lat="47.3809670" lon="-122.0445850">
    <ele>144.3</ele>
    <time>2021-07-01T02:06:52Z</time>
   </trkpt>
   <trkpt lat="47.3809600" lon="-122.0445190">
    <ele>144.4</ele>
    <time>2021-07-01T02:06:53Z</time>
   </trkpt>
   <trkpt lat="47.3809590" lon="-122.0444430">
    <ele>144.4</ele>
    <time>2021-07-01T02:06:54Z</time>
   </trkpt>
   <trkpt lat="47.3809680" lon="-122.0443660">
    <ele>144.5</ele>
    <time>2021-07-01T02:06:55Z</time>
   </trkpt>
   <trkpt lat="47.3810020" lon="-122.0443350">
    <ele>144.6</ele>
    <time>2021-07-01T02:06:56Z</time>
   </trkpt>
   <trkpt lat="47.3810310" lon="-122.0442970">
    <ele>144.6</ele>
    <time>2021-07-01T02:06:57Z</time>
   </trkpt>
   <trkpt lat="47.3810420" lon="-122.0442810">
    <ele>144.6</ele>
    <time>2021-07-01T02:06:58Z</time>
   </trkpt>
   <trkpt lat="47.3810510" lon="-122.0442270">
    <ele>144.7</ele>
    <time>2021-07-01T02:06:59Z</time>
   </trkpt>
   <trkpt lat="47.3810600" lon="-122.0441750">
    <ele>144.7</ele>
    <time>2021-07-01T02:07:00Z</time>
   </trkpt>
   <trkpt lat="47.3810430" lon="-122.0441130">
    <ele>144.8</ele>
    <time>2021-07-01T02:07:01Z</time>
   </trkpt>
   <trkpt lat="47.3810190" lon="-122.0440270">
    <ele>144.8</ele>
    <time>2021-07-01T02:07:02Z</time>
   </trkpt>
   <trkpt lat="47.3810050" lon="-122.0439560">
    <ele>144.9</ele>
    <time>2021-07-01T02:07:03Z</time>
   </trkpt>
   <trkpt lat="47.3810030" lon="-122.0438730">
    <ele>145.0</ele>
    <time>2021-07-01T02:07:04Z</time>
   </trkpt>
   <trkpt lat="47.3809750" lon="-122.0437940">
    <ele>145.0</ele>
    <time>2021-07-01T02:07:05Z</time>
   </trkpt>
   <trkpt lat="47.3809670" lon="-122.0437310">
    <ele>145.1</ele>
    <time>2021-07-01T02:07:06Z</time>
   </trkpt>
   <trkpt lat="47.3809550" lon="-122.0436590">
    <ele>145.2</ele>
    <time>2021-07-01T02:07:07Z</time>
   </trkpt>
   <trkpt lat="47.3809460" lon="-122.0436250">
    <ele>145.2</ele>
    <time>2021-07-01T02:07:08Z</time>
   </trkpt>
   <trkpt lat="47.3809480" lon="-122.0435640">
    <ele>145.2</ele>
    <time>2021-07-01T02:07:09Z</time>
   </trkpt>
   <trkpt lat="47.3809610" lon="-122.0434960">
    <ele>145.3</ele>
    <time>2021-07-01T02:07:10Z</time>
   </trkpt>
   <trkpt lat="47.3809530" lon="-122.0434230">
    <ele>145.4</ele>
    <time>2021-07-01T02:07:11Z</time>
   </trkpt>
   <trkpt lat="47.3809370" lon="-122.0433370">
    <ele>145.4</ele>
    <time>2021-07-01T02:07:12Z</time>
   </trkpt>
   <trkpt lat="47.3809100" lon="-122.0432610">
    <ele>145.5</ele>
    <time>2021-07-01T02:07:13Z</time>
   </trkpt>
   <trkpt lat="47.3808970" lon="-122.0431910">
    <ele>145.5</ele>
    <time>2021-07-01T02:07:14Z</time>
   </trkpt>
   <trkpt lat="47.3808680" lon="-122.0431330">
    <ele>145.5</ele>
    <time>2021-07-01T02:07:15Z</time>
   </trkpt>
   <trkpt lat="47.3808610" lon="-122.0431090">
    <ele>145.6</ele>
    <time>2021-07-01T02:07:16Z</time>
   </trkpt>
   <trkpt lat="47.3808630" lon="-122.0430930">
    <ele>145.6</ele>
    <time>2021-07-01T02:07:17Z</time>
   </trkpt>
   <trkpt lat="47.3809080" lon="-122.0430700">
    <ele>145.6</ele>
    <time>2021-07-01T02:07:18Z</time>
   </trkpt>
   <trkpt lat="47.3809280" lon="-122.0430300">
    <ele>145.6</ele>
    <time>2021-07-01T02:07:19Z</time>
   </trkpt>
   <trkpt lat="47.3809360" lon="-122.0429680">
    <ele>145.7</ele>
    <time>2021-07-01T02:07:20Z</time>
   </trkpt>
   <trkpt lat="47.3809350" lon="-122.0429410">
    <ele>145.7</ele>
    <time>2021-07-01T02:07:21Z</time>
   </trkpt>
   <trkpt lat="47.3809260" lon="-122.0428780">
    <ele>145.7</ele>
    <time>2021-07-01T02:07:22Z</time>
   </trkpt>
   <trkpt lat="47.3809460" lon="-122.0428180">
    <ele>145.7</ele>
    <time>2021-07-01T02:07:23Z</time>
   </trkpt>
   <trkpt lat="47.3809590" lon="-122.0427710">
    <ele>145.8</ele>
    <time>2021-07-01T02:07:24Z</time>
   </trkpt>
   <trkpt lat="47.3809520" lon="-122.0427210">
    <ele>145.8</ele>
    <time>2021-07-01T02:07:25Z</time>
   </trkpt>
   <trkpt lat="47.3809500" lon="-122.0426510">
    <ele>145.8</ele>
    <time>2021-07-01T02:07:26Z</time>
   </trkpt>
   <trkpt lat="47.3809560" lon="-122.0425970">
    <ele>145.8</ele>
    <time>2021-07-01T02:07:27Z</time>
   </trkpt>
   <trkpt lat="47.3809540" lon="-122.0425370">
    <ele>145.9</ele>
    <time>2021-07-01T02:07:28Z</time>
   </trkpt>
   <trkpt lat="47.3809660" lon="-122.0424730">
    <ele>145.9</ele>
    <time>2021-07-01T02:07:29Z</time>
   </trkpt>
   <trkpt lat="47.3809590" lon="-122.0423970">
    <ele>145.9</ele>
    <time>2021-07-01T02:07:30Z</time>
   </trkpt>
   <trkpt lat="47.3809480" lon="-122.0423420">
    <ele>146.0</ele>
    <time>2021-07-01T02:07:31Z</time>
   </trkpt>
   <trkpt lat="47.3809380" lon="-122.0422950">
    <ele>146.0</ele>
    <time>2021-07-01T02:07:32Z</time>
   </trkpt>
   <trkpt lat="47.3809400" lon="-122.0422480">
    <ele>146.1</ele>
    <time>2021-07-01T02:07:33Z</time>
   </trkpt>
   <trkpt lat="47.3809510" lon="-122.0422070">
    <ele>146.1</ele>
    <time>2021-07-01T02:07:34Z</time>
   </trkpt>
   <trkpt lat="47.3809610" lon="-122.0422040">
    <ele>146.1</ele>
    <time>2021-07-01T02:07:35Z</time>
   </trkpt>
   <trkpt lat="47.3809870" lon="-122.0421580">
    <ele>146.2</ele>
    <time>2021-07-01T02:07:36Z</time>
   </trkpt>
   <trkpt lat="47.3809730" lon="-122.0420530">
    <ele>146.2</ele>
    <time>2021-07-01T02:07:37Z</time>
   </trkpt>
   <trkpt lat="47.3809400" lon="-122.0419330">
    <ele>146.3</ele>
    <time>2021-07-01T02:07:38Z</time>
   </trkpt>
   <trkpt lat="47.3809150" lon="-122.0418440">
    <ele>146.4</ele>
    <time>2021-07-01T02:07:39Z</time>
   </trkpt>
   <trkpt lat="47.3809260" lon="-122.0417680">
    <ele>146.4</ele>
    <time>2021-07-01T02:07:40Z</time>
   </trkpt>
   <trkpt lat="47.3809260" lon="-122.0417090">
    <ele>146.5</ele>
    <time>2021-07-01T02:07:41Z</time>
   </trkpt>
   <trkpt lat="47.3809320" lon="-122.0416510">
    <ele>146.5</ele>
    <time>2021-07-01T02:07:42Z</time>
   </trkpt>
   <trkpt lat="47.3809280" lon="-122.0415790">
    <ele>146.6</ele>
    <time>2021-07-01T02:07:43Z</time>
   </trkpt>
   <trkpt lat="47.3809540" lon="-122.0415320">
    <ele>146.6</ele>
    <time>2021-07-01T02:07:44Z</time>
   </trkpt>
   <trkpt lat="47.3809700" lon="-122.0414670">
    <ele>146.6</ele>
    <time>2021-07-01T02:07:45Z</time>
   </trkpt>
   <trkpt lat="47.3809680" lon="-122.0414250">
    <ele>146.7</ele>
    <time>2021-07-01T02:07:46Z</time>
   </trkpt>
   <trkpt lat="47.3809540" lon="-122.0413470">
    <ele>146.7</ele>
    <time>2021-07-01T02:07:47Z</time>
   </trkpt>
   <trkpt lat="47.3809350" lon="-122.0412850">
    <ele>146.8</ele>
    <time>2021-07-01T02:07:48Z</time>
   </trkpt>
   <trkpt lat="47.3809230" lon="-122.0412330">
    <ele>146.8</ele>
    <time>2021-07-01T02:07:49Z</time>
   </trkpt>
   <trkpt lat="47.3809200" lon="-122.0412120">
    <ele>146.8</ele>
    <time>2021-07-01T02:07:50Z</time>
   </trkpt>
   <trkpt lat="47.3808900" lon="-122.0411560">
    <ele>146.8</ele>
    <time>2021-07-01T02:07:51Z</time>
   </trkpt>
   <trkpt lat="47.3808590" lon="-122.0410320">
    <ele>146.9</ele>
    <time>2021-07-01T02:07:52Z</time>
   </trkpt>
   <trkpt lat="47.3808530" lon="-122.0409690">
    <ele>146.9</ele>
    <time>2021-07-01T02:07:53Z</time>
   </trkpt>
   <trkpt lat="47.3808430" lon="-122.0409010">
    <ele>146.9</ele>
    <time>2021-07-01T02:07:54Z</time>
   </trkpt>
   <trkpt lat="47.3808460" lon="-122.0408510">
    <ele>146.9</ele>
    <time>2021-07-01T02:07:55Z</time>
   </trkpt>
   <trkpt lat="47.3808450" lon="-122.0407410">
    <ele>146.9</ele>
    <time>2021-07-01T02:07:56Z</time>
   </trkpt>
   <trkpt lat="47.3808440" lon="-122.0406460">
    <ele>147.0</ele>
    <time>2021-07-01T02:07:57Z</time>
   </trkpt>
   <trkpt lat="47.3808360" lon="-122.0405550">
    <ele>147.0</ele>
    <time>2021-07-01T02:07:58Z</time>
   </trkpt>
   <trkpt lat="47.3808160" lon="-122.0404710">
    <ele>147.0</ele>
    <time>2021-07-01T02:07:59Z</time>
   </trkpt>
   <trkpt lat="47.3807930" lon="-122.0404080">
    <ele>147.0</ele>
    <time>2021-07-01T02:08:00Z</time>
   </trkpt>
   <trkpt lat="47.3807790" lon="-122.0403440">
    <ele>147.1</ele>
    <time>2021-07-01T02:08:01Z</time>
   </trkpt>
   <trkpt lat="47.3807720" lon="-122.0403130">
    <ele>147.1</ele>
    <time>2021-07-01T02:08:02Z</time>
   </trkpt>
   <trkpt lat="47.3807500" lon="-122.0402590">
    <ele>147.2</ele>
    <time>2021-07-01T02:08:03Z</time>
   </trkpt>
   <trkpt lat="47.3807450" lon="-122.0402060">
    <ele>147.2</ele>
    <time>2021-07-01T02:08:04Z</time>
   </trkpt>
   <trkpt lat="47.3807370" lon="-122.0401320">
    <ele>147.3</ele>
    <time>2021-07-01T02:08:05Z</time>
   </trkpt>
   <trkpt lat="47.3807120" lon="-122.0400510">
    <ele>147.4</ele>
    <time>2021-07-01T02:08:06Z</time>
   </trkpt>
   <trkpt lat="47.3807060" lon="-122.0399460">
    <ele>147.6</ele>
    <time>2021-07-01T02:08:07Z</time>
   </trkpt>
   <trkpt lat="47.3807010" lon="-122.0398640">
    <ele>147.6</ele>
    <time>2021-07-01T02:08:08Z</time>
   </trkpt>
   <trkpt lat="47.3807060" lon="-122.0397880">
    <ele>147.7</ele>
    <time>2021-07-01T02:08:09Z</time>
   </trkpt>
   <trkpt lat="47.3806980" lon="-122.0397350">
    <ele>147.7</ele>
    <time>2021-07-01T02:08:10Z</time>
   </trkpt>
   <trkpt lat="47.3806720" lon="-122.0396660">
    <ele>147.8</ele>
    <time>2021-07-01T02:08:11Z</time>
   </trkpt>
   <trkpt lat="47.3806560" lon="-122.0395980">
    <ele>147.8</ele>
    <time>2021-07-01T02:08:12Z</time>
   </trkpt>
   <trkpt lat="47.3806330" lon="-122.0395400">
    <ele>147.9</ele>
    <time>2021-07-01T02:08:13Z</time>
   </trkpt>
   <trkpt lat="47.3806300" lon="-122.0394830">
    <ele>147.9</ele>
    <time>2021-07-01T02:08:14Z</time>
   </trkpt>
   <trkpt lat="47.3806250" lon="-122.0394600">
    <ele>147.9</ele>
    <time>2021-07-01T02:08:15Z</time>
   </trkpt>
   <trkpt lat="47.3806270" lon="-122.0393990">
    <ele>148.0</ele>
    <time>2021-07-01T02:08:16Z</time>
   </trkpt>
   <trkpt lat="47.3806270" lon="-122.0393740">
    <ele>148.0</ele>
    <time>2021-07-01T02:08:17Z</time>
   </trkpt>
   <trkpt lat="47.3805940" lon="-122.0392730">
    <ele>148.1</ele>
    <time>2021-07-01T02:08:18Z</time>
   </trkpt>
   <trkpt lat="47.3805680" lon="-122.0392070">
    <ele>148.1</ele>
    <time>2021-07-01T02:08:19Z</time>
   </trkpt>
   <trkpt lat="47.3805710" lon="-122.0391520">
    <ele>148.2</ele>
    <time>2021-07-01T02:08:20Z</time>
   </trkpt>
   <trkpt lat="47.3805790" lon="-122.0390910">
    <ele>148.2</ele>
    <time>2021-07-01T02:08:21Z</time>
   </trkpt>
   <trkpt lat="47.3805720" lon="-122.0390320">
    <ele>148.3</ele>
    <time>2021-07-01T02:08:22Z</time>
   </trkpt>
   <trkpt lat="47.3805530" lon="-122.0389750">
    <ele>148.4</ele>
    <time>2021-07-01T02:08:23Z</time>
   </trkpt>
   <trkpt lat="47.3805340" lon="-122.0389460">
    <ele>148.4</ele>
    <time>2021-07-01T02:08:24Z</time>
   </trkpt>
   <trkpt lat="47.3805070" lon="-122.0388810">
    <ele>148.5</ele>
    <time>2021-07-01T02:08:25Z</time>
   </trkpt>
   <trkpt lat="47.3805070" lon="-122.0388190">
    <ele>148.6</ele>
    <time>2021-07-01T02:08:26Z</time>
   </trkpt>
   <trkpt lat="47.3804960" lon="-122.0387550">
    <ele>148.6</ele>
    <time>2021-07-01T02:08:27Z</time>
   </trkpt>
   <trkpt lat="47.3804900" lon="-122.0386930">
    <ele>148.7</ele>
    <time>2021-07-01T02:08:29Z</time>
   </trkpt>
   <trkpt lat="47.3804840" lon="-122.0386380">
    <ele>148.8</ele>
    <time>2021-07-01T02:08:30Z</time>
   </trkpt>
   <trkpt lat="47.3804990" lon="-122.0385950">
    <ele>148.8</ele>
    <time>2021-07-01T02:08:31Z</time>
   </trkpt>
   <trkpt lat="47.3805070" lon="-122.0385870">
    <ele>148.9</ele>
    <time>2021-07-01T02:08:32Z</time>
   </trkpt>
   <trkpt lat="47.3804890" lon="-122.0385400">
    <ele>148.9</ele>
    <time>2021-07-01T02:08:33Z</time>
   </trkpt>
   <trkpt lat="47.3804790" lon="-122.0385170">
    <ele>149.0</ele>
    <time>2021-07-01T02:08:34Z</time>
   </trkpt>
   <trkpt lat="47.3804700" lon="-122.0384720">
    <ele>149.0</ele>
    <time>2021-07-01T02:08:35Z</time>
   </trkpt>
   <trkpt lat="47.3804670" lon="-122.0384300">
    <ele>149.1</ele>
    <time>2021-07-01T02:08:36Z</time>
   </trkpt>
   <trkpt lat="47.3804460" lon="-122.0383610">
    <ele>149.2</ele>
    <time>2021-07-01T02:08:37Z</time>
   </trkpt>
   <trkpt lat="47.3804310" lon="-122.0383170">
    <ele>149.2</ele>
    <time>2021-07-01T02:08:38Z</time>
   </trkpt>
   <trkpt lat="47.3804090" lon="-122.0382700">
    <ele>149.3</ele>
    <time>2021-07-01T02:08:39Z</time>
   </trkpt>
   <trkpt lat="47.3804170" lon="-122.0382180">
    <ele>149.3</ele>
    <time>2021-07-01T02:08:40Z</time>
   </trkpt>
   <trkpt lat="47.3804140" lon="-122.0381710">
    <ele>149.4</ele>
    <time>2021-07-01T02:08:41Z</time>
   </trkpt>
   <trkpt lat="47.3804020" lon="-122.0381290">
    <ele>149.4</ele>
    <time>2021-07-01T02:08:42Z</time>
   </trkpt>
   <trkpt lat="47.3804060" lon="-122.0381150">
    <ele>149.4</ele>
    <time>2021-07-01T02:08:43Z</time>
   </trkpt>
   <trkpt lat="47.3804180" lon="-122.0381110">
    <ele>149.4</ele>
    <time>2021-07-01T02:08:44Z</time>
   </trkpt>
   <trkpt lat="47.3804040" lon="-122.0381060">
    <ele>149.4</ele>
    <time>2021-07-01T02:08:45Z</time>
   </trkpt>
   <trkpt lat="47.3803990" lon="-122.0380870">
    <ele>149.4</ele>
    <time>2021-07-01T02:08:46Z</time>
   </trkpt>
   <trkpt lat="47.3803970" lon="-122.0380700">
    <ele>149.4</ele>
    <time>2021-07-01T02:08:47Z</time>
   </trkpt>
   <trkpt lat="47.3803910" lon="-122.0380570">
    <ele>149.4</ele>
    <time>2021-07-01T02:08:48Z</time>
   </trkpt>
   <trkpt lat="47.3803880" lon="-122.0380540">
    <ele>149.4</ele>
    <time>2021-07-01T02:08:49Z</time>
   </trkpt>
   <trkpt lat="47.3803860" lon="-122.0380520">
    <ele>149.4</ele>
    <time>2021-07-01T02:08:50Z</time>
   </trkpt>
   <trkpt lat="47.3803950" lon="-122.0380570">
    <ele>149.4</ele>
    <time>2021-07-01T02:08:51Z</time>
   </trkpt>
   <trkpt lat="47.3803860" lon="-122.0380600">
    <ele>149.4</ele>
    <time>2021-07-01T02:08:52Z</time>
   </trkpt>
   <trkpt lat="47.3803610" lon="-122.0381380">
    <ele>149.5</ele>
    <time>2021-07-01T02:10:56Z</time>
   </trkpt>
   <trkpt lat="47.3803610" lon="-122.0381460">
    <ele>149.5</ele>
    <time>2021-07-01T02:10:57Z</time>
   </trkpt>
   <trkpt lat="47.3803650" lon="-122.0381550">
    <ele>149.5</ele>
    <time>2021-07-01T02:10:58Z</time>
   </trkpt>
   <trkpt lat="47.3803630" lon="-122.0381670">
    <ele>149.5</ele>
    <time>2021-07-01T02:10:59Z</time>
   </trkpt>
   <trkpt lat="47.3803640" lon="-122.0381690">
    <ele>149.5</ele>
    <time>2021-07-01T02:11:00Z</time>
   </trkpt>
   <trkpt lat="47.3803650" lon="-122.0381610">
    <ele>149.5</ele>
    <time>2021-07-01T02:11:01Z</time>
   </trkpt>
   <trkpt lat="47.3803600" lon="-122.0381530">
    <ele>149.5</ele>
    <time>2021-07-01T02:11:02Z</time>
   </trkpt>
   <trkpt lat="47.3803570" lon="-122.0381540">
    <ele>149.5</ele>
    <time>2021-07-01T02:11:03Z</time>
   </trkpt>
   <trkpt lat="47.3803580" lon="-122.0381490">
    <ele>149.5</ele>
    <time>2021-07-01T02:11:04Z</time>
   </trkpt>
   <trkpt lat="47.3803630" lon="-122.0381480">
    <ele>149.5</ele>
    <time>2021-07-01T02:11:05Z</time>
   </trkpt>
  </trkseg>
 </trk>
</gpx>
