<?xml version="1.0" encoding="UTF-8"?>
<gpx creator="StravaGPX" version="1.1" xmlns="http://www.topografix.com/GPX/1/1" xmlns:xsi="http://www.w3.org/2001/XMLSchema-instance" xsi:schemaLocation="http://www.topografix.com/GPX/1/1 http://www.topografix.com/GPX/1/1/gpx.xsd">
 <metadata>
  <time>2021-07-23T01:09:27Z</time>
 </metadata>
 <trk>
  <name> Cool down</name>
  <type>walking</type>
  <trkseg>
   <trkpt lat="47.3739480" lon="-122.0323190">
    <ele>159.5</ele>
    <time>2021-07-23T01:09:27Z</time>
   </trkpt>
   <trkpt lat="47.3739460" lon="-122.0323160">
    <ele>159.5</ele>
    <time>2021-07-23T01:09:28Z</time>
   </trkpt>
   <trkpt lat="47.3739470" lon="-122.0323200">
    <ele>159.5</ele>
    <time>2021-07-23T01:09:29Z</time>
   </trkpt>
   <trkpt lat="47.3739330" lon="-122.0323160">
    <ele>159.5</ele>
    <time>2021-07-23T01:09:30Z</time>
   </trkpt>
   <trkpt lat="47.3739160" lon="-122.0323070">
    <ele>159.5</ele>
    <time>2021-07-23T01:09:31Z</time>
   </trkpt>
   <trkpt lat="47.3739040" lon="-122.0323030">
    <ele>159.5</ele>
    <time>2021-07-23T01:09:32Z</time>
   </trkpt>
   <trkpt lat="47.3739020" lon="-122.0322980">
    <ele>159.5</ele>
    <time>2021-07-23T01:09:33Z</time>
   </trkpt>
   <trkpt lat="47.3739020" lon="-122.0323120">
    <ele>159.5</ele>
    <time>2021-07-23T01:09:34Z</time>
   </trkpt>
   <trkpt lat="47.3738960" lon="-122.0323190">
    <ele>159.5</ele>
    <time>2021-07-23T01:09:35Z</time>
   </trkpt>
   <trkpt lat="47.3738850" lon="-122.0323190">
    <ele>159.5</ele>
    <time>2021-07-23T01:09:36Z</time>
   </trkpt>
   <trkpt lat="47.3738750" lon="-122.0323190">
    <ele>159.5</ele>
    <time>2021-07-23T01:09:37Z</time>
   </trkpt>
   <trkpt lat="47.3738630" lon="-122.0323220">
    <ele>159.5</ele>
    <time>2021-07-23T01:09:38Z</time>
   </trkpt>
   <trkpt lat="47.3738550" lon="-122.0323230">
    <ele>159.5</ele>
    <time>2021-07-23T01:09:39Z</time>
   </trkpt>
   <trkpt lat="47.3738550" lon="-122.0323130">
    <ele>159.5</ele>
    <time>2021-07-23T01:09:40Z</time>
   </trkpt>
   <trkpt lat="47.3738720" lon="-122.0323040">
    <ele>159.5</ele>
    <time>2021-07-23T01:09:41Z</time>
   </trkpt>
   <trkpt lat="47.3738820" lon="-122.0323030">
    <ele>159.5</ele>
    <time>2021-07-23T01:09:42Z</time>
   </trkpt>
   <trkpt lat="47.3738910" lon="-122.0323110">
    <ele>159.5</ele>
    <time>2021-07-23T01:09:43Z</time>
   </trkpt>
   <trkpt lat="47.3739110" lon="-122.0323100">
    <ele>159.5</ele>
    <time>2021-07-23T01:09:44Z</time>
   </trkpt>
   <trkpt lat="47.3739380" lon="-122.0323210">
    <ele>159.5</ele>
    <time>2021-07-23T01:09:45Z</time>
   </trkpt>
   <trkpt lat="47.3739450" lon="-122.0323270">
    <ele>159.5</ele>
    <time>2021-07-23T01:09:46Z</time>
   </trkpt>
   <trkpt lat="47.3739630" lon="-122.0323380">
    <ele>159.4</ele>
    <time>2021-07-23T01:09:47Z</time>
   </trkpt>
   <trkpt lat="47.3739730" lon="-122.0323400">
    <ele>159.4</ele>
    <time>2021-07-23T01:09:48Z</time>
   </trkpt>
   <trkpt lat="47.3739820" lon="-122.0323410">
    <ele>159.4</ele>
    <time>2021-07-23T01:09:49Z</time>
   </trkpt>
   <trkpt lat="47.3740200" lon="-122.0323440">
    <ele>159.4</ele>
    <time>2021-07-23T01:09:50Z</time>
   </trkpt>
   <trkpt lat="47.3740300" lon="-122.0323450">
    <ele>159.4</ele>
    <time>2021-07-23T01:09:51Z</time>
   </trkpt>
   <trkpt lat="47.3740410" lon="-122.0323280">
    <ele>159.3</ele>
    <time>2021-07-23T01:09:52Z</time>
   </trkpt>
   <trkpt lat="47.3740500" lon="-122.0323150">
    <ele>159.3</ele>
    <time>2021-07-23T01:09:53Z</time>
   </trkpt>
   <trkpt lat="47.3740590" lon="-122.0323210">
    <ele>159.3</ele>
    <time>2021-07-23T01:09:54Z</time>
   </trkpt>
   <trkpt lat="47.3740610" lon="-122.0323220">
    <ele>159.3</ele>
    <time>2021-07-23T01:09:55Z</time>
   </trkpt>
   <trkpt lat="47.3740620" lon="-122.0323240">
    <ele>159.3</ele>
    <time>2021-07-23T01:09:56Z</time>
   </trkpt>
   <trkpt lat="47.3740640" lon="-122.0323250">
    <ele>159.3</ele>
    <time>2021-07-23T01:09:57Z</time>
   </trkpt>
   <trkpt lat="47.3740650" lon="-122.0323270">
    <ele>159.3</ele>
    <time>2021-07-23T01:09:58Z</time>
   </trkpt>
   <trkpt lat="47.3740660" lon="-122.0323280">
    <ele>159.3</ele>
    <time>2021-07-23T01:09:59Z</time>
   </trkpt>
   <trkpt lat="47.3740680" lon="-122.0323300">
    <ele>159.3</ele>
    <time>2021-07-23T01:10:00Z</time>
   </trkpt>
   <trkpt lat="47.3740690" lon="-122.0323310">
    <ele>159.3</ele>
    <time>2021-07-23T01:10:01Z</time>
   </trkpt>
   <trkpt lat="47.3740710" lon="-122.0323330">
    <ele>159.3</ele>
    <time>2021-07-23T01:10:02Z</time>
   </trkpt>
   <trkpt lat="47.3740720" lon="-122.0323340">
    <ele>159.3</ele>
    <time>2021-07-23T01:10:03Z</time>
   </trkpt>
   <trkpt lat="47.3740740" lon="-122.0323360">
    <ele>159.3</ele>
    <time>2021-07-23T01:10:04Z</time>
   </trkpt>
   <trkpt lat="47.3740750" lon="-122.0323370">
    <ele>159.3</ele>
    <time>2021-07-23T01:10:05Z</time>
   </trkpt>
   <trkpt lat="47.3740760" lon="-122.0323390">
    <ele>159.3</ele>
    <time>2021-07-23T01:10:06Z</time>
   </trkpt>
   <trkpt lat="47.3740780" lon="-122.0323400">
    <ele>159.3</ele>
    <time>2021-07-23T01:10:07Z</time>
   </trkpt>
   <trkpt lat="47.3740790" lon="-122.0323420">
    <ele>159.3</ele>
    <time>2021-07-23T01:10:08Z</time>
   </trkpt>
   <trkpt lat="47.3740810" lon="-122.0323430">
    <ele>159.3</ele>
    <time>2021-07-23T01:10:09Z</time>
   </trkpt>
   <trkpt lat="47.3740820" lon="-122.0323450">
    <ele>159.3</ele>
    <time>2021-07-23T01:10:10Z</time>
   </trkpt>
   <trkpt lat="47.3740920" lon="-122.0323420">
    <ele>159.3</ele>
    <time>2021-07-23T01:10:11Z</time>
   </trkpt>
   <trkpt lat="47.3741020" lon="-122.0323370">
    <ele>159.2</ele>
    <time>2021-07-23T01:10:12Z</time>
   </trkpt>
   <trkpt lat="47.3741110" lon="-122.0323320">
    <ele>159.2</ele>
    <time>2021-07-23T01:10:13Z</time>
   </trkpt>
   <trkpt lat="47.3741260" lon="-122.0323290">
    <ele>159.2</ele>
    <time>2021-07-23T01:10:14Z</time>
   </trkpt>
   <trkpt lat="47.3741390" lon="-122.0323100">
    <ele>159.2</ele>
    <time>2021-07-23T01:10:15Z</time>
   </trkpt>
   <trkpt lat="47.3741700" lon="-122.0323060">
    <ele>159.1</ele>
    <time>2021-07-23T01:10:16Z</time>
   </trkpt>
   <trkpt lat="47.3741780" lon="-122.0323070">
    <ele>159.1</ele>
    <time>2021-07-23T01:10:17Z</time>
   </trkpt>
   <trkpt lat="47.3741920" lon="-122.0323120">
    <ele>159.1</ele>
    <time>2021-07-23T01:10:18Z</time>
   </trkpt>
   <trkpt lat="47.3742030" lon="-122.0323160">
    <ele>159.1</ele>
    <time>2021-07-23T01:10:19Z</time>
   </trkpt>
   <trkpt lat="47.3742130" lon="-122.0323170">
    <ele>159.1</ele>
    <time>2021-07-23T01:10:20Z</time>
   </trkpt>
   <trkpt lat="47.3742350" lon="-122.0323180">
    <ele>159.1</ele>
    <time>2021-07-23T01:10:21Z</time>
   </trkpt>
   <trkpt lat="47.3742450" lon="-122.0323170">
    <ele>159.0</ele>
    <time>2021-07-23T01:10:22Z</time>
   </trkpt>
   <trkpt lat="47.3742550" lon="-122.0323160">
    <ele>159.0</ele>
    <time>2021-07-23T01:10:23Z</time>
   </trkpt>
   <trkpt lat="47.3742670" lon="-122.0323200">
    <ele>159.0</ele>
    <time>2021-07-23T01:10:24Z</time>
   </trkpt>
   <trkpt lat="47.3742730" lon="-122.0323230">
    <ele>159.0</ele>
    <time>2021-07-23T01:10:25Z</time>
   </trkpt>
   <trkpt lat="47.3742860" lon="-122.0323190">
    <ele>159.0</ele>
    <time>2021-07-23T01:10:26Z</time>
   </trkpt>
   <trkpt lat="47.3742970" lon="-122.0323210">
    <ele>159.0</ele>
    <time>2021-07-23T01:10:27Z</time>
   </trkpt>
   <trkpt lat="47.3743030" lon="-122.0323240">
    <ele>159.0</ele>
    <time>2021-07-23T01:10:28Z</time>
   </trkpt>
   <trkpt lat="47.3743130" lon="-122.0323240">
    <ele>159.0</ele>
    <time>2021-07-23T01:10:29Z</time>
   </trkpt>
   <trkpt lat="47.3743210" lon="-122.0323260">
    <ele>159.0</ele>
    <time>2021-07-23T01:10:30Z</time>
   </trkpt>
   <trkpt lat="47.3743300" lon="-122.0323250">
    <ele>158.9</ele>
    <time>2021-07-23T01:10:31Z</time>
   </trkpt>
   <trkpt lat="47.3743460" lon="-122.0323270">
    <ele>158.9</ele>
    <time>2021-07-23T01:10:32Z</time>
   </trkpt>
   <trkpt lat="47.3743590" lon="-122.0323320">
    <ele>158.9</ele>
    <time>2021-07-23T01:10:33Z</time>
   </trkpt>
   <trkpt lat="47.3743650" lon="-122.0323330">
    <ele>158.9</ele>
    <time>2021-07-23T01:10:34Z</time>
   </trkpt>
   <trkpt lat="47.3743800" lon="-122.0323360">
    <ele>158.9</ele>
    <time>2021-07-23T01:10:35Z</time>
   </trkpt>
   <trkpt lat="47.3743880" lon="-122.0323380">
    <ele>158.9</ele>
    <time>2021-07-23T01:10:36Z</time>
   </trkpt>
   <trkpt lat="47.3743980" lon="-122.0323310">
    <ele>158.9</ele>
    <time>2021-07-23T01:10:37Z</time>
   </trkpt>
   <trkpt lat="47.3744020" lon="-122.0323230">
    <ele>158.8</ele>
    <time>2021-07-23T01:10:38Z</time>
   </trkpt>
   <trkpt lat="47.3744120" lon="-122.0323190">
    <ele>158.8</ele>
    <time>2021-07-23T01:10:39Z</time>
   </trkpt>
   <trkpt lat="47.3744270" lon="-122.0323210">
    <ele>158.8</ele>
    <time>2021-07-23T01:10:40Z</time>
   </trkpt>
   <trkpt lat="47.3744390" lon="-122.0323290">
    <ele>158.8</ele>
    <time>2021-07-23T01:10:41Z</time>
   </trkpt>
   <trkpt lat="47.3744540" lon="-122.0323260">
    <ele>158.8</ele>
    <time>2021-07-23T01:10:42Z</time>
   </trkpt>
   <trkpt lat="47.3744610" lon="-122.0323250">
    <ele>158.8</ele>
    <time>2021-07-23T01:10:43Z</time>
   </trkpt>
   <trkpt lat="47.3744690" lon="-122.0323230">
    <ele>158.8</ele>
    <time>2021-07-23T01:10:44Z</time>
   </trkpt>
   <trkpt lat="47.3744760" lon="-122.0323220">
    <ele>158.8</ele>
    <time>2021-07-23T01:10:45Z</time>
   </trkpt>
   <trkpt lat="47.3744910" lon="-122.0323160">
    <ele>158.7</ele>
    <time>2021-07-23T01:10:46Z</time>
   </trkpt>
   <trkpt lat="47.3745080" lon="-122.0323170">
    <ele>158.7</ele>
    <time>2021-07-23T01:10:47Z</time>
   </trkpt>
   <trkpt lat="47.3745280" lon="-122.0323110">
    <ele>158.7</ele>
    <time>2021-07-23T01:10:48Z</time>
   </trkpt>
   <trkpt lat="47.3745360" lon="-122.0323090">
    <ele>158.7</ele>
    <time>2021-07-23T01:10:49Z</time>
   </trkpt>
   <trkpt lat="47.3745440" lon="-122.0323070">
    <ele>158.7</ele>
    <time>2021-07-23T01:10:50Z</time>
   </trkpt>
   <trkpt lat="47.3745540" lon="-122.0323050">
    <ele>158.7</ele>
    <time>2021-07-23T01:10:51Z</time>
   </trkpt>
   <trkpt lat="47.3745620" lon="-122.0323000">
    <ele>158.6</ele>
    <time>2021-07-23T01:10:52Z</time>
   </trkpt>
   <trkpt lat="47.3745780" lon="-122.0323010">
    <ele>158.6</ele>
    <time>2021-07-23T01:10:53Z</time>
   </trkpt>
   <trkpt lat="47.3746020" lon="-122.0323020">
    <ele>158.6</ele>
    <time>2021-07-23T01:10:54Z</time>
   </trkpt>
   <trkpt lat="47.3746090" lon="-122.0322980">
    <ele>158.6</ele>
    <time>2021-07-23T01:10:55Z</time>
   </trkpt>
   <trkpt lat="47.3746170" lon="-122.0322950">
    <ele>158.6</ele>
    <time>2021-07-23T01:10:56Z</time>
   </trkpt>
   <trkpt lat="47.3746260" lon="-122.0322920">
    <ele>158.6</ele>
    <time>2021-07-23T01:10:57Z</time>
   </trkpt>
   <trkpt lat="47.3746330" lon="-122.0322910">
    <ele>158.5</ele>
    <time>2021-07-23T01:10:58Z</time>
   </trkpt>
   <trkpt lat="47.3746450" lon="-122.0322950">
    <ele>158.5</ele>
    <time>2021-07-23T01:10:59Z</time>
   </trkpt>
   <trkpt lat="47.3746610" lon="-122.0322980">
    <ele>158.5</ele>
    <time>2021-07-23T01:11:00Z</time>
   </trkpt>
   <trkpt lat="47.3746730" lon="-122.0322970">
    <ele>158.5</ele>
    <time>2021-07-23T01:11:01Z</time>
   </trkpt>
   <trkpt lat="47.3746820" lon="-122.0322970">
    <ele>158.5</ele>
    <time>2021-07-23T01:11:02Z</time>
   </trkpt>
   <trkpt lat="47.3746950" lon="-122.0323020">
    <ele>158.5</ele>
    <time>2021-07-23T01:11:03Z</time>
   </trkpt>
   <trkpt lat="47.3747060" lon="-122.0323050">
    <ele>158.5</ele>
    <time>2021-07-23T01:11:04Z</time>
   </trkpt>
   <trkpt lat="47.3747290" lon="-122.0323140">
    <ele>158.4</ele>
    <time>2021-07-23T01:11:05Z</time>
   </trkpt>
   <trkpt lat="47.3747360" lon="-122.0323160">
    <ele>158.4</ele>
    <time>2021-07-23T01:11:06Z</time>
   </trkpt>
   <trkpt lat="47.3747440" lon="-122.0323180">
    <ele>158.4</ele>
    <time>2021-07-23T01:11:07Z</time>
   </trkpt>
   <trkpt lat="47.3747600" lon="-122.0323190">
    <ele>158.4</ele>
    <time>2021-07-23T01:11:08Z</time>
   </trkpt>
   <trkpt lat="47.3747680" lon="-122.0323190">
    <ele>158.4</ele>
    <time>2021-07-23T01:11:09Z</time>
   </trkpt>
   <trkpt lat="47.3747760" lon="-122.0323170">
    <ele>158.4</ele>
    <time>2021-07-23T01:11:10Z</time>
   </trkpt>
   <trkpt lat="47.3747940" lon="-122.0323130">
    <ele>158.4</ele>
    <time>2021-07-23T01:11:11Z</time>
   </trkpt>
   <trkpt lat="47.3748040" lon="-122.0323080">
    <ele>158.3</ele>
    <time>2021-07-23T01:11:12Z</time>
   </trkpt>
   <trkpt lat="47.3748130" lon="-122.0323020">
    <ele>158.3</ele>
    <time>2021-07-23T01:11:13Z</time>
   </trkpt>
   <trkpt lat="47.3748230" lon="-122.0323010">
    <ele>158.3</ele>
    <time>2021-07-23T01:11:14Z</time>
   </trkpt>
   <trkpt lat="47.3748340" lon="-122.0323080">
    <ele>158.3</ele>
    <time>2021-07-23T01:11:15Z</time>
   </trkpt>
   <trkpt lat="47.3748460" lon="-122.0323140">
    <ele>158.3</ele>
    <time>2021-07-23T01:11:16Z</time>
   </trkpt>
   <trkpt lat="47.3748520" lon="-122.0323150">
    <ele>158.3</ele>
    <time>2021-07-23T01:11:17Z</time>
   </trkpt>
   <trkpt lat="47.3748640" lon="-122.0323150">
    <ele>158.3</ele>
    <time>2021-07-23T01:11:18Z</time>
   </trkpt>
   <trkpt lat="47.3748730" lon="-122.0323080">
    <ele>158.3</ele>
    <time>2021-07-23T01:11:19Z</time>
   </trkpt>
   <trkpt lat="47.3748830" lon="-122.0323050">
    <ele>158.2</ele>
    <time>2021-07-23T01:11:20Z</time>
   </trkpt>
   <trkpt lat="47.3748960" lon="-122.0322980">
    <ele>158.2</ele>
    <time>2021-07-23T01:11:21Z</time>
   </trkpt>
   <trkpt lat="47.3749100" lon="-122.0322980">
    <ele>158.2</ele>
    <time>2021-07-23T01:11:22Z</time>
   </trkpt>
   <trkpt lat="47.3749220" lon="-122.0322970">
    <ele>158.2</ele>
    <time>2021-07-23T01:11:23Z</time>
   </trkpt>
   <trkpt lat="47.3749300" lon="-122.0322980">
    <ele>158.2</ele>
    <time>2021-07-23T01:11:24Z</time>
   </trkpt>
   <trkpt lat="47.3749470" lon="-122.0322960">
    <ele>158.1</ele>
    <time>2021-07-23T01:11:25Z</time>
   </trkpt>
   <trkpt lat="47.3749550" lon="-122.0322990">
    <ele>158.1</ele>
    <time>2021-07-23T01:11:26Z</time>
   </trkpt>
   <trkpt lat="47.3749620" lon="-122.0323030">
    <ele>158.1</ele>
    <time>2021-07-23T01:11:27Z</time>
   </trkpt>
   <trkpt lat="47.3749700" lon="-122.0323070">
    <ele>158.1</ele>
    <time>2021-07-23T01:11:28Z</time>
   </trkpt>
   <trkpt lat="47.3749780" lon="-122.0323110">
    <ele>158.1</ele>
    <time>2021-07-23T01:11:29Z</time>
   </trkpt>
   <trkpt lat="47.3749900" lon="-122.0323030">
    <ele>158.1</ele>
    <time>2021-07-23T01:11:30Z</time>
   </trkpt>
   <trkpt lat="47.3750050" lon="-122.0323080">
    <ele>158.1</ele>
    <time>2021-07-23T01:11:31Z</time>
   </trkpt>
   <trkpt lat="47.3750240" lon="-122.0323160">
    <ele>158.0</ele>
    <time>2021-07-23T01:11:32Z</time>
   </trkpt>
   <trkpt lat="47.3750330" lon="-122.0323160">
    <ele>158.0</ele>
    <time>2021-07-23T01:11:33Z</time>
   </trkpt>
   <trkpt lat="47.3750430" lon="-122.0323160">
    <ele>158.0</ele>
    <time>2021-07-23T01:11:34Z</time>
   </trkpt>
   <trkpt lat="47.3750590" lon="-122.0323150">
    <ele>158.0</ele>
    <time>2021-07-23T01:11:35Z</time>
   </trkpt>
   <trkpt lat="47.3750690" lon="-122.0323200">
    <ele>158.0</ele>
    <time>2021-07-23T01:11:36Z</time>
   </trkpt>
   <trkpt lat="47.3750790" lon="-122.0323150">
    <ele>157.9</ele>
    <time>2021-07-23T01:11:37Z</time>
   </trkpt>
   <trkpt lat="47.3750880" lon="-122.0323170">
    <ele>157.9</ele>
    <time>2021-07-23T01:11:38Z</time>
   </trkpt>
   <trkpt lat="47.3751040" lon="-122.0323160">
    <ele>157.9</ele>
    <time>2021-07-23T01:11:39Z</time>
   </trkpt>
   <trkpt lat="47.3751150" lon="-122.0323200">
    <ele>157.9</ele>
    <time>2021-07-23T01:11:40Z</time>
   </trkpt>
   <trkpt lat="47.3751330" lon="-122.0323240">
    <ele>157.9</ele>
    <time>2021-07-23T01:11:41Z</time>
   </trkpt>
   <trkpt lat="47.3751490" lon="-122.0323260">
    <ele>157.8</ele>
    <time>2021-07-23T01:11:42Z</time>
   </trkpt>
   <trkpt lat="47.3751770" lon="-122.0323260">
    <ele>157.8</ele>
    <time>2021-07-23T01:11:43Z</time>
   </trkpt>
   <trkpt lat="47.3751960" lon="-122.0323280">
    <ele>157.8</ele>
    <time>2021-07-23T01:11:44Z</time>
   </trkpt>
   <trkpt lat="47.3752090" lon="-122.0323350">
    <ele>157.8</ele>
    <time>2021-07-23T01:11:45Z</time>
   </trkpt>
   <trkpt lat="47.3752400" lon="-122.0323400">
    <ele>157.8</ele>
    <time>2021-07-23T01:11:46Z</time>
   </trkpt>
   <trkpt lat="47.3752510" lon="-122.0323410">
    <ele>157.7</ele>
    <time>2021-07-23T01:11:47Z</time>
   </trkpt>
   <trkpt lat="47.3752630" lon="-122.0323360">
    <ele>157.7</ele>
    <time>2021-07-23T01:11:48Z</time>
   </trkpt>
   <trkpt lat="47.3752790" lon="-122.0323360">
    <ele>157.7</ele>
    <time>2021-07-23T01:11:49Z</time>
   </trkpt>
   <trkpt lat="47.3753080" lon="-122.0323520">
    <ele>157.7</ele>
    <time>2021-07-23T01:11:50Z</time>
   </trkpt>
   <trkpt lat="47.3753150" lon="-122.0323550">
    <ele>157.7</ele>
    <time>2021-07-23T01:11:51Z</time>
   </trkpt>
   <trkpt lat="47.3753290" lon="-122.0323660">
    <ele>157.7</ele>
    <time>2021-07-23T01:11:52Z</time>
   </trkpt>
   <trkpt lat="47.3753340" lon="-122.0323760">
    <ele>157.7</ele>
    <time>2021-07-23T01:11:53Z</time>
   </trkpt>
   <trkpt lat="47.3753460" lon="-122.0323820">
    <ele>157.6</ele>
    <time>2021-07-23T01:11:54Z</time>
   </trkpt>
   <trkpt lat="47.3753760" lon="-122.0323890">
    <ele>157.6</ele>
    <time>2021-07-23T01:11:55Z</time>
   </trkpt>
   <trkpt lat="47.3753830" lon="-122.0323900">
    <ele>157.6</ele>
    <time>2021-07-23T01:11:56Z</time>
   </trkpt>
   <trkpt lat="47.3753990" lon="-122.0323950">
    <ele>157.6</ele>
    <time>2021-07-23T01:11:57Z</time>
   </trkpt>
   <trkpt lat="47.3754140" lon="-122.0324050">
    <ele>157.5</ele>
    <time>2021-07-23T01:11:58Z</time>
   </trkpt>
   <trkpt lat="47.3754270" lon="-122.0324110">
    <ele>157.5</ele>
    <time>2021-07-23T01:11:59Z</time>
   </trkpt>
   <trkpt lat="47.3754390" lon="-122.0324170">
    <ele>157.5</ele>
    <time>2021-07-23T01:12:00Z</time>
   </trkpt>
   <trkpt lat="47.3754450" lon="-122.0324170">
    <ele>157.5</ele>
    <time>2021-07-23T01:12:01Z</time>
   </trkpt>
   <trkpt lat="47.3754600" lon="-122.0324190">
    <ele>157.5</ele>
    <time>2021-07-23T01:12:02Z</time>
   </trkpt>
   <trkpt lat="47.3754730" lon="-122.0324270">
    <ele>157.5</ele>
    <time>2021-07-23T01:12:03Z</time>
   </trkpt>
   <trkpt lat="47.3754970" lon="-122.0324350">
    <ele>157.4</ele>
    <time>2021-07-23T01:12:04Z</time>
   </trkpt>
   <trkpt lat="47.3755070" lon="-122.0324400">
    <ele>157.4</ele>
    <time>2021-07-23T01:12:05Z</time>
   </trkpt>
   <trkpt lat="47.3755170" lon="-122.0324450">
    <ele>157.4</ele>
    <time>2021-07-23T01:12:06Z</time>
   </trkpt>
   <trkpt lat="47.3755360" lon="-122.0324580">
    <ele>157.4</ele>
    <time>2021-07-23T01:12:07Z</time>
   </trkpt>
   <trkpt lat="47.3755430" lon="-122.0324640">
    <ele>157.4</ele>
    <time>2021-07-23T01:12:08Z</time>
   </trkpt>
   <trkpt lat="47.3755500" lon="-122.0324700">
    <ele>157.4</ele>
    <time>2021-07-23T01:12:09Z</time>
   </trkpt>
   <trkpt lat="47.3755630" lon="-122.0324730">
    <ele>157.3</ele>
    <time>2021-07-23T01:12:10Z</time>
   </trkpt>
   <trkpt lat="47.3755700" lon="-122.0324790">
    <ele>157.3</ele>
    <time>2021-07-23T01:12:11Z</time>
   </trkpt>
   <trkpt lat="47.3755810" lon="-122.0324780">
    <ele>157.3</ele>
    <time>2021-07-23T01:12:12Z</time>
   </trkpt>
   <trkpt lat="47.3755900" lon="-122.0324820">
    <ele>157.3</ele>
    <time>2021-07-23T01:12:13Z</time>
   </trkpt>
   <trkpt lat="47.3756010" lon="-122.0324860">
    <ele>157.3</ele>
    <time>2021-07-23T01:12:14Z</time>
   </trkpt>
   <trkpt lat="47.3756130" lon="-122.0324970">
    <ele>157.3</ele>
    <time>2021-07-23T01:12:15Z</time>
   </trkpt>
   <trkpt lat="47.3756250" lon="-122.0325070">
    <ele>157.3</ele>
    <time>2021-07-23T01:12:16Z</time>
   </trkpt>
   <trkpt lat="47.3756360" lon="-122.0325190">
    <ele>157.3</ele>
    <time>2021-07-23T01:12:17Z</time>
   </trkpt>
   <trkpt lat="47.3756480" lon="-122.0325300">
    <ele>157.3</ele>
    <time>2021-07-23T01:12:18Z</time>
   </trkpt>
   <trkpt lat="47.3756590" lon="-122.0325390">
    <ele>157.2</ele>
    <time>2021-07-23T01:12:19Z</time>
   </trkpt>
   <trkpt lat="47.3756690" lon="-122.0325410">
    <ele>157.2</ele>
    <time>2021-07-23T01:12:20Z</time>
   </trkpt>
   <trkpt lat="47.3756820" lon="-122.0325470">
    <ele>157.2</ele>
    <time>2021-07-23T01:12:21Z</time>
   </trkpt>
   <trkpt lat="47.3756920" lon="-122.0325490">
    <ele>157.2</ele>
    <time>2021-07-23T01:12:22Z</time>
   </trkpt>
   <trkpt lat="47.3757020" lon="-122.0325440">
    <ele>157.2</ele>
    <time>2021-07-23T01:12:23Z</time>
   </trkpt>
   <trkpt lat="47.3757100" lon="-122.0325470">
    <ele>157.2</ele>
    <time>2021-07-23T01:12:24Z</time>
   </trkpt>
   <trkpt lat="47.3757190" lon="-122.0325560">
    <ele>157.2</ele>
    <time>2021-07-23T01:12:25Z</time>
   </trkpt>
   <trkpt lat="47.3757300" lon="-122.0325670">
    <ele>157.2</ele>
    <time>2021-07-23T01:12:26Z</time>
   </trkpt>
   <trkpt lat="47.3757340" lon="-122.0325740">
    <ele>157.2</ele>
    <time>2021-07-23T01:12:27Z</time>
   </trkpt>
   <trkpt lat="47.3757390" lon="-122.0325800">
    <ele>157.2</ele>
    <time>2021-07-23T01:12:28Z</time>
   </trkpt>
   <trkpt lat="47.3757480" lon="-122.0325820">
    <ele>157.2</ele>
    <time>2021-07-23T01:12:29Z</time>
   </trkpt>
   <trkpt lat="47.3757580" lon="-122.0325820">
    <ele>157.2</ele>
    <time>2021-07-23T01:12:30Z</time>
   </trkpt>
   <trkpt lat="47.3757720" lon="-122.0325920">
    <ele>157.2</ele>
    <time>2021-07-23T01:12:31Z</time>
   </trkpt>
   <trkpt lat="47.3757900" lon="-122.0325990">
    <ele>157.2</ele>
    <time>2021-07-23T01:12:32Z</time>
   </trkpt>
   <trkpt lat="47.3758030" lon="-122.0326020">
    <ele>157.2</ele>
    <time>2021-07-23T01:12:33Z</time>
   </trkpt>
   <trkpt lat="47.3758140" lon="-122.0326070">
    <ele>157.2</ele>
    <time>2021-07-23T01:12:34Z</time>
   </trkpt>
   <trkpt lat="47.3758230" lon="-122.0326110">
    <ele>157.2</ele>
    <time>2021-07-23T01:12:35Z</time>
   </trkpt>
   <trkpt lat="47.3758500" lon="-122.0326300">
    <ele>157.1</ele>
    <time>2021-07-23T01:12:36Z</time>
   </trkpt>
   <trkpt lat="47.3758570" lon="-122.0326360">
    <ele>157.1</ele>
    <time>2021-07-23T01:12:37Z</time>
   </trkpt>
   <trkpt lat="47.3758660" lon="-122.0326450">
    <ele>157.1</ele>
    <time>2021-07-23T01:12:38Z</time>
   </trkpt>
   <trkpt lat="47.3758750" lon="-122.0326510">
    <ele>157.1</ele>
    <time>2021-07-23T01:12:39Z</time>
   </trkpt>
   <trkpt lat="47.3758880" lon="-122.0326600">
    <ele>157.1</ele>
    <time>2021-07-23T01:12:40Z</time>
   </trkpt>
   <trkpt lat="47.3758980" lon="-122.0326660">
    <ele>157.1</ele>
    <time>2021-07-23T01:12:41Z</time>
   </trkpt>
   <trkpt lat="47.3759090" lon="-122.0326760">
    <ele>157.1</ele>
    <time>2021-07-23T01:12:42Z</time>
   </trkpt>
   <trkpt lat="47.3759200" lon="-122.0326800">
    <ele>157.1</ele>
    <time>2021-07-23T01:12:43Z</time>
   </trkpt>
   <trkpt lat="47.3759270" lon="-122.0326810">
    <ele>157.1</ele>
    <time>2021-07-23T01:12:44Z</time>
   </trkpt>
   <trkpt lat="47.3759350" lon="-122.0326820">
    <ele>157.1</ele>
    <time>2021-07-23T01:12:45Z</time>
   </trkpt>
   <trkpt lat="47.3759510" lon="-122.0326920">
    <ele>157.1</ele>
    <time>2021-07-23T01:12:46Z</time>
   </trkpt>
   <trkpt lat="47.3759640" lon="-122.0327020">
    <ele>157.1</ele>
    <time>2021-07-23T01:12:47Z</time>
   </trkpt>
   <trkpt lat="47.3759790" lon="-122.0327100">
    <ele>157.1</ele>
    <time>2021-07-23T01:12:48Z</time>
   </trkpt>
   <trkpt lat="47.3760010" lon="-122.0327190">
    <ele>157.1</ele>
    <time>2021-07-23T01:12:49Z</time>
   </trkpt>
   <trkpt lat="47.3760080" lon="-122.0327240">
    <ele>157.1</ele>
    <time>2021-07-23T01:12:50Z</time>
   </trkpt>
   <trkpt lat="47.3760140" lon="-122.0327300">
    <ele>157.1</ele>
    <time>2021-07-23T01:12:51Z</time>
   </trkpt>
   <trkpt lat="47.3760300" lon="-122.0327400">
    <ele>157.1</ele>
    <time>2021-07-23T01:12:52Z</time>
   </trkpt>
   <trkpt lat="47.3760440" lon="-122.0327490">
    <ele>157.1</ele>
    <time>2021-07-23T01:12:53Z</time>
   </trkpt>
   <trkpt lat="47.3760670" lon="-122.0327620">
    <ele>157.1</ele>
    <time>2021-07-23T01:12:54Z</time>
   </trkpt>
   <trkpt lat="47.3760740" lon="-122.0327640">
    <ele>157.1</ele>
    <time>2021-07-23T01:12:55Z</time>
   </trkpt>
   <trkpt lat="47.3760820" lon="-122.0327670">
    <ele>157.1</ele>
    <time>2021-07-23T01:12:56Z</time>
   </trkpt>
   <trkpt lat="47.3761040" lon="-122.0327790">
    <ele>157.1</ele>
    <time>2021-07-23T01:12:57Z</time>
   </trkpt>
   <trkpt lat="47.3761110" lon="-122.0327840">
    <ele>157.1</ele>
    <time>2021-07-23T01:12:58Z</time>
   </trkpt>
   <trkpt lat="47.3761180" lon="-122.0327900">
    <ele>157.1</ele>
    <time>2021-07-23T01:12:59Z</time>
   </trkpt>
   <trkpt lat="47.3761360" lon="-122.0328030">
    <ele>157.0</ele>
    <time>2021-07-23T01:13:00Z</time>
   </trkpt>
   <trkpt lat="47.3761450" lon="-122.0328080">
    <ele>157.0</ele>
    <time>2021-07-23T01:13:01Z</time>
   </trkpt>
   <trkpt lat="47.3761570" lon="-122.0328110">
    <ele>157.0</ele>
    <time>2021-07-23T01:13:02Z</time>
   </trkpt>
   <trkpt lat="47.3761670" lon="-122.0328240">
    <ele>157.0</ele>
    <time>2021-07-23T01:13:03Z</time>
   </trkpt>
   <trkpt lat="47.3761730" lon="-122.0328330">
    <ele>157.0</ele>
    <time>2021-07-23T01:13:04Z</time>
   </trkpt>
   <trkpt lat="47.3761730" lon="-122.0328290">
    <ele>157.0</ele>
    <time>2021-07-23T01:13:05Z</time>
   </trkpt>
   <trkpt lat="47.3761790" lon="-122.0328420">
    <ele>157.0</ele>
    <time>2021-07-23T01:13:06Z</time>
   </trkpt>
   <trkpt lat="47.3761810" lon="-122.0328530">
    <ele>157.0</ele>
    <time>2021-07-23T01:13:07Z</time>
   </trkpt>
   <trkpt lat="47.3761950" lon="-122.0328620">
    <ele>157.0</ele>
    <time>2021-07-23T01:13:08Z</time>
   </trkpt>
   <trkpt lat="47.3762020" lon="-122.0328770">
    <ele>157.0</ele>
    <time>2021-07-23T01:13:09Z</time>
   </trkpt>
   <trkpt lat="47.3762140" lon="-122.0328880">
    <ele>157.0</ele>
    <time>2021-07-23T01:13:10Z</time>
   </trkpt>
   <trkpt lat="47.3762160" lon="-122.0329030">
    <ele>157.0</ele>
    <time>2021-07-23T01:13:11Z</time>
   </trkpt>
   <trkpt lat="47.3762260" lon="-122.0329110">
    <ele>157.0</ele>
    <time>2021-07-23T01:13:12Z</time>
   </trkpt>
   <trkpt lat="47.3762370" lon="-122.0329210">
    <ele>157.0</ele>
    <time>2021-07-23T01:13:13Z</time>
   </trkpt>
   <trkpt lat="47.3762410" lon="-122.0329350">
    <ele>157.0</ele>
    <time>2021-07-23T01:13:14Z</time>
   </trkpt>
   <trkpt lat="47.3762460" lon="-122.0329410">
    <ele>156.9</ele>
    <time>2021-07-23T01:13:15Z</time>
   </trkpt>
   <trkpt lat="47.3762540" lon="-122.0329510">
    <ele>156.9</ele>
    <time>2021-07-23T01:13:16Z</time>
   </trkpt>
   <trkpt lat="47.3762630" lon="-122.0329630">
    <ele>156.9</ele>
    <time>2021-07-23T01:13:17Z</time>
   </trkpt>
   <trkpt lat="47.3762750" lon="-122.0329720">
    <ele>156.9</ele>
    <time>2021-07-23T01:13:18Z</time>
   </trkpt>
   <trkpt lat="47.3762910" lon="-122.0329820">
    <ele>156.9</ele>
    <time>2021-07-23T01:13:19Z</time>
   </trkpt>
   <trkpt lat="47.3763030" lon="-122.0329980">
    <ele>156.9</ele>
    <time>2021-07-23T01:13:20Z</time>
   </trkpt>
   <trkpt lat="47.3763140" lon="-122.0330130">
    <ele>156.9</ele>
    <time>2021-07-23T01:13:21Z</time>
   </trkpt>
   <trkpt lat="47.3763230" lon="-122.0330340">
    <ele>156.8</ele>
    <time>2021-07-23T01:13:22Z</time>
   </trkpt>
   <trkpt lat="47.3763400" lon="-122.0330450">
    <ele>156.8</ele>
    <time>2021-07-23T01:13:23Z</time>
   </trkpt>
   <trkpt lat="47.3763520" lon="-122.0330590">
    <ele>156.8</ele>
    <time>2021-07-23T01:13:24Z</time>
   </trkpt>
   <trkpt lat="47.3763620" lon="-122.0330740">
    <ele>156.8</ele>
    <time>2021-07-23T01:13:25Z</time>
   </trkpt>
   <trkpt lat="47.3763710" lon="-122.0331000">
    <ele>156.8</ele>
    <time>2021-07-23T01:13:26Z</time>
   </trkpt>
   <trkpt lat="47.3763760" lon="-122.0331140">
    <ele>156.8</ele>
    <time>2021-07-23T01:13:27Z</time>
   </trkpt>
   <trkpt lat="47.3763820" lon="-122.0331290">
    <ele>156.7</ele>
    <time>2021-07-23T01:13:28Z</time>
   </trkpt>
   <trkpt lat="47.3764040" lon="-122.0331470">
    <ele>156.7</ele>
    <time>2021-07-23T01:13:29Z</time>
   </trkpt>
   <trkpt lat="47.3764130" lon="-122.0331560">
    <ele>156.7</ele>
    <time>2021-07-23T01:13:30Z</time>
   </trkpt>
   <trkpt lat="47.3764210" lon="-122.0331640">
    <ele>156.7</ele>
    <time>2021-07-23T01:13:31Z</time>
   </trkpt>
   <trkpt lat="47.3764320" lon="-122.0331730">
    <ele>156.7</ele>
    <time>2021-07-23T01:13:32Z</time>
   </trkpt>
   <trkpt lat="47.3764400" lon="-122.0331720">
    <ele>156.6</ele>
    <time>2021-07-23T01:13:33Z</time>
   </trkpt>
   <trkpt lat="47.3764450" lon="-122.0331820">
    <ele>156.6</ele>
    <time>2021-07-23T01:13:34Z</time>
   </trkpt>
   <trkpt lat="47.3764590" lon="-122.0331970">
    <ele>156.6</ele>
    <time>2021-07-23T01:13:35Z</time>
   </trkpt>
   <trkpt lat="47.3764650" lon="-122.0332080">
    <ele>156.6</ele>
    <time>2021-07-23T01:13:36Z</time>
   </trkpt>
   <trkpt lat="47.3764850" lon="-122.0332220">
    <ele>156.6</ele>
    <time>2021-07-23T01:13:37Z</time>
   </trkpt>
   <trkpt lat="47.3764920" lon="-122.0332280">
    <ele>156.5</ele>
    <time>2021-07-23T01:13:38Z</time>
   </trkpt>
   <trkpt lat="47.3765000" lon="-122.0332340">
    <ele>156.5</ele>
    <time>2021-07-23T01:13:39Z</time>
   </trkpt>
   <trkpt lat="47.3765070" lon="-122.0332400">
    <ele>156.5</ele>
    <time>2021-07-23T01:13:40Z</time>
   </trkpt>
   <trkpt lat="47.3765120" lon="-122.0332490">
    <ele>156.5</ele>
    <time>2021-07-23T01:13:41Z</time>
   </trkpt>
   <trkpt lat="47.3765090" lon="-122.0332450">
    <ele>156.5</ele>
    <time>2021-07-23T01:13:42Z</time>
   </trkpt>
   <trkpt lat="47.3765240" lon="-122.0332610">
    <ele>156.5</ele>
    <time>2021-07-23T01:13:43Z</time>
   </trkpt>
   <trkpt lat="47.3765420" lon="-122.0332810">
    <ele>156.4</ele>
    <time>2021-07-23T01:13:44Z</time>
   </trkpt>
   <trkpt lat="47.3765510" lon="-122.0332930">
    <ele>156.4</ele>
    <time>2021-07-23T01:13:45Z</time>
   </trkpt>
   <trkpt lat="47.3765640" lon="-122.0333030">
    <ele>156.4</ele>
    <time>2021-07-23T01:13:46Z</time>
   </trkpt>
   <trkpt lat="47.3765820" lon="-122.0333140">
    <ele>156.4</ele>
    <time>2021-07-23T01:13:47Z</time>
   </trkpt>
   <trkpt lat="47.3765920" lon="-122.0333230">
    <ele>156.4</ele>
    <time>2021-07-23T01:13:48Z</time>
   </trkpt>
   <trkpt lat="47.3766010" lon="-122.0333350">
    <ele>156.3</ele>
    <time>2021-07-23T01:13:49Z</time>
   </trkpt>
   <trkpt lat="47.3766090" lon="-122.0333490">
    <ele>156.3</ele>
    <time>2021-07-23T01:13:50Z</time>
   </trkpt>
   <trkpt lat="47.3766230" lon="-122.0333560">
    <ele>156.3</ele>
    <time>2021-07-23T01:13:51Z</time>
   </trkpt>
   <trkpt lat="47.3766370" lon="-122.0333610">
    <ele>156.3</ele>
    <time>2021-07-23T01:13:52Z</time>
   </trkpt>
   <trkpt lat="47.3766520" lon="-122.0333770">
    <ele>156.3</ele>
    <time>2021-07-23T01:13:53Z</time>
   </trkpt>
   <trkpt lat="47.3766640" lon="-122.0333850">
    <ele>156.2</ele>
    <time>2021-07-23T01:13:54Z</time>
   </trkpt>
   <trkpt lat="47.3766910" lon="-122.0334080">
    <ele>156.2</ele>
    <time>2021-07-23T01:13:55Z</time>
   </trkpt>
   <trkpt lat="47.3766990" lon="-122.0334140">
    <ele>156.2</ele>
    <time>2021-07-23T01:13:56Z</time>
   </trkpt>
   <trkpt lat="47.3767140" lon="-122.0334330">
    <ele>156.2</ele>
    <time>2021-07-23T01:13:57Z</time>
   </trkpt>
   <trkpt lat="47.3767260" lon="-122.0334460">
    <ele>156.1</ele>
    <time>2021-07-23T01:13:58Z</time>
   </trkpt>
   <trkpt lat="47.3767470" lon="-122.0334750">
    <ele>156.1</ele>
    <time>2021-07-23T01:13:59Z</time>
   </trkpt>
   <trkpt lat="47.3767550" lon="-122.0334830">
    <ele>156.1</ele>
    <time>2021-07-23T01:14:00Z</time>
   </trkpt>
   <trkpt lat="47.3767690" lon="-122.0335050">
    <ele>156.1</ele>
    <time>2021-07-23T01:14:01Z</time>
   </trkpt>
   <trkpt lat="47.3767770" lon="-122.0335130">
    <ele>156.0</ele>
    <time>2021-07-23T01:14:02Z</time>
   </trkpt>
   <trkpt lat="47.3767840" lon="-122.0335200">
    <ele>156.0</ele>
    <time>2021-07-23T01:14:03Z</time>
   </trkpt>
   <trkpt lat="47.3767910" lon="-122.0335370">
    <ele>156.0</ele>
    <time>2021-07-23T01:14:04Z</time>
   </trkpt>
   <trkpt lat="47.3768010" lon="-122.0335560">
    <ele>156.0</ele>
    <time>2021-07-23T01:14:05Z</time>
   </trkpt>
   <trkpt lat="47.3768100" lon="-122.0335730">
    <ele>156.0</ele>
    <time>2021-07-23T01:14:06Z</time>
   </trkpt>
   <trkpt lat="47.3768180" lon="-122.0335870">
    <ele>156.0</ele>
    <time>2021-07-23T01:14:07Z</time>
   </trkpt>
   <trkpt lat="47.3768300" lon="-122.0335970">
    <ele>156.0</ele>
    <time>2021-07-23T01:14:08Z</time>
   </trkpt>
   <trkpt lat="47.3768400" lon="-122.0336120">
    <ele>155.9</ele>
    <time>2021-07-23T01:14:09Z</time>
   </trkpt>
   <trkpt lat="47.3768540" lon="-122.0336250">
    <ele>155.9</ele>
    <time>2021-07-23T01:14:10Z</time>
   </trkpt>
   <trkpt lat="47.3768660" lon="-122.0336440">
    <ele>155.9</ele>
    <time>2021-07-23T01:14:11Z</time>
   </trkpt>
   <trkpt lat="47.3768760" lon="-122.0336630">
    <ele>155.9</ele>
    <time>2021-07-23T01:14:12Z</time>
   </trkpt>
   <trkpt lat="47.3768860" lon="-122.0336600">
    <ele>155.9</ele>
    <time>2021-07-23T01:14:13Z</time>
   </trkpt>
   <trkpt lat="47.3768920" lon="-122.0336750">
    <ele>155.9</ele>
    <time>2021-07-23T01:14:14Z</time>
   </trkpt>
   <trkpt lat="47.3769010" lon="-122.0336970">
    <ele>155.9</ele>
    <time>2021-07-23T01:14:15Z</time>
   </trkpt>
   <trkpt lat="47.3769060" lon="-122.0337130">
    <ele>155.8</ele>
    <time>2021-07-23T01:14:16Z</time>
   </trkpt>
   <trkpt lat="47.3769170" lon="-122.0337330">
    <ele>155.8</ele>
    <time>2021-07-23T01:14:17Z</time>
   </trkpt>
   <trkpt lat="47.3769230" lon="-122.0337450">
    <ele>155.8</ele>
    <time>2021-07-23T01:14:18Z</time>
   </trkpt>
   <trkpt lat="47.3769360" lon="-122.0337690">
    <ele>155.8</ele>
    <time>2021-07-23T01:14:19Z</time>
   </trkpt>
   <trkpt lat="47.3769410" lon="-122.0337770">
    <ele>155.8</ele>
    <time>2021-07-23T01:14:20Z</time>
   </trkpt>
   <trkpt lat="47.3769470" lon="-122.0337860">
    <ele>155.8</ele>
    <time>2021-07-23T01:14:21Z</time>
   </trkpt>
   <trkpt lat="47.3769480" lon="-122.0337960">
    <ele>155.8</ele>
    <time>2021-07-23T01:14:22Z</time>
   </trkpt>
   <trkpt lat="47.3769550" lon="-122.0338070">
    <ele>155.8</ele>
    <time>2021-07-23T01:14:23Z</time>
   </trkpt>
   <trkpt lat="47.3769640" lon="-122.0338210">
    <ele>155.8</ele>
    <time>2021-07-23T01:14:24Z</time>
   </trkpt>
   <trkpt lat="47.3769790" lon="-122.0338380">
    <ele>155.7</ele>
    <time>2021-07-23T01:14:25Z</time>
   </trkpt>
   <trkpt lat="47.3769870" lon="-122.0338450">
    <ele>155.7</ele>
    <time>2021-07-23T01:14:26Z</time>
   </trkpt>
   <trkpt lat="47.3769940" lon="-122.0338530">
    <ele>155.7</ele>
    <time>2021-07-23T01:14:27Z</time>
   </trkpt>
   <trkpt lat="47.3770080" lon="-122.0338730">
    <ele>155.7</ele>
    <time>2021-07-23T01:14:28Z</time>
   </trkpt>
   <trkpt lat="47.3770150" lon="-122.0338830">
    <ele>155.7</ele>
    <time>2021-07-23T01:14:29Z</time>
   </trkpt>
   <trkpt lat="47.3770220" lon="-122.0338930">
    <ele>155.7</ele>
    <time>2021-07-23T01:14:30Z</time>
   </trkpt>
   <trkpt lat="47.3770330" lon="-122.0339040">
    <ele>155.7</ele>
    <time>2021-07-23T01:14:31Z</time>
   </trkpt>
   <trkpt lat="47.3770480" lon="-122.0339180">
    <ele>155.6</ele>
    <time>2021-07-23T01:14:32Z</time>
   </trkpt>
   <trkpt lat="47.3770690" lon="-122.0339270">
    <ele>155.6</ele>
    <time>2021-07-23T01:14:33Z</time>
   </trkpt>
   <trkpt lat="47.3770810" lon="-122.0339360">
    <ele>155.6</ele>
    <time>2021-07-23T01:14:34Z</time>
   </trkpt>
   <trkpt lat="47.3770970" lon="-122.0339560">
    <ele>155.6</ele>
    <time>2021-07-23T01:14:35Z</time>
   </trkpt>
   <trkpt lat="47.3771030" lon="-122.0339650">
    <ele>155.6</ele>
    <time>2021-07-23T01:14:36Z</time>
   </trkpt>
   <trkpt lat="47.3771090" lon="-122.0339730">
    <ele>155.6</ele>
    <time>2021-07-23T01:14:37Z</time>
   </trkpt>
   <trkpt lat="47.3771170" lon="-122.0339800">
    <ele>155.6</ele>
    <time>2021-07-23T01:14:38Z</time>
   </trkpt>
   <trkpt lat="47.3771220" lon="-122.0339830">
    <ele>155.6</ele>
    <time>2021-07-23T01:14:39Z</time>
   </trkpt>
   <trkpt lat="47.3771370" lon="-122.0339960">
    <ele>155.5</ele>
    <time>2021-07-23T01:14:40Z</time>
   </trkpt>
   <trkpt lat="47.3771480" lon="-122.0340050">
    <ele>155.5</ele>
    <time>2021-07-23T01:14:41Z</time>
   </trkpt>
   <trkpt lat="47.3771550" lon="-122.0340170">
    <ele>155.5</ele>
    <time>2021-07-23T01:14:42Z</time>
   </trkpt>
   <trkpt lat="47.3771620" lon="-122.0340250">
    <ele>155.5</ele>
    <time>2021-07-23T01:14:43Z</time>
   </trkpt>
   <trkpt lat="47.3771700" lon="-122.0340320">
    <ele>155.5</ele>
    <time>2021-07-23T01:14:44Z</time>
   </trkpt>
   <trkpt lat="47.3771750" lon="-122.0340300">
    <ele>155.5</ele>
    <time>2021-07-23T01:14:45Z</time>
   </trkpt>
   <trkpt lat="47.3771830" lon="-122.0340390">
    <ele>155.5</ele>
    <time>2021-07-23T01:14:46Z</time>
   </trkpt>
   <trkpt lat="47.3771900" lon="-122.0340540">
    <ele>155.5</ele>
    <time>2021-07-23T01:14:47Z</time>
   </trkpt>
   <trkpt lat="47.3771950" lon="-122.0340660">
    <ele>155.5</ele>
    <time>2021-07-23T01:14:48Z</time>
   </trkpt>
   <trkpt lat="47.3772070" lon="-122.0340730">
    <ele>155.4</ele>
    <time>2021-07-23T01:14:49Z</time>
   </trkpt>
   <trkpt lat="47.3772140" lon="-122.0340820">
    <ele>155.4</ele>
    <time>2021-07-23T01:14:50Z</time>
   </trkpt>
   <trkpt lat="47.3772250" lon="-122.0340970">
    <ele>155.4</ele>
    <time>2021-07-23T01:14:51Z</time>
   </trkpt>
   <trkpt lat="47.3772340" lon="-122.0341120">
    <ele>155.4</ele>
    <time>2021-07-23T01:14:52Z</time>
   </trkpt>
   <trkpt lat="47.3772480" lon="-122.0341380">
    <ele>155.4</ele>
    <time>2021-07-23T01:14:53Z</time>
   </trkpt>
   <trkpt lat="47.3772520" lon="-122.0341470">
    <ele>155.4</ele>
    <time>2021-07-23T01:14:54Z</time>
   </trkpt>
   <trkpt lat="47.3772550" lon="-122.0341570">
    <ele>155.4</ele>
    <time>2021-07-23T01:14:55Z</time>
   </trkpt>
   <trkpt lat="47.3772640" lon="-122.0341790">
    <ele>155.3</ele>
    <time>2021-07-23T01:14:56Z</time>
   </trkpt>
   <trkpt lat="47.3772720" lon="-122.0341890">
    <ele>155.3</ele>
    <time>2021-07-23T01:14:57Z</time>
   </trkpt>
   <trkpt lat="47.3772810" lon="-122.0342010">
    <ele>155.3</ele>
    <time>2021-07-23T01:14:58Z</time>
   </trkpt>
   <trkpt lat="47.3772950" lon="-122.0342130">
    <ele>155.3</ele>
    <time>2021-07-23T01:14:59Z</time>
   </trkpt>
   <trkpt lat="47.3773200" lon="-122.0342380">
    <ele>155.3</ele>
    <time>2021-07-23T01:15:00Z</time>
   </trkpt>
   <trkpt lat="47.3773280" lon="-122.0342510">
    <ele>155.2</ele>
    <time>2021-07-23T01:15:01Z</time>
   </trkpt>
   <trkpt lat="47.3773440" lon="-122.0342750">
    <ele>155.2</ele>
    <time>2021-07-23T01:15:02Z</time>
   </trkpt>
   <trkpt lat="47.3773510" lon="-122.0342820">
    <ele>155.2</ele>
    <time>2021-07-23T01:15:03Z</time>
   </trkpt>
   <trkpt lat="47.3773580" lon="-122.0342890">
    <ele>155.2</ele>
    <time>2021-07-23T01:15:04Z</time>
   </trkpt>
   <trkpt lat="47.3773710" lon="-122.0343070">
    <ele>155.2</ele>
    <time>2021-07-23T01:15:05Z</time>
   </trkpt>
   <trkpt lat="47.3773880" lon="-122.0343120">
    <ele>155.1</ele>
    <time>2021-07-23T01:15:06Z</time>
   </trkpt>
   <trkpt lat="47.3773990" lon="-122.0343260">
    <ele>155.1</ele>
    <time>2021-07-23T01:15:07Z</time>
   </trkpt>
   <trkpt lat="47.3774100" lon="-122.0343440">
    <ele>155.1</ele>
    <time>2021-07-23T01:15:08Z</time>
   </trkpt>
   <trkpt lat="47.3774180" lon="-122.0343550">
    <ele>155.1</ele>
    <time>2021-07-23T01:15:09Z</time>
   </trkpt>
   <trkpt lat="47.3774230" lon="-122.0343670">
    <ele>155.1</ele>
    <time>2021-07-23T01:15:10Z</time>
   </trkpt>
   <trkpt lat="47.3774310" lon="-122.0343790">
    <ele>155.1</ele>
    <time>2021-07-23T01:15:11Z</time>
   </trkpt>
   <trkpt lat="47.3774400" lon="-122.0343980">
    <ele>155.0</ele>
    <time>2021-07-23T01:15:12Z</time>
   </trkpt>
   <trkpt lat="47.3774560" lon="-122.0344120">
    <ele>155.0</ele>
    <time>2021-07-23T01:15:13Z</time>
   </trkpt>
   <trkpt lat="47.3774670" lon="-122.0344250">
    <ele>155.0</ele>
    <time>2021-07-23T01:15:14Z</time>
   </trkpt>
   <trkpt lat="47.3774780" lon="-122.0344390">
    <ele>155.0</ele>
    <time>2021-07-23T01:15:15Z</time>
   </trkpt>
   <trkpt lat="47.3774840" lon="-122.0344520">
    <ele>155.0</ele>
    <time>2021-07-23T01:15:16Z</time>
   </trkpt>
   <trkpt lat="47.3774870" lon="-122.0344660">
    <ele>154.9</ele>
    <time>2021-07-23T01:15:17Z</time>
   </trkpt>
   <trkpt lat="47.3774970" lon="-122.0344770">
    <ele>154.9</ele>
    <time>2021-07-23T01:15:18Z</time>
   </trkpt>
   <trkpt lat="47.3775090" lon="-122.0344850">
    <ele>154.9</ele>
    <time>2021-07-23T01:15:19Z</time>
   </trkpt>
   <trkpt lat="47.3775220" lon="-122.0344960">
    <ele>154.9</ele>
    <time>2021-07-23T01:15:20Z</time>
   </trkpt>
   <trkpt lat="47.3775510" lon="-122.0345240">
    <ele>154.8</ele>
    <time>2021-07-23T01:15:21Z</time>
   </trkpt>
   <trkpt lat="47.3775610" lon="-122.0345310">
    <ele>154.8</ele>
    <time>2021-07-23T01:15:22Z</time>
   </trkpt>
   <trkpt lat="47.3775750" lon="-122.0345380">
    <ele>154.8</ele>
    <time>2021-07-23T01:15:23Z</time>
   </trkpt>
   <trkpt lat="47.3775890" lon="-122.0345560">
    <ele>154.8</ele>
    <time>2021-07-23T01:15:24Z</time>
   </trkpt>
   <trkpt lat="47.3776000" lon="-122.0345740">
    <ele>154.8</ele>
    <time>2021-07-23T01:15:25Z</time>
   </trkpt>
   <trkpt lat="47.3776130" lon="-122.0345810">
    <ele>154.7</ele>
    <time>2021-07-23T01:15:26Z</time>
   </trkpt>
   <trkpt lat="47.3776230" lon="-122.0345910">
    <ele>154.7</ele>
    <time>2021-07-23T01:15:27Z</time>
   </trkpt>
   <trkpt lat="47.3776360" lon="-122.0346050">
    <ele>154.7</ele>
    <time>2021-07-23T01:15:28Z</time>
   </trkpt>
   <trkpt lat="47.3776440" lon="-122.0346130">
    <ele>154.7</ele>
    <time>2021-07-23T01:15:29Z</time>
   </trkpt>
   <trkpt lat="47.3776460" lon="-122.0346190">
    <ele>154.7</ele>
    <time>2021-07-23T01:15:30Z</time>
   </trkpt>
   <trkpt lat="47.3776550" lon="-122.0346370">
    <ele>154.6</ele>
    <time>2021-07-23T01:15:31Z</time>
   </trkpt>
   <trkpt lat="47.3776660" lon="-122.0346440">
    <ele>154.6</ele>
    <time>2021-07-23T01:15:32Z</time>
   </trkpt>
   <trkpt lat="47.3776820" lon="-122.0346500">
    <ele>154.6</ele>
    <time>2021-07-23T01:15:33Z</time>
   </trkpt>
   <trkpt lat="47.3777010" lon="-122.0346640">
    <ele>154.6</ele>
    <time>2021-07-23T01:15:34Z</time>
   </trkpt>
   <trkpt lat="47.3777090" lon="-122.0346710">
    <ele>154.5</ele>
    <time>2021-07-23T01:15:35Z</time>
   </trkpt>
   <trkpt lat="47.3777170" lon="-122.0346770">
    <ele>154.5</ele>
    <time>2021-07-23T01:15:36Z</time>
   </trkpt>
   <trkpt lat="47.3777270" lon="-122.0346880">
    <ele>154.5</ele>
    <time>2021-07-23T01:15:37Z</time>
   </trkpt>
   <trkpt lat="47.3777330" lon="-122.0346980">
    <ele>154.5</ele>
    <time>2021-07-23T01:15:38Z</time>
   </trkpt>
   <trkpt lat="47.3777370" lon="-122.0347170">
    <ele>154.5</ele>
    <time>2021-07-23T01:15:39Z</time>
   </trkpt>
   <trkpt lat="47.3777480" lon="-122.0347210">
    <ele>154.5</ele>
    <time>2021-07-23T01:15:40Z</time>
   </trkpt>
   <trkpt lat="47.3777590" lon="-122.0347340">
    <ele>154.4</ele>
    <time>2021-07-23T01:15:41Z</time>
   </trkpt>
   <trkpt lat="47.3777670" lon="-122.0347430">
    <ele>154.4</ele>
    <time>2021-07-23T01:15:42Z</time>
   </trkpt>
   <trkpt lat="47.3777840" lon="-122.0347530">
    <ele>154.4</ele>
    <time>2021-07-23T01:15:43Z</time>
   </trkpt>
   <trkpt lat="47.3777940" lon="-122.0347710">
    <ele>154.4</ele>
    <time>2021-07-23T01:15:44Z</time>
   </trkpt>
   <trkpt lat="47.3777940" lon="-122.0347750">
    <ele>154.3</ele>
    <time>2021-07-23T01:15:45Z</time>
   </trkpt>
   <trkpt lat="47.3778050" lon="-122.0347840">
    <ele>154.3</ele>
    <time>2021-07-23T01:15:46Z</time>
   </trkpt>
   <trkpt lat="47.3778220" lon="-122.0347910">
    <ele>154.3</ele>
    <time>2021-07-23T01:15:47Z</time>
   </trkpt>
   <trkpt lat="47.3778320" lon="-122.0348030">
    <ele>154.3</ele>
    <time>2021-07-23T01:15:48Z</time>
   </trkpt>
   <trkpt lat="47.3778430" lon="-122.0348020">
    <ele>154.3</ele>
    <time>2021-07-23T01:15:49Z</time>
   </trkpt>
   <trkpt lat="47.3778510" lon="-122.0348090">
    <ele>154.2</ele>
    <time>2021-07-23T01:15:50Z</time>
   </trkpt>
   <trkpt lat="47.3778670" lon="-122.0348290">
    <ele>154.2</ele>
    <time>2021-07-23T01:15:51Z</time>
   </trkpt>
   <trkpt lat="47.3778750" lon="-122.0348360">
    <ele>154.2</ele>
    <time>2021-07-23T01:15:52Z</time>
   </trkpt>
   <trkpt lat="47.3778830" lon="-122.0348420">
    <ele>154.2</ele>
    <time>2021-07-23T01:15:53Z</time>
   </trkpt>
   <trkpt lat="47.3778950" lon="-122.0348500">
    <ele>154.1</ele>
    <time>2021-07-23T01:15:54Z</time>
   </trkpt>
   <trkpt lat="47.3779090" lon="-122.0348570">
    <ele>154.1</ele>
    <time>2021-07-23T01:15:55Z</time>
   </trkpt>
   <trkpt lat="47.3779210" lon="-122.0348660">
    <ele>154.1</ele>
    <time>2021-07-23T01:15:56Z</time>
   </trkpt>
   <trkpt lat="47.3779350" lon="-122.0348750">
    <ele>154.1</ele>
    <time>2021-07-23T01:15:57Z</time>
   </trkpt>
   <trkpt lat="47.3779380" lon="-122.0348840">
    <ele>154.1</ele>
    <time>2021-07-23T01:15:58Z</time>
   </trkpt>
   <trkpt lat="47.3779540" lon="-122.0348970">
    <ele>154.0</ele>
    <time>2021-07-23T01:15:59Z</time>
   </trkpt>
   <trkpt lat="47.3779630" lon="-122.0348950">
    <ele>154.0</ele>
    <time>2021-07-23T01:16:00Z</time>
   </trkpt>
   <trkpt lat="47.3779920" lon="-122.0349130">
    <ele>154.0</ele>
    <time>2021-07-23T01:16:01Z</time>
   </trkpt>
   <trkpt lat="47.3780010" lon="-122.0349190">
    <ele>154.0</ele>
    <time>2021-07-23T01:16:02Z</time>
   </trkpt>
   <trkpt lat="47.3780100" lon="-122.0349330">
    <ele>154.0</ele>
    <time>2021-07-23T01:16:03Z</time>
   </trkpt>
   <trkpt lat="47.3780250" lon="-122.0349410">
    <ele>153.9</ele>
    <time>2021-07-23T01:16:04Z</time>
   </trkpt>
   <trkpt lat="47.3780380" lon="-122.0349520">
    <ele>153.9</ele>
    <time>2021-07-23T01:16:05Z</time>
   </trkpt>
   <trkpt lat="47.3780470" lon="-122.0349700">
    <ele>153.9</ele>
    <time>2021-07-23T01:16:06Z</time>
   </trkpt>
   <trkpt lat="47.3780590" lon="-122.0349870">
    <ele>153.9</ele>
    <time>2021-07-23T01:16:07Z</time>
   </trkpt>
   <trkpt lat="47.3780700" lon="-122.0350020">
    <ele>153.9</ele>
    <time>2021-07-23T01:16:08Z</time>
   </trkpt>
   <trkpt lat="47.3780790" lon="-122.0350170">
    <ele>153.9</ele>
    <time>2021-07-23T01:16:09Z</time>
   </trkpt>
   <trkpt lat="47.3780920" lon="-122.0350270">
    <ele>153.8</ele>
    <time>2021-07-23T01:16:10Z</time>
   </trkpt>
   <trkpt lat="47.3781050" lon="-122.0350280">
    <ele>153.8</ele>
    <time>2021-07-23T01:16:11Z</time>
   </trkpt>
   <trkpt lat="47.3781190" lon="-122.0350400">
    <ele>153.8</ele>
    <time>2021-07-23T01:16:12Z</time>
   </trkpt>
   <trkpt lat="47.3781300" lon="-122.0350520">
    <ele>153.8</ele>
    <time>2021-07-23T01:16:13Z</time>
   </trkpt>
   <trkpt lat="47.3781440" lon="-122.0350590">
    <ele>153.8</ele>
    <time>2021-07-23T01:16:14Z</time>
   </trkpt>
   <trkpt lat="47.3781580" lon="-122.0350710">
    <ele>153.8</ele>
    <time>2021-07-23T01:16:15Z</time>
   </trkpt>
   <trkpt lat="47.3781720" lon="-122.0350820">
    <ele>153.8</ele>
    <time>2021-07-23T01:16:16Z</time>
   </trkpt>
   <trkpt lat="47.3781980" lon="-122.0351080">
    <ele>153.7</ele>
    <time>2021-07-23T01:16:17Z</time>
   </trkpt>
   <trkpt lat="47.3782060" lon="-122.0351130">
    <ele>153.7</ele>
    <time>2021-07-23T01:16:18Z</time>
   </trkpt>
   <trkpt lat="47.3782200" lon="-122.0351200">
    <ele>153.7</ele>
    <time>2021-07-23T01:16:19Z</time>
   </trkpt>
   <trkpt lat="47.3782340" lon="-122.0351370">
    <ele>153.7</ele>
    <time>2021-07-23T01:16:20Z</time>
   </trkpt>
   <trkpt lat="47.3782590" lon="-122.0351570">
    <ele>153.7</ele>
    <time>2021-07-23T01:16:21Z</time>
   </trkpt>
   <trkpt lat="47.3782680" lon="-122.0351590">
    <ele>153.7</ele>
    <time>2021-07-23T01:16:22Z</time>
   </trkpt>
   <trkpt lat="47.3782760" lon="-122.0351650">
    <ele>153.7</ele>
    <time>2021-07-23T01:16:23Z</time>
   </trkpt>
   <trkpt lat="47.3782810" lon="-122.0351840">
    <ele>153.6</ele>
    <time>2021-07-23T01:16:24Z</time>
   </trkpt>
   <trkpt lat="47.3782930" lon="-122.0351880">
    <ele>153.6</ele>
    <time>2021-07-23T01:16:25Z</time>
   </trkpt>
   <trkpt lat="47.3783160" lon="-122.0352090">
    <ele>153.6</ele>
    <time>2021-07-23T01:16:26Z</time>
   </trkpt>
   <trkpt lat="47.3783250" lon="-122.0352150">
    <ele>153.6</ele>
    <time>2021-07-23T01:16:27Z</time>
   </trkpt>
   <trkpt lat="47.3783530" lon="-122.0352370">
    <ele>153.6</ele>
    <time>2021-07-23T01:16:28Z</time>
   </trkpt>
   <trkpt lat="47.3783600" lon="-122.0352440">
    <ele>153.6</ele>
    <time>2021-07-23T01:16:29Z</time>
   </trkpt>
   <trkpt lat="47.3783670" lon="-122.0352660">
    <ele>153.6</ele>
    <time>2021-07-23T01:16:30Z</time>
   </trkpt>
   <trkpt lat="47.3783760" lon="-122.0352760">
    <ele>153.6</ele>
    <time>2021-07-23T01:16:31Z</time>
   </trkpt>
   <trkpt lat="47.3783860" lon="-122.0352820">
    <ele>153.6</ele>
    <time>2021-07-23T01:16:32Z</time>
   </trkpt>
   <trkpt lat="47.3783950" lon="-122.0352840">
    <ele>153.6</ele>
    <time>2021-07-23T01:16:33Z</time>
   </trkpt>
   <trkpt lat="47.3784050" lon="-122.0352930">
    <ele>153.5</ele>
    <time>2021-07-23T01:16:34Z</time>
   </trkpt>
   <trkpt lat="47.3784180" lon="-122.0353120">
    <ele>153.5</ele>
    <time>2021-07-23T01:16:35Z</time>
   </trkpt>
   <trkpt lat="47.3784320" lon="-122.0353200">
    <ele>153.5</ele>
    <time>2021-07-23T01:16:36Z</time>
   </trkpt>
   <trkpt lat="47.3784510" lon="-122.0353370">
    <ele>153.5</ele>
    <time>2021-07-23T01:16:37Z</time>
   </trkpt>
   <trkpt lat="47.3784610" lon="-122.0353430">
    <ele>153.5</ele>
    <time>2021-07-23T01:16:38Z</time>
   </trkpt>
   <trkpt lat="47.3784760" lon="-122.0353610">
    <ele>153.5</ele>
    <time>2021-07-23T01:16:39Z</time>
   </trkpt>
   <trkpt lat="47.3784830" lon="-122.0353690">
    <ele>153.5</ele>
    <time>2021-07-23T01:16:40Z</time>
   </trkpt>
   <trkpt lat="47.3784900" lon="-122.0353760">
    <ele>153.5</ele>
    <time>2021-07-23T01:16:41Z</time>
   </trkpt>
   <trkpt lat="47.3784980" lon="-122.0353790">
    <ele>153.5</ele>
    <time>2021-07-23T01:16:42Z</time>
   </trkpt>
   <trkpt lat="47.3785100" lon="-122.0353900">
    <ele>153.4</ele>
    <time>2021-07-23T01:16:43Z</time>
   </trkpt>
   <trkpt lat="47.3785200" lon="-122.0354030">
    <ele>153.4</ele>
    <time>2021-07-23T01:16:44Z</time>
   </trkpt>
   <trkpt lat="47.3785330" lon="-122.0354090">
    <ele>153.4</ele>
    <time>2021-07-23T01:16:45Z</time>
   </trkpt>
   <trkpt lat="47.3785480" lon="-122.0354060">
    <ele>153.4</ele>
    <time>2021-07-23T01:16:46Z</time>
   </trkpt>
   <trkpt lat="47.3785590" lon="-122.0354120">
    <ele>153.4</ele>
    <time>2021-07-23T01:16:47Z</time>
   </trkpt>
   <trkpt lat="47.3785660" lon="-122.0354270">
    <ele>153.4</ele>
    <time>2021-07-23T01:16:48Z</time>
   </trkpt>
   <trkpt lat="47.3785760" lon="-122.0354280">
    <ele>153.4</ele>
    <time>2021-07-23T01:16:49Z</time>
   </trkpt>
   <trkpt lat="47.3785920" lon="-122.0354450">
    <ele>153.3</ele>
    <time>2021-07-23T01:16:50Z</time>
   </trkpt>
   <trkpt lat="47.3786000" lon="-122.0354520">
    <ele>153.3</ele>
    <time>2021-07-23T01:16:51Z</time>
   </trkpt>
   <trkpt lat="47.3786070" lon="-122.0354580">
    <ele>153.3</ele>
    <time>2021-07-23T01:16:52Z</time>
   </trkpt>
   <trkpt lat="47.3786250" lon="-122.0354750">
    <ele>153.3</ele>
    <time>2021-07-23T01:16:53Z</time>
   </trkpt>
   <trkpt lat="47.3786340" lon="-122.0354780">
    <ele>153.3</ele>
    <time>2021-07-23T01:16:54Z</time>
   </trkpt>
   <trkpt lat="47.3786440" lon="-122.0354810">
    <ele>153.3</ele>
    <time>2021-07-23T01:16:55Z</time>
   </trkpt>
   <trkpt lat="47.3786690" lon="-122.0354830">
    <ele>153.2</ele>
    <time>2021-07-23T01:16:56Z</time>
   </trkpt>
   <trkpt lat="47.3786750" lon="-122.0354880">
    <ele>153.2</ele>
    <time>2021-07-23T01:16:57Z</time>
   </trkpt>
   <trkpt lat="47.3786800" lon="-122.0354920">
    <ele>153.2</ele>
    <time>2021-07-23T01:16:58Z</time>
   </trkpt>
   <trkpt lat="47.3786920" lon="-122.0355050">
    <ele>153.2</ele>
    <time>2021-07-23T01:16:59Z</time>
   </trkpt>
   <trkpt lat="47.3787040" lon="-122.0355140">
    <ele>153.2</ele>
    <time>2021-07-23T01:17:00Z</time>
   </trkpt>
   <trkpt lat="47.3787060" lon="-122.0355280">
    <ele>153.2</ele>
    <time>2021-07-23T01:17:01Z</time>
   </trkpt>
   <trkpt lat="47.3787150" lon="-122.0355370">
    <ele>153.2</ele>
    <time>2021-07-23T01:17:02Z</time>
   </trkpt>
   <trkpt lat="47.3787300" lon="-122.0355500">
    <ele>153.2</ele>
    <time>2021-07-23T01:17:03Z</time>
   </trkpt>
   <trkpt lat="47.3787470" lon="-122.0355630">
    <ele>153.1</ele>
    <time>2021-07-23T01:17:04Z</time>
   </trkpt>
   <trkpt lat="47.3787630" lon="-122.0355680">
    <ele>153.1</ele>
    <time>2021-07-23T01:17:05Z</time>
   </trkpt>
   <trkpt lat="47.3787840" lon="-122.0355850">
    <ele>153.1</ele>
    <time>2021-07-23T01:17:06Z</time>
   </trkpt>
   <trkpt lat="47.3787930" lon="-122.0355950">
    <ele>153.1</ele>
    <time>2021-07-23T01:17:07Z</time>
   </trkpt>
   <trkpt lat="47.3788020" lon="-122.0356050">
    <ele>153.0</ele>
    <time>2021-07-23T01:17:08Z</time>
   </trkpt>
   <trkpt lat="47.3788090" lon="-122.0356160">
    <ele>153.0</ele>
    <time>2021-07-23T01:17:09Z</time>
   </trkpt>
   <trkpt lat="47.3788110" lon="-122.0356220">
    <ele>153.0</ele>
    <time>2021-07-23T01:17:10Z</time>
   </trkpt>
   <trkpt lat="47.3788180" lon="-122.0356320">
    <ele>153.0</ele>
    <time>2021-07-23T01:17:11Z</time>
   </trkpt>
   <trkpt lat="47.3788230" lon="-122.0356410">
    <ele>153.0</ele>
    <time>2021-07-23T01:17:12Z</time>
   </trkpt>
   <trkpt lat="47.3788340" lon="-122.0356620">
    <ele>153.0</ele>
    <time>2021-07-23T01:17:13Z</time>
   </trkpt>
   <trkpt lat="47.3788410" lon="-122.0356450">
    <ele>152.9</ele>
    <time>2021-07-23T01:17:14Z</time>
   </trkpt>
   <trkpt lat="47.3788520" lon="-122.0356580">
    <ele>152.9</ele>
    <time>2021-07-23T01:17:15Z</time>
   </trkpt>
   <trkpt lat="47.3788730" lon="-122.0356740">
    <ele>152.9</ele>
    <time>2021-07-23T01:17:16Z</time>
   </trkpt>
   <trkpt lat="47.3788820" lon="-122.0356800">
    <ele>152.9</ele>
    <time>2021-07-23T01:17:17Z</time>
   </trkpt>
   <trkpt lat="47.3788910" lon="-122.0356860">
    <ele>152.9</ele>
    <time>2021-07-23T01:17:18Z</time>
   </trkpt>
   <trkpt lat="47.3789050" lon="-122.0356840">
    <ele>152.9</ele>
    <time>2021-07-23T01:17:19Z</time>
   </trkpt>
   <trkpt lat="47.3789130" lon="-122.0356900">
    <ele>152.8</ele>
    <time>2021-07-23T01:17:20Z</time>
   </trkpt>
   <trkpt lat="47.3789230" lon="-122.0357000">
    <ele>152.8</ele>
    <time>2021-07-23T01:17:21Z</time>
   </trkpt>
   <trkpt lat="47.3789350" lon="-122.0357220">
    <ele>152.8</ele>
    <time>2021-07-23T01:17:22Z</time>
   </trkpt>
   <trkpt lat="47.3789400" lon="-122.0357330">
    <ele>152.8</ele>
    <time>2021-07-23T01:17:23Z</time>
   </trkpt>
   <trkpt lat="47.3789450" lon="-122.0357430">
    <ele>152.8</ele>
    <time>2021-07-23T01:17:24Z</time>
   </trkpt>
   <trkpt lat="47.3789570" lon="-122.0357520">
    <ele>152.7</ele>
    <time>2021-07-23T01:17:25Z</time>
   </trkpt>
   <trkpt lat="47.3789710" lon="-122.0357660">
    <ele>152.7</ele>
    <time>2021-07-23T01:17:26Z</time>
   </trkpt>
   <trkpt lat="47.3789790" lon="-122.0357730">
    <ele>152.7</ele>
    <time>2021-07-23T01:17:27Z</time>
   </trkpt>
   <trkpt lat="47.3789930" lon="-122.0357890">
    <ele>152.7</ele>
    <time>2021-07-23T01:17:28Z</time>
   </trkpt>
   <trkpt lat="47.3790100" lon="-122.0358010">
    <ele>152.6</ele>
    <time>2021-07-23T01:17:29Z</time>
   </trkpt>
   <trkpt lat="47.3790200" lon="-122.0358050">
    <ele>152.6</ele>
    <time>2021-07-23T01:17:30Z</time>
   </trkpt>
   <trkpt lat="47.3790290" lon="-122.0358080">
    <ele>152.6</ele>
    <time>2021-07-23T01:17:31Z</time>
   </trkpt>
   <trkpt lat="47.3790310" lon="-122.0358380">
    <ele>152.6</ele>
    <time>2021-07-23T01:17:32Z</time>
   </trkpt>
   <trkpt lat="47.3790440" lon="-122.0358440">
    <ele>152.6</ele>
    <time>2021-07-23T01:17:33Z</time>
   </trkpt>
   <trkpt lat="47.3790420" lon="-122.0358660">
    <ele>152.5</ele>
    <time>2021-07-23T01:17:34Z</time>
   </trkpt>
   <trkpt lat="47.3790520" lon="-122.0358830">
    <ele>152.5</ele>
    <time>2021-07-23T01:17:35Z</time>
   </trkpt>
   <trkpt lat="47.3790610" lon="-122.0359020">
    <ele>152.5</ele>
    <time>2021-07-23T01:17:36Z</time>
   </trkpt>
   <trkpt lat="47.3790680" lon="-122.0359170">
    <ele>152.5</ele>
    <time>2021-07-23T01:17:37Z</time>
   </trkpt>
   <trkpt lat="47.3790780" lon="-122.0359260">
    <ele>152.4</ele>
    <time>2021-07-23T01:17:38Z</time>
   </trkpt>
   <trkpt lat="47.3790860" lon="-122.0359370">
    <ele>152.4</ele>
    <time>2021-07-23T01:17:39Z</time>
   </trkpt>
   <trkpt lat="47.3790970" lon="-122.0359410">
    <ele>152.4</ele>
    <time>2021-07-23T01:17:40Z</time>
   </trkpt>
   <trkpt lat="47.3791040" lon="-122.0359550">
    <ele>152.4</ele>
    <time>2021-07-23T01:17:41Z</time>
   </trkpt>
   <trkpt lat="47.3791120" lon="-122.0359630">
    <ele>152.4</ele>
    <time>2021-07-23T01:17:42Z</time>
   </trkpt>
   <trkpt lat="47.3791210" lon="-122.0359760">
    <ele>152.4</ele>
    <time>2021-07-23T01:17:43Z</time>
   </trkpt>
   <trkpt lat="47.3791270" lon="-122.0359800">
    <ele>152.3</ele>
    <time>2021-07-23T01:17:44Z</time>
   </trkpt>
   <trkpt lat="47.3791370" lon="-122.0359940">
    <ele>152.3</ele>
    <time>2021-07-23T01:17:45Z</time>
   </trkpt>
   <trkpt lat="47.3791410" lon="-122.0360060">
    <ele>152.3</ele>
    <time>2021-07-23T01:17:46Z</time>
   </trkpt>
   <trkpt lat="47.3791570" lon="-122.0360190">
    <ele>152.3</ele>
    <time>2021-07-23T01:17:47Z</time>
   </trkpt>
   <trkpt lat="47.3791650" lon="-122.0360290">
    <ele>152.3</ele>
    <time>2021-07-23T01:17:48Z</time>
   </trkpt>
   <trkpt lat="47.3791720" lon="-122.0360380">
    <ele>152.2</ele>
    <time>2021-07-23T01:17:49Z</time>
   </trkpt>
   <trkpt lat="47.3791870" lon="-122.0360470">
    <ele>152.2</ele>
    <time>2021-07-23T01:17:50Z</time>
   </trkpt>
   <trkpt lat="47.3791990" lon="-122.0360620">
    <ele>152.2</ele>
    <time>2021-07-23T01:17:51Z</time>
   </trkpt>
   <trkpt lat="47.3792130" lon="-122.0360730">
    <ele>152.2</ele>
    <time>2021-07-23T01:17:52Z</time>
   </trkpt>
   <trkpt lat="47.3792210" lon="-122.0360870">
    <ele>152.2</ele>
    <time>2021-07-23T01:17:53Z</time>
   </trkpt>
   <trkpt lat="47.3792310" lon="-122.0361000">
    <ele>152.1</ele>
    <time>2021-07-23T01:17:54Z</time>
   </trkpt>
   <trkpt lat="47.3792510" lon="-122.0360910">
    <ele>152.1</ele>
    <time>2021-07-23T01:17:55Z</time>
   </trkpt>
   <trkpt lat="47.3792530" lon="-122.0361050">
    <ele>152.1</ele>
    <time>2021-07-23T01:17:56Z</time>
   </trkpt>
   <trkpt lat="47.3792650" lon="-122.0361240">
    <ele>152.1</ele>
    <time>2021-07-23T01:17:57Z</time>
   </trkpt>
   <trkpt lat="47.3792730" lon="-122.0361420">
    <ele>152.0</ele>
    <time>2021-07-23T01:17:58Z</time>
   </trkpt>
   <trkpt lat="47.3792860" lon="-122.0361620">
    <ele>152.0</ele>
    <time>2021-07-23T01:17:59Z</time>
   </trkpt>
   <trkpt lat="47.3792980" lon="-122.0361720">
    <ele>152.0</ele>
    <time>2021-07-23T01:18:00Z</time>
   </trkpt>
   <trkpt lat="47.3793050" lon="-122.0361840">
    <ele>152.0</ele>
    <time>2021-07-23T01:18:01Z</time>
   </trkpt>
   <trkpt lat="47.3793090" lon="-122.0361900">
    <ele>152.0</ele>
    <time>2021-07-23T01:18:02Z</time>
   </trkpt>
   <trkpt lat="47.3793200" lon="-122.0362020">
    <ele>152.0</ele>
    <time>2021-07-23T01:18:03Z</time>
   </trkpt>
   <trkpt lat="47.3793310" lon="-122.0362200">
    <ele>151.9</ele>
    <time>2021-07-23T01:18:04Z</time>
   </trkpt>
   <trkpt lat="47.3793500" lon="-122.0362260">
    <ele>151.9</ele>
    <time>2021-07-23T01:18:05Z</time>
   </trkpt>
   <trkpt lat="47.3793540" lon="-122.0362500">
    <ele>151.9</ele>
    <time>2021-07-23T01:18:06Z</time>
   </trkpt>
   <trkpt lat="47.3793630" lon="-122.0362630">
    <ele>151.9</ele>
    <time>2021-07-23T01:18:07Z</time>
   </trkpt>
   <trkpt lat="47.3793740" lon="-122.0362850">
    <ele>151.8</ele>
    <time>2021-07-23T01:18:08Z</time>
   </trkpt>
   <trkpt lat="47.3793790" lon="-122.0362950">
    <ele>151.8</ele>
    <time>2021-07-23T01:18:09Z</time>
   </trkpt>
   <trkpt lat="47.3793850" lon="-122.0363050">
    <ele>151.8</ele>
    <time>2021-07-23T01:18:10Z</time>
   </trkpt>
   <trkpt lat="47.3794080" lon="-122.0363150">
    <ele>151.8</ele>
    <time>2021-07-23T01:18:11Z</time>
   </trkpt>
   <trkpt lat="47.3794220" lon="-122.0363230">
    <ele>151.7</ele>
    <time>2021-07-23T01:18:13Z</time>
   </trkpt>
   <trkpt lat="47.3794350" lon="-122.0363320">
    <ele>151.7</ele>
    <time>2021-07-23T01:18:14Z</time>
   </trkpt>
   <trkpt lat="47.3794480" lon="-122.0363400">
    <ele>151.7</ele>
    <time>2021-07-23T01:18:15Z</time>
   </trkpt>
   <trkpt lat="47.3794480" lon="-122.0363480">
    <ele>151.7</ele>
    <time>2021-07-23T01:18:16Z</time>
   </trkpt>
   <trkpt lat="47.3794560" lon="-122.0363680">
    <ele>151.7</ele>
    <time>2021-07-23T01:18:17Z</time>
   </trkpt>
   <trkpt lat="47.3794630" lon="-122.0363830">
    <ele>151.7</ele>
    <time>2021-07-23T01:18:18Z</time>
   </trkpt>
   <trkpt lat="47.3794740" lon="-122.0363920">
    <ele>151.6</ele>
    <time>2021-07-23T01:18:19Z</time>
   </trkpt>
   <trkpt lat="47.3794830" lon="-122.0364080">
    <ele>151.6</ele>
    <time>2021-07-23T01:18:20Z</time>
   </trkpt>
   <trkpt lat="47.3794890" lon="-122.0364190">
    <ele>151.6</ele>
    <time>2021-07-23T01:18:21Z</time>
   </trkpt>
   <trkpt lat="47.3794970" lon="-122.0364400">
    <ele>151.6</ele>
    <time>2021-07-23T01:18:22Z</time>
   </trkpt>
   <trkpt lat="47.3795040" lon="-122.0364560">
    <ele>151.6</ele>
    <time>2021-07-23T01:18:23Z</time>
   </trkpt>
   <trkpt lat="47.3795100" lon="-122.0364760">
    <ele>151.5</ele>
    <time>2021-07-23T01:18:24Z</time>
   </trkpt>
   <trkpt lat="47.3795150" lon="-122.0364990">
    <ele>151.5</ele>
    <time>2021-07-23T01:18:25Z</time>
   </trkpt>
   <trkpt lat="47.3795270" lon="-122.0365180">
    <ele>151.5</ele>
    <time>2021-07-23T01:18:26Z</time>
   </trkpt>
   <trkpt lat="47.3795400" lon="-122.0365380">
    <ele>151.5</ele>
    <time>2021-07-23T01:18:27Z</time>
   </trkpt>
   <trkpt lat="47.3795540" lon="-122.0365580">
    <ele>151.5</ele>
    <time>2021-07-23T01:18:28Z</time>
   </trkpt>
   <trkpt lat="47.3795650" lon="-122.0365670">
    <ele>151.4</ele>
    <time>2021-07-23T01:18:29Z</time>
   </trkpt>
   <trkpt lat="47.3795710" lon="-122.0365710">
    <ele>151.4</ele>
    <time>2021-07-23T01:18:30Z</time>
   </trkpt>
   <trkpt lat="47.3795820" lon="-122.0365810">
    <ele>151.4</ele>
    <time>2021-07-23T01:18:31Z</time>
   </trkpt>
   <trkpt lat="47.3795890" lon="-122.0365920">
    <ele>151.4</ele>
    <time>2021-07-23T01:18:32Z</time>
   </trkpt>
   <trkpt lat="47.3795970" lon="-122.0366080">
    <ele>151.4</ele>
    <time>2021-07-23T01:18:33Z</time>
   </trkpt>
   <trkpt lat="47.3796130" lon="-122.0366220">
    <ele>151.4</ele>
    <time>2021-07-23T01:18:34Z</time>
   </trkpt>
   <trkpt lat="47.3796240" lon="-122.0366370">
    <ele>151.4</ele>
    <time>2021-07-23T01:18:35Z</time>
   </trkpt>
   <trkpt lat="47.3796330" lon="-122.0366510">
    <ele>151.4</ele>
    <time>2021-07-23T01:18:36Z</time>
   </trkpt>
   <trkpt lat="47.3796410" lon="-122.0366650">
    <ele>151.3</ele>
    <time>2021-07-23T01:18:37Z</time>
   </trkpt>
   <trkpt lat="47.3796470" lon="-122.0366900">
    <ele>151.3</ele>
    <time>2021-07-23T01:18:38Z</time>
   </trkpt>
   <trkpt lat="47.3796570" lon="-122.0366970">
    <ele>151.3</ele>
    <time>2021-07-23T01:18:39Z</time>
   </trkpt>
   <trkpt lat="47.3796670" lon="-122.0367070">
    <ele>151.3</ele>
    <time>2021-07-23T01:18:40Z</time>
   </trkpt>
   <trkpt lat="47.3796780" lon="-122.0367120">
    <ele>151.3</ele>
    <time>2021-07-23T01:18:41Z</time>
   </trkpt>
   <trkpt lat="47.3796960" lon="-122.0367420">
    <ele>151.3</ele>
    <time>2021-07-23T01:18:42Z</time>
   </trkpt>
   <trkpt lat="47.3797020" lon="-122.0367540">
    <ele>151.2</ele>
    <time>2021-07-23T01:18:43Z</time>
   </trkpt>
   <trkpt lat="47.3797190" lon="-122.0367740">
    <ele>151.2</ele>
    <time>2021-07-23T01:18:44Z</time>
   </trkpt>
   <trkpt lat="47.3797270" lon="-122.0367860">
    <ele>151.2</ele>
    <time>2021-07-23T01:18:45Z</time>
   </trkpt>
   <trkpt lat="47.3797340" lon="-122.0367980">
    <ele>151.2</ele>
    <time>2021-07-23T01:18:46Z</time>
   </trkpt>
   <trkpt lat="47.3797430" lon="-122.0368410">
    <ele>151.2</ele>
    <time>2021-07-23T01:18:47Z</time>
   </trkpt>
   <trkpt lat="47.3797460" lon="-122.0368530">
    <ele>151.2</ele>
    <time>2021-07-23T01:18:48Z</time>
   </trkpt>
   <trkpt lat="47.3797520" lon="-122.0368730">
    <ele>151.1</ele>
    <time>2021-07-23T01:18:49Z</time>
   </trkpt>
   <trkpt lat="47.3797610" lon="-122.0368910">
    <ele>151.1</ele>
    <time>2021-07-23T01:18:50Z</time>
   </trkpt>
   <trkpt lat="47.3797780" lon="-122.0369020">
    <ele>151.1</ele>
    <time>2021-07-23T01:18:51Z</time>
   </trkpt>
   <trkpt lat="47.3797860" lon="-122.0369070">
    <ele>151.1</ele>
    <time>2021-07-23T01:18:52Z</time>
   </trkpt>
   <trkpt lat="47.3797960" lon="-122.0369290">
    <ele>151.1</ele>
    <time>2021-07-23T01:18:53Z</time>
   </trkpt>
   <trkpt lat="47.3797990" lon="-122.0369500">
    <ele>151.1</ele>
    <time>2021-07-23T01:18:54Z</time>
   </trkpt>
   <trkpt lat="47.3798040" lon="-122.0369660">
    <ele>151.1</ele>
    <time>2021-07-23T01:18:55Z</time>
   </trkpt>
   <trkpt lat="47.3798140" lon="-122.0369850">
    <ele>151.0</ele>
    <time>2021-07-23T01:18:56Z</time>
   </trkpt>
   <trkpt lat="47.3798290" lon="-122.0370120">
    <ele>151.0</ele>
    <time>2021-07-23T01:18:57Z</time>
   </trkpt>
   <trkpt lat="47.3798340" lon="-122.0370200">
    <ele>151.0</ele>
    <time>2021-07-23T01:18:58Z</time>
   </trkpt>
   <trkpt lat="47.3798390" lon="-122.0370280">
    <ele>151.0</ele>
    <time>2021-07-23T01:18:59Z</time>
   </trkpt>
   <trkpt lat="47.3798440" lon="-122.0370570">
    <ele>151.0</ele>
    <time>2021-07-23T01:19:00Z</time>
   </trkpt>
   <trkpt lat="47.3798470" lon="-122.0370760">
    <ele>151.0</ele>
    <time>2021-07-23T01:19:01Z</time>
   </trkpt>
   <trkpt lat="47.3798570" lon="-122.0370780">
    <ele>150.9</ele>
    <time>2021-07-23T01:19:02Z</time>
   </trkpt>
   <trkpt lat="47.3798690" lon="-122.0370790">
    <ele>150.9</ele>
    <time>2021-07-23T01:19:03Z</time>
   </trkpt>
   <trkpt lat="47.3798800" lon="-122.0370810">
    <ele>150.9</ele>
    <time>2021-07-23T01:19:04Z</time>
   </trkpt>
   <trkpt lat="47.3798930" lon="-122.0370770">
    <ele>150.9</ele>
    <time>2021-07-23T01:19:05Z</time>
   </trkpt>
   <trkpt lat="47.3799020" lon="-122.0370790">
    <ele>150.9</ele>
    <time>2021-07-23T01:19:06Z</time>
   </trkpt>
   <trkpt lat="47.3799110" lon="-122.0370870">
    <ele>150.9</ele>
    <time>2021-07-23T01:19:07Z</time>
   </trkpt>
   <trkpt lat="47.3799210" lon="-122.0371060">
    <ele>150.8</ele>
    <time>2021-07-23T01:19:08Z</time>
   </trkpt>
   <trkpt lat="47.3799280" lon="-122.0371120">
    <ele>150.8</ele>
    <time>2021-07-23T01:19:09Z</time>
   </trkpt>
   <trkpt lat="47.3799350" lon="-122.0371260">
    <ele>150.8</ele>
    <time>2021-07-23T01:19:10Z</time>
   </trkpt>
   <trkpt lat="47.3799390" lon="-122.0371410">
    <ele>150.8</ele>
    <time>2021-07-23T01:19:11Z</time>
   </trkpt>
   <trkpt lat="47.3799360" lon="-122.0371500">
    <ele>150.8</ele>
    <time>2021-07-23T01:19:12Z</time>
   </trkpt>
   <trkpt lat="47.3799430" lon="-122.0371590">
    <ele>150.8</ele>
    <time>2021-07-23T01:19:13Z</time>
   </trkpt>
   <trkpt lat="47.3799470" lon="-122.0371730">
    <ele>150.8</ele>
    <time>2021-07-23T01:19:14Z</time>
   </trkpt>
   <trkpt lat="47.3799570" lon="-122.0371790">
    <ele>150.7</ele>
    <time>2021-07-23T01:19:15Z</time>
   </trkpt>
   <trkpt lat="47.3799600" lon="-122.0371800">
    <ele>150.7</ele>
    <time>2021-07-23T01:19:16Z</time>
   </trkpt>
   <trkpt lat="47.3799660" lon="-122.0372010">
    <ele>150.7</ele>
    <time>2021-07-23T01:19:17Z</time>
   </trkpt>
   <trkpt lat="47.3799660" lon="-122.0372160">
    <ele>150.7</ele>
    <time>2021-07-23T01:19:18Z</time>
   </trkpt>
   <trkpt lat="47.3799780" lon="-122.0372380">
    <ele>150.7</ele>
    <time>2021-07-23T01:19:19Z</time>
   </trkpt>
   <trkpt lat="47.3799840" lon="-122.0372510">
    <ele>150.7</ele>
    <time>2021-07-23T01:19:20Z</time>
   </trkpt>
   <trkpt lat="47.3799890" lon="-122.0372630">
    <ele>150.6</ele>
    <time>2021-07-23T01:19:21Z</time>
   </trkpt>
   <trkpt lat="47.3799990" lon="-122.0372800">
    <ele>150.6</ele>
    <time>2021-07-23T01:19:22Z</time>
   </trkpt>
   <trkpt lat="47.3800080" lon="-122.0373000">
    <ele>150.6</ele>
    <time>2021-07-23T01:19:23Z</time>
   </trkpt>
   <trkpt lat="47.3800110" lon="-122.0373180">
    <ele>150.6</ele>
    <time>2021-07-23T01:19:24Z</time>
   </trkpt>
   <trkpt lat="47.3800200" lon="-122.0373300">
    <ele>150.6</ele>
    <time>2021-07-23T01:19:25Z</time>
   </trkpt>
   <trkpt lat="47.3800230" lon="-122.0373410">
    <ele>150.5</ele>
    <time>2021-07-23T01:19:26Z</time>
   </trkpt>
   <trkpt lat="47.3800230" lon="-122.0373570">
    <ele>150.5</ele>
    <time>2021-07-23T01:19:27Z</time>
   </trkpt>
   <trkpt lat="47.3800330" lon="-122.0373770">
    <ele>150.5</ele>
    <time>2021-07-23T01:19:28Z</time>
   </trkpt>
   <trkpt lat="47.3800390" lon="-122.0373850">
    <ele>150.5</ele>
    <time>2021-07-23T01:19:29Z</time>
   </trkpt>
   <trkpt lat="47.3800500" lon="-122.0373970">
    <ele>150.5</ele>
    <time>2021-07-23T01:19:30Z</time>
   </trkpt>
   <trkpt lat="47.3800600" lon="-122.0374230">
    <ele>150.5</ele>
    <time>2021-07-23T01:19:31Z</time>
   </trkpt>
   <trkpt lat="47.3800650" lon="-122.0374360">
    <ele>150.4</ele>
    <time>2021-07-23T01:19:32Z</time>
   </trkpt>
   <trkpt lat="47.3800760" lon="-122.0374660">
    <ele>150.4</ele>
    <time>2021-07-23T01:19:33Z</time>
   </trkpt>
   <trkpt lat="47.3800880" lon="-122.0374820">
    <ele>150.4</ele>
    <time>2021-07-23T01:19:34Z</time>
   </trkpt>
   <trkpt lat="47.3801000" lon="-122.0375030">
    <ele>150.4</ele>
    <time>2021-07-23T01:19:35Z</time>
   </trkpt>
   <trkpt lat="47.3801060" lon="-122.0375280">
    <ele>150.3</ele>
    <time>2021-07-23T01:19:36Z</time>
   </trkpt>
   <trkpt lat="47.3801120" lon="-122.0375530">
    <ele>150.3</ele>
    <time>2021-07-23T01:19:37Z</time>
   </trkpt>
   <trkpt lat="47.3801210" lon="-122.0375610">
    <ele>150.3</ele>
    <time>2021-07-23T01:19:38Z</time>
   </trkpt>
   <trkpt lat="47.3801290" lon="-122.0375780">
    <ele>150.3</ele>
    <time>2021-07-23T01:19:39Z</time>
   </trkpt>
   <trkpt lat="47.3801360" lon="-122.0375850">
    <ele>150.3</ele>
    <time>2021-07-23T01:19:40Z</time>
   </trkpt>
   <trkpt lat="47.3801510" lon="-122.0376100">
    <ele>150.2</ele>
    <time>2021-07-23T01:19:41Z</time>
   </trkpt>
   <trkpt lat="47.3801600" lon="-122.0376280">
    <ele>150.2</ele>
    <time>2021-07-23T01:19:42Z</time>
   </trkpt>
   <trkpt lat="47.3801690" lon="-122.0376460">
    <ele>150.2</ele>
    <time>2021-07-23T01:19:43Z</time>
   </trkpt>
   <trkpt lat="47.3801840" lon="-122.0376660">
    <ele>150.2</ele>
    <time>2021-07-23T01:19:44Z</time>
   </trkpt>
   <trkpt lat="47.3801900" lon="-122.0376700">
    <ele>150.2</ele>
    <time>2021-07-23T01:19:45Z</time>
   </trkpt>
   <trkpt lat="47.3801950" lon="-122.0376730">
    <ele>150.2</ele>
    <time>2021-07-23T01:19:46Z</time>
   </trkpt>
   <trkpt lat="47.3802010" lon="-122.0376770">
    <ele>150.1</ele>
    <time>2021-07-23T01:19:47Z</time>
   </trkpt>
   <trkpt lat="47.3802090" lon="-122.0376910">
    <ele>150.1</ele>
    <time>2021-07-23T01:19:48Z</time>
   </trkpt>
   <trkpt lat="47.3802140" lon="-122.0377010">
    <ele>150.1</ele>
    <time>2021-07-23T01:19:49Z</time>
   </trkpt>
   <trkpt lat="47.3802180" lon="-122.0377190">
    <ele>150.1</ele>
    <time>2021-07-23T01:19:50Z</time>
   </trkpt>
   <trkpt lat="47.3802290" lon="-122.0377390">
    <ele>150.1</ele>
    <time>2021-07-23T01:19:51Z</time>
   </trkpt>
   <trkpt lat="47.3802370" lon="-122.0377550">
    <ele>150.1</ele>
    <time>2021-07-23T01:19:52Z</time>
   </trkpt>
   <trkpt lat="47.3802470" lon="-122.0377670">
    <ele>150.0</ele>
    <time>2021-07-23T01:19:53Z</time>
   </trkpt>
   <trkpt lat="47.3802530" lon="-122.0377780">
    <ele>150.0</ele>
    <time>2021-07-23T01:19:54Z</time>
   </trkpt>
   <trkpt lat="47.3802600" lon="-122.0377920">
    <ele>150.0</ele>
    <time>2021-07-23T01:19:55Z</time>
   </trkpt>
   <trkpt lat="47.3802680" lon="-122.0377990">
    <ele>150.0</ele>
    <time>2021-07-23T01:19:56Z</time>
   </trkpt>
   <trkpt lat="47.3802720" lon="-122.0378110">
    <ele>150.0</ele>
    <time>2021-07-23T01:19:57Z</time>
   </trkpt>
   <trkpt lat="47.3802790" lon="-122.0378250">
    <ele>150.0</ele>
    <time>2021-07-23T01:19:58Z</time>
   </trkpt>
   <trkpt lat="47.3802870" lon="-122.0378420">
    <ele>150.0</ele>
    <time>2021-07-23T01:19:59Z</time>
   </trkpt>
   <trkpt lat="47.3802950" lon="-122.0378630">
    <ele>149.9</ele>
    <time>2021-07-23T01:20:00Z</time>
   </trkpt>
   <trkpt lat="47.3803130" lon="-122.0378980">
    <ele>149.9</ele>
    <time>2021-07-23T01:20:01Z</time>
   </trkpt>
   <trkpt lat="47.3803160" lon="-122.0379070">
    <ele>149.9</ele>
    <time>2021-07-23T01:20:02Z</time>
   </trkpt>
   <trkpt lat="47.3803280" lon="-122.0379290">
    <ele>149.8</ele>
    <time>2021-07-23T01:20:03Z</time>
   </trkpt>
   <trkpt lat="47.3803330" lon="-122.0379440">
    <ele>149.8</ele>
    <time>2021-07-23T01:20:04Z</time>
   </trkpt>
   <trkpt lat="47.3803390" lon="-122.0379580">
    <ele>149.8</ele>
    <time>2021-07-23T01:20:05Z</time>
   </trkpt>
   <trkpt lat="47.3803470" lon="-122.0379800">
    <ele>149.8</ele>
    <time>2021-07-23T01:20:06Z</time>
   </trkpt>
   <trkpt lat="47.3803550" lon="-122.0379980">
    <ele>149.8</ele>
    <time>2021-07-23T01:20:07Z</time>
   </trkpt>
   <trkpt lat="47.3803680" lon="-122.0380140">
    <ele>149.7</ele>
    <time>2021-07-23T01:20:08Z</time>
   </trkpt>
   <trkpt lat="47.3803780" lon="-122.0380270">
    <ele>149.7</ele>
    <time>2021-07-23T01:20:09Z</time>
   </trkpt>
   <trkpt lat="47.3803910" lon="-122.0380500">
    <ele>149.7</ele>
    <time>2021-07-23T01:20:10Z</time>
   </trkpt>
   <trkpt lat="47.3803950" lon="-122.0380620">
    <ele>149.6</ele>
    <time>2021-07-23T01:20:11Z</time>
   </trkpt>
   <trkpt lat="47.3803980" lon="-122.0380730">
    <ele>149.6</ele>
    <time>2021-07-23T01:20:12Z</time>
   </trkpt>
   <trkpt lat="47.3804020" lon="-122.0380850">
    <ele>149.6</ele>
    <time>2021-07-23T01:20:13Z</time>
   </trkpt>
   <trkpt lat="47.3804220" lon="-122.0381020">
    <ele>149.6</ele>
    <time>2021-07-23T01:20:14Z</time>
   </trkpt>
   <trkpt lat="47.3804310" lon="-122.0381090">
    <ele>149.5</ele>
    <time>2021-07-23T01:20:15Z</time>
   </trkpt>
   <trkpt lat="47.3804400" lon="-122.0381160">
    <ele>149.5</ele>
    <time>2021-07-23T01:20:16Z</time>
   </trkpt>
   <trkpt lat="47.3804630" lon="-122.0381240">
    <ele>149.5</ele>
    <time>2021-07-23T01:20:17Z</time>
   </trkpt>
   <trkpt lat="47.3804730" lon="-122.0381280">
    <ele>149.5</ele>
    <time>2021-07-23T01:20:18Z</time>
   </trkpt>
   <trkpt lat="47.3804830" lon="-122.0381310">
    <ele>149.4</ele>
    <time>2021-07-23T01:20:19Z</time>
   </trkpt>
   <trkpt lat="47.3805010" lon="-122.0382190">
    <ele>149.3</ele>
    <time>2021-07-23T01:21:07Z</time>
   </trkpt>
   <trkpt lat="47.3804940" lon="-122.0382450">
    <ele>149.3</ele>
    <time>2021-07-23T01:21:08Z</time>
   </trkpt>
   <trkpt lat="47.3804940" lon="-122.0382590">
    <ele>149.2</ele>
    <time>2021-07-23T01:21:09Z</time>
   </trkpt>
   <trkpt lat="47.3804910" lon="-122.0382900">
    <ele>149.2</ele>
    <time>2021-07-23T01:21:10Z</time>
   </trkpt>
   <trkpt lat="47.3804890" lon="-122.0383010">
    <ele>149.2</ele>
    <time>2021-07-23T01:21:11Z</time>
   </trkpt>
   <trkpt lat="47.3804860" lon="-122.0383120">
    <ele>149.2</ele>
    <time>2021-07-23T01:21:12Z</time>
   </trkpt>
   <trkpt lat="47.3804860" lon="-122.0383220">
    <ele>149.2</ele>
    <time>2021-07-23T01:21:13Z</time>
   </trkpt>
   <trkpt lat="47.3804930" lon="-122.0383360">
    <ele>149.1</ele>
    <time>2021-07-23T01:21:14Z</time>
   </trkpt>
   <trkpt lat="47.3804980" lon="-122.0383530">
    <ele>149.1</ele>
    <time>2021-07-23T01:21:15Z</time>
   </trkpt>
   <trkpt lat="47.3805040" lon="-122.0383670">
    <ele>149.1</ele>
    <time>2021-07-23T01:21:16Z</time>
   </trkpt>
   <trkpt lat="47.3805120" lon="-122.0383830">
    <ele>149.1</ele>
    <time>2021-07-23T01:21:17Z</time>
   </trkpt>
   <trkpt lat="47.3805110" lon="-122.0383980">
    <ele>149.1</ele>
    <time>2021-07-23T01:21:18Z</time>
   </trkpt>
   <trkpt lat="47.3805120" lon="-122.0384110">
    <ele>149.0</ele>
    <time>2021-07-23T01:21:19Z</time>
   </trkpt>
   <trkpt lat="47.3805140" lon="-122.0384250">
    <ele>149.0</ele>
    <time>2021-07-23T01:21:20Z</time>
   </trkpt>
   <trkpt lat="47.3805040" lon="-122.0384340">
    <ele>149.0</ele>
    <time>2021-07-23T01:21:21Z</time>
   </trkpt>
   <trkpt lat="47.3805040" lon="-122.0384470">
    <ele>149.0</ele>
    <time>2021-07-23T01:21:22Z</time>
   </trkpt>
   <trkpt lat="47.3805020" lon="-122.0384620">
    <ele>149.0</ele>
    <time>2021-07-23T01:21:23Z</time>
   </trkpt>
   <trkpt lat="47.3805030" lon="-122.0384730">
    <ele>148.9</ele>
    <time>2021-07-23T01:21:24Z</time>
   </trkpt>
   <trkpt lat="47.3805080" lon="-122.0384960">
    <ele>148.9</ele>
    <time>2021-07-23T01:21:25Z</time>
   </trkpt>
   <trkpt lat="47.3805090" lon="-122.0385110">
    <ele>148.9</ele>
    <time>2021-07-23T01:21:26Z</time>
   </trkpt>
   <trkpt lat="47.3805130" lon="-122.0385310">
    <ele>148.9</ele>
    <time>2021-07-23T01:21:27Z</time>
   </trkpt>
   <trkpt lat="47.3805150" lon="-122.0385450">
    <ele>148.9</ele>
    <time>2021-07-23T01:21:28Z</time>
   </trkpt>
   <trkpt lat="47.3805210" lon="-122.0385710">
    <ele>148.8</ele>
    <time>2021-07-23T01:21:29Z</time>
   </trkpt>
   <trkpt lat="47.3805240" lon="-122.0385830">
    <ele>148.8</ele>
    <time>2021-07-23T01:21:30Z</time>
   </trkpt>
   <trkpt lat="47.3805270" lon="-122.0385960">
    <ele>148.8</ele>
    <time>2021-07-23T01:21:31Z</time>
   </trkpt>
   <trkpt lat="47.3805220" lon="-122.0386070">
    <ele>148.8</ele>
    <time>2021-07-23T01:21:32Z</time>
   </trkpt>
   <trkpt lat="47.3805300" lon="-122.0386220">
    <ele>148.7</ele>
    <time>2021-07-23T01:21:33Z</time>
   </trkpt>
   <trkpt lat="47.3805360" lon="-122.0386270">
    <ele>148.7</ele>
    <time>2021-07-23T01:21:34Z</time>
   </trkpt>
   <trkpt lat="47.3805420" lon="-122.0386450">
    <ele>148.7</ele>
    <time>2021-07-23T01:21:35Z</time>
   </trkpt>
   <trkpt lat="47.3805470" lon="-122.0386780">
    <ele>148.7</ele>
    <time>2021-07-23T01:21:36Z</time>
   </trkpt>
   <trkpt lat="47.3805490" lon="-122.0386910">
    <ele>148.7</ele>
    <time>2021-07-23T01:21:37Z</time>
   </trkpt>
   <trkpt lat="47.3805500" lon="-122.0387050">
    <ele>148.6</ele>
    <time>2021-07-23T01:21:38Z</time>
   </trkpt>
   <trkpt lat="47.3805580" lon="-122.0387210">
    <ele>148.6</ele>
    <time>2021-07-23T01:21:39Z</time>
   </trkpt>
   <trkpt lat="47.3805640" lon="-122.0387430">
    <ele>148.6</ele>
    <time>2021-07-23T01:21:40Z</time>
   </trkpt>
   <trkpt lat="47.3805690" lon="-122.0387780">
    <ele>148.5</ele>
    <time>2021-07-23T01:21:41Z</time>
   </trkpt>
   <trkpt lat="47.3805710" lon="-122.0387890">
    <ele>148.5</ele>
    <time>2021-07-23T01:21:42Z</time>
   </trkpt>
   <trkpt lat="47.3805720" lon="-122.0388000">
    <ele>148.5</ele>
    <time>2021-07-23T01:21:43Z</time>
   </trkpt>
   <trkpt lat="47.3805750" lon="-122.0388340">
    <ele>148.5</ele>
    <time>2021-07-23T01:21:44Z</time>
   </trkpt>
   <trkpt lat="47.3805750" lon="-122.0388460">
    <ele>148.5</ele>
    <time>2021-07-23T01:21:45Z</time>
   </trkpt>
   <trkpt lat="47.3805750" lon="-122.0388590">
    <ele>148.5</ele>
    <time>2021-07-23T01:21:46Z</time>
   </trkpt>
   <trkpt lat="47.3805810" lon="-122.0388870">
    <ele>148.4</ele>
    <time>2021-07-23T01:21:47Z</time>
   </trkpt>
   <trkpt lat="47.3805790" lon="-122.0389020">
    <ele>148.4</ele>
    <time>2021-07-23T01:21:48Z</time>
   </trkpt>
   <trkpt lat="47.3805790" lon="-122.0389240">
    <ele>148.4</ele>
    <time>2021-07-23T01:21:49Z</time>
   </trkpt>
   <trkpt lat="47.3805820" lon="-122.0389510">
    <ele>148.4</ele>
    <time>2021-07-23T01:21:50Z</time>
   </trkpt>
   <trkpt lat="47.3805800" lon="-122.0389790">
    <ele>148.3</ele>
    <time>2021-07-23T01:21:51Z</time>
   </trkpt>
   <trkpt lat="47.3805930" lon="-122.0389880">
    <ele>148.3</ele>
    <time>2021-07-23T01:21:52Z</time>
   </trkpt>
   <trkpt lat="47.3806000" lon="-122.0390050">
    <ele>148.3</ele>
    <time>2021-07-23T01:21:53Z</time>
   </trkpt>
   <trkpt lat="47.3806110" lon="-122.0390230">
    <ele>148.3</ele>
    <time>2021-07-23T01:21:54Z</time>
   </trkpt>
   <trkpt lat="47.3806210" lon="-122.0390410">
    <ele>148.3</ele>
    <time>2021-07-23T01:21:55Z</time>
   </trkpt>
   <trkpt lat="47.3806260" lon="-122.0390540">
    <ele>148.2</ele>
    <time>2021-07-23T01:21:56Z</time>
   </trkpt>
   <trkpt lat="47.3806320" lon="-122.0390670">
    <ele>148.2</ele>
    <time>2021-07-23T01:21:57Z</time>
   </trkpt>
   <trkpt lat="47.3806370" lon="-122.0390890">
    <ele>148.2</ele>
    <time>2021-07-23T01:21:58Z</time>
   </trkpt>
   <trkpt lat="47.3806450" lon="-122.0391120">
    <ele>148.2</ele>
    <time>2021-07-23T01:21:59Z</time>
   </trkpt>
   <trkpt lat="47.3806510" lon="-122.0391270">
    <ele>148.2</ele>
    <time>2021-07-23T01:22:00Z</time>
   </trkpt>
   <trkpt lat="47.3806580" lon="-122.0391510">
    <ele>148.1</ele>
    <time>2021-07-23T01:22:01Z</time>
   </trkpt>
   <trkpt lat="47.3806670" lon="-122.0391950">
    <ele>148.1</ele>
    <time>2021-07-23T01:22:02Z</time>
   </trkpt>
   <trkpt lat="47.3806690" lon="-122.0392070">
    <ele>148.1</ele>
    <time>2021-07-23T01:22:03Z</time>
   </trkpt>
   <trkpt lat="47.3806740" lon="-122.0392200">
    <ele>148.1</ele>
    <time>2021-07-23T01:22:04Z</time>
   </trkpt>
   <trkpt lat="47.3806760" lon="-122.0392300">
    <ele>148.1</ele>
    <time>2021-07-23T01:22:05Z</time>
   </trkpt>
   <trkpt lat="47.3806840" lon="-122.0392460">
    <ele>148.1</ele>
    <time>2021-07-23T01:22:06Z</time>
   </trkpt>
   <trkpt lat="47.3806850" lon="-122.0392760">
    <ele>148.0</ele>
    <time>2021-07-23T01:22:07Z</time>
   </trkpt>
   <trkpt lat="47.3806860" lon="-122.0392890">
    <ele>148.0</ele>
    <time>2021-07-23T01:22:08Z</time>
   </trkpt>
   <trkpt lat="47.3806870" lon="-122.0393010">
    <ele>148.0</ele>
    <time>2021-07-23T01:22:09Z</time>
   </trkpt>
   <trkpt lat="47.3806900" lon="-122.0393150">
    <ele>148.0</ele>
    <time>2021-07-23T01:22:10Z</time>
   </trkpt>
   <trkpt lat="47.3806950" lon="-122.0393270">
    <ele>148.0</ele>
    <time>2021-07-23T01:22:11Z</time>
   </trkpt>
   <trkpt lat="47.3807010" lon="-122.0393480">
    <ele>148.0</ele>
    <time>2021-07-23T01:22:12Z</time>
   </trkpt>
   <trkpt lat="47.3807030" lon="-122.0393670">
    <ele>148.0</ele>
    <time>2021-07-23T01:22:13Z</time>
   </trkpt>
   <trkpt lat="47.3807030" lon="-122.0393820">
    <ele>148.0</ele>
    <time>2021-07-23T01:22:14Z</time>
   </trkpt>
   <trkpt lat="47.3807020" lon="-122.0393890">
    <ele>148.0</ele>
    <time>2021-07-23T01:22:15Z</time>
   </trkpt>
   <trkpt lat="47.3807160" lon="-122.0394080">
    <ele>147.9</ele>
    <time>2021-07-23T01:22:16Z</time>
   </trkpt>
   <trkpt lat="47.3807150" lon="-122.0394160">
    <ele>147.9</ele>
    <time>2021-07-23T01:22:17Z</time>
   </trkpt>
   <trkpt lat="47.3807170" lon="-122.0394260">
    <ele>147.9</ele>
    <time>2021-07-23T01:22:18Z</time>
   </trkpt>
   <trkpt lat="47.3807250" lon="-122.0394440">
    <ele>147.9</ele>
    <time>2021-07-23T01:22:19Z</time>
   </trkpt>
   <trkpt lat="47.3807210" lon="-122.0394540">
    <ele>147.9</ele>
    <time>2021-07-23T01:22:20Z</time>
   </trkpt>
   <trkpt lat="47.3807170" lon="-122.0394600">
    <ele>147.9</ele>
    <time>2021-07-23T01:22:21Z</time>
   </trkpt>
   <trkpt lat="47.3807180" lon="-122.0394770">
    <ele>147.9</ele>
    <time>2021-07-23T01:22:22Z</time>
   </trkpt>
   <trkpt lat="47.3807190" lon="-122.0394920">
    <ele>147.9</ele>
    <time>2021-07-23T01:22:23Z</time>
   </trkpt>
   <trkpt lat="47.3807200" lon="-122.0395040">
    <ele>147.9</ele>
    <time>2021-07-23T01:22:24Z</time>
   </trkpt>
   <trkpt lat="47.3807240" lon="-122.0395110">
    <ele>147.9</ele>
    <time>2021-07-23T01:22:25Z</time>
   </trkpt>
   <trkpt lat="47.3807260" lon="-122.0395090">
    <ele>147.9</ele>
    <time>2021-07-23T01:22:26Z</time>
   </trkpt>
   <trkpt lat="47.3807290" lon="-122.0395190">
    <ele>147.9</ele>
    <time>2021-07-23T01:22:27Z</time>
   </trkpt>
   <trkpt lat="47.3807390" lon="-122.0395490">
    <ele>147.8</ele>
    <time>2021-07-23T01:22:28Z</time>
   </trkpt>
   <trkpt lat="47.3807430" lon="-122.0395610">
    <ele>147.8</ele>
    <time>2021-07-23T01:22:29Z</time>
   </trkpt>
   <trkpt lat="47.3807460" lon="-122.0395740">
    <ele>147.8</ele>
    <time>2021-07-23T01:22:30Z</time>
   </trkpt>
   <trkpt lat="47.3807480" lon="-122.0395920">
    <ele>147.8</ele>
    <time>2021-07-23T01:22:31Z</time>
   </trkpt>
   <trkpt lat="47.3807490" lon="-122.0396020">
    <ele>147.8</ele>
    <time>2021-07-23T01:22:32Z</time>
   </trkpt>
   <trkpt lat="47.3807500" lon="-122.0396120">
    <ele>147.8</ele>
    <time>2021-07-23T01:22:33Z</time>
   </trkpt>
   <trkpt lat="47.3807510" lon="-122.0396220">
    <ele>147.8</ele>
    <time>2021-07-23T01:22:34Z</time>
   </trkpt>
   <trkpt lat="47.3807520" lon="-122.0396330">
    <ele>147.8</ele>
    <time>2021-07-23T01:22:35Z</time>
   </trkpt>
   <trkpt lat="47.3807530" lon="-122.0396430">
    <ele>147.8</ele>
    <time>2021-07-23T01:22:36Z</time>
   </trkpt>
   <trkpt lat="47.3807540" lon="-122.0396530">
    <ele>147.8</ele>
    <time>2021-07-23T01:22:37Z</time>
   </trkpt>
   <trkpt lat="47.3807550" lon="-122.0396630">
    <ele>147.8</ele>
    <time>2021-07-23T01:22:38Z</time>
   </trkpt>
   <trkpt lat="47.3807560" lon="-122.0396730">
    <ele>147.8</ele>
    <time>2021-07-23T01:22:39Z</time>
   </trkpt>
   <trkpt lat="47.3807560" lon="-122.0396830">
    <ele>147.8</ele>
    <time>2021-07-23T01:22:40Z</time>
   </trkpt>
   <trkpt lat="47.3807570" lon="-122.0396930">
    <ele>147.7</ele>
    <time>2021-07-23T01:22:41Z</time>
   </trkpt>
   <trkpt lat="47.3807580" lon="-122.0397030">
    <ele>147.7</ele>
    <time>2021-07-23T01:22:42Z</time>
   </trkpt>
   <trkpt lat="47.3807590" lon="-122.0397130">
    <ele>147.7</ele>
    <time>2021-07-23T01:22:43Z</time>
   </trkpt>
   <trkpt lat="47.3807600" lon="-122.0397230">
    <ele>147.7</ele>
    <time>2021-07-23T01:22:44Z</time>
   </trkpt>
   <trkpt lat="47.3807610" lon="-122.0397340">
    <ele>147.7</ele>
    <time>2021-07-23T01:22:45Z</time>
   </trkpt>
   <trkpt lat="47.3807620" lon="-122.0397440">
    <ele>147.7</ele>
    <time>2021-07-23T01:22:46Z</time>
   </trkpt>
   <trkpt lat="47.3807630" lon="-122.0397540">
    <ele>147.7</ele>
    <time>2021-07-23T01:22:47Z</time>
   </trkpt>
   <trkpt lat="47.3807640" lon="-122.0397640">
    <ele>147.7</ele>
    <time>2021-07-23T01:22:48Z</time>
   </trkpt>
   <trkpt lat="47.3807650" lon="-122.0397740">
    <ele>147.7</ele>
    <time>2021-07-23T01:22:49Z</time>
   </trkpt>
   <trkpt lat="47.3807670" lon="-122.0398020">
    <ele>147.7</ele>
    <time>2021-07-23T01:22:50Z</time>
   </trkpt>
   <trkpt lat="47.3807670" lon="-122.0398150">
    <ele>147.7</ele>
    <time>2021-07-23T01:22:51Z</time>
   </trkpt>
   <trkpt lat="47.3807680" lon="-122.0398290">
    <ele>147.6</ele>
    <time>2021-07-23T01:22:52Z</time>
   </trkpt>
   <trkpt lat="47.3807650" lon="-122.0398420">
    <ele>147.6</ele>
    <time>2021-07-23T01:22:53Z</time>
   </trkpt>
   <trkpt lat="47.3807660" lon="-122.0398580">
    <ele>147.6</ele>
    <time>2021-07-23T01:22:54Z</time>
   </trkpt>
   <trkpt lat="47.3807700" lon="-122.0398770">
    <ele>147.6</ele>
    <time>2021-07-23T01:22:55Z</time>
   </trkpt>
   <trkpt lat="47.3807740" lon="-122.0399080">
    <ele>147.6</ele>
    <time>2021-07-23T01:22:56Z</time>
   </trkpt>
   <trkpt lat="47.3807760" lon="-122.0399190">
    <ele>147.6</ele>
    <time>2021-07-23T01:22:57Z</time>
   </trkpt>
   <trkpt lat="47.3807790" lon="-122.0399300">
    <ele>147.5</ele>
    <time>2021-07-23T01:22:58Z</time>
   </trkpt>
   <trkpt lat="47.3807900" lon="-122.0399630">
    <ele>147.5</ele>
    <time>2021-07-23T01:22:59Z</time>
   </trkpt>
   <trkpt lat="47.3807910" lon="-122.0399770">
    <ele>147.5</ele>
    <time>2021-07-23T01:23:00Z</time>
   </trkpt>
   <trkpt lat="47.3807930" lon="-122.0399900">
    <ele>147.5</ele>
    <time>2021-07-23T01:23:01Z</time>
   </trkpt>
   <trkpt lat="47.3807900" lon="-122.0400060">
    <ele>147.5</ele>
    <time>2021-07-23T01:23:02Z</time>
   </trkpt>
   <trkpt lat="47.3807920" lon="-122.0400240">
    <ele>147.4</ele>
    <time>2021-07-23T01:23:03Z</time>
   </trkpt>
   <trkpt lat="47.3807930" lon="-122.0400370">
    <ele>147.4</ele>
    <time>2021-07-23T01:23:04Z</time>
   </trkpt>
   <trkpt lat="47.3807970" lon="-122.0400450">
    <ele>147.4</ele>
    <time>2021-07-23T01:23:05Z</time>
   </trkpt>
   <trkpt lat="47.3807980" lon="-122.0400580">
    <ele>147.4</ele>
    <time>2021-07-23T01:23:06Z</time>
   </trkpt>
   <trkpt lat="47.3808000" lon="-122.0400700">
    <ele>147.4</ele>
    <time>2021-07-23T01:23:07Z</time>
   </trkpt>
   <trkpt lat="47.3808010" lon="-122.0400830">
    <ele>147.4</ele>
    <time>2021-07-23T01:23:08Z</time>
   </trkpt>
   <trkpt lat="47.3808030" lon="-122.0400950">
    <ele>147.4</ele>
    <time>2021-07-23T01:23:09Z</time>
   </trkpt>
   <trkpt lat="47.3808040" lon="-122.0401080">
    <ele>147.3</ele>
    <time>2021-07-23T01:23:10Z</time>
   </trkpt>
   <trkpt lat="47.3808110" lon="-122.0401410">
    <ele>147.3</ele>
    <time>2021-07-23T01:23:11Z</time>
   </trkpt>
   <trkpt lat="47.3808120" lon="-122.0401520">
    <ele>147.3</ele>
    <time>2021-07-23T01:23:12Z</time>
   </trkpt>
   <trkpt lat="47.3808120" lon="-122.0401620">
    <ele>147.3</ele>
    <time>2021-07-23T01:23:13Z</time>
   </trkpt>
   <trkpt lat="47.3808230" lon="-122.0401900">
    <ele>147.2</ele>
    <time>2021-07-23T01:23:14Z</time>
   </trkpt>
   <trkpt lat="47.3808250" lon="-122.0402020">
    <ele>147.2</ele>
    <time>2021-07-23T01:23:15Z</time>
   </trkpt>
   <trkpt lat="47.3808260" lon="-122.0402150">
    <ele>147.2</ele>
    <time>2021-07-23T01:23:16Z</time>
   </trkpt>
   <trkpt lat="47.3808270" lon="-122.0402310">
    <ele>147.2</ele>
    <time>2021-07-23T01:23:17Z</time>
   </trkpt>
   <trkpt lat="47.3808280" lon="-122.0402420">
    <ele>147.2</ele>
    <time>2021-07-23T01:23:18Z</time>
   </trkpt>
   <trkpt lat="47.3808270" lon="-122.0402560">
    <ele>147.2</ele>
    <time>2021-07-23T01:23:19Z</time>
   </trkpt>
   <trkpt lat="47.3808270" lon="-122.0402610">
    <ele>147.1</ele>
    <time>2021-07-23T01:23:20Z</time>
   </trkpt>
   <trkpt lat="47.3808210" lon="-122.0402730">
    <ele>147.1</ele>
    <time>2021-07-23T01:23:21Z</time>
   </trkpt>
   <trkpt lat="47.3808180" lon="-122.0402950">
    <ele>147.1</ele>
    <time>2021-07-23T01:23:22Z</time>
   </trkpt>
   <trkpt lat="47.3808190" lon="-122.0403190">
    <ele>147.1</ele>
    <time>2021-07-23T01:23:23Z</time>
   </trkpt>
   <trkpt lat="47.3808180" lon="-122.0403300">
    <ele>147.1</ele>
    <time>2021-07-23T01:23:24Z</time>
   </trkpt>
   <trkpt lat="47.3808180" lon="-122.0403400">
    <ele>147.0</ele>
    <time>2021-07-23T01:23:25Z</time>
   </trkpt>
   <trkpt lat="47.3808170" lon="-122.0403510">
    <ele>147.0</ele>
    <time>2021-07-23T01:23:26Z</time>
   </trkpt>
   <trkpt lat="47.3808140" lon="-122.0403590">
    <ele>147.0</ele>
    <time>2021-07-23T01:23:27Z</time>
   </trkpt>
   <trkpt lat="47.3807950" lon="-122.0403730">
    <ele>147.0</ele>
    <time>2021-07-23T01:23:28Z</time>
   </trkpt>
   <trkpt lat="47.3807900" lon="-122.0403820">
    <ele>147.0</ele>
    <time>2021-07-23T01:23:29Z</time>
   </trkpt>
   <trkpt lat="47.3807920" lon="-122.0404050">
    <ele>147.0</ele>
    <time>2021-07-23T01:23:30Z</time>
   </trkpt>
   <trkpt lat="47.3807910" lon="-122.0404290">
    <ele>147.0</ele>
    <time>2021-07-23T01:23:31Z</time>
   </trkpt>
   <trkpt lat="47.3807960" lon="-122.0404540">
    <ele>147.0</ele>
    <time>2021-07-23T01:23:32Z</time>
   </trkpt>
   <trkpt lat="47.3807980" lon="-122.0404660">
    <ele>147.0</ele>
    <time>2021-07-23T01:23:33Z</time>
   </trkpt>
   <trkpt lat="47.3807990" lon="-122.0404780">
    <ele>147.0</ele>
    <time>2021-07-23T01:23:34Z</time>
   </trkpt>
   <trkpt lat="47.3808000" lon="-122.0404900">
    <ele>147.0</ele>
    <time>2021-07-23T01:23:35Z</time>
   </trkpt>
   <trkpt lat="47.3808010" lon="-122.0405020">
    <ele>147.0</ele>
    <time>2021-07-23T01:23:36Z</time>
   </trkpt>
   <trkpt lat="47.3808030" lon="-122.0405140">
    <ele>147.0</ele>
    <time>2021-07-23T01:23:37Z</time>
   </trkpt>
   <trkpt lat="47.3808040" lon="-122.0405260">
    <ele>147.0</ele>
    <time>2021-07-23T01:23:38Z</time>
   </trkpt>
   <trkpt lat="47.3807810" lon="-122.0405200">
    <ele>147.0</ele>
    <time>2021-07-23T01:23:39Z</time>
   </trkpt>
  </trkseg>
 </trk>
</gpx>
