<?xml version="1.0" encoding="UTF-8"?>
<gpx creator="StravaGPX" version="1.1" xmlns="http://www.topografix.com/GPX/1/1" xmlns:xsi="http://www.w3.org/2001/XMLSchema-instance" xsi:schemaLocation="http://www.topografix.com/GPX/1/1 http://www.topografix.com/GPX/1/1/gpx.xsd">
 <metadata>
  <time>2021-07-23T00:51:45Z</time>
 </metadata>
 <trk>
  <name>Thursday run</name>
  <type>running</type>
  <trkseg>
   <trkpt lat="47.3809660" lon="-122.0427540">
    <ele>145.8</ele>
    <time>2021-07-23T00:51:45Z</time>
   </trkpt>
   <trkpt lat="47.3809670" lon="-122.0428270">
    <ele>145.7</ele>
    <time>2021-07-23T00:51:46Z</time>
   </trkpt>
   <trkpt lat="47.3809690" lon="-122.0428750">
    <ele>145.7</ele>
    <time>2021-07-23T00:51:47Z</time>
   </trkpt>
   <trkpt lat="47.3809770" lon="-122.0429020">
    <ele>145.7</ele>
    <time>2021-07-23T00:51:48Z</time>
   </trkpt>
   <trkpt lat="47.3809730" lon="-122.0429580">
    <ele>145.7</ele>
    <time>2021-07-23T00:51:49Z</time>
   </trkpt>
   <trkpt lat="47.3809650" lon="-122.0429790">
    <ele>145.6</ele>
    <time>2021-07-23T00:51:50Z</time>
   </trkpt>
   <trkpt lat="47.3809980" lon="-122.0430130">
    <ele>145.6</ele>
    <time>2021-07-23T00:51:51Z</time>
   </trkpt>
   <trkpt lat="47.3810270" lon="-122.0430450">
    <ele>145.6</ele>
    <time>2021-07-23T00:51:52Z</time>
   </trkpt>
   <trkpt lat="47.3810340" lon="-122.0430870">
    <ele>145.6</ele>
    <time>2021-07-23T00:51:53Z</time>
   </trkpt>
   <trkpt lat="47.3810210" lon="-122.0431290">
    <ele>145.5</ele>
    <time>2021-07-23T00:51:54Z</time>
   </trkpt>
   <trkpt lat="47.3810210" lon="-122.0431770">
    <ele>145.5</ele>
    <time>2021-07-23T00:51:55Z</time>
   </trkpt>
   <trkpt lat="47.3810230" lon="-122.0432380">
    <ele>145.5</ele>
    <time>2021-07-23T00:51:56Z</time>
   </trkpt>
   <trkpt lat="47.3810220" lon="-122.0432800">
    <ele>145.5</ele>
    <time>2021-07-23T00:51:57Z</time>
   </trkpt>
   <trkpt lat="47.3810080" lon="-122.0433280">
    <ele>145.4</ele>
    <time>2021-07-23T00:51:58Z</time>
   </trkpt>
   <trkpt lat="47.3809980" lon="-122.0433690">
    <ele>145.4</ele>
    <time>2021-07-23T00:51:59Z</time>
   </trkpt>
   <trkpt lat="47.3809920" lon="-122.0434210">
    <ele>145.4</ele>
    <time>2021-07-23T00:52:00Z</time>
   </trkpt>
   <trkpt lat="47.3809960" lon="-122.0434800">
    <ele>145.3</ele>
    <time>2021-07-23T00:52:01Z</time>
   </trkpt>
   <trkpt lat="47.3809910" lon="-122.0435330">
    <ele>145.3</ele>
    <time>2021-07-23T00:52:02Z</time>
   </trkpt>
   <trkpt lat="47.3809920" lon="-122.0435920">
    <ele>145.2</ele>
    <time>2021-07-23T00:52:03Z</time>
   </trkpt>
   <trkpt lat="47.3809920" lon="-122.0436430">
    <ele>145.2</ele>
    <time>2021-07-23T00:52:04Z</time>
   </trkpt>
   <trkpt lat="47.3809820" lon="-122.0437250">
    <ele>145.1</ele>
    <time>2021-07-23T00:52:05Z</time>
   </trkpt>
   <trkpt lat="47.3809810" lon="-122.0437810">
    <ele>145.0</ele>
    <time>2021-07-23T00:52:06Z</time>
   </trkpt>
   <trkpt lat="47.3809790" lon="-122.0438350">
    <ele>145.0</ele>
    <time>2021-07-23T00:52:07Z</time>
   </trkpt>
   <trkpt lat="47.3809750" lon="-122.0438890">
    <ele>144.9</ele>
    <time>2021-07-23T00:52:08Z</time>
   </trkpt>
   <trkpt lat="47.3809800" lon="-122.0439880">
    <ele>144.9</ele>
    <time>2021-07-23T00:52:09Z</time>
   </trkpt>
   <trkpt lat="47.3809730" lon="-122.0440550">
    <ele>144.8</ele>
    <time>2021-07-23T00:52:10Z</time>
   </trkpt>
   <trkpt lat="47.3809670" lon="-122.0441130">
    <ele>144.8</ele>
    <time>2021-07-23T00:52:11Z</time>
   </trkpt>
   <trkpt lat="47.3809600" lon="-122.0441730">
    <ele>144.7</ele>
    <time>2021-07-23T00:52:12Z</time>
   </trkpt>
   <trkpt lat="47.3809570" lon="-122.0442300">
    <ele>144.7</ele>
    <time>2021-07-23T00:52:13Z</time>
   </trkpt>
   <trkpt lat="47.3809610" lon="-122.0442830">
    <ele>144.6</ele>
    <time>2021-07-23T00:52:14Z</time>
   </trkpt>
   <trkpt lat="47.3809630" lon="-122.0443460">
    <ele>144.6</ele>
    <time>2021-07-23T00:52:15Z</time>
   </trkpt>
   <trkpt lat="47.3809530" lon="-122.0444040">
    <ele>144.5</ele>
    <time>2021-07-23T00:52:16Z</time>
   </trkpt>
   <trkpt lat="47.3809560" lon="-122.0444690">
    <ele>144.4</ele>
    <time>2021-07-23T00:52:17Z</time>
   </trkpt>
   <trkpt lat="47.3809590" lon="-122.0445360">
    <ele>144.4</ele>
    <time>2021-07-23T00:52:18Z</time>
   </trkpt>
   <trkpt lat="47.3809690" lon="-122.0445800">
    <ele>144.3</ele>
    <time>2021-07-23T00:52:19Z</time>
   </trkpt>
   <trkpt lat="47.3809820" lon="-122.0446320">
    <ele>144.3</ele>
    <time>2021-07-23T00:52:20Z</time>
   </trkpt>
   <trkpt lat="47.3809890" lon="-122.0446910">
    <ele>144.2</ele>
    <time>2021-07-23T00:52:21Z</time>
   </trkpt>
   <trkpt lat="47.3809980" lon="-122.0447420">
    <ele>144.2</ele>
    <time>2021-07-23T00:52:22Z</time>
   </trkpt>
   <trkpt lat="47.3810070" lon="-122.0447900">
    <ele>144.2</ele>
    <time>2021-07-23T00:52:23Z</time>
   </trkpt>
   <trkpt lat="47.3810080" lon="-122.0448460">
    <ele>144.1</ele>
    <time>2021-07-23T00:52:24Z</time>
   </trkpt>
   <trkpt lat="47.3810160" lon="-122.0448970">
    <ele>144.1</ele>
    <time>2021-07-23T00:52:25Z</time>
   </trkpt>
   <trkpt lat="47.3810280" lon="-122.0449500">
    <ele>144.0</ele>
    <time>2021-07-23T00:52:26Z</time>
   </trkpt>
   <trkpt lat="47.3810330" lon="-122.0449960">
    <ele>144.0</ele>
    <time>2021-07-23T00:52:27Z</time>
   </trkpt>
   <trkpt lat="47.3810450" lon="-122.0450540">
    <ele>143.9</ele>
    <time>2021-07-23T00:52:28Z</time>
   </trkpt>
   <trkpt lat="47.3810520" lon="-122.0451050">
    <ele>143.9</ele>
    <time>2021-07-23T00:52:29Z</time>
   </trkpt>
   <trkpt lat="47.3810630" lon="-122.0451460">
    <ele>143.9</ele>
    <time>2021-07-23T00:52:30Z</time>
   </trkpt>
   <trkpt lat="47.3810740" lon="-122.0452010">
    <ele>143.8</ele>
    <time>2021-07-23T00:52:31Z</time>
   </trkpt>
   <trkpt lat="47.3810740" lon="-122.0452600">
    <ele>143.7</ele>
    <time>2021-07-23T00:52:32Z</time>
   </trkpt>
   <trkpt lat="47.3810890" lon="-122.0453140">
    <ele>143.7</ele>
    <time>2021-07-23T00:52:33Z</time>
   </trkpt>
   <trkpt lat="47.3811070" lon="-122.0453660">
    <ele>143.6</ele>
    <time>2021-07-23T00:52:34Z</time>
   </trkpt>
   <trkpt lat="47.3811220" lon="-122.0454310">
    <ele>143.6</ele>
    <time>2021-07-23T00:52:35Z</time>
   </trkpt>
   <trkpt lat="47.3811280" lon="-122.0454870">
    <ele>143.5</ele>
    <time>2021-07-23T00:52:36Z</time>
   </trkpt>
   <trkpt lat="47.3811310" lon="-122.0455330">
    <ele>143.5</ele>
    <time>2021-07-23T00:52:37Z</time>
   </trkpt>
   <trkpt lat="47.3811440" lon="-122.0455800">
    <ele>143.5</ele>
    <time>2021-07-23T00:52:38Z</time>
   </trkpt>
   <trkpt lat="47.3811500" lon="-122.0456320">
    <ele>143.4</ele>
    <time>2021-07-23T00:52:39Z</time>
   </trkpt>
   <trkpt lat="47.3811510" lon="-122.0456860">
    <ele>143.4</ele>
    <time>2021-07-23T00:52:40Z</time>
   </trkpt>
   <trkpt lat="47.3811660" lon="-122.0457410">
    <ele>143.3</ele>
    <time>2021-07-23T00:52:41Z</time>
   </trkpt>
   <trkpt lat="47.3811810" lon="-122.0458000">
    <ele>143.2</ele>
    <time>2021-07-23T00:52:42Z</time>
   </trkpt>
   <trkpt lat="47.3811910" lon="-122.0458470">
    <ele>143.2</ele>
    <time>2021-07-23T00:52:43Z</time>
   </trkpt>
   <trkpt lat="47.3812050" lon="-122.0458980">
    <ele>143.2</ele>
    <time>2021-07-23T00:52:44Z</time>
   </trkpt>
   <trkpt lat="47.3812240" lon="-122.0459530">
    <ele>143.1</ele>
    <time>2021-07-23T00:52:45Z</time>
   </trkpt>
   <trkpt lat="47.3812330" lon="-122.0460080">
    <ele>143.0</ele>
    <time>2021-07-23T00:52:46Z</time>
   </trkpt>
   <trkpt lat="47.3812470" lon="-122.0460690">
    <ele>143.0</ele>
    <time>2021-07-23T00:52:47Z</time>
   </trkpt>
   <trkpt lat="47.3812670" lon="-122.0461390">
    <ele>142.9</ele>
    <time>2021-07-23T00:52:48Z</time>
   </trkpt>
   <trkpt lat="47.3812830" lon="-122.0461910">
    <ele>142.9</ele>
    <time>2021-07-23T00:52:49Z</time>
   </trkpt>
   <trkpt lat="47.3813060" lon="-122.0462470">
    <ele>142.9</ele>
    <time>2021-07-23T00:52:50Z</time>
   </trkpt>
   <trkpt lat="47.3813200" lon="-122.0463170">
    <ele>142.8</ele>
    <time>2021-07-23T00:52:51Z</time>
   </trkpt>
   <trkpt lat="47.3813390" lon="-122.0463660">
    <ele>142.8</ele>
    <time>2021-07-23T00:52:52Z</time>
   </trkpt>
   <trkpt lat="47.3813590" lon="-122.0464230">
    <ele>142.7</ele>
    <time>2021-07-23T00:52:53Z</time>
   </trkpt>
   <trkpt lat="47.3813790" lon="-122.0464710">
    <ele>142.7</ele>
    <time>2021-07-23T00:52:54Z</time>
   </trkpt>
   <trkpt lat="47.3814120" lon="-122.0465170">
    <ele>142.6</ele>
    <time>2021-07-23T00:52:55Z</time>
   </trkpt>
   <trkpt lat="47.3814260" lon="-122.0465670">
    <ele>142.6</ele>
    <time>2021-07-23T00:52:56Z</time>
   </trkpt>
   <trkpt lat="47.3814440" lon="-122.0466210">
    <ele>142.5</ele>
    <time>2021-07-23T00:52:57Z</time>
   </trkpt>
   <trkpt lat="47.3814670" lon="-122.0466720">
    <ele>142.4</ele>
    <time>2021-07-23T00:52:58Z</time>
   </trkpt>
   <trkpt lat="47.3814870" lon="-122.0467420">
    <ele>142.4</ele>
    <time>2021-07-23T00:52:59Z</time>
   </trkpt>
   <trkpt lat="47.3815210" lon="-122.0467960">
    <ele>142.3</ele>
    <time>2021-07-23T00:53:00Z</time>
   </trkpt>
   <trkpt lat="47.3815320" lon="-122.0468560">
    <ele>142.2</ele>
    <time>2021-07-23T00:53:01Z</time>
   </trkpt>
   <trkpt lat="47.3815560" lon="-122.0469140">
    <ele>142.2</ele>
    <time>2021-07-23T00:53:02Z</time>
   </trkpt>
   <trkpt lat="47.3815820" lon="-122.0469740">
    <ele>142.1</ele>
    <time>2021-07-23T00:53:03Z</time>
   </trkpt>
   <trkpt lat="47.3816060" lon="-122.0470200">
    <ele>142.1</ele>
    <time>2021-07-23T00:53:04Z</time>
   </trkpt>
   <trkpt lat="47.3816270" lon="-122.0470900">
    <ele>142.1</ele>
    <time>2021-07-23T00:53:05Z</time>
   </trkpt>
   <trkpt lat="47.3816480" lon="-122.0471370">
    <ele>142.0</ele>
    <time>2021-07-23T00:53:06Z</time>
   </trkpt>
   <trkpt lat="47.3816730" lon="-122.0471840">
    <ele>142.0</ele>
    <time>2021-07-23T00:53:07Z</time>
   </trkpt>
   <trkpt lat="47.3817120" lon="-122.0472330">
    <ele>141.9</ele>
    <time>2021-07-23T00:53:08Z</time>
   </trkpt>
   <trkpt lat="47.3817450" lon="-122.0472740">
    <ele>141.9</ele>
    <time>2021-07-23T00:53:09Z</time>
   </trkpt>
   <trkpt lat="47.3817750" lon="-122.0473270">
    <ele>141.9</ele>
    <time>2021-07-23T00:53:10Z</time>
   </trkpt>
   <trkpt lat="47.3817970" lon="-122.0473740">
    <ele>141.9</ele>
    <time>2021-07-23T00:53:11Z</time>
   </trkpt>
   <trkpt lat="47.3818180" lon="-122.0474340">
    <ele>141.8</ele>
    <time>2021-07-23T00:53:12Z</time>
   </trkpt>
   <trkpt lat="47.3818350" lon="-122.0474820">
    <ele>141.8</ele>
    <time>2021-07-23T00:53:13Z</time>
   </trkpt>
   <trkpt lat="47.3818620" lon="-122.0475270">
    <ele>141.9</ele>
    <time>2021-07-23T00:53:14Z</time>
   </trkpt>
   <trkpt lat="47.3818880" lon="-122.0475780">
    <ele>141.9</ele>
    <time>2021-07-23T00:53:15Z</time>
   </trkpt>
   <trkpt lat="47.3818990" lon="-122.0476280">
    <ele>141.9</ele>
    <time>2021-07-23T00:53:16Z</time>
   </trkpt>
   <trkpt lat="47.3819120" lon="-122.0476810">
    <ele>141.9</ele>
    <time>2021-07-23T00:53:17Z</time>
   </trkpt>
   <trkpt lat="47.3819270" lon="-122.0477340">
    <ele>141.9</ele>
    <time>2021-07-23T00:53:18Z</time>
   </trkpt>
   <trkpt lat="47.3819580" lon="-122.0477820">
    <ele>141.9</ele>
    <time>2021-07-23T00:53:19Z</time>
   </trkpt>
   <trkpt lat="47.3819820" lon="-122.0478190">
    <ele>141.9</ele>
    <time>2021-07-23T00:53:20Z</time>
   </trkpt>
   <trkpt lat="47.3819900" lon="-122.0478660">
    <ele>141.9</ele>
    <time>2021-07-23T00:53:21Z</time>
   </trkpt>
   <trkpt lat="47.3820110" lon="-122.0478960">
    <ele>141.9</ele>
    <time>2021-07-23T00:53:22Z</time>
   </trkpt>
   <trkpt lat="47.3820350" lon="-122.0479330">
    <ele>141.9</ele>
    <time>2021-07-23T00:53:23Z</time>
   </trkpt>
   <trkpt lat="47.3820630" lon="-122.0479710">
    <ele>141.8</ele>
    <time>2021-07-23T00:53:24Z</time>
   </trkpt>
   <trkpt lat="47.3820900" lon="-122.0480080">
    <ele>141.8</ele>
    <time>2021-07-23T00:53:25Z</time>
   </trkpt>
   <trkpt lat="47.3821140" lon="-122.0480520">
    <ele>141.8</ele>
    <time>2021-07-23T00:53:26Z</time>
   </trkpt>
   <trkpt lat="47.3821300" lon="-122.0481040">
    <ele>141.7</ele>
    <time>2021-07-23T00:53:27Z</time>
   </trkpt>
   <trkpt lat="47.3821470" lon="-122.0481640">
    <ele>141.7</ele>
    <time>2021-07-23T00:53:28Z</time>
   </trkpt>
   <trkpt lat="47.3821660" lon="-122.0482170">
    <ele>141.6</ele>
    <time>2021-07-23T00:53:29Z</time>
   </trkpt>
   <trkpt lat="47.3821850" lon="-122.0482680">
    <ele>141.6</ele>
    <time>2021-07-23T00:53:30Z</time>
   </trkpt>
   <trkpt lat="47.3822010" lon="-122.0483230">
    <ele>141.5</ele>
    <time>2021-07-23T00:53:31Z</time>
   </trkpt>
   <trkpt lat="47.3822180" lon="-122.0483590">
    <ele>141.4</ele>
    <time>2021-07-23T00:53:32Z</time>
   </trkpt>
   <trkpt lat="47.3822510" lon="-122.0483990">
    <ele>141.4</ele>
    <time>2021-07-23T00:53:33Z</time>
   </trkpt>
   <trkpt lat="47.3823050" lon="-122.0484230">
    <ele>141.3</ele>
    <time>2021-07-23T00:53:34Z</time>
   </trkpt>
   <trkpt lat="47.3823470" lon="-122.0484480">
    <ele>141.2</ele>
    <time>2021-07-23T00:53:35Z</time>
   </trkpt>
   <trkpt lat="47.3823770" lon="-122.0484760">
    <ele>141.1</ele>
    <time>2021-07-23T00:53:36Z</time>
   </trkpt>
   <trkpt lat="47.3824160" lon="-122.0484980">
    <ele>141.1</ele>
    <time>2021-07-23T00:53:37Z</time>
   </trkpt>
   <trkpt lat="47.3824510" lon="-122.0485240">
    <ele>141.0</ele>
    <time>2021-07-23T00:53:38Z</time>
   </trkpt>
   <trkpt lat="47.3824900" lon="-122.0485560">
    <ele>140.9</ele>
    <time>2021-07-23T00:53:39Z</time>
   </trkpt>
   <trkpt lat="47.3825220" lon="-122.0485790">
    <ele>140.8</ele>
    <time>2021-07-23T00:53:40Z</time>
   </trkpt>
   <trkpt lat="47.3825480" lon="-122.0486180">
    <ele>140.8</ele>
    <time>2021-07-23T00:53:41Z</time>
   </trkpt>
   <trkpt lat="47.3825880" lon="-122.0486410">
    <ele>140.7</ele>
    <time>2021-07-23T00:53:42Z</time>
   </trkpt>
   <trkpt lat="47.3826160" lon="-122.0486700">
    <ele>140.7</ele>
    <time>2021-07-23T00:53:43Z</time>
   </trkpt>
   <trkpt lat="47.3826460" lon="-122.0487050">
    <ele>140.6</ele>
    <time>2021-07-23T00:53:44Z</time>
   </trkpt>
   <trkpt lat="47.3826720" lon="-122.0487340">
    <ele>140.6</ele>
    <time>2021-07-23T00:53:45Z</time>
   </trkpt>
   <trkpt lat="47.3826920" lon="-122.0487670">
    <ele>140.5</ele>
    <time>2021-07-23T00:53:46Z</time>
   </trkpt>
   <trkpt lat="47.3827310" lon="-122.0487890">
    <ele>140.4</ele>
    <time>2021-07-23T00:53:47Z</time>
   </trkpt>
   <trkpt lat="47.3827580" lon="-122.0488250">
    <ele>140.4</ele>
    <time>2021-07-23T00:53:48Z</time>
   </trkpt>
   <trkpt lat="47.3827950" lon="-122.0488540">
    <ele>140.3</ele>
    <time>2021-07-23T00:53:49Z</time>
   </trkpt>
   <trkpt lat="47.3828300" lon="-122.0488710">
    <ele>140.2</ele>
    <time>2021-07-23T00:53:50Z</time>
   </trkpt>
   <trkpt lat="47.3828610" lon="-122.0489060">
    <ele>140.2</ele>
    <time>2021-07-23T00:53:51Z</time>
   </trkpt>
   <trkpt lat="47.3829000" lon="-122.0489280">
    <ele>140.1</ele>
    <time>2021-07-23T00:53:52Z</time>
   </trkpt>
   <trkpt lat="47.3829240" lon="-122.0489650">
    <ele>140.0</ele>
    <time>2021-07-23T00:53:53Z</time>
   </trkpt>
   <trkpt lat="47.3829590" lon="-122.0489910">
    <ele>140.0</ele>
    <time>2021-07-23T00:53:54Z</time>
   </trkpt>
   <trkpt lat="47.3829880" lon="-122.0490170">
    <ele>139.9</ele>
    <time>2021-07-23T00:53:56Z</time>
   </trkpt>
   <trkpt lat="47.3830280" lon="-122.0490490">
    <ele>139.8</ele>
    <time>2021-07-23T00:53:57Z</time>
   </trkpt>
   <trkpt lat="47.3830620" lon="-122.0490780">
    <ele>139.8</ele>
    <time>2021-07-23T00:53:58Z</time>
   </trkpt>
   <trkpt lat="47.3830870" lon="-122.0490990">
    <ele>139.7</ele>
    <time>2021-07-23T00:53:59Z</time>
   </trkpt>
   <trkpt lat="47.3831210" lon="-122.0491330">
    <ele>139.6</ele>
    <time>2021-07-23T00:54:00Z</time>
   </trkpt>
   <trkpt lat="47.3831610" lon="-122.0491720">
    <ele>139.5</ele>
    <time>2021-07-23T00:54:01Z</time>
   </trkpt>
   <trkpt lat="47.3831780" lon="-122.0491890">
    <ele>139.5</ele>
    <time>2021-07-23T00:54:02Z</time>
   </trkpt>
   <trkpt lat="47.3832060" lon="-122.0492030">
    <ele>139.4</ele>
    <time>2021-07-23T00:54:03Z</time>
   </trkpt>
   <trkpt lat="47.3832380" lon="-122.0492360">
    <ele>139.4</ele>
    <time>2021-07-23T00:54:04Z</time>
   </trkpt>
   <trkpt lat="47.3832700" lon="-122.0492500">
    <ele>139.3</ele>
    <time>2021-07-23T00:54:05Z</time>
   </trkpt>
   <trkpt lat="47.3833020" lon="-122.0492650">
    <ele>139.2</ele>
    <time>2021-07-23T00:54:06Z</time>
   </trkpt>
   <trkpt lat="47.3833310" lon="-122.0492880">
    <ele>139.2</ele>
    <time>2021-07-23T00:54:07Z</time>
   </trkpt>
   <trkpt lat="47.3833570" lon="-122.0493030">
    <ele>139.1</ele>
    <time>2021-07-23T00:54:08Z</time>
   </trkpt>
   <trkpt lat="47.3833870" lon="-122.0493340">
    <ele>139.1</ele>
    <time>2021-07-23T00:54:09Z</time>
   </trkpt>
   <trkpt lat="47.3834190" lon="-122.0493500">
    <ele>139.1</ele>
    <time>2021-07-23T00:54:10Z</time>
   </trkpt>
   <trkpt lat="47.3834490" lon="-122.0493800">
    <ele>139.0</ele>
    <time>2021-07-23T00:54:11Z</time>
   </trkpt>
   <trkpt lat="47.3834780" lon="-122.0494070">
    <ele>139.0</ele>
    <time>2021-07-23T00:54:12Z</time>
   </trkpt>
   <trkpt lat="47.3835120" lon="-122.0494180">
    <ele>139.0</ele>
    <time>2021-07-23T00:54:13Z</time>
   </trkpt>
   <trkpt lat="47.3835410" lon="-122.0494270">
    <ele>138.9</ele>
    <time>2021-07-23T00:54:14Z</time>
   </trkpt>
   <trkpt lat="47.3835730" lon="-122.0494570">
    <ele>138.9</ele>
    <time>2021-07-23T00:54:15Z</time>
   </trkpt>
   <trkpt lat="47.3836120" lon="-122.0494730">
    <ele>138.8</ele>
    <time>2021-07-23T00:54:16Z</time>
   </trkpt>
   <trkpt lat="47.3836430" lon="-122.0495000">
    <ele>138.8</ele>
    <time>2021-07-23T00:54:17Z</time>
   </trkpt>
   <trkpt lat="47.3836730" lon="-122.0495240">
    <ele>138.7</ele>
    <time>2021-07-23T00:54:18Z</time>
   </trkpt>
   <trkpt lat="47.3837060" lon="-122.0495410">
    <ele>138.7</ele>
    <time>2021-07-23T00:54:19Z</time>
   </trkpt>
   <trkpt lat="47.3837360" lon="-122.0495510">
    <ele>138.6</ele>
    <time>2021-07-23T00:54:20Z</time>
   </trkpt>
   <trkpt lat="47.3837790" lon="-122.0495730">
    <ele>138.5</ele>
    <time>2021-07-23T00:54:21Z</time>
   </trkpt>
   <trkpt lat="47.3837970" lon="-122.0495870">
    <ele>138.4</ele>
    <time>2021-07-23T00:54:22Z</time>
   </trkpt>
   <trkpt lat="47.3838200" lon="-122.0496080">
    <ele>138.4</ele>
    <time>2021-07-23T00:54:23Z</time>
   </trkpt>
   <trkpt lat="47.3838540" lon="-122.0496150">
    <ele>138.3</ele>
    <time>2021-07-23T00:54:24Z</time>
   </trkpt>
   <trkpt lat="47.3838800" lon="-122.0496340">
    <ele>138.2</ele>
    <time>2021-07-23T00:54:25Z</time>
   </trkpt>
   <trkpt lat="47.3839210" lon="-122.0496460">
    <ele>138.1</ele>
    <time>2021-07-23T00:54:26Z</time>
   </trkpt>
   <trkpt lat="47.3839600" lon="-122.0496570">
    <ele>138.0</ele>
    <time>2021-07-23T00:54:27Z</time>
   </trkpt>
   <trkpt lat="47.3839900" lon="-122.0496630">
    <ele>138.0</ele>
    <time>2021-07-23T00:54:28Z</time>
   </trkpt>
   <trkpt lat="47.3840200" lon="-122.0496850">
    <ele>137.9</ele>
    <time>2021-07-23T00:54:29Z</time>
   </trkpt>
   <trkpt lat="47.3840920" lon="-122.0497060">
    <ele>137.7</ele>
    <time>2021-07-23T00:54:30Z</time>
   </trkpt>
   <trkpt lat="47.3841250" lon="-122.0497260">
    <ele>137.7</ele>
    <time>2021-07-23T00:54:31Z</time>
   </trkpt>
   <trkpt lat="47.3841590" lon="-122.0497290">
    <ele>137.6</ele>
    <time>2021-07-23T00:54:32Z</time>
   </trkpt>
   <trkpt lat="47.3842000" lon="-122.0497420">
    <ele>137.5</ele>
    <time>2021-07-23T00:54:33Z</time>
   </trkpt>
   <trkpt lat="47.3842280" lon="-122.0497590">
    <ele>137.5</ele>
    <time>2021-07-23T00:54:34Z</time>
   </trkpt>
   <trkpt lat="47.3842730" lon="-122.0497650">
    <ele>137.4</ele>
    <time>2021-07-23T00:54:35Z</time>
   </trkpt>
   <trkpt lat="47.3843060" lon="-122.0497800">
    <ele>137.4</ele>
    <time>2021-07-23T00:54:36Z</time>
   </trkpt>
   <trkpt lat="47.3843380" lon="-122.0497810">
    <ele>137.4</ele>
    <time>2021-07-23T00:54:37Z</time>
   </trkpt>
   <trkpt lat="47.3843680" lon="-122.0497870">
    <ele>137.3</ele>
    <time>2021-07-23T00:54:38Z</time>
   </trkpt>
   <trkpt lat="47.3844050" lon="-122.0497950">
    <ele>137.3</ele>
    <time>2021-07-23T00:54:39Z</time>
   </trkpt>
   <trkpt lat="47.3844380" lon="-122.0498030">
    <ele>137.3</ele>
    <time>2021-07-23T00:54:40Z</time>
   </trkpt>
   <trkpt lat="47.3844760" lon="-122.0498170">
    <ele>137.2</ele>
    <time>2021-07-23T00:54:41Z</time>
   </trkpt>
   <trkpt lat="47.3845060" lon="-122.0498200">
    <ele>137.2</ele>
    <time>2021-07-23T00:54:42Z</time>
   </trkpt>
   <trkpt lat="47.3845340" lon="-122.0498160">
    <ele>137.2</ele>
    <time>2021-07-23T00:54:43Z</time>
   </trkpt>
   <trkpt lat="47.3845780" lon="-122.0498220">
    <ele>137.1</ele>
    <time>2021-07-23T00:54:44Z</time>
   </trkpt>
   <trkpt lat="47.3846180" lon="-122.0498400">
    <ele>137.1</ele>
    <time>2021-07-23T00:54:45Z</time>
   </trkpt>
   <trkpt lat="47.3846480" lon="-122.0498370">
    <ele>137.0</ele>
    <time>2021-07-23T00:54:46Z</time>
   </trkpt>
   <trkpt lat="47.3846860" lon="-122.0498480">
    <ele>136.9</ele>
    <time>2021-07-23T00:54:47Z</time>
   </trkpt>
   <trkpt lat="47.3846990" lon="-122.0498520">
    <ele>136.9</ele>
    <time>2021-07-23T00:54:48Z</time>
   </trkpt>
   <trkpt lat="47.3847360" lon="-122.0498590">
    <ele>136.8</ele>
    <time>2021-07-23T00:54:49Z</time>
   </trkpt>
   <trkpt lat="47.3847700" lon="-122.0498640">
    <ele>136.8</ele>
    <time>2021-07-23T00:54:50Z</time>
   </trkpt>
   <trkpt lat="47.3848070" lon="-122.0498760">
    <ele>136.7</ele>
    <time>2021-07-23T00:54:51Z</time>
   </trkpt>
   <trkpt lat="47.3848470" lon="-122.0498770">
    <ele>136.6</ele>
    <time>2021-07-23T00:54:52Z</time>
   </trkpt>
   <trkpt lat="47.3848830" lon="-122.0498960">
    <ele>136.5</ele>
    <time>2021-07-23T00:54:53Z</time>
   </trkpt>
   <trkpt lat="47.3849180" lon="-122.0498940">
    <ele>136.4</ele>
    <time>2021-07-23T00:54:54Z</time>
   </trkpt>
   <trkpt lat="47.3849580" lon="-122.0498930">
    <ele>136.3</ele>
    <time>2021-07-23T00:54:55Z</time>
   </trkpt>
   <trkpt lat="47.3849950" lon="-122.0499090">
    <ele>136.2</ele>
    <time>2021-07-23T00:54:56Z</time>
   </trkpt>
   <trkpt lat="47.3850310" lon="-122.0499130">
    <ele>136.2</ele>
    <time>2021-07-23T00:54:57Z</time>
   </trkpt>
   <trkpt lat="47.3850670" lon="-122.0499250">
    <ele>136.1</ele>
    <time>2021-07-23T00:54:58Z</time>
   </trkpt>
   <trkpt lat="47.3850950" lon="-122.0499280">
    <ele>136.1</ele>
    <time>2021-07-23T00:54:59Z</time>
   </trkpt>
   <trkpt lat="47.3851350" lon="-122.0499240">
    <ele>136.0</ele>
    <time>2021-07-23T00:55:00Z</time>
   </trkpt>
   <trkpt lat="47.3851740" lon="-122.0499400">
    <ele>135.9</ele>
    <time>2021-07-23T00:55:01Z</time>
   </trkpt>
   <trkpt lat="47.3852090" lon="-122.0499250">
    <ele>135.9</ele>
    <time>2021-07-23T00:55:02Z</time>
   </trkpt>
   <trkpt lat="47.3852460" lon="-122.0499370">
    <ele>135.8</ele>
    <time>2021-07-23T00:55:03Z</time>
   </trkpt>
   <trkpt lat="47.3852840" lon="-122.0499330">
    <ele>135.8</ele>
    <time>2021-07-23T00:55:04Z</time>
   </trkpt>
   <trkpt lat="47.3853110" lon="-122.0499330">
    <ele>135.7</ele>
    <time>2021-07-23T00:55:05Z</time>
   </trkpt>
   <trkpt lat="47.3853420" lon="-122.0499390">
    <ele>135.7</ele>
    <time>2021-07-23T00:55:06Z</time>
   </trkpt>
   <trkpt lat="47.3853760" lon="-122.0499320">
    <ele>135.6</ele>
    <time>2021-07-23T00:55:07Z</time>
   </trkpt>
   <trkpt lat="47.3854100" lon="-122.0499290">
    <ele>135.6</ele>
    <time>2021-07-23T00:55:08Z</time>
   </trkpt>
   <trkpt lat="47.3854440" lon="-122.0499230">
    <ele>135.5</ele>
    <time>2021-07-23T00:55:09Z</time>
   </trkpt>
   <trkpt lat="47.3854780" lon="-122.0499130">
    <ele>135.5</ele>
    <time>2021-07-23T00:55:10Z</time>
   </trkpt>
   <trkpt lat="47.3855230" lon="-122.0499110">
    <ele>135.4</ele>
    <time>2021-07-23T00:55:11Z</time>
   </trkpt>
   <trkpt lat="47.3855420" lon="-122.0499030">
    <ele>135.4</ele>
    <time>2021-07-23T00:55:12Z</time>
   </trkpt>
   <trkpt lat="47.3855820" lon="-122.0499020">
    <ele>135.3</ele>
    <time>2021-07-23T00:55:13Z</time>
   </trkpt>
   <trkpt lat="47.3856150" lon="-122.0498910">
    <ele>135.3</ele>
    <time>2021-07-23T00:55:14Z</time>
   </trkpt>
   <trkpt lat="47.3856510" lon="-122.0498810">
    <ele>135.2</ele>
    <time>2021-07-23T00:55:15Z</time>
   </trkpt>
   <trkpt lat="47.3856880" lon="-122.0498740">
    <ele>135.2</ele>
    <time>2021-07-23T00:55:16Z</time>
   </trkpt>
   <trkpt lat="47.3857150" lon="-122.0498580">
    <ele>135.1</ele>
    <time>2021-07-23T00:55:17Z</time>
   </trkpt>
   <trkpt lat="47.3857560" lon="-122.0498710">
    <ele>135.1</ele>
    <time>2021-07-23T00:55:18Z</time>
   </trkpt>
   <trkpt lat="47.3857930" lon="-122.0498590">
    <ele>135.0</ele>
    <time>2021-07-23T00:55:19Z</time>
   </trkpt>
   <trkpt lat="47.3858330" lon="-122.0498500">
    <ele>135.0</ele>
    <time>2021-07-23T00:55:20Z</time>
   </trkpt>
   <trkpt lat="47.3858680" lon="-122.0498500">
    <ele>135.0</ele>
    <time>2021-07-23T00:55:21Z</time>
   </trkpt>
   <trkpt lat="47.3859000" lon="-122.0498430">
    <ele>134.9</ele>
    <time>2021-07-23T00:55:22Z</time>
   </trkpt>
   <trkpt lat="47.3859350" lon="-122.0498420">
    <ele>134.9</ele>
    <time>2021-07-23T00:55:23Z</time>
   </trkpt>
   <trkpt lat="47.3859660" lon="-122.0498400">
    <ele>134.9</ele>
    <time>2021-07-23T00:55:24Z</time>
   </trkpt>
   <trkpt lat="47.3860050" lon="-122.0498290">
    <ele>134.8</ele>
    <time>2021-07-23T00:55:25Z</time>
   </trkpt>
   <trkpt lat="47.3860390" lon="-122.0498170">
    <ele>134.8</ele>
    <time>2021-07-23T00:55:26Z</time>
   </trkpt>
   <trkpt lat="47.3860730" lon="-122.0497920">
    <ele>134.7</ele>
    <time>2021-07-23T00:55:27Z</time>
   </trkpt>
   <trkpt lat="47.3861180" lon="-122.0497840">
    <ele>134.7</ele>
    <time>2021-07-23T00:55:28Z</time>
   </trkpt>
   <trkpt lat="47.3861550" lon="-122.0497790">
    <ele>134.6</ele>
    <time>2021-07-23T00:55:29Z</time>
   </trkpt>
   <trkpt lat="47.3861820" lon="-122.0497570">
    <ele>134.6</ele>
    <time>2021-07-23T00:55:30Z</time>
   </trkpt>
   <trkpt lat="47.3862200" lon="-122.0497620">
    <ele>134.6</ele>
    <time>2021-07-23T00:55:31Z</time>
   </trkpt>
   <trkpt lat="47.3862520" lon="-122.0497480">
    <ele>134.6</ele>
    <time>2021-07-23T00:55:32Z</time>
   </trkpt>
   <trkpt lat="47.3862890" lon="-122.0497420">
    <ele>134.6</ele>
    <time>2021-07-23T00:55:33Z</time>
   </trkpt>
   <trkpt lat="47.3863230" lon="-122.0497330">
    <ele>134.6</ele>
    <time>2021-07-23T00:55:34Z</time>
   </trkpt>
   <trkpt lat="47.3863550" lon="-122.0497210">
    <ele>134.5</ele>
    <time>2021-07-23T00:55:35Z</time>
   </trkpt>
   <trkpt lat="47.3863980" lon="-122.0497230">
    <ele>134.5</ele>
    <time>2021-07-23T00:55:36Z</time>
   </trkpt>
   <trkpt lat="47.3864310" lon="-122.0497050">
    <ele>134.5</ele>
    <time>2021-07-23T00:55:37Z</time>
   </trkpt>
   <trkpt lat="47.3864770" lon="-122.0496820">
    <ele>134.5</ele>
    <time>2021-07-23T00:55:38Z</time>
   </trkpt>
   <trkpt lat="47.3865160" lon="-122.0496700">
    <ele>134.4</ele>
    <time>2021-07-23T00:55:39Z</time>
   </trkpt>
   <trkpt lat="47.3865600" lon="-122.0496560">
    <ele>134.4</ele>
    <time>2021-07-23T00:55:40Z</time>
   </trkpt>
   <trkpt lat="47.3865910" lon="-122.0496410">
    <ele>134.4</ele>
    <time>2021-07-23T00:55:41Z</time>
   </trkpt>
   <trkpt lat="47.3866220" lon="-122.0496140">
    <ele>134.4</ele>
    <time>2021-07-23T00:55:42Z</time>
   </trkpt>
   <trkpt lat="47.3866560" lon="-122.0495970">
    <ele>134.3</ele>
    <time>2021-07-23T00:55:43Z</time>
   </trkpt>
   <trkpt lat="47.3866850" lon="-122.0495820">
    <ele>134.3</ele>
    <time>2021-07-23T00:55:44Z</time>
   </trkpt>
   <trkpt lat="47.3867210" lon="-122.0495700">
    <ele>134.3</ele>
    <time>2021-07-23T00:55:45Z</time>
   </trkpt>
   <trkpt lat="47.3867470" lon="-122.0495480">
    <ele>134.3</ele>
    <time>2021-07-23T00:55:46Z</time>
   </trkpt>
   <trkpt lat="47.3867750" lon="-122.0495210">
    <ele>134.3</ele>
    <time>2021-07-23T00:55:47Z</time>
   </trkpt>
   <trkpt lat="47.3868110" lon="-122.0494900">
    <ele>134.2</ele>
    <time>2021-07-23T00:55:48Z</time>
   </trkpt>
   <trkpt lat="47.3868300" lon="-122.0495240">
    <ele>134.3</ele>
    <time>2021-07-23T00:55:49Z</time>
   </trkpt>
   <trkpt lat="47.3868240" lon="-122.0495420">
    <ele>134.3</ele>
    <time>2021-07-23T00:55:50Z</time>
   </trkpt>
   <trkpt lat="47.3867790" lon="-122.0495640">
    <ele>134.3</ele>
    <time>2021-07-23T00:55:51Z</time>
   </trkpt>
   <trkpt lat="47.3867420" lon="-122.0495760">
    <ele>134.3</ele>
    <time>2021-07-23T00:55:52Z</time>
   </trkpt>
   <trkpt lat="47.3867040" lon="-122.0495870">
    <ele>134.3</ele>
    <time>2021-07-23T00:55:53Z</time>
   </trkpt>
   <trkpt lat="47.3866620" lon="-122.0496010">
    <ele>134.3</ele>
    <time>2021-07-23T00:55:54Z</time>
   </trkpt>
   <trkpt lat="47.3866440" lon="-122.0496050">
    <ele>134.4</ele>
    <time>2021-07-23T00:55:55Z</time>
   </trkpt>
   <trkpt lat="47.3866180" lon="-122.0496190">
    <ele>134.4</ele>
    <time>2021-07-23T00:55:56Z</time>
   </trkpt>
   <trkpt lat="47.3865820" lon="-122.0496440">
    <ele>134.4</ele>
    <time>2021-07-23T00:55:57Z</time>
   </trkpt>
   <trkpt lat="47.3865440" lon="-122.0496570">
    <ele>134.4</ele>
    <time>2021-07-23T00:55:58Z</time>
   </trkpt>
   <trkpt lat="47.3865140" lon="-122.0496720">
    <ele>134.4</ele>
    <time>2021-07-23T00:55:59Z</time>
   </trkpt>
   <trkpt lat="47.3864780" lon="-122.0496890">
    <ele>134.5</ele>
    <time>2021-07-23T00:56:00Z</time>
   </trkpt>
   <trkpt lat="47.3864520" lon="-122.0496990">
    <ele>134.5</ele>
    <time>2021-07-23T00:56:02Z</time>
   </trkpt>
   <trkpt lat="47.3864150" lon="-122.0497220">
    <ele>134.5</ele>
    <time>2021-07-23T00:56:03Z</time>
   </trkpt>
   <trkpt lat="47.3863750" lon="-122.0497310">
    <ele>134.5</ele>
    <time>2021-07-23T00:56:04Z</time>
   </trkpt>
   <trkpt lat="47.3863470" lon="-122.0497510">
    <ele>134.5</ele>
    <time>2021-07-23T00:56:05Z</time>
   </trkpt>
   <trkpt lat="47.3863060" lon="-122.0497740">
    <ele>134.6</ele>
    <time>2021-07-23T00:56:06Z</time>
   </trkpt>
   <trkpt lat="47.3862720" lon="-122.0497900">
    <ele>134.6</ele>
    <time>2021-07-23T00:56:07Z</time>
   </trkpt>
   <trkpt lat="47.3862330" lon="-122.0498070">
    <ele>134.6</ele>
    <time>2021-07-23T00:56:08Z</time>
   </trkpt>
   <trkpt lat="47.3861980" lon="-122.0498180">
    <ele>134.6</ele>
    <time>2021-07-23T00:56:09Z</time>
   </trkpt>
   <trkpt lat="47.3861600" lon="-122.0498340">
    <ele>134.7</ele>
    <time>2021-07-23T00:56:10Z</time>
   </trkpt>
   <trkpt lat="47.3861160" lon="-122.0498490">
    <ele>134.7</ele>
    <time>2021-07-23T00:56:11Z</time>
   </trkpt>
   <trkpt lat="47.3860820" lon="-122.0498660">
    <ele>134.7</ele>
    <time>2021-07-23T00:56:12Z</time>
   </trkpt>
   <trkpt lat="47.3860430" lon="-122.0498810">
    <ele>134.8</ele>
    <time>2021-07-23T00:56:13Z</time>
   </trkpt>
   <trkpt lat="47.3859960" lon="-122.0498900">
    <ele>134.8</ele>
    <time>2021-07-23T00:56:14Z</time>
   </trkpt>
   <trkpt lat="47.3859750" lon="-122.0498940">
    <ele>134.9</ele>
    <time>2021-07-23T00:56:15Z</time>
   </trkpt>
   <trkpt lat="47.3859470" lon="-122.0499030">
    <ele>134.9</ele>
    <time>2021-07-23T00:56:16Z</time>
   </trkpt>
   <trkpt lat="47.3859150" lon="-122.0499140">
    <ele>134.9</ele>
    <time>2021-07-23T00:56:17Z</time>
   </trkpt>
   <trkpt lat="47.3858800" lon="-122.0499170">
    <ele>135.0</ele>
    <time>2021-07-23T00:56:18Z</time>
   </trkpt>
   <trkpt lat="47.3858530" lon="-122.0499240">
    <ele>135.0</ele>
    <time>2021-07-23T00:56:19Z</time>
   </trkpt>
   <trkpt lat="47.3858130" lon="-122.0499320">
    <ele>135.0</ele>
    <time>2021-07-23T00:56:20Z</time>
   </trkpt>
   <trkpt lat="47.3857800" lon="-122.0499300">
    <ele>135.1</ele>
    <time>2021-07-23T00:56:21Z</time>
   </trkpt>
   <trkpt lat="47.3857500" lon="-122.0499240">
    <ele>135.1</ele>
    <time>2021-07-23T00:56:22Z</time>
   </trkpt>
   <trkpt lat="47.3857050" lon="-122.0499380">
    <ele>135.2</ele>
    <time>2021-07-23T00:56:23Z</time>
   </trkpt>
   <trkpt lat="47.3856730" lon="-122.0499490">
    <ele>135.2</ele>
    <time>2021-07-23T00:56:24Z</time>
   </trkpt>
   <trkpt lat="47.3856290" lon="-122.0499520">
    <ele>135.3</ele>
    <time>2021-07-23T00:56:25Z</time>
   </trkpt>
   <trkpt lat="47.3855980" lon="-122.0499570">
    <ele>135.3</ele>
    <time>2021-07-23T00:56:26Z</time>
   </trkpt>
   <trkpt lat="47.3855560" lon="-122.0499530">
    <ele>135.4</ele>
    <time>2021-07-23T00:56:27Z</time>
   </trkpt>
   <trkpt lat="47.3855260" lon="-122.0499600">
    <ele>135.4</ele>
    <time>2021-07-23T00:56:28Z</time>
   </trkpt>
   <trkpt lat="47.3854960" lon="-122.0499670">
    <ele>135.5</ele>
    <time>2021-07-23T00:56:29Z</time>
   </trkpt>
   <trkpt lat="47.3854650" lon="-122.0499650">
    <ele>135.5</ele>
    <time>2021-07-23T00:56:30Z</time>
   </trkpt>
   <trkpt lat="47.3854290" lon="-122.0499770">
    <ele>135.6</ele>
    <time>2021-07-23T00:56:31Z</time>
   </trkpt>
   <trkpt lat="47.3853920" lon="-122.0499640">
    <ele>135.6</ele>
    <time>2021-07-23T00:56:32Z</time>
   </trkpt>
   <trkpt lat="47.3853620" lon="-122.0499680">
    <ele>135.7</ele>
    <time>2021-07-23T00:56:33Z</time>
   </trkpt>
   <trkpt lat="47.3853210" lon="-122.0499700">
    <ele>135.7</ele>
    <time>2021-07-23T00:56:34Z</time>
   </trkpt>
   <trkpt lat="47.3852840" lon="-122.0499660">
    <ele>135.8</ele>
    <time>2021-07-23T00:56:35Z</time>
   </trkpt>
   <trkpt lat="47.3852520" lon="-122.0499730">
    <ele>135.8</ele>
    <time>2021-07-23T00:56:36Z</time>
   </trkpt>
   <trkpt lat="47.3852160" lon="-122.0499730">
    <ele>135.9</ele>
    <time>2021-07-23T00:56:37Z</time>
   </trkpt>
   <trkpt lat="47.3851430" lon="-122.0499660">
    <ele>136.0</ele>
    <time>2021-07-23T00:56:38Z</time>
   </trkpt>
   <trkpt lat="47.3851070" lon="-122.0499620">
    <ele>136.1</ele>
    <time>2021-07-23T00:56:39Z</time>
   </trkpt>
   <trkpt lat="47.3850650" lon="-122.0499610">
    <ele>136.1</ele>
    <time>2021-07-23T00:56:40Z</time>
   </trkpt>
   <trkpt lat="47.3850480" lon="-122.0499580">
    <ele>136.2</ele>
    <time>2021-07-23T00:56:41Z</time>
   </trkpt>
   <trkpt lat="47.3850190" lon="-122.0499830">
    <ele>136.2</ele>
    <time>2021-07-23T00:56:42Z</time>
   </trkpt>
   <trkpt lat="47.3849830" lon="-122.0499640">
    <ele>136.3</ele>
    <time>2021-07-23T00:56:43Z</time>
   </trkpt>
   <trkpt lat="47.3849470" lon="-122.0499430">
    <ele>136.4</ele>
    <time>2021-07-23T00:56:44Z</time>
   </trkpt>
   <trkpt lat="47.3849090" lon="-122.0499480">
    <ele>136.4</ele>
    <time>2021-07-23T00:56:45Z</time>
   </trkpt>
   <trkpt lat="47.3848830" lon="-122.0499390">
    <ele>136.5</ele>
    <time>2021-07-23T00:56:46Z</time>
   </trkpt>
   <trkpt lat="47.3848550" lon="-122.0499340">
    <ele>136.6</ele>
    <time>2021-07-23T00:56:47Z</time>
   </trkpt>
   <trkpt lat="47.3848150" lon="-122.0499300">
    <ele>136.7</ele>
    <time>2021-07-23T00:56:48Z</time>
   </trkpt>
   <trkpt lat="47.3847780" lon="-122.0499200">
    <ele>136.7</ele>
    <time>2021-07-23T00:56:49Z</time>
   </trkpt>
   <trkpt lat="47.3847430" lon="-122.0499130">
    <ele>136.8</ele>
    <time>2021-07-23T00:56:50Z</time>
   </trkpt>
   <trkpt lat="47.3847130" lon="-122.0498970">
    <ele>136.9</ele>
    <time>2021-07-23T00:56:51Z</time>
   </trkpt>
   <trkpt lat="47.3846760" lon="-122.0498940">
    <ele>137.0</ele>
    <time>2021-07-23T00:56:52Z</time>
   </trkpt>
   <trkpt lat="47.3846410" lon="-122.0499000">
    <ele>137.0</ele>
    <time>2021-07-23T00:56:53Z</time>
   </trkpt>
   <trkpt lat="47.3846030" lon="-122.0499060">
    <ele>137.1</ele>
    <time>2021-07-23T00:56:54Z</time>
   </trkpt>
   <trkpt lat="47.3845690" lon="-122.0499120">
    <ele>137.1</ele>
    <time>2021-07-23T00:56:55Z</time>
   </trkpt>
   <trkpt lat="47.3845280" lon="-122.0498920">
    <ele>137.2</ele>
    <time>2021-07-23T00:56:56Z</time>
   </trkpt>
   <trkpt lat="47.3844920" lon="-122.0498810">
    <ele>137.2</ele>
    <time>2021-07-23T00:56:57Z</time>
   </trkpt>
   <trkpt lat="47.3844480" lon="-122.0498730">
    <ele>137.2</ele>
    <time>2021-07-23T00:56:58Z</time>
   </trkpt>
   <trkpt lat="47.3844080" lon="-122.0498780">
    <ele>137.3</ele>
    <time>2021-07-23T00:56:59Z</time>
   </trkpt>
   <trkpt lat="47.3843910" lon="-122.0498780">
    <ele>137.3</ele>
    <time>2021-07-23T00:57:00Z</time>
   </trkpt>
   <trkpt lat="47.3843520" lon="-122.0498620">
    <ele>137.3</ele>
    <time>2021-07-23T00:57:01Z</time>
   </trkpt>
   <trkpt lat="47.3843150" lon="-122.0498460">
    <ele>137.4</ele>
    <time>2021-07-23T00:57:02Z</time>
   </trkpt>
   <trkpt lat="47.3842770" lon="-122.0498320">
    <ele>137.4</ele>
    <time>2021-07-23T00:57:03Z</time>
   </trkpt>
   <trkpt lat="47.3842470" lon="-122.0498090">
    <ele>137.5</ele>
    <time>2021-07-23T00:57:04Z</time>
   </trkpt>
   <trkpt lat="47.3842110" lon="-122.0498070">
    <ele>137.5</ele>
    <time>2021-07-23T00:57:05Z</time>
   </trkpt>
   <trkpt lat="47.3841820" lon="-122.0498000">
    <ele>137.5</ele>
    <time>2021-07-23T00:57:06Z</time>
   </trkpt>
   <trkpt lat="47.3841530" lon="-122.0497850">
    <ele>137.6</ele>
    <time>2021-07-23T00:57:07Z</time>
   </trkpt>
   <trkpt lat="47.3841210" lon="-122.0497780">
    <ele>137.7</ele>
    <time>2021-07-23T00:57:08Z</time>
   </trkpt>
   <trkpt lat="47.3840890" lon="-122.0497620">
    <ele>137.7</ele>
    <time>2021-07-23T00:57:09Z</time>
   </trkpt>
   <trkpt lat="47.3840550" lon="-122.0497330">
    <ele>137.8</ele>
    <time>2021-07-23T00:57:10Z</time>
   </trkpt>
   <trkpt lat="47.3840210" lon="-122.0497170">
    <ele>137.9</ele>
    <time>2021-07-23T00:57:11Z</time>
   </trkpt>
   <trkpt lat="47.3839850" lon="-122.0497050">
    <ele>138.0</ele>
    <time>2021-07-23T00:57:12Z</time>
   </trkpt>
   <trkpt lat="47.3839540" lon="-122.0496870">
    <ele>138.0</ele>
    <time>2021-07-23T00:57:13Z</time>
   </trkpt>
   <trkpt lat="47.3839280" lon="-122.0496760">
    <ele>138.1</ele>
    <time>2021-07-23T00:57:14Z</time>
   </trkpt>
   <trkpt lat="47.3838990" lon="-122.0496640">
    <ele>138.2</ele>
    <time>2021-07-23T00:57:15Z</time>
   </trkpt>
   <trkpt lat="47.3838670" lon="-122.0496590">
    <ele>138.3</ele>
    <time>2021-07-23T00:57:16Z</time>
   </trkpt>
   <trkpt lat="47.3838370" lon="-122.0496530">
    <ele>138.3</ele>
    <time>2021-07-23T00:57:17Z</time>
   </trkpt>
   <trkpt lat="47.3837990" lon="-122.0496390">
    <ele>138.4</ele>
    <time>2021-07-23T00:57:18Z</time>
   </trkpt>
   <trkpt lat="47.3837610" lon="-122.0496290">
    <ele>138.5</ele>
    <time>2021-07-23T00:57:19Z</time>
   </trkpt>
   <trkpt lat="47.3837310" lon="-122.0496150">
    <ele>138.6</ele>
    <time>2021-07-23T00:57:20Z</time>
   </trkpt>
   <trkpt lat="47.3837020" lon="-122.0496020">
    <ele>138.6</ele>
    <time>2021-07-23T00:57:21Z</time>
   </trkpt>
   <trkpt lat="47.3836700" lon="-122.0495650">
    <ele>138.7</ele>
    <time>2021-07-23T00:57:22Z</time>
   </trkpt>
   <trkpt lat="47.3836430" lon="-122.0495480">
    <ele>138.8</ele>
    <time>2021-07-23T00:57:23Z</time>
   </trkpt>
   <trkpt lat="47.3836130" lon="-122.0495320">
    <ele>138.8</ele>
    <time>2021-07-23T00:57:24Z</time>
   </trkpt>
   <trkpt lat="47.3835750" lon="-122.0495160">
    <ele>138.9</ele>
    <time>2021-07-23T00:57:25Z</time>
   </trkpt>
   <trkpt lat="47.3835390" lon="-122.0495040">
    <ele>138.9</ele>
    <time>2021-07-23T00:57:26Z</time>
   </trkpt>
   <trkpt lat="47.3835040" lon="-122.0494720">
    <ele>139.0</ele>
    <time>2021-07-23T00:57:27Z</time>
   </trkpt>
   <trkpt lat="47.3834760" lon="-122.0494580">
    <ele>139.0</ele>
    <time>2021-07-23T00:57:28Z</time>
   </trkpt>
   <trkpt lat="47.3834320" lon="-122.0494370">
    <ele>139.0</ele>
    <time>2021-07-23T00:57:29Z</time>
   </trkpt>
   <trkpt lat="47.3833990" lon="-122.0494270">
    <ele>139.1</ele>
    <time>2021-07-23T00:57:30Z</time>
   </trkpt>
   <trkpt lat="47.3833690" lon="-122.0493970">
    <ele>139.1</ele>
    <time>2021-07-23T00:57:31Z</time>
   </trkpt>
   <trkpt lat="47.3833280" lon="-122.0493680">
    <ele>139.2</ele>
    <time>2021-07-23T00:57:32Z</time>
   </trkpt>
   <trkpt lat="47.3833000" lon="-122.0493420">
    <ele>139.2</ele>
    <time>2021-07-23T00:57:33Z</time>
   </trkpt>
   <trkpt lat="47.3832720" lon="-122.0493140">
    <ele>139.3</ele>
    <time>2021-07-23T00:57:34Z</time>
   </trkpt>
   <trkpt lat="47.3832420" lon="-122.0492950">
    <ele>139.3</ele>
    <time>2021-07-23T00:57:35Z</time>
   </trkpt>
   <trkpt lat="47.3832150" lon="-122.0492730">
    <ele>139.4</ele>
    <time>2021-07-23T00:57:36Z</time>
   </trkpt>
   <trkpt lat="47.3831820" lon="-122.0492550">
    <ele>139.4</ele>
    <time>2021-07-23T00:57:37Z</time>
   </trkpt>
   <trkpt lat="47.3831450" lon="-122.0492430">
    <ele>139.5</ele>
    <time>2021-07-23T00:57:38Z</time>
   </trkpt>
   <trkpt lat="47.3831080" lon="-122.0492150">
    <ele>139.6</ele>
    <time>2021-07-23T00:57:39Z</time>
   </trkpt>
   <trkpt lat="47.3830760" lon="-122.0491880">
    <ele>139.7</ele>
    <time>2021-07-23T00:57:40Z</time>
   </trkpt>
   <trkpt lat="47.3830500" lon="-122.0491600">
    <ele>139.7</ele>
    <time>2021-07-23T00:57:41Z</time>
   </trkpt>
   <trkpt lat="47.3830250" lon="-122.0491240">
    <ele>139.8</ele>
    <time>2021-07-23T00:57:42Z</time>
   </trkpt>
   <trkpt lat="47.3829880" lon="-122.0491100">
    <ele>139.9</ele>
    <time>2021-07-23T00:57:43Z</time>
   </trkpt>
   <trkpt lat="47.3829600" lon="-122.0490770">
    <ele>139.9</ele>
    <time>2021-07-23T00:57:44Z</time>
   </trkpt>
   <trkpt lat="47.3829320" lon="-122.0490560">
    <ele>140.0</ele>
    <time>2021-07-23T00:57:45Z</time>
   </trkpt>
   <trkpt lat="47.3829030" lon="-122.0490290">
    <ele>140.1</ele>
    <time>2021-07-23T00:57:46Z</time>
   </trkpt>
   <trkpt lat="47.3828810" lon="-122.0489900">
    <ele>140.1</ele>
    <time>2021-07-23T00:57:47Z</time>
   </trkpt>
   <trkpt lat="47.3828500" lon="-122.0489630">
    <ele>140.2</ele>
    <time>2021-07-23T00:57:48Z</time>
   </trkpt>
   <trkpt lat="47.3828210" lon="-122.0489220">
    <ele>140.2</ele>
    <time>2021-07-23T00:57:49Z</time>
   </trkpt>
   <trkpt lat="47.3827960" lon="-122.0489020">
    <ele>140.3</ele>
    <time>2021-07-23T00:57:50Z</time>
   </trkpt>
   <trkpt lat="47.3827740" lon="-122.0488730">
    <ele>140.3</ele>
    <time>2021-07-23T00:57:51Z</time>
   </trkpt>
   <trkpt lat="47.3827490" lon="-122.0488500">
    <ele>140.4</ele>
    <time>2021-07-23T00:57:52Z</time>
   </trkpt>
   <trkpt lat="47.3827120" lon="-122.0488420">
    <ele>140.5</ele>
    <time>2021-07-23T00:57:53Z</time>
   </trkpt>
   <trkpt lat="47.3826750" lon="-122.0488150">
    <ele>140.5</ele>
    <time>2021-07-23T00:57:54Z</time>
   </trkpt>
   <trkpt lat="47.3826440" lon="-122.0487780">
    <ele>140.6</ele>
    <time>2021-07-23T00:57:55Z</time>
   </trkpt>
   <trkpt lat="47.3826230" lon="-122.0487440">
    <ele>140.6</ele>
    <time>2021-07-23T00:57:56Z</time>
   </trkpt>
   <trkpt lat="47.3825980" lon="-122.0487150">
    <ele>140.7</ele>
    <time>2021-07-23T00:57:57Z</time>
   </trkpt>
   <trkpt lat="47.3825650" lon="-122.0486800">
    <ele>140.7</ele>
    <time>2021-07-23T00:57:58Z</time>
   </trkpt>
   <trkpt lat="47.3825310" lon="-122.0486410">
    <ele>140.8</ele>
    <time>2021-07-23T00:57:59Z</time>
   </trkpt>
   <trkpt lat="47.3825060" lon="-122.0486020">
    <ele>140.9</ele>
    <time>2021-07-23T00:58:00Z</time>
   </trkpt>
   <trkpt lat="47.3824720" lon="-122.0485570">
    <ele>141.0</ele>
    <time>2021-07-23T00:58:01Z</time>
   </trkpt>
   <trkpt lat="47.3824400" lon="-122.0485200">
    <ele>141.0</ele>
    <time>2021-07-23T00:58:02Z</time>
   </trkpt>
   <trkpt lat="47.3824270" lon="-122.0485030">
    <ele>141.1</ele>
    <time>2021-07-23T00:58:03Z</time>
   </trkpt>
   <trkpt lat="47.3823900" lon="-122.0484680">
    <ele>141.1</ele>
    <time>2021-07-23T00:58:04Z</time>
   </trkpt>
   <trkpt lat="47.3823550" lon="-122.0484280">
    <ele>141.2</ele>
    <time>2021-07-23T00:58:05Z</time>
   </trkpt>
   <trkpt lat="47.3823250" lon="-122.0483940">
    <ele>141.3</ele>
    <time>2021-07-23T00:58:06Z</time>
   </trkpt>
   <trkpt lat="47.3822980" lon="-122.0483510">
    <ele>141.3</ele>
    <time>2021-07-23T00:58:08Z</time>
   </trkpt>
   <trkpt lat="47.3822610" lon="-122.0483310">
    <ele>141.4</ele>
    <time>2021-07-23T00:58:09Z</time>
   </trkpt>
   <trkpt lat="47.3822330" lon="-122.0483040">
    <ele>141.4</ele>
    <time>2021-07-23T00:58:10Z</time>
   </trkpt>
   <trkpt lat="47.3822010" lon="-122.0482760">
    <ele>141.5</ele>
    <time>2021-07-23T00:58:11Z</time>
   </trkpt>
   <trkpt lat="47.3821660" lon="-122.0482530">
    <ele>141.6</ele>
    <time>2021-07-23T00:58:12Z</time>
   </trkpt>
   <trkpt lat="47.3821350" lon="-122.0482240">
    <ele>141.6</ele>
    <time>2021-07-23T00:58:13Z</time>
   </trkpt>
   <trkpt lat="47.3821040" lon="-122.0481910">
    <ele>141.7</ele>
    <time>2021-07-23T00:58:14Z</time>
   </trkpt>
   <trkpt lat="47.3820720" lon="-122.0481560">
    <ele>141.8</ele>
    <time>2021-07-23T00:58:15Z</time>
   </trkpt>
   <trkpt lat="47.3820430" lon="-122.0481120">
    <ele>141.8</ele>
    <time>2021-07-23T00:58:16Z</time>
   </trkpt>
   <trkpt lat="47.3820130" lon="-122.0480780">
    <ele>141.8</ele>
    <time>2021-07-23T00:58:17Z</time>
   </trkpt>
   <trkpt lat="47.3819710" lon="-122.0480500">
    <ele>141.8</ele>
    <time>2021-07-23T00:58:18Z</time>
   </trkpt>
   <trkpt lat="47.3819380" lon="-122.0480290">
    <ele>141.9</ele>
    <time>2021-07-23T00:58:19Z</time>
   </trkpt>
   <trkpt lat="47.3819020" lon="-122.0480070">
    <ele>141.9</ele>
    <time>2021-07-23T00:58:20Z</time>
   </trkpt>
   <trkpt lat="47.3818680" lon="-122.0479770">
    <ele>141.9</ele>
    <time>2021-07-23T00:58:21Z</time>
   </trkpt>
   <trkpt lat="47.3818850" lon="-122.0478310">
    <ele>141.9</ele>
    <time>2021-07-23T00:58:22Z</time>
   </trkpt>
   <trkpt lat="47.3818630" lon="-122.0477900">
    <ele>141.9</ele>
    <time>2021-07-23T00:58:23Z</time>
   </trkpt>
   <trkpt lat="47.3818540" lon="-122.0477620">
    <ele>141.9</ele>
    <time>2021-07-23T00:58:24Z</time>
   </trkpt>
   <trkpt lat="47.3818270" lon="-122.0477250">
    <ele>141.9</ele>
    <time>2021-07-23T00:58:25Z</time>
   </trkpt>
   <trkpt lat="47.3818010" lon="-122.0476730">
    <ele>141.9</ele>
    <time>2021-07-23T00:58:26Z</time>
   </trkpt>
   <trkpt lat="47.3817750" lon="-122.0476360">
    <ele>141.9</ele>
    <time>2021-07-23T00:58:27Z</time>
   </trkpt>
   <trkpt lat="47.3817510" lon="-122.0475930">
    <ele>141.8</ele>
    <time>2021-07-23T00:58:28Z</time>
   </trkpt>
   <trkpt lat="47.3817280" lon="-122.0475400">
    <ele>141.8</ele>
    <time>2021-07-23T00:58:29Z</time>
   </trkpt>
   <trkpt lat="47.3817130" lon="-122.0475020">
    <ele>141.9</ele>
    <time>2021-07-23T00:58:30Z</time>
   </trkpt>
   <trkpt lat="47.3816960" lon="-122.0474600">
    <ele>141.9</ele>
    <time>2021-07-23T00:58:31Z</time>
   </trkpt>
   <trkpt lat="47.3816660" lon="-122.0473720">
    <ele>141.9</ele>
    <time>2021-07-23T00:58:32Z</time>
   </trkpt>
   <trkpt lat="47.3816510" lon="-122.0473290">
    <ele>141.9</ele>
    <time>2021-07-23T00:58:33Z</time>
   </trkpt>
   <trkpt lat="47.3816280" lon="-122.0472720">
    <ele>142.0</ele>
    <time>2021-07-23T00:58:34Z</time>
   </trkpt>
   <trkpt lat="47.3816150" lon="-122.0472490">
    <ele>142.0</ele>
    <time>2021-07-23T00:58:35Z</time>
   </trkpt>
   <trkpt lat="47.3816090" lon="-122.0471830">
    <ele>142.0</ele>
    <time>2021-07-23T00:58:36Z</time>
   </trkpt>
   <trkpt lat="47.3816040" lon="-122.0471560">
    <ele>142.0</ele>
    <time>2021-07-23T00:58:37Z</time>
   </trkpt>
   <trkpt lat="47.3815810" lon="-122.0471170">
    <ele>142.1</ele>
    <time>2021-07-23T00:58:38Z</time>
   </trkpt>
   <trkpt lat="47.3815690" lon="-122.0470710">
    <ele>142.1</ele>
    <time>2021-07-23T00:58:39Z</time>
   </trkpt>
   <trkpt lat="47.3815570" lon="-122.0470180">
    <ele>142.1</ele>
    <time>2021-07-23T00:58:40Z</time>
   </trkpt>
   <trkpt lat="47.3815300" lon="-122.0469790">
    <ele>142.2</ele>
    <time>2021-07-23T00:58:41Z</time>
   </trkpt>
   <trkpt lat="47.3815110" lon="-122.0469400">
    <ele>142.2</ele>
    <time>2021-07-23T00:58:42Z</time>
   </trkpt>
   <trkpt lat="47.3814920" lon="-122.0469060">
    <ele>142.2</ele>
    <time>2021-07-23T00:58:43Z</time>
   </trkpt>
   <trkpt lat="47.3814760" lon="-122.0468650">
    <ele>142.3</ele>
    <time>2021-07-23T00:58:44Z</time>
   </trkpt>
   <trkpt lat="47.3814560" lon="-122.0468270">
    <ele>142.3</ele>
    <time>2021-07-23T00:58:45Z</time>
   </trkpt>
   <trkpt lat="47.3814340" lon="-122.0467890">
    <ele>142.4</ele>
    <time>2021-07-23T00:58:46Z</time>
   </trkpt>
   <trkpt lat="47.3814150" lon="-122.0467350">
    <ele>142.4</ele>
    <time>2021-07-23T00:58:47Z</time>
   </trkpt>
   <trkpt lat="47.3813990" lon="-122.0466670">
    <ele>142.5</ele>
    <time>2021-07-23T00:58:48Z</time>
   </trkpt>
   <trkpt lat="47.3813890" lon="-122.0466360">
    <ele>142.5</ele>
    <time>2021-07-23T00:58:49Z</time>
   </trkpt>
   <trkpt lat="47.3813750" lon="-122.0466000">
    <ele>142.6</ele>
    <time>2021-07-23T00:58:50Z</time>
   </trkpt>
   <trkpt lat="47.3813650" lon="-122.0465580">
    <ele>142.6</ele>
    <time>2021-07-23T00:58:51Z</time>
   </trkpt>
   <trkpt lat="47.3813500" lon="-122.0465180">
    <ele>142.7</ele>
    <time>2021-07-23T00:58:52Z</time>
   </trkpt>
   <trkpt lat="47.3813420" lon="-122.0464570">
    <ele>142.7</ele>
    <time>2021-07-23T00:58:53Z</time>
   </trkpt>
   <trkpt lat="47.3813390" lon="-122.0464280">
    <ele>142.7</ele>
    <time>2021-07-23T00:58:54Z</time>
   </trkpt>
   <trkpt lat="47.3813190" lon="-122.0463890">
    <ele>142.8</ele>
    <time>2021-07-23T00:58:55Z</time>
   </trkpt>
   <trkpt lat="47.3813020" lon="-122.0463400">
    <ele>142.8</ele>
    <time>2021-07-23T00:58:56Z</time>
   </trkpt>
   <trkpt lat="47.3812930" lon="-122.0462920">
    <ele>142.8</ele>
    <time>2021-07-23T00:58:57Z</time>
   </trkpt>
   <trkpt lat="47.3812840" lon="-122.0462500">
    <ele>142.9</ele>
    <time>2021-07-23T00:58:58Z</time>
   </trkpt>
   <trkpt lat="47.3812750" lon="-122.0462020">
    <ele>142.9</ele>
    <time>2021-07-23T00:58:59Z</time>
   </trkpt>
   <trkpt lat="47.3812630" lon="-122.0461610">
    <ele>142.9</ele>
    <time>2021-07-23T00:59:00Z</time>
   </trkpt>
   <trkpt lat="47.3812470" lon="-122.0461250">
    <ele>143.0</ele>
    <time>2021-07-23T00:59:01Z</time>
   </trkpt>
   <trkpt lat="47.3812380" lon="-122.0460840">
    <ele>143.0</ele>
    <time>2021-07-23T00:59:02Z</time>
   </trkpt>
   <trkpt lat="47.3812200" lon="-122.0460450">
    <ele>143.0</ele>
    <time>2021-07-23T00:59:03Z</time>
   </trkpt>
   <trkpt lat="47.3812120" lon="-122.0459920">
    <ele>143.1</ele>
    <time>2021-07-23T00:59:04Z</time>
   </trkpt>
   <trkpt lat="47.3811990" lon="-122.0459510">
    <ele>143.1</ele>
    <time>2021-07-23T00:59:05Z</time>
   </trkpt>
   <trkpt lat="47.3811910" lon="-122.0459030">
    <ele>143.2</ele>
    <time>2021-07-23T00:59:06Z</time>
   </trkpt>
   <trkpt lat="47.3811770" lon="-122.0458560">
    <ele>143.2</ele>
    <time>2021-07-23T00:59:07Z</time>
   </trkpt>
   <trkpt lat="47.3811700" lon="-122.0458360">
    <ele>143.2</ele>
    <time>2021-07-23T00:59:08Z</time>
   </trkpt>
   <trkpt lat="47.3811580" lon="-122.0457920">
    <ele>143.3</ele>
    <time>2021-07-23T00:59:09Z</time>
   </trkpt>
   <trkpt lat="47.3811460" lon="-122.0457510">
    <ele>143.3</ele>
    <time>2021-07-23T00:59:10Z</time>
   </trkpt>
   <trkpt lat="47.3811370" lon="-122.0457060">
    <ele>143.4</ele>
    <time>2021-07-23T00:59:11Z</time>
   </trkpt>
   <trkpt lat="47.3811300" lon="-122.0456470">
    <ele>143.4</ele>
    <time>2021-07-23T00:59:12Z</time>
   </trkpt>
   <trkpt lat="47.3811250" lon="-122.0456270">
    <ele>143.4</ele>
    <time>2021-07-23T00:59:13Z</time>
   </trkpt>
   <trkpt lat="47.3811200" lon="-122.0455810">
    <ele>143.5</ele>
    <time>2021-07-23T00:59:14Z</time>
   </trkpt>
   <trkpt lat="47.3811070" lon="-122.0455330">
    <ele>143.5</ele>
    <time>2021-07-23T00:59:15Z</time>
   </trkpt>
   <trkpt lat="47.3810920" lon="-122.0454800">
    <ele>143.5</ele>
    <time>2021-07-23T00:59:16Z</time>
   </trkpt>
   <trkpt lat="47.3810880" lon="-122.0454370">
    <ele>143.6</ele>
    <time>2021-07-23T00:59:17Z</time>
   </trkpt>
   <trkpt lat="47.3810800" lon="-122.0453890">
    <ele>143.6</ele>
    <time>2021-07-23T00:59:18Z</time>
   </trkpt>
   <trkpt lat="47.3810820" lon="-122.0453410">
    <ele>143.7</ele>
    <time>2021-07-23T00:59:19Z</time>
   </trkpt>
   <trkpt lat="47.3810750" lon="-122.0452920">
    <ele>143.7</ele>
    <time>2021-07-23T00:59:20Z</time>
   </trkpt>
   <trkpt lat="47.3810630" lon="-122.0452310">
    <ele>143.8</ele>
    <time>2021-07-23T00:59:21Z</time>
   </trkpt>
   <trkpt lat="47.3810470" lon="-122.0451820">
    <ele>143.8</ele>
    <time>2021-07-23T00:59:22Z</time>
   </trkpt>
   <trkpt lat="47.3810540" lon="-122.0451260">
    <ele>143.9</ele>
    <time>2021-07-23T00:59:23Z</time>
   </trkpt>
   <trkpt lat="47.3810480" lon="-122.0450750">
    <ele>143.9</ele>
    <time>2021-07-23T00:59:24Z</time>
   </trkpt>
   <trkpt lat="47.3810470" lon="-122.0450220">
    <ele>144.0</ele>
    <time>2021-07-23T00:59:25Z</time>
   </trkpt>
   <trkpt lat="47.3810250" lon="-122.0449810">
    <ele>144.0</ele>
    <time>2021-07-23T00:59:26Z</time>
   </trkpt>
   <trkpt lat="47.3810220" lon="-122.0449220">
    <ele>144.1</ele>
    <time>2021-07-23T00:59:27Z</time>
   </trkpt>
   <trkpt lat="47.3810070" lon="-122.0448730">
    <ele>144.1</ele>
    <time>2021-07-23T00:59:28Z</time>
   </trkpt>
   <trkpt lat="47.3810060" lon="-122.0448150">
    <ele>144.1</ele>
    <time>2021-07-23T00:59:29Z</time>
   </trkpt>
   <trkpt lat="47.3810070" lon="-122.0447930">
    <ele>144.2</ele>
    <time>2021-07-23T00:59:30Z</time>
   </trkpt>
   <trkpt lat="47.3809910" lon="-122.0447400">
    <ele>144.2</ele>
    <time>2021-07-23T00:59:31Z</time>
   </trkpt>
   <trkpt lat="47.3809850" lon="-122.0446800">
    <ele>144.3</ele>
    <time>2021-07-23T00:59:32Z</time>
   </trkpt>
   <trkpt lat="47.3809810" lon="-122.0446580">
    <ele>144.3</ele>
    <time>2021-07-23T00:59:33Z</time>
   </trkpt>
   <trkpt lat="47.3809980" lon="-122.0446160">
    <ele>144.3</ele>
    <time>2021-07-23T00:59:34Z</time>
   </trkpt>
   <trkpt lat="47.3809820" lon="-122.0445500">
    <ele>144.4</ele>
    <time>2021-07-23T00:59:35Z</time>
   </trkpt>
   <trkpt lat="47.3809800" lon="-122.0445020">
    <ele>144.4</ele>
    <time>2021-07-23T00:59:36Z</time>
   </trkpt>
   <trkpt lat="47.3809660" lon="-122.0444470">
    <ele>144.5</ele>
    <time>2021-07-23T00:59:37Z</time>
   </trkpt>
   <trkpt lat="47.3809700" lon="-122.0443940">
    <ele>144.5</ele>
    <time>2021-07-23T00:59:38Z</time>
   </trkpt>
   <trkpt lat="47.3809610" lon="-122.0443480">
    <ele>144.6</ele>
    <time>2021-07-23T00:59:39Z</time>
   </trkpt>
   <trkpt lat="47.3809490" lon="-122.0442870">
    <ele>144.6</ele>
    <time>2021-07-23T00:59:40Z</time>
   </trkpt>
   <trkpt lat="47.3809440" lon="-122.0442290">
    <ele>144.7</ele>
    <time>2021-07-23T00:59:41Z</time>
   </trkpt>
   <trkpt lat="47.3809360" lon="-122.0441800">
    <ele>144.7</ele>
    <time>2021-07-23T00:59:42Z</time>
   </trkpt>
   <trkpt lat="47.3809370" lon="-122.0441290">
    <ele>144.7</ele>
    <time>2021-07-23T00:59:43Z</time>
   </trkpt>
   <trkpt lat="47.3809310" lon="-122.0440760">
    <ele>144.8</ele>
    <time>2021-07-23T00:59:44Z</time>
   </trkpt>
   <trkpt lat="47.3809400" lon="-122.0440330">
    <ele>144.8</ele>
    <time>2021-07-23T00:59:45Z</time>
   </trkpt>
   <trkpt lat="47.3809410" lon="-122.0439860">
    <ele>144.9</ele>
    <time>2021-07-23T00:59:46Z</time>
   </trkpt>
   <trkpt lat="47.3809410" lon="-122.0439310">
    <ele>144.9</ele>
    <time>2021-07-23T00:59:47Z</time>
   </trkpt>
   <trkpt lat="47.3809450" lon="-122.0439140">
    <ele>144.9</ele>
    <time>2021-07-23T00:59:48Z</time>
   </trkpt>
   <trkpt lat="47.3809560" lon="-122.0438490">
    <ele>145.0</ele>
    <time>2021-07-23T00:59:49Z</time>
   </trkpt>
   <trkpt lat="47.3809590" lon="-122.0438210">
    <ele>145.0</ele>
    <time>2021-07-23T00:59:50Z</time>
   </trkpt>
   <trkpt lat="47.3809610" lon="-122.0437540">
    <ele>145.1</ele>
    <time>2021-07-23T00:59:51Z</time>
   </trkpt>
   <trkpt lat="47.3809490" lon="-122.0437000">
    <ele>145.1</ele>
    <time>2021-07-23T00:59:52Z</time>
   </trkpt>
   <trkpt lat="47.3809490" lon="-122.0436440">
    <ele>145.2</ele>
    <time>2021-07-23T00:59:53Z</time>
   </trkpt>
   <trkpt lat="47.3809320" lon="-122.0435800">
    <ele>145.2</ele>
    <time>2021-07-23T00:59:54Z</time>
   </trkpt>
   <trkpt lat="47.3809390" lon="-122.0435210">
    <ele>145.3</ele>
    <time>2021-07-23T00:59:55Z</time>
   </trkpt>
   <trkpt lat="47.3809370" lon="-122.0434710">
    <ele>145.3</ele>
    <time>2021-07-23T00:59:56Z</time>
   </trkpt>
   <trkpt lat="47.3809250" lon="-122.0434170">
    <ele>145.4</ele>
    <time>2021-07-23T00:59:57Z</time>
   </trkpt>
   <trkpt lat="47.3809210" lon="-122.0433560">
    <ele>145.4</ele>
    <time>2021-07-23T00:59:58Z</time>
   </trkpt>
   <trkpt lat="47.3809170" lon="-122.0432940">
    <ele>145.4</ele>
    <time>2021-07-23T00:59:59Z</time>
   </trkpt>
   <trkpt lat="47.3809260" lon="-122.0432430">
    <ele>145.5</ele>
    <time>2021-07-23T01:00:00Z</time>
   </trkpt>
   <trkpt lat="47.3809260" lon="-122.0431920">
    <ele>145.5</ele>
    <time>2021-07-23T01:00:01Z</time>
   </trkpt>
   <trkpt lat="47.3809300" lon="-122.0431430">
    <ele>145.5</ele>
    <time>2021-07-23T01:00:02Z</time>
   </trkpt>
   <trkpt lat="47.3809330" lon="-122.0430920">
    <ele>145.6</ele>
    <time>2021-07-23T01:00:03Z</time>
   </trkpt>
   <trkpt lat="47.3809280" lon="-122.0430440">
    <ele>145.6</ele>
    <time>2021-07-23T01:00:04Z</time>
   </trkpt>
   <trkpt lat="47.3809400" lon="-122.0429960">
    <ele>145.6</ele>
    <time>2021-07-23T01:00:05Z</time>
   </trkpt>
   <trkpt lat="47.3809370" lon="-122.0429420">
    <ele>145.7</ele>
    <time>2021-07-23T01:00:06Z</time>
   </trkpt>
   <trkpt lat="47.3809350" lon="-122.0428950">
    <ele>145.7</ele>
    <time>2021-07-23T01:00:07Z</time>
   </trkpt>
   <trkpt lat="47.3809440" lon="-122.0428430">
    <ele>145.7</ele>
    <time>2021-07-23T01:00:08Z</time>
   </trkpt>
   <trkpt lat="47.3809380" lon="-122.0427910">
    <ele>145.7</ele>
    <time>2021-07-23T01:00:09Z</time>
   </trkpt>
   <trkpt lat="47.3809400" lon="-122.0427340">
    <ele>145.8</ele>
    <time>2021-07-23T01:00:10Z</time>
   </trkpt>
   <trkpt lat="47.3809410" lon="-122.0426830">
    <ele>145.8</ele>
    <time>2021-07-23T01:00:11Z</time>
   </trkpt>
   <trkpt lat="47.3809400" lon="-122.0426260">
    <ele>145.8</ele>
    <time>2021-07-23T01:00:12Z</time>
   </trkpt>
   <trkpt lat="47.3809360" lon="-122.0425780">
    <ele>145.8</ele>
    <time>2021-07-23T01:00:14Z</time>
   </trkpt>
   <trkpt lat="47.3809320" lon="-122.0425320">
    <ele>145.9</ele>
    <time>2021-07-23T01:00:15Z</time>
   </trkpt>
   <trkpt lat="47.3809170" lon="-122.0424780">
    <ele>145.9</ele>
    <time>2021-07-23T01:00:16Z</time>
   </trkpt>
   <trkpt lat="47.3809080" lon="-122.0424180">
    <ele>145.9</ele>
    <time>2021-07-23T01:00:17Z</time>
   </trkpt>
   <trkpt lat="47.3809130" lon="-122.0423650">
    <ele>146.0</ele>
    <time>2021-07-23T01:00:18Z</time>
   </trkpt>
   <trkpt lat="47.3809100" lon="-122.0423000">
    <ele>146.0</ele>
    <time>2021-07-23T01:00:19Z</time>
   </trkpt>
   <trkpt lat="47.3809120" lon="-122.0422470">
    <ele>146.1</ele>
    <time>2021-07-23T01:00:20Z</time>
   </trkpt>
   <trkpt lat="47.3809160" lon="-122.0421990">
    <ele>146.1</ele>
    <time>2021-07-23T01:00:21Z</time>
   </trkpt>
   <trkpt lat="47.3809130" lon="-122.0421480">
    <ele>146.2</ele>
    <time>2021-07-23T01:00:22Z</time>
   </trkpt>
   <trkpt lat="47.3809120" lon="-122.0420930">
    <ele>146.2</ele>
    <time>2021-07-23T01:00:23Z</time>
   </trkpt>
   <trkpt lat="47.3809030" lon="-122.0420430">
    <ele>146.2</ele>
    <time>2021-07-23T01:00:24Z</time>
   </trkpt>
   <trkpt lat="47.3809020" lon="-122.0419890">
    <ele>146.3</ele>
    <time>2021-07-23T01:00:25Z</time>
   </trkpt>
   <trkpt lat="47.3809010" lon="-122.0418820">
    <ele>146.4</ele>
    <time>2021-07-23T01:00:26Z</time>
   </trkpt>
   <trkpt lat="47.3809010" lon="-122.0418220">
    <ele>146.4</ele>
    <time>2021-07-23T01:00:27Z</time>
   </trkpt>
   <trkpt lat="47.3808950" lon="-122.0417760">
    <ele>146.4</ele>
    <time>2021-07-23T01:00:28Z</time>
   </trkpt>
   <trkpt lat="47.3808970" lon="-122.0417220">
    <ele>146.5</ele>
    <time>2021-07-23T01:00:29Z</time>
   </trkpt>
   <trkpt lat="47.3808850" lon="-122.0416680">
    <ele>146.5</ele>
    <time>2021-07-23T01:00:30Z</time>
   </trkpt>
   <trkpt lat="47.3808950" lon="-122.0416120">
    <ele>146.5</ele>
    <time>2021-07-23T01:00:31Z</time>
   </trkpt>
   <trkpt lat="47.3808920" lon="-122.0415570">
    <ele>146.6</ele>
    <time>2021-07-23T01:00:32Z</time>
   </trkpt>
   <trkpt lat="47.3808890" lon="-122.0415090">
    <ele>146.6</ele>
    <time>2021-07-23T01:00:33Z</time>
   </trkpt>
   <trkpt lat="47.3808950" lon="-122.0414510">
    <ele>146.7</ele>
    <time>2021-07-23T01:00:34Z</time>
   </trkpt>
   <trkpt lat="47.3808950" lon="-122.0414030">
    <ele>146.7</ele>
    <time>2021-07-23T01:00:35Z</time>
   </trkpt>
   <trkpt lat="47.3808900" lon="-122.0413540">
    <ele>146.7</ele>
    <time>2021-07-23T01:00:36Z</time>
   </trkpt>
   <trkpt lat="47.3808940" lon="-122.0413000">
    <ele>146.8</ele>
    <time>2021-07-23T01:00:37Z</time>
   </trkpt>
   <trkpt lat="47.3808950" lon="-122.0412550">
    <ele>146.8</ele>
    <time>2021-07-23T01:00:38Z</time>
   </trkpt>
   <trkpt lat="47.3808890" lon="-122.0412040">
    <ele>146.8</ele>
    <time>2021-07-23T01:00:39Z</time>
   </trkpt>
   <trkpt lat="47.3808780" lon="-122.0411410">
    <ele>146.8</ele>
    <time>2021-07-23T01:00:40Z</time>
   </trkpt>
   <trkpt lat="47.3808750" lon="-122.0410910">
    <ele>146.9</ele>
    <time>2021-07-23T01:00:41Z</time>
   </trkpt>
   <trkpt lat="47.3808740" lon="-122.0410380">
    <ele>146.9</ele>
    <time>2021-07-23T01:00:42Z</time>
   </trkpt>
   <trkpt lat="47.3808790" lon="-122.0409870">
    <ele>146.9</ele>
    <time>2021-07-23T01:00:43Z</time>
   </trkpt>
   <trkpt lat="47.3808760" lon="-122.0409360">
    <ele>146.9</ele>
    <time>2021-07-23T01:00:44Z</time>
   </trkpt>
   <trkpt lat="47.3808800" lon="-122.0408870">
    <ele>146.9</ele>
    <time>2021-07-23T01:00:45Z</time>
   </trkpt>
   <trkpt lat="47.3808840" lon="-122.0408450">
    <ele>146.9</ele>
    <time>2021-07-23T01:00:46Z</time>
   </trkpt>
   <trkpt lat="47.3808920" lon="-122.0408020">
    <ele>146.9</ele>
    <time>2021-07-23T01:00:47Z</time>
   </trkpt>
   <trkpt lat="47.3808880" lon="-122.0407460">
    <ele>146.9</ele>
    <time>2021-07-23T01:00:48Z</time>
   </trkpt>
   <trkpt lat="47.3808840" lon="-122.0406920">
    <ele>147.0</ele>
    <time>2021-07-23T01:00:49Z</time>
   </trkpt>
   <trkpt lat="47.3808730" lon="-122.0406490">
    <ele>147.0</ele>
    <time>2021-07-23T01:00:50Z</time>
   </trkpt>
   <trkpt lat="47.3808820" lon="-122.0405090">
    <ele>147.0</ele>
    <time>2021-07-23T01:00:51Z</time>
   </trkpt>
   <trkpt lat="47.3809000" lon="-122.0404030">
    <ele>147.0</ele>
    <time>2021-07-23T01:02:18Z</time>
   </trkpt>
   <trkpt lat="47.3809190" lon="-122.0402980">
    <ele>147.1</ele>
    <time>2021-07-23T01:02:19Z</time>
   </trkpt>
   <trkpt lat="47.3809370" lon="-122.0401920">
    <ele>147.2</ele>
    <time>2021-07-23T01:02:20Z</time>
   </trkpt>
   <trkpt lat="47.3809550" lon="-122.0400870">
    <ele>147.3</ele>
    <time>2021-07-23T01:02:21Z</time>
   </trkpt>
   <trkpt lat="47.3809410" lon="-122.0400520">
    <ele>147.4</ele>
    <time>2021-07-23T01:02:22Z</time>
   </trkpt>
   <trkpt lat="47.3809370" lon="-122.0400090">
    <ele>147.4</ele>
    <time>2021-07-23T01:02:23Z</time>
   </trkpt>
   <trkpt lat="47.3809280" lon="-122.0399630">
    <ele>147.5</ele>
    <time>2021-07-23T01:02:24Z</time>
   </trkpt>
   <trkpt lat="47.3809280" lon="-122.0398700">
    <ele>147.6</ele>
    <time>2021-07-23T01:02:25Z</time>
   </trkpt>
   <trkpt lat="47.3809120" lon="-122.0398400">
    <ele>147.6</ele>
    <time>2021-07-23T01:02:26Z</time>
   </trkpt>
   <trkpt lat="47.3809030" lon="-122.0398270">
    <ele>147.6</ele>
    <time>2021-07-23T01:02:27Z</time>
   </trkpt>
   <trkpt lat="47.3808880" lon="-122.0397770">
    <ele>147.7</ele>
    <time>2021-07-23T01:02:28Z</time>
   </trkpt>
   <trkpt lat="47.3808860" lon="-122.0397250">
    <ele>147.7</ele>
    <time>2021-07-23T01:02:29Z</time>
   </trkpt>
   <trkpt lat="47.3808640" lon="-122.0396840">
    <ele>147.8</ele>
    <time>2021-07-23T01:02:30Z</time>
   </trkpt>
   <trkpt lat="47.3808510" lon="-122.0396560">
    <ele>147.8</ele>
    <time>2021-07-23T01:02:31Z</time>
   </trkpt>
   <trkpt lat="47.3808360" lon="-122.0396070">
    <ele>147.8</ele>
    <time>2021-07-23T01:02:32Z</time>
   </trkpt>
   <trkpt lat="47.3808200" lon="-122.0395610">
    <ele>147.8</ele>
    <time>2021-07-23T01:02:33Z</time>
   </trkpt>
   <trkpt lat="47.3807970" lon="-122.0395130">
    <ele>147.9</ele>
    <time>2021-07-23T01:02:34Z</time>
   </trkpt>
   <trkpt lat="47.3807900" lon="-122.0394640">
    <ele>147.9</ele>
    <time>2021-07-23T01:02:35Z</time>
   </trkpt>
   <trkpt lat="47.3807620" lon="-122.0394130">
    <ele>147.9</ele>
    <time>2021-07-23T01:02:36Z</time>
   </trkpt>
   <trkpt lat="47.3807520" lon="-122.0393370">
    <ele>148.0</ele>
    <time>2021-07-23T01:02:37Z</time>
   </trkpt>
   <trkpt lat="47.3807340" lon="-122.0392930">
    <ele>148.0</ele>
    <time>2021-07-23T01:02:38Z</time>
   </trkpt>
   <trkpt lat="47.3807150" lon="-122.0392410">
    <ele>148.1</ele>
    <time>2021-07-23T01:02:39Z</time>
   </trkpt>
   <trkpt lat="47.3807250" lon="-122.0391950">
    <ele>148.1</ele>
    <time>2021-07-23T01:02:40Z</time>
   </trkpt>
   <trkpt lat="47.3807110" lon="-122.0391260">
    <ele>148.2</ele>
    <time>2021-07-23T01:02:41Z</time>
   </trkpt>
   <trkpt lat="47.3806990" lon="-122.0390850">
    <ele>148.2</ele>
    <time>2021-07-23T01:02:42Z</time>
   </trkpt>
   <trkpt lat="47.3806800" lon="-122.0390280">
    <ele>148.3</ele>
    <time>2021-07-23T01:02:43Z</time>
   </trkpt>
   <trkpt lat="47.3806420" lon="-122.0389750">
    <ele>148.4</ele>
    <time>2021-07-23T01:02:44Z</time>
   </trkpt>
   <trkpt lat="47.3806250" lon="-122.0389210">
    <ele>148.4</ele>
    <time>2021-07-23T01:02:45Z</time>
   </trkpt>
   <trkpt lat="47.3806050" lon="-122.0388590">
    <ele>148.5</ele>
    <time>2021-07-23T01:02:46Z</time>
   </trkpt>
   <trkpt lat="47.3805870" lon="-122.0388170">
    <ele>148.5</ele>
    <time>2021-07-23T01:02:47Z</time>
   </trkpt>
   <trkpt lat="47.3805640" lon="-122.0387740">
    <ele>148.6</ele>
    <time>2021-07-23T01:02:48Z</time>
   </trkpt>
   <trkpt lat="47.3805470" lon="-122.0387240">
    <ele>148.7</ele>
    <time>2021-07-23T01:02:49Z</time>
   </trkpt>
   <trkpt lat="47.3805370" lon="-122.0386650">
    <ele>148.7</ele>
    <time>2021-07-23T01:02:50Z</time>
   </trkpt>
   <trkpt lat="47.3805100" lon="-122.0386070">
    <ele>148.8</ele>
    <time>2021-07-23T01:02:51Z</time>
   </trkpt>
   <trkpt lat="47.3804880" lon="-122.0385620">
    <ele>148.9</ele>
    <time>2021-07-23T01:02:52Z</time>
   </trkpt>
   <trkpt lat="47.3804740" lon="-122.0385140">
    <ele>149.0</ele>
    <time>2021-07-23T01:02:53Z</time>
   </trkpt>
   <trkpt lat="47.3804640" lon="-122.0384490">
    <ele>149.1</ele>
    <time>2021-07-23T01:02:54Z</time>
   </trkpt>
   <trkpt lat="47.3804570" lon="-122.0384050">
    <ele>149.1</ele>
    <time>2021-07-23T01:02:55Z</time>
   </trkpt>
   <trkpt lat="47.3804350" lon="-122.0383610">
    <ele>149.2</ele>
    <time>2021-07-23T01:02:56Z</time>
   </trkpt>
   <trkpt lat="47.3804300" lon="-122.0383470">
    <ele>149.2</ele>
    <time>2021-07-23T01:02:57Z</time>
   </trkpt>
   <trkpt lat="47.3804070" lon="-122.0382290">
    <ele>149.4</ele>
    <time>2021-07-23T01:02:58Z</time>
   </trkpt>
   <trkpt lat="47.3803950" lon="-122.0381300">
    <ele>149.5</ele>
    <time>2021-07-23T01:04:26Z</time>
   </trkpt>
   <trkpt lat="47.3803820" lon="-122.0380320">
    <ele>149.6</ele>
    <time>2021-07-23T01:04:27Z</time>
   </trkpt>
   <trkpt lat="47.3803700" lon="-122.0379330">
    <ele>149.8</ele>
    <time>2021-07-23T01:04:28Z</time>
   </trkpt>
   <trkpt lat="47.3803580" lon="-122.0378350">
    <ele>149.9</ele>
    <time>2021-07-23T01:04:29Z</time>
   </trkpt>
   <trkpt lat="47.3803320" lon="-122.0377920">
    <ele>149.9</ele>
    <time>2021-07-23T01:04:30Z</time>
   </trkpt>
   <trkpt lat="47.3803220" lon="-122.0377700">
    <ele>150.0</ele>
    <time>2021-07-23T01:04:31Z</time>
   </trkpt>
   <trkpt lat="47.3802800" lon="-122.0377080">
    <ele>150.0</ele>
    <time>2021-07-23T01:04:32Z</time>
   </trkpt>
   <trkpt lat="47.3802530" lon="-122.0376450">
    <ele>150.1</ele>
    <time>2021-07-23T01:04:33Z</time>
   </trkpt>
   <trkpt lat="47.3802360" lon="-122.0376090">
    <ele>150.2</ele>
    <time>2021-07-23T01:04:34Z</time>
   </trkpt>
   <trkpt lat="47.3802100" lon="-122.0375500">
    <ele>150.2</ele>
    <time>2021-07-23T01:04:35Z</time>
   </trkpt>
   <trkpt lat="47.3801960" lon="-122.0375060">
    <ele>150.3</ele>
    <time>2021-07-23T01:04:36Z</time>
   </trkpt>
   <trkpt lat="47.3801700" lon="-122.0374760">
    <ele>150.3</ele>
    <time>2021-07-23T01:04:37Z</time>
   </trkpt>
   <trkpt lat="47.3801450" lon="-122.0374370">
    <ele>150.4</ele>
    <time>2021-07-23T01:04:38Z</time>
   </trkpt>
   <trkpt lat="47.3801140" lon="-122.0374070">
    <ele>150.4</ele>
    <time>2021-07-23T01:04:39Z</time>
   </trkpt>
   <trkpt lat="47.3800910" lon="-122.0373490">
    <ele>150.5</ele>
    <time>2021-07-23T01:04:40Z</time>
   </trkpt>
   <trkpt lat="47.3800610" lon="-122.0373200">
    <ele>150.5</ele>
    <time>2021-07-23T01:04:41Z</time>
   </trkpt>
   <trkpt lat="47.3800170" lon="-122.0372810">
    <ele>150.6</ele>
    <time>2021-07-23T01:04:42Z</time>
   </trkpt>
   <trkpt lat="47.3799970" lon="-122.0372300">
    <ele>150.7</ele>
    <time>2021-07-23T01:04:43Z</time>
   </trkpt>
   <trkpt lat="47.3799720" lon="-122.0371880">
    <ele>150.7</ele>
    <time>2021-07-23T01:04:44Z</time>
   </trkpt>
   <trkpt lat="47.3799590" lon="-122.0371240">
    <ele>150.8</ele>
    <time>2021-07-23T01:04:45Z</time>
   </trkpt>
   <trkpt lat="47.3799300" lon="-122.0370800">
    <ele>150.8</ele>
    <time>2021-07-23T01:04:46Z</time>
   </trkpt>
   <trkpt lat="47.3799000" lon="-122.0370390">
    <ele>150.9</ele>
    <time>2021-07-23T01:04:47Z</time>
   </trkpt>
   <trkpt lat="47.3798800" lon="-122.0369920">
    <ele>151.0</ele>
    <time>2021-07-23T01:04:48Z</time>
   </trkpt>
   <trkpt lat="47.3798470" lon="-122.0369490">
    <ele>151.0</ele>
    <time>2021-07-23T01:04:49Z</time>
   </trkpt>
   <trkpt lat="47.3798160" lon="-122.0369110">
    <ele>151.1</ele>
    <time>2021-07-23T01:04:50Z</time>
   </trkpt>
   <trkpt lat="47.3797740" lon="-122.0368860">
    <ele>151.1</ele>
    <time>2021-07-23T01:04:51Z</time>
   </trkpt>
   <trkpt lat="47.3797510" lon="-122.0368460">
    <ele>151.1</ele>
    <time>2021-07-23T01:04:52Z</time>
   </trkpt>
   <trkpt lat="47.3797190" lon="-122.0368130">
    <ele>151.2</ele>
    <time>2021-07-23T01:04:53Z</time>
   </trkpt>
   <trkpt lat="47.3796870" lon="-122.0367700">
    <ele>151.2</ele>
    <time>2021-07-23T01:04:54Z</time>
   </trkpt>
   <trkpt lat="47.3796590" lon="-122.0367310">
    <ele>151.3</ele>
    <time>2021-07-23T01:04:55Z</time>
   </trkpt>
   <trkpt lat="47.3796190" lon="-122.0366990">
    <ele>151.3</ele>
    <time>2021-07-23T01:04:56Z</time>
   </trkpt>
   <trkpt lat="47.3796060" lon="-122.0366500">
    <ele>151.3</ele>
    <time>2021-07-23T01:04:57Z</time>
   </trkpt>
   <trkpt lat="47.3795770" lon="-122.0366020">
    <ele>151.4</ele>
    <time>2021-07-23T01:04:58Z</time>
   </trkpt>
   <trkpt lat="47.3795580" lon="-122.0365520">
    <ele>151.4</ele>
    <time>2021-07-23T01:04:59Z</time>
   </trkpt>
   <trkpt lat="47.3795310" lon="-122.0365220">
    <ele>151.5</ele>
    <time>2021-07-23T01:05:00Z</time>
   </trkpt>
   <trkpt lat="47.3794920" lon="-122.0364910">
    <ele>151.5</ele>
    <time>2021-07-23T01:05:01Z</time>
   </trkpt>
   <trkpt lat="47.3794650" lon="-122.0364470">
    <ele>151.6</ele>
    <time>2021-07-23T01:05:02Z</time>
   </trkpt>
   <trkpt lat="47.3794270" lon="-122.0364260">
    <ele>151.6</ele>
    <time>2021-07-23T01:05:03Z</time>
   </trkpt>
   <trkpt lat="47.3794060" lon="-122.0363940">
    <ele>151.7</ele>
    <time>2021-07-23T01:05:04Z</time>
   </trkpt>
   <trkpt lat="47.3793670" lon="-122.0363800">
    <ele>151.7</ele>
    <time>2021-07-23T01:05:05Z</time>
   </trkpt>
   <trkpt lat="47.3793470" lon="-122.0363370">
    <ele>151.8</ele>
    <time>2021-07-23T01:05:06Z</time>
   </trkpt>
   <trkpt lat="47.3793180" lon="-122.0363040">
    <ele>151.9</ele>
    <time>2021-07-23T01:05:07Z</time>
   </trkpt>
   <trkpt lat="47.3792960" lon="-122.0362720">
    <ele>151.9</ele>
    <time>2021-07-23T01:05:08Z</time>
   </trkpt>
   <trkpt lat="47.3792790" lon="-122.0362280">
    <ele>152.0</ele>
    <time>2021-07-23T01:05:09Z</time>
   </trkpt>
   <trkpt lat="47.3792440" lon="-122.0361840">
    <ele>152.0</ele>
    <time>2021-07-23T01:05:10Z</time>
   </trkpt>
   <trkpt lat="47.3792240" lon="-122.0361280">
    <ele>152.1</ele>
    <time>2021-07-23T01:05:11Z</time>
   </trkpt>
   <trkpt lat="47.3791940" lon="-122.0360890">
    <ele>152.1</ele>
    <time>2021-07-23T01:05:12Z</time>
   </trkpt>
   <trkpt lat="47.3791710" lon="-122.0360460">
    <ele>152.2</ele>
    <time>2021-07-23T01:05:13Z</time>
   </trkpt>
   <trkpt lat="47.3791320" lon="-122.0360110">
    <ele>152.3</ele>
    <time>2021-07-23T01:05:14Z</time>
   </trkpt>
   <trkpt lat="47.3790970" lon="-122.0359630">
    <ele>152.3</ele>
    <time>2021-07-23T01:05:15Z</time>
   </trkpt>
   <trkpt lat="47.3790590" lon="-122.0359310">
    <ele>152.4</ele>
    <time>2021-07-23T01:05:16Z</time>
   </trkpt>
   <trkpt lat="47.3790310" lon="-122.0358920">
    <ele>152.5</ele>
    <time>2021-07-23T01:05:17Z</time>
   </trkpt>
   <trkpt lat="47.3790030" lon="-122.0358490">
    <ele>152.5</ele>
    <time>2021-07-23T01:05:18Z</time>
   </trkpt>
   <trkpt lat="47.3789790" lon="-122.0357970">
    <ele>152.6</ele>
    <time>2021-07-23T01:05:19Z</time>
   </trkpt>
   <trkpt lat="47.3789470" lon="-122.0357510">
    <ele>152.7</ele>
    <time>2021-07-23T01:05:20Z</time>
   </trkpt>
   <trkpt lat="47.3789020" lon="-122.0357470">
    <ele>152.8</ele>
    <time>2021-07-23T01:05:21Z</time>
   </trkpt>
   <trkpt lat="47.3788800" lon="-122.0357050">
    <ele>152.8</ele>
    <time>2021-07-23T01:05:22Z</time>
   </trkpt>
   <trkpt lat="47.3788430" lon="-122.0356900">
    <ele>152.9</ele>
    <time>2021-07-23T01:05:23Z</time>
   </trkpt>
   <trkpt lat="47.3788060" lon="-122.0356590">
    <ele>152.9</ele>
    <time>2021-07-23T01:05:24Z</time>
   </trkpt>
   <trkpt lat="47.3787700" lon="-122.0356270">
    <ele>153.0</ele>
    <time>2021-07-23T01:05:25Z</time>
   </trkpt>
   <trkpt lat="47.3787360" lon="-122.0355960">
    <ele>153.0</ele>
    <time>2021-07-23T01:05:26Z</time>
   </trkpt>
   <trkpt lat="47.3787090" lon="-122.0355490">
    <ele>153.1</ele>
    <time>2021-07-23T01:05:27Z</time>
   </trkpt>
   <trkpt lat="47.3786800" lon="-122.0355260">
    <ele>153.2</ele>
    <time>2021-07-23T01:05:28Z</time>
   </trkpt>
   <trkpt lat="47.3786480" lon="-122.0354960">
    <ele>153.2</ele>
    <time>2021-07-23T01:05:29Z</time>
   </trkpt>
   <trkpt lat="47.3786140" lon="-122.0354820">
    <ele>153.2</ele>
    <time>2021-07-23T01:05:30Z</time>
   </trkpt>
   <trkpt lat="47.3785740" lon="-122.0354560">
    <ele>153.3</ele>
    <time>2021-07-23T01:05:31Z</time>
   </trkpt>
   <trkpt lat="47.3785500" lon="-122.0354240">
    <ele>153.3</ele>
    <time>2021-07-23T01:05:32Z</time>
   </trkpt>
   <trkpt lat="47.3785210" lon="-122.0354050">
    <ele>153.4</ele>
    <time>2021-07-23T01:05:33Z</time>
   </trkpt>
   <trkpt lat="47.3784850" lon="-122.0353700">
    <ele>153.4</ele>
    <time>2021-07-23T01:05:34Z</time>
   </trkpt>
   <trkpt lat="47.3784510" lon="-122.0353480">
    <ele>153.4</ele>
    <time>2021-07-23T01:05:35Z</time>
   </trkpt>
   <trkpt lat="47.3784190" lon="-122.0353320">
    <ele>153.5</ele>
    <time>2021-07-23T01:05:36Z</time>
   </trkpt>
   <trkpt lat="47.3783870" lon="-122.0352990">
    <ele>153.5</ele>
    <time>2021-07-23T01:05:37Z</time>
   </trkpt>
   <trkpt lat="47.3783530" lon="-122.0352730">
    <ele>153.5</ele>
    <time>2021-07-23T01:05:38Z</time>
   </trkpt>
   <trkpt lat="47.3783240" lon="-122.0352350">
    <ele>153.6</ele>
    <time>2021-07-23T01:05:39Z</time>
   </trkpt>
   <trkpt lat="47.3782970" lon="-122.0351990">
    <ele>153.6</ele>
    <time>2021-07-23T01:05:40Z</time>
   </trkpt>
   <trkpt lat="47.3782670" lon="-122.0352030">
    <ele>153.6</ele>
    <time>2021-07-23T01:05:41Z</time>
   </trkpt>
   <trkpt lat="47.3782420" lon="-122.0351760">
    <ele>153.6</ele>
    <time>2021-07-23T01:05:42Z</time>
   </trkpt>
   <trkpt lat="47.3782350" lon="-122.0351610">
    <ele>153.6</ele>
    <time>2021-07-23T01:06:10Z</time>
   </trkpt>
   <trkpt lat="47.3782270" lon="-122.0351470">
    <ele>153.7</ele>
    <time>2021-07-23T01:06:11Z</time>
   </trkpt>
   <trkpt lat="47.3782190" lon="-122.0351330">
    <ele>153.7</ele>
    <time>2021-07-23T01:06:12Z</time>
   </trkpt>
   <trkpt lat="47.3781830" lon="-122.0351090">
    <ele>153.7</ele>
    <time>2021-07-23T01:06:13Z</time>
   </trkpt>
   <trkpt lat="47.3781320" lon="-122.0350810">
    <ele>153.7</ele>
    <time>2021-07-23T01:06:14Z</time>
   </trkpt>
   <trkpt lat="47.3780910" lon="-122.0350270">
    <ele>153.8</ele>
    <time>2021-07-23T01:06:15Z</time>
   </trkpt>
   <trkpt lat="47.3780510" lon="-122.0350250">
    <ele>153.8</ele>
    <time>2021-07-23T01:06:16Z</time>
   </trkpt>
   <trkpt lat="47.3780200" lon="-122.0349580">
    <ele>153.9</ele>
    <time>2021-07-23T01:06:17Z</time>
   </trkpt>
   <trkpt lat="47.3779950" lon="-122.0349320">
    <ele>153.9</ele>
    <time>2021-07-23T01:06:18Z</time>
   </trkpt>
   <trkpt lat="47.3779570" lon="-122.0349170">
    <ele>154.0</ele>
    <time>2021-07-23T01:06:19Z</time>
   </trkpt>
   <trkpt lat="47.3779330" lon="-122.0348900">
    <ele>154.0</ele>
    <time>2021-07-23T01:06:20Z</time>
   </trkpt>
   <trkpt lat="47.3778930" lon="-122.0348650">
    <ele>154.1</ele>
    <time>2021-07-23T01:06:21Z</time>
   </trkpt>
   <trkpt lat="47.3778640" lon="-122.0348210">
    <ele>154.2</ele>
    <time>2021-07-23T01:06:22Z</time>
   </trkpt>
   <trkpt lat="47.3778260" lon="-122.0347950">
    <ele>154.2</ele>
    <time>2021-07-23T01:06:23Z</time>
   </trkpt>
   <trkpt lat="47.3778100" lon="-122.0347910">
    <ele>154.3</ele>
    <time>2021-07-23T01:06:24Z</time>
   </trkpt>
   <trkpt lat="47.3777800" lon="-122.0347610">
    <ele>154.3</ele>
    <time>2021-07-23T01:06:25Z</time>
   </trkpt>
   <trkpt lat="47.3777470" lon="-122.0347520">
    <ele>154.4</ele>
    <time>2021-07-23T01:06:26Z</time>
   </trkpt>
   <trkpt lat="47.3777130" lon="-122.0347220">
    <ele>154.4</ele>
    <time>2021-07-23T01:06:27Z</time>
   </trkpt>
   <trkpt lat="47.3776750" lon="-122.0346890">
    <ele>154.5</ele>
    <time>2021-07-23T01:06:28Z</time>
   </trkpt>
   <trkpt lat="47.3776430" lon="-122.0346590">
    <ele>154.6</ele>
    <time>2021-07-23T01:06:29Z</time>
   </trkpt>
   <trkpt lat="47.3776280" lon="-122.0346210">
    <ele>154.6</ele>
    <time>2021-07-23T01:06:30Z</time>
   </trkpt>
   <trkpt lat="47.3776010" lon="-122.0345880">
    <ele>154.7</ele>
    <time>2021-07-23T01:06:31Z</time>
   </trkpt>
   <trkpt lat="47.3775710" lon="-122.0345690">
    <ele>154.7</ele>
    <time>2021-07-23T01:06:32Z</time>
   </trkpt>
   <trkpt lat="47.3775470" lon="-122.0345280">
    <ele>154.8</ele>
    <time>2021-07-23T01:06:33Z</time>
   </trkpt>
   <trkpt lat="47.3775230" lon="-122.0345010">
    <ele>154.8</ele>
    <time>2021-07-23T01:06:34Z</time>
   </trkpt>
   <trkpt lat="47.3775010" lon="-122.0344580">
    <ele>154.9</ele>
    <time>2021-07-23T01:06:35Z</time>
   </trkpt>
   <trkpt lat="47.3774640" lon="-122.0344430">
    <ele>154.9</ele>
    <time>2021-07-23T01:06:36Z</time>
   </trkpt>
   <trkpt lat="47.3774400" lon="-122.0343980">
    <ele>155.0</ele>
    <time>2021-07-23T01:06:37Z</time>
   </trkpt>
   <trkpt lat="47.3774140" lon="-122.0343680">
    <ele>155.0</ele>
    <time>2021-07-23T01:06:38Z</time>
   </trkpt>
   <trkpt lat="47.3773910" lon="-122.0343310">
    <ele>155.1</ele>
    <time>2021-07-23T01:06:39Z</time>
   </trkpt>
   <trkpt lat="47.3773630" lon="-122.0343060">
    <ele>155.1</ele>
    <time>2021-07-23T01:06:40Z</time>
   </trkpt>
   <trkpt lat="47.3773390" lon="-122.0342760">
    <ele>155.2</ele>
    <time>2021-07-23T01:06:41Z</time>
   </trkpt>
   <trkpt lat="47.3773180" lon="-122.0342130">
    <ele>155.3</ele>
    <time>2021-07-23T01:06:42Z</time>
   </trkpt>
   <trkpt lat="47.3773050" lon="-122.0341650">
    <ele>155.3</ele>
    <time>2021-07-23T01:06:43Z</time>
   </trkpt>
   <trkpt lat="47.3772930" lon="-122.0341220">
    <ele>155.3</ele>
    <time>2021-07-23T01:06:44Z</time>
   </trkpt>
   <trkpt lat="47.3772640" lon="-122.0340840">
    <ele>155.4</ele>
    <time>2021-07-23T01:06:45Z</time>
   </trkpt>
   <trkpt lat="47.3772280" lon="-122.0340610">
    <ele>155.4</ele>
    <time>2021-07-23T01:06:46Z</time>
   </trkpt>
   <trkpt lat="47.3771980" lon="-122.0340290">
    <ele>155.5</ele>
    <time>2021-07-23T01:06:47Z</time>
   </trkpt>
   <trkpt lat="47.3771680" lon="-122.0340040">
    <ele>155.5</ele>
    <time>2021-07-23T01:06:48Z</time>
   </trkpt>
   <trkpt lat="47.3771320" lon="-122.0339650">
    <ele>155.5</ele>
    <time>2021-07-23T01:06:49Z</time>
   </trkpt>
   <trkpt lat="47.3771030" lon="-122.0339320">
    <ele>155.6</ele>
    <time>2021-07-23T01:06:50Z</time>
   </trkpt>
   <trkpt lat="47.3770710" lon="-122.0339110">
    <ele>155.6</ele>
    <time>2021-07-23T01:06:51Z</time>
   </trkpt>
   <trkpt lat="47.3770460" lon="-122.0338730">
    <ele>155.7</ele>
    <time>2021-07-23T01:06:52Z</time>
   </trkpt>
   <trkpt lat="47.3770160" lon="-122.0338530">
    <ele>155.7</ele>
    <time>2021-07-23T01:06:53Z</time>
   </trkpt>
   <trkpt lat="47.3770000" lon="-122.0337860">
    <ele>155.7</ele>
    <time>2021-07-23T01:06:54Z</time>
   </trkpt>
   <trkpt lat="47.3769610" lon="-122.0337550">
    <ele>155.8</ele>
    <time>2021-07-23T01:06:55Z</time>
   </trkpt>
   <trkpt lat="47.3769370" lon="-122.0337210">
    <ele>155.8</ele>
    <time>2021-07-23T01:06:56Z</time>
   </trkpt>
   <trkpt lat="47.3769070" lon="-122.0337080">
    <ele>155.8</ele>
    <time>2021-07-23T01:06:57Z</time>
   </trkpt>
   <trkpt lat="47.3768760" lon="-122.0336730">
    <ele>155.9</ele>
    <time>2021-07-23T01:06:58Z</time>
   </trkpt>
   <trkpt lat="47.3768550" lon="-122.0336230">
    <ele>155.9</ele>
    <time>2021-07-23T01:06:59Z</time>
   </trkpt>
   <trkpt lat="47.3768250" lon="-122.0336000">
    <ele>156.0</ele>
    <time>2021-07-23T01:07:00Z</time>
   </trkpt>
   <trkpt lat="47.3768040" lon="-122.0335570">
    <ele>156.0</ele>
    <time>2021-07-23T01:07:01Z</time>
   </trkpt>
   <trkpt lat="47.3767720" lon="-122.0335180">
    <ele>156.0</ele>
    <time>2021-07-23T01:07:02Z</time>
   </trkpt>
   <trkpt lat="47.3767450" lon="-122.0334910">
    <ele>156.1</ele>
    <time>2021-07-23T01:07:03Z</time>
   </trkpt>
   <trkpt lat="47.3767170" lon="-122.0334610">
    <ele>156.1</ele>
    <time>2021-07-23T01:07:04Z</time>
   </trkpt>
   <trkpt lat="47.3766860" lon="-122.0334410">
    <ele>156.2</ele>
    <time>2021-07-23T01:07:05Z</time>
   </trkpt>
   <trkpt lat="47.3766660" lon="-122.0333990">
    <ele>156.2</ele>
    <time>2021-07-23T01:07:06Z</time>
   </trkpt>
   <trkpt lat="47.3766410" lon="-122.0333750">
    <ele>156.3</ele>
    <time>2021-07-23T01:07:07Z</time>
   </trkpt>
   <trkpt lat="47.3766170" lon="-122.0333540">
    <ele>156.3</ele>
    <time>2021-07-23T01:07:08Z</time>
   </trkpt>
   <trkpt lat="47.3765930" lon="-122.0333160">
    <ele>156.4</ele>
    <time>2021-07-23T01:07:09Z</time>
   </trkpt>
   <trkpt lat="47.3765720" lon="-122.0332790">
    <ele>156.4</ele>
    <time>2021-07-23T01:07:10Z</time>
   </trkpt>
   <trkpt lat="47.3765580" lon="-122.0332240">
    <ele>156.5</ele>
    <time>2021-07-23T01:07:11Z</time>
   </trkpt>
   <trkpt lat="47.3765310" lon="-122.0331950">
    <ele>156.5</ele>
    <time>2021-07-23T01:07:12Z</time>
   </trkpt>
   <trkpt lat="47.3765120" lon="-122.0331610">
    <ele>156.6</ele>
    <time>2021-07-23T01:07:13Z</time>
   </trkpt>
   <trkpt lat="47.3764740" lon="-122.0331370">
    <ele>156.6</ele>
    <time>2021-07-23T01:07:14Z</time>
   </trkpt>
   <trkpt lat="47.3764420" lon="-122.0331030">
    <ele>156.7</ele>
    <time>2021-07-23T01:07:15Z</time>
   </trkpt>
   <trkpt lat="47.3764190" lon="-122.0330680">
    <ele>156.7</ele>
    <time>2021-07-23T01:07:16Z</time>
   </trkpt>
   <trkpt lat="47.3763900" lon="-122.0330450">
    <ele>156.8</ele>
    <time>2021-07-23T01:07:17Z</time>
   </trkpt>
   <trkpt lat="47.3763600" lon="-122.0330120">
    <ele>156.8</ele>
    <time>2021-07-23T01:07:18Z</time>
   </trkpt>
   <trkpt lat="47.3763240" lon="-122.0329800">
    <ele>156.9</ele>
    <time>2021-07-23T01:07:19Z</time>
   </trkpt>
   <trkpt lat="47.3763090" lon="-122.0329690">
    <ele>156.9</ele>
    <time>2021-07-23T01:07:20Z</time>
   </trkpt>
   <trkpt lat="47.3762810" lon="-122.0329540">
    <ele>156.9</ele>
    <time>2021-07-23T01:07:21Z</time>
   </trkpt>
   <trkpt lat="47.3762510" lon="-122.0329230">
    <ele>157.0</ele>
    <time>2021-07-23T01:07:22Z</time>
   </trkpt>
   <trkpt lat="47.3762210" lon="-122.0328890">
    <ele>157.0</ele>
    <time>2021-07-23T01:07:23Z</time>
   </trkpt>
   <trkpt lat="47.3761880" lon="-122.0328650">
    <ele>157.0</ele>
    <time>2021-07-23T01:07:24Z</time>
   </trkpt>
   <trkpt lat="47.3761600" lon="-122.0328310">
    <ele>157.0</ele>
    <time>2021-07-23T01:07:25Z</time>
   </trkpt>
   <trkpt lat="47.3761320" lon="-122.0328060">
    <ele>157.0</ele>
    <time>2021-07-23T01:07:26Z</time>
   </trkpt>
   <trkpt lat="47.3761020" lon="-122.0327930">
    <ele>157.1</ele>
    <time>2021-07-23T01:07:27Z</time>
   </trkpt>
   <trkpt lat="47.3760680" lon="-122.0327680">
    <ele>157.1</ele>
    <time>2021-07-23T01:07:28Z</time>
   </trkpt>
   <trkpt lat="47.3760390" lon="-122.0327500">
    <ele>157.1</ele>
    <time>2021-07-23T01:07:29Z</time>
   </trkpt>
   <trkpt lat="47.3760040" lon="-122.0327140">
    <ele>157.1</ele>
    <time>2021-07-23T01:07:30Z</time>
   </trkpt>
   <trkpt lat="47.3759820" lon="-122.0326910">
    <ele>157.1</ele>
    <time>2021-07-23T01:07:31Z</time>
   </trkpt>
   <trkpt lat="47.3759410" lon="-122.0326630">
    <ele>157.1</ele>
    <time>2021-07-23T01:07:32Z</time>
   </trkpt>
   <trkpt lat="47.3759080" lon="-122.0326390">
    <ele>157.1</ele>
    <time>2021-07-23T01:07:33Z</time>
   </trkpt>
   <trkpt lat="47.3758730" lon="-122.0326220">
    <ele>157.1</ele>
    <time>2021-07-23T01:07:34Z</time>
   </trkpt>
   <trkpt lat="47.3758450" lon="-122.0325890">
    <ele>157.2</ele>
    <time>2021-07-23T01:07:35Z</time>
   </trkpt>
   <trkpt lat="47.3758130" lon="-122.0325730">
    <ele>157.2</ele>
    <time>2021-07-23T01:07:36Z</time>
   </trkpt>
   <trkpt lat="47.3757800" lon="-122.0325390">
    <ele>157.2</ele>
    <time>2021-07-23T01:07:37Z</time>
   </trkpt>
   <trkpt lat="47.3757380" lon="-122.0325430">
    <ele>157.2</ele>
    <time>2021-07-23T01:07:38Z</time>
   </trkpt>
   <trkpt lat="47.3757140" lon="-122.0325170">
    <ele>157.2</ele>
    <time>2021-07-23T01:07:39Z</time>
   </trkpt>
   <trkpt lat="47.3756790" lon="-122.0325030">
    <ele>157.2</ele>
    <time>2021-07-23T01:07:40Z</time>
   </trkpt>
   <trkpt lat="47.3756500" lon="-122.0324900">
    <ele>157.3</ele>
    <time>2021-07-23T01:07:41Z</time>
   </trkpt>
   <trkpt lat="47.3756200" lon="-122.0324820">
    <ele>157.3</ele>
    <time>2021-07-23T01:07:42Z</time>
   </trkpt>
   <trkpt lat="47.3755900" lon="-122.0324780">
    <ele>157.3</ele>
    <time>2021-07-23T01:07:43Z</time>
   </trkpt>
   <trkpt lat="47.3755530" lon="-122.0324460">
    <ele>157.4</ele>
    <time>2021-07-23T01:07:44Z</time>
   </trkpt>
   <trkpt lat="47.3755180" lon="-122.0324380">
    <ele>157.4</ele>
    <time>2021-07-23T01:07:45Z</time>
   </trkpt>
   <trkpt lat="47.3754890" lon="-122.0324270">
    <ele>157.4</ele>
    <time>2021-07-23T01:07:46Z</time>
   </trkpt>
   <trkpt lat="47.3754500" lon="-122.0324250">
    <ele>157.5</ele>
    <time>2021-07-23T01:07:47Z</time>
   </trkpt>
   <trkpt lat="47.3754210" lon="-122.0324160">
    <ele>157.5</ele>
    <time>2021-07-23T01:07:48Z</time>
   </trkpt>
   <trkpt lat="47.3753830" lon="-122.0323910">
    <ele>157.6</ele>
    <time>2021-07-23T01:07:49Z</time>
   </trkpt>
   <trkpt lat="47.3753510" lon="-122.0323860">
    <ele>157.6</ele>
    <time>2021-07-23T01:07:50Z</time>
   </trkpt>
   <trkpt lat="47.3753130" lon="-122.0324070">
    <ele>157.7</ele>
    <time>2021-07-23T01:07:51Z</time>
   </trkpt>
   <trkpt lat="47.3752800" lon="-122.0323960">
    <ele>157.7</ele>
    <time>2021-07-23T01:07:52Z</time>
   </trkpt>
   <trkpt lat="47.3752460" lon="-122.0323960">
    <ele>157.7</ele>
    <time>2021-07-23T01:07:53Z</time>
   </trkpt>
   <trkpt lat="47.3752120" lon="-122.0323830">
    <ele>157.8</ele>
    <time>2021-07-23T01:07:54Z</time>
   </trkpt>
   <trkpt lat="47.3751800" lon="-122.0323850">
    <ele>157.8</ele>
    <time>2021-07-23T01:07:55Z</time>
   </trkpt>
   <trkpt lat="47.3751420" lon="-122.0323780">
    <ele>157.9</ele>
    <time>2021-07-23T01:07:56Z</time>
   </trkpt>
   <trkpt lat="47.3751120" lon="-122.0323770">
    <ele>157.9</ele>
    <time>2021-07-23T01:07:57Z</time>
   </trkpt>
   <trkpt lat="47.3750830" lon="-122.0323710">
    <ele>157.9</ele>
    <time>2021-07-23T01:07:58Z</time>
   </trkpt>
   <trkpt lat="47.3750460" lon="-122.0323640">
    <ele>158.0</ele>
    <time>2021-07-23T01:07:59Z</time>
   </trkpt>
   <trkpt lat="47.3750090" lon="-122.0323690">
    <ele>158.1</ele>
    <time>2021-07-23T01:08:00Z</time>
   </trkpt>
   <trkpt lat="47.3749690" lon="-122.0323550">
    <ele>158.1</ele>
    <time>2021-07-23T01:08:01Z</time>
   </trkpt>
   <trkpt lat="47.3749390" lon="-122.0323590">
    <ele>158.2</ele>
    <time>2021-07-23T01:08:02Z</time>
   </trkpt>
   <trkpt lat="47.3749030" lon="-122.0323670">
    <ele>158.2</ele>
    <time>2021-07-23T01:08:03Z</time>
   </trkpt>
   <trkpt lat="47.3748610" lon="-122.0323570">
    <ele>158.3</ele>
    <time>2021-07-23T01:08:04Z</time>
   </trkpt>
   <trkpt lat="47.3748290" lon="-122.0323630">
    <ele>158.3</ele>
    <time>2021-07-23T01:08:05Z</time>
   </trkpt>
   <trkpt lat="47.3747990" lon="-122.0323600">
    <ele>158.3</ele>
    <time>2021-07-23T01:08:06Z</time>
   </trkpt>
   <trkpt lat="47.3747640" lon="-122.0323660">
    <ele>158.4</ele>
    <time>2021-07-23T01:08:07Z</time>
   </trkpt>
   <trkpt lat="47.3747110" lon="-122.0323510">
    <ele>158.4</ele>
    <time>2021-07-23T01:08:08Z</time>
   </trkpt>
   <trkpt lat="47.3746820" lon="-122.0323520">
    <ele>158.5</ele>
    <time>2021-07-23T01:08:09Z</time>
   </trkpt>
   <trkpt lat="47.3746410" lon="-122.0323520">
    <ele>158.5</ele>
    <time>2021-07-23T01:08:10Z</time>
   </trkpt>
   <trkpt lat="47.3746030" lon="-122.0323460">
    <ele>158.6</ele>
    <time>2021-07-23T01:08:11Z</time>
   </trkpt>
   <trkpt lat="47.3745580" lon="-122.0323350">
    <ele>158.6</ele>
    <time>2021-07-23T01:08:12Z</time>
   </trkpt>
   <trkpt lat="47.3745230" lon="-122.0323350">
    <ele>158.7</ele>
    <time>2021-07-23T01:08:13Z</time>
   </trkpt>
   <trkpt lat="47.3744880" lon="-122.0323240">
    <ele>158.7</ele>
    <time>2021-07-23T01:08:14Z</time>
   </trkpt>
   <trkpt lat="47.3744460" lon="-122.0323200">
    <ele>158.8</ele>
    <time>2021-07-23T01:08:15Z</time>
   </trkpt>
   <trkpt lat="47.3744150" lon="-122.0323220">
    <ele>158.8</ele>
    <time>2021-07-23T01:08:16Z</time>
   </trkpt>
   <trkpt lat="47.3743810" lon="-122.0323270">
    <ele>158.9</ele>
    <time>2021-07-23T01:08:17Z</time>
   </trkpt>
   <trkpt lat="47.3743490" lon="-122.0323370">
    <ele>158.9</ele>
    <time>2021-07-23T01:08:18Z</time>
   </trkpt>
   <trkpt lat="47.3743040" lon="-122.0323460">
    <ele>159.0</ele>
    <time>2021-07-23T01:08:19Z</time>
   </trkpt>
   <trkpt lat="47.3742830" lon="-122.0323480">
    <ele>159.0</ele>
    <time>2021-07-23T01:08:20Z</time>
   </trkpt>
   <trkpt lat="47.3742520" lon="-122.0323500">
    <ele>159.0</ele>
    <time>2021-07-23T01:08:21Z</time>
   </trkpt>
   <trkpt lat="47.3742080" lon="-122.0323470">
    <ele>159.1</ele>
    <time>2021-07-23T01:08:22Z</time>
   </trkpt>
   <trkpt lat="47.3741750" lon="-122.0323500">
    <ele>159.1</ele>
    <time>2021-07-23T01:08:23Z</time>
   </trkpt>
   <trkpt lat="47.3741360" lon="-122.0323530">
    <ele>159.2</ele>
    <time>2021-07-23T01:08:24Z</time>
   </trkpt>
   <trkpt lat="47.3741200" lon="-122.0323490">
    <ele>159.2</ele>
    <time>2021-07-23T01:08:25Z</time>
   </trkpt>
   <trkpt lat="47.3740860" lon="-122.0323460">
    <ele>159.3</ele>
    <time>2021-07-23T01:08:26Z</time>
   </trkpt>
   <trkpt lat="47.3740590" lon="-122.0323430">
    <ele>159.3</ele>
    <time>2021-07-23T01:08:27Z</time>
   </trkpt>
   <trkpt lat="47.3740270" lon="-122.0323300">
    <ele>159.4</ele>
    <time>2021-07-23T01:08:28Z</time>
   </trkpt>
   <trkpt lat="47.3740100" lon="-122.0323300">
    <ele>159.4</ele>
    <time>2021-07-23T01:08:29Z</time>
   </trkpt>
  </trkseg>
 </trk>
</gpx>
