<?xml version="1.0" encoding="UTF-8"?>
<gpx creator="StravaGPX" version="1.1" xmlns="http://www.topografix.com/GPX/1/1" xmlns:xsi="http://www.w3.org/2001/XMLSchema-instance" xsi:schemaLocation="http://www.topografix.com/GPX/1/1 http://www.topografix.com/GPX/1/1/gpx.xsd">
 <metadata>
  <time>2021-08-23T00:17:20Z</time>
 </metadata>
 <trk>
  <name>Cool down </name>
  <type>walking</type>
  <trkseg>
   <trkpt lat="47.3842660" lon="-122.0497700">
    <ele>137.4</ele>
    <time>2021-08-23T00:17:20Z</time>
   </trkpt>
   <trkpt lat="47.3842520" lon="-122.0497650">
    <ele>137.4</ele>
    <time>2021-08-23T00:17:21Z</time>
   </trkpt>
   <trkpt lat="47.3842390" lon="-122.0497610">
    <ele>137.4</ele>
    <time>2021-08-23T00:17:22Z</time>
   </trkpt>
   <trkpt lat="47.3842180" lon="-122.0497520">
    <ele>137.4</ele>
    <time>2021-08-23T00:17:23Z</time>
   </trkpt>
   <trkpt lat="47.3842080" lon="-122.0497480">
    <ele>137.4</ele>
    <time>2021-08-23T00:17:24Z</time>
   </trkpt>
   <trkpt lat="47.3842040" lon="-122.0497480">
    <ele>137.4</ele>
    <time>2021-08-23T00:17:25Z</time>
   </trkpt>
   <trkpt lat="47.3841980" lon="-122.0497530">
    <ele>137.4</ele>
    <time>2021-08-23T00:17:26Z</time>
   </trkpt>
   <trkpt lat="47.3841790" lon="-122.0497480">
    <ele>137.5</ele>
    <time>2021-08-23T00:17:27Z</time>
   </trkpt>
   <trkpt lat="47.3841590" lon="-122.0497400">
    <ele>137.5</ele>
    <time>2021-08-23T00:17:28Z</time>
   </trkpt>
   <trkpt lat="47.3841500" lon="-122.0497350">
    <ele>137.6</ele>
    <time>2021-08-23T00:17:29Z</time>
   </trkpt>
   <trkpt lat="47.3841420" lon="-122.0497310">
    <ele>137.6</ele>
    <time>2021-08-23T00:17:30Z</time>
   </trkpt>
   <trkpt lat="47.3841370" lon="-122.0497250">
    <ele>137.6</ele>
    <time>2021-08-23T00:17:31Z</time>
   </trkpt>
   <trkpt lat="47.3841200" lon="-122.0497220">
    <ele>137.6</ele>
    <time>2021-08-23T00:17:32Z</time>
   </trkpt>
   <trkpt lat="47.3841150" lon="-122.0497140">
    <ele>137.7</ele>
    <time>2021-08-23T00:17:33Z</time>
   </trkpt>
   <trkpt lat="47.3840950" lon="-122.0497070">
    <ele>137.7</ele>
    <time>2021-08-23T00:17:34Z</time>
   </trkpt>
   <trkpt lat="47.3840840" lon="-122.0497040">
    <ele>137.7</ele>
    <time>2021-08-23T00:17:35Z</time>
   </trkpt>
   <trkpt lat="47.3840650" lon="-122.0497050">
    <ele>137.8</ele>
    <time>2021-08-23T00:17:36Z</time>
   </trkpt>
   <trkpt lat="47.3840570" lon="-122.0497010">
    <ele>137.8</ele>
    <time>2021-08-23T00:17:37Z</time>
   </trkpt>
   <trkpt lat="47.3840500" lon="-122.0496930">
    <ele>137.8</ele>
    <time>2021-08-23T00:17:38Z</time>
   </trkpt>
   <trkpt lat="47.3840390" lon="-122.0496890">
    <ele>137.9</ele>
    <time>2021-08-23T00:17:39Z</time>
   </trkpt>
   <trkpt lat="47.3840240" lon="-122.0496870">
    <ele>137.9</ele>
    <time>2021-08-23T00:17:40Z</time>
   </trkpt>
   <trkpt lat="47.3840070" lon="-122.0496820">
    <ele>137.9</ele>
    <time>2021-08-23T00:17:41Z</time>
   </trkpt>
   <trkpt lat="47.3840020" lon="-122.0496770">
    <ele>137.9</ele>
    <time>2021-08-23T00:17:42Z</time>
   </trkpt>
   <trkpt lat="47.3839910" lon="-122.0496700">
    <ele>138.0</ele>
    <time>2021-08-23T00:17:43Z</time>
   </trkpt>
   <trkpt lat="47.3839680" lon="-122.0496650">
    <ele>138.0</ele>
    <time>2021-08-23T00:17:44Z</time>
   </trkpt>
   <trkpt lat="47.3839610" lon="-122.0496640">
    <ele>138.0</ele>
    <time>2021-08-23T00:17:45Z</time>
   </trkpt>
   <trkpt lat="47.3839540" lon="-122.0496640">
    <ele>138.1</ele>
    <time>2021-08-23T00:17:46Z</time>
   </trkpt>
   <trkpt lat="47.3839350" lon="-122.0496610">
    <ele>138.1</ele>
    <time>2021-08-23T00:17:47Z</time>
   </trkpt>
   <trkpt lat="47.3839190" lon="-122.0496630">
    <ele>138.1</ele>
    <time>2021-08-23T00:17:48Z</time>
   </trkpt>
   <trkpt lat="47.3839030" lon="-122.0496620">
    <ele>138.2</ele>
    <time>2021-08-23T00:17:49Z</time>
   </trkpt>
   <trkpt lat="47.3838920" lon="-122.0496590">
    <ele>138.2</ele>
    <time>2021-08-23T00:17:50Z</time>
   </trkpt>
   <trkpt lat="47.3838840" lon="-122.0496580">
    <ele>138.2</ele>
    <time>2021-08-23T00:17:51Z</time>
   </trkpt>
   <trkpt lat="47.3838720" lon="-122.0496560">
    <ele>138.3</ele>
    <time>2021-08-23T00:17:52Z</time>
   </trkpt>
   <trkpt lat="47.3838580" lon="-122.0496520">
    <ele>138.3</ele>
    <time>2021-08-23T00:17:53Z</time>
   </trkpt>
   <trkpt lat="47.3838300" lon="-122.0496370">
    <ele>138.4</ele>
    <time>2021-08-23T00:17:54Z</time>
   </trkpt>
   <trkpt lat="47.3838140" lon="-122.0496300">
    <ele>138.4</ele>
    <time>2021-08-23T00:17:55Z</time>
   </trkpt>
   <trkpt lat="47.3837900" lon="-122.0496260">
    <ele>138.4</ele>
    <time>2021-08-23T00:17:56Z</time>
   </trkpt>
   <trkpt lat="47.3837790" lon="-122.0496230">
    <ele>138.5</ele>
    <time>2021-08-23T00:17:57Z</time>
   </trkpt>
   <trkpt lat="47.3837560" lon="-122.0496110">
    <ele>138.5</ele>
    <time>2021-08-23T00:17:58Z</time>
   </trkpt>
   <trkpt lat="47.3837480" lon="-122.0496060">
    <ele>138.5</ele>
    <time>2021-08-23T00:17:59Z</time>
   </trkpt>
   <trkpt lat="47.3837410" lon="-122.0496000">
    <ele>138.6</ele>
    <time>2021-08-23T00:18:00Z</time>
   </trkpt>
   <trkpt lat="47.3837210" lon="-122.0495870">
    <ele>138.6</ele>
    <time>2021-08-23T00:18:01Z</time>
   </trkpt>
   <trkpt lat="47.3837060" lon="-122.0495820">
    <ele>138.6</ele>
    <time>2021-08-23T00:18:02Z</time>
   </trkpt>
   <trkpt lat="47.3836890" lon="-122.0495700">
    <ele>138.7</ele>
    <time>2021-08-23T00:18:03Z</time>
   </trkpt>
   <trkpt lat="47.3836750" lon="-122.0495610">
    <ele>138.7</ele>
    <time>2021-08-23T00:18:04Z</time>
   </trkpt>
   <trkpt lat="47.3836550" lon="-122.0495570">
    <ele>138.7</ele>
    <time>2021-08-23T00:18:05Z</time>
   </trkpt>
   <trkpt lat="47.3836480" lon="-122.0495520">
    <ele>138.8</ele>
    <time>2021-08-23T00:18:06Z</time>
   </trkpt>
   <trkpt lat="47.3836400" lon="-122.0495470">
    <ele>138.8</ele>
    <time>2021-08-23T00:18:07Z</time>
   </trkpt>
   <trkpt lat="47.3836340" lon="-122.0495380">
    <ele>138.8</ele>
    <time>2021-08-23T00:18:08Z</time>
   </trkpt>
   <trkpt lat="47.3836190" lon="-122.0495320">
    <ele>138.8</ele>
    <time>2021-08-23T00:18:09Z</time>
   </trkpt>
   <trkpt lat="47.3836080" lon="-122.0495260">
    <ele>138.8</ele>
    <time>2021-08-23T00:18:10Z</time>
   </trkpt>
   <trkpt lat="47.3835910" lon="-122.0495180">
    <ele>138.9</ele>
    <time>2021-08-23T00:18:11Z</time>
   </trkpt>
   <trkpt lat="47.3835770" lon="-122.0495130">
    <ele>138.9</ele>
    <time>2021-08-23T00:18:12Z</time>
   </trkpt>
   <trkpt lat="47.3835630" lon="-122.0495040">
    <ele>138.9</ele>
    <time>2021-08-23T00:18:13Z</time>
   </trkpt>
   <trkpt lat="47.3835490" lon="-122.0494980">
    <ele>138.9</ele>
    <time>2021-08-23T00:18:14Z</time>
   </trkpt>
   <trkpt lat="47.3835300" lon="-122.0494870">
    <ele>138.9</ele>
    <time>2021-08-23T00:18:15Z</time>
   </trkpt>
   <trkpt lat="47.3835190" lon="-122.0494820">
    <ele>139.0</ele>
    <time>2021-08-23T00:18:16Z</time>
   </trkpt>
   <trkpt lat="47.3835070" lon="-122.0494780">
    <ele>139.0</ele>
    <time>2021-08-23T00:18:17Z</time>
   </trkpt>
   <trkpt lat="47.3834920" lon="-122.0494660">
    <ele>139.0</ele>
    <time>2021-08-23T00:18:18Z</time>
   </trkpt>
   <trkpt lat="47.3834750" lon="-122.0494570">
    <ele>139.0</ele>
    <time>2021-08-23T00:18:19Z</time>
   </trkpt>
   <trkpt lat="47.3834550" lon="-122.0494460">
    <ele>139.0</ele>
    <time>2021-08-23T00:18:20Z</time>
   </trkpt>
   <trkpt lat="47.3834420" lon="-122.0494410">
    <ele>139.0</ele>
    <time>2021-08-23T00:18:21Z</time>
   </trkpt>
   <trkpt lat="47.3834260" lon="-122.0494340">
    <ele>139.1</ele>
    <time>2021-08-23T00:18:22Z</time>
   </trkpt>
   <trkpt lat="47.3834090" lon="-122.0494220">
    <ele>139.1</ele>
    <time>2021-08-23T00:18:23Z</time>
   </trkpt>
   <trkpt lat="47.3833940" lon="-122.0494120">
    <ele>139.1</ele>
    <time>2021-08-23T00:18:24Z</time>
   </trkpt>
   <trkpt lat="47.3833810" lon="-122.0494070">
    <ele>139.1</ele>
    <time>2021-08-23T00:18:25Z</time>
   </trkpt>
   <trkpt lat="47.3833600" lon="-122.0493960">
    <ele>139.1</ele>
    <time>2021-08-23T00:18:26Z</time>
   </trkpt>
   <trkpt lat="47.3833520" lon="-122.0493930">
    <ele>139.1</ele>
    <time>2021-08-23T00:18:27Z</time>
   </trkpt>
   <trkpt lat="47.3833440" lon="-122.0493890">
    <ele>139.2</ele>
    <time>2021-08-23T00:18:28Z</time>
   </trkpt>
   <trkpt lat="47.3833350" lon="-122.0493790">
    <ele>139.2</ele>
    <time>2021-08-23T00:18:29Z</time>
   </trkpt>
   <trkpt lat="47.3833280" lon="-122.0493750">
    <ele>139.2</ele>
    <time>2021-08-23T00:18:30Z</time>
   </trkpt>
   <trkpt lat="47.3833170" lon="-122.0493700">
    <ele>139.2</ele>
    <time>2021-08-23T00:18:31Z</time>
   </trkpt>
   <trkpt lat="47.3833050" lon="-122.0493600">
    <ele>139.2</ele>
    <time>2021-08-23T00:18:32Z</time>
   </trkpt>
   <trkpt lat="47.3832870" lon="-122.0493530">
    <ele>139.3</ele>
    <time>2021-08-23T00:18:33Z</time>
   </trkpt>
   <trkpt lat="47.3832590" lon="-122.0493390">
    <ele>139.3</ele>
    <time>2021-08-23T00:18:34Z</time>
   </trkpt>
   <trkpt lat="47.3832300" lon="-122.0493210">
    <ele>139.4</ele>
    <time>2021-08-23T00:18:35Z</time>
   </trkpt>
   <trkpt lat="47.3832240" lon="-122.0493170">
    <ele>139.4</ele>
    <time>2021-08-23T00:18:36Z</time>
   </trkpt>
   <trkpt lat="47.3832050" lon="-122.0493070">
    <ele>139.4</ele>
    <time>2021-08-23T00:18:37Z</time>
   </trkpt>
   <trkpt lat="47.3831980" lon="-122.0493000">
    <ele>139.4</ele>
    <time>2021-08-23T00:18:38Z</time>
   </trkpt>
   <trkpt lat="47.3831940" lon="-122.0492940">
    <ele>139.4</ele>
    <time>2021-08-23T00:18:39Z</time>
   </trkpt>
   <trkpt lat="47.3831880" lon="-122.0492890">
    <ele>139.4</ele>
    <time>2021-08-23T00:18:40Z</time>
   </trkpt>
   <trkpt lat="47.3831730" lon="-122.0492820">
    <ele>139.5</ele>
    <time>2021-08-23T00:18:41Z</time>
   </trkpt>
   <trkpt lat="47.3831500" lon="-122.0492600">
    <ele>139.5</ele>
    <time>2021-08-23T00:18:42Z</time>
   </trkpt>
   <trkpt lat="47.3831390" lon="-122.0492520">
    <ele>139.5</ele>
    <time>2021-08-23T00:18:43Z</time>
   </trkpt>
   <trkpt lat="47.3831260" lon="-122.0492420">
    <ele>139.6</ele>
    <time>2021-08-23T00:18:44Z</time>
   </trkpt>
   <trkpt lat="47.3831160" lon="-122.0492310">
    <ele>139.6</ele>
    <time>2021-08-23T00:18:45Z</time>
   </trkpt>
   <trkpt lat="47.3830960" lon="-122.0492180">
    <ele>139.6</ele>
    <time>2021-08-23T00:18:46Z</time>
   </trkpt>
   <trkpt lat="47.3830860" lon="-122.0492120">
    <ele>139.6</ele>
    <time>2021-08-23T00:18:47Z</time>
   </trkpt>
   <trkpt lat="47.3830760" lon="-122.0492050">
    <ele>139.7</ele>
    <time>2021-08-23T00:18:48Z</time>
   </trkpt>
   <trkpt lat="47.3830520" lon="-122.0491950">
    <ele>139.7</ele>
    <time>2021-08-23T00:18:49Z</time>
   </trkpt>
   <trkpt lat="47.3830450" lon="-122.0491880">
    <ele>139.7</ele>
    <time>2021-08-23T00:18:50Z</time>
   </trkpt>
   <trkpt lat="47.3830370" lon="-122.0491820">
    <ele>139.7</ele>
    <time>2021-08-23T00:18:51Z</time>
   </trkpt>
   <trkpt lat="47.3830270" lon="-122.0491730">
    <ele>139.8</ele>
    <time>2021-08-23T00:18:52Z</time>
   </trkpt>
   <trkpt lat="47.3830140" lon="-122.0491630">
    <ele>139.8</ele>
    <time>2021-08-23T00:18:53Z</time>
   </trkpt>
   <trkpt lat="47.3829990" lon="-122.0491450">
    <ele>139.8</ele>
    <time>2021-08-23T00:18:54Z</time>
   </trkpt>
   <trkpt lat="47.3829900" lon="-122.0491370">
    <ele>139.8</ele>
    <time>2021-08-23T00:18:55Z</time>
   </trkpt>
   <trkpt lat="47.3829810" lon="-122.0491300">
    <ele>139.9</ele>
    <time>2021-08-23T00:18:56Z</time>
   </trkpt>
   <trkpt lat="47.3829590" lon="-122.0491070">
    <ele>139.9</ele>
    <time>2021-08-23T00:18:57Z</time>
   </trkpt>
   <trkpt lat="47.3829490" lon="-122.0491010">
    <ele>139.9</ele>
    <time>2021-08-23T00:18:58Z</time>
   </trkpt>
   <trkpt lat="47.3829330" lon="-122.0490840">
    <ele>140.0</ele>
    <time>2021-08-23T00:18:59Z</time>
   </trkpt>
   <trkpt lat="47.3829210" lon="-122.0490740">
    <ele>140.0</ele>
    <time>2021-08-23T00:19:00Z</time>
   </trkpt>
   <trkpt lat="47.3829070" lon="-122.0490590">
    <ele>140.0</ele>
    <time>2021-08-23T00:19:01Z</time>
   </trkpt>
   <trkpt lat="47.3828980" lon="-122.0490510">
    <ele>140.0</ele>
    <time>2021-08-23T00:19:02Z</time>
   </trkpt>
   <trkpt lat="47.3828900" lon="-122.0490420">
    <ele>140.0</ele>
    <time>2021-08-23T00:19:03Z</time>
   </trkpt>
   <trkpt lat="47.3828810" lon="-122.0490340">
    <ele>140.1</ele>
    <time>2021-08-23T00:19:04Z</time>
   </trkpt>
   <trkpt lat="47.3828700" lon="-122.0490270">
    <ele>140.1</ele>
    <time>2021-08-23T00:19:05Z</time>
   </trkpt>
   <trkpt lat="47.3828630" lon="-122.0490170">
    <ele>140.1</ele>
    <time>2021-08-23T00:19:06Z</time>
   </trkpt>
   <trkpt lat="47.3828570" lon="-122.0490130">
    <ele>140.1</ele>
    <time>2021-08-23T00:19:07Z</time>
   </trkpt>
   <trkpt lat="47.3828440" lon="-122.0490010">
    <ele>140.1</ele>
    <time>2021-08-23T00:19:08Z</time>
   </trkpt>
   <trkpt lat="47.3828330" lon="-122.0489950">
    <ele>140.1</ele>
    <time>2021-08-23T00:19:09Z</time>
   </trkpt>
   <trkpt lat="47.3828220" lon="-122.0489900">
    <ele>140.1</ele>
    <time>2021-08-23T00:19:10Z</time>
   </trkpt>
   <trkpt lat="47.3828020" lon="-122.0489710">
    <ele>140.2</ele>
    <time>2021-08-23T00:19:11Z</time>
   </trkpt>
   <trkpt lat="47.3827950" lon="-122.0489640">
    <ele>140.2</ele>
    <time>2021-08-23T00:19:12Z</time>
   </trkpt>
   <trkpt lat="47.3827880" lon="-122.0489580">
    <ele>140.2</ele>
    <time>2021-08-23T00:19:13Z</time>
   </trkpt>
   <trkpt lat="47.3827800" lon="-122.0489480">
    <ele>140.2</ele>
    <time>2021-08-23T00:19:14Z</time>
   </trkpt>
   <trkpt lat="47.3827750" lon="-122.0489390">
    <ele>140.2</ele>
    <time>2021-08-23T00:19:15Z</time>
   </trkpt>
   <trkpt lat="47.3827680" lon="-122.0489260">
    <ele>140.2</ele>
    <time>2021-08-23T00:19:16Z</time>
   </trkpt>
   <trkpt lat="47.3827550" lon="-122.0489070">
    <ele>140.3</ele>
    <time>2021-08-23T00:19:17Z</time>
   </trkpt>
   <trkpt lat="47.3827460" lon="-122.0488980">
    <ele>140.3</ele>
    <time>2021-08-23T00:19:18Z</time>
   </trkpt>
   <trkpt lat="47.3827380" lon="-122.0488880">
    <ele>140.3</ele>
    <time>2021-08-23T00:19:19Z</time>
   </trkpt>
   <trkpt lat="47.3827190" lon="-122.0488730">
    <ele>140.3</ele>
    <time>2021-08-23T00:19:20Z</time>
   </trkpt>
   <trkpt lat="47.3827120" lon="-122.0488680">
    <ele>140.3</ele>
    <time>2021-08-23T00:19:21Z</time>
   </trkpt>
   <trkpt lat="47.3827040" lon="-122.0488620">
    <ele>140.3</ele>
    <time>2021-08-23T00:19:22Z</time>
   </trkpt>
   <trkpt lat="47.3826870" lon="-122.0488520">
    <ele>140.4</ele>
    <time>2021-08-23T00:19:23Z</time>
   </trkpt>
   <trkpt lat="47.3826780" lon="-122.0488500">
    <ele>140.4</ele>
    <time>2021-08-23T00:19:24Z</time>
   </trkpt>
   <trkpt lat="47.3826690" lon="-122.0488370">
    <ele>140.4</ele>
    <time>2021-08-23T00:19:25Z</time>
   </trkpt>
   <trkpt lat="47.3826640" lon="-122.0488230">
    <ele>140.4</ele>
    <time>2021-08-23T00:19:26Z</time>
   </trkpt>
   <trkpt lat="47.3826590" lon="-122.0488050">
    <ele>140.4</ele>
    <time>2021-08-23T00:19:27Z</time>
   </trkpt>
   <trkpt lat="47.3826450" lon="-122.0487920">
    <ele>140.4</ele>
    <time>2021-08-23T00:19:28Z</time>
   </trkpt>
   <trkpt lat="47.3826300" lon="-122.0487810">
    <ele>140.4</ele>
    <time>2021-08-23T00:19:29Z</time>
   </trkpt>
   <trkpt lat="47.3826140" lon="-122.0487680">
    <ele>140.5</ele>
    <time>2021-08-23T00:19:30Z</time>
   </trkpt>
   <trkpt lat="47.3826060" lon="-122.0487620">
    <ele>140.5</ele>
    <time>2021-08-23T00:19:31Z</time>
   </trkpt>
   <trkpt lat="47.3825980" lon="-122.0487550">
    <ele>140.5</ele>
    <time>2021-08-23T00:19:32Z</time>
   </trkpt>
   <trkpt lat="47.3825810" lon="-122.0487370">
    <ele>140.5</ele>
    <time>2021-08-23T00:19:33Z</time>
   </trkpt>
   <trkpt lat="47.3825740" lon="-122.0487280">
    <ele>140.5</ele>
    <time>2021-08-23T00:19:34Z</time>
   </trkpt>
   <trkpt lat="47.3825670" lon="-122.0487200">
    <ele>140.5</ele>
    <time>2021-08-23T00:19:35Z</time>
   </trkpt>
   <trkpt lat="47.3825580" lon="-122.0487080">
    <ele>140.5</ele>
    <time>2021-08-23T00:19:36Z</time>
   </trkpt>
   <trkpt lat="47.3825480" lon="-122.0486910">
    <ele>140.6</ele>
    <time>2021-08-23T00:19:37Z</time>
   </trkpt>
   <trkpt lat="47.3825330" lon="-122.0486770">
    <ele>140.6</ele>
    <time>2021-08-23T00:19:38Z</time>
   </trkpt>
   <trkpt lat="47.3825170" lon="-122.0486720">
    <ele>140.6</ele>
    <time>2021-08-23T00:19:39Z</time>
   </trkpt>
   <trkpt lat="47.3825070" lon="-122.0486610">
    <ele>140.6</ele>
    <time>2021-08-23T00:19:40Z</time>
   </trkpt>
   <trkpt lat="47.3824910" lon="-122.0486460">
    <ele>140.7</ele>
    <time>2021-08-23T00:19:41Z</time>
   </trkpt>
   <trkpt lat="47.3824760" lon="-122.0486230">
    <ele>140.7</ele>
    <time>2021-08-23T00:19:42Z</time>
   </trkpt>
   <trkpt lat="47.3824710" lon="-122.0486130">
    <ele>140.7</ele>
    <time>2021-08-23T00:19:43Z</time>
   </trkpt>
   <trkpt lat="47.3824660" lon="-122.0486040">
    <ele>140.7</ele>
    <time>2021-08-23T00:19:44Z</time>
   </trkpt>
   <trkpt lat="47.3824530" lon="-122.0485810">
    <ele>140.8</ele>
    <time>2021-08-23T00:19:45Z</time>
   </trkpt>
   <trkpt lat="47.3824440" lon="-122.0485730">
    <ele>140.8</ele>
    <time>2021-08-23T00:19:46Z</time>
   </trkpt>
   <trkpt lat="47.3824360" lon="-122.0485640">
    <ele>140.8</ele>
    <time>2021-08-23T00:19:47Z</time>
   </trkpt>
   <trkpt lat="47.3824170" lon="-122.0485520">
    <ele>140.8</ele>
    <time>2021-08-23T00:19:48Z</time>
   </trkpt>
   <trkpt lat="47.3824090" lon="-122.0485470">
    <ele>140.9</ele>
    <time>2021-08-23T00:19:49Z</time>
   </trkpt>
   <trkpt lat="47.3824010" lon="-122.0485430">
    <ele>140.9</ele>
    <time>2021-08-23T00:19:50Z</time>
   </trkpt>
   <trkpt lat="47.3823810" lon="-122.0485320">
    <ele>140.9</ele>
    <time>2021-08-23T00:19:51Z</time>
   </trkpt>
   <trkpt lat="47.3823790" lon="-122.0485230">
    <ele>140.9</ele>
    <time>2021-08-23T00:19:52Z</time>
   </trkpt>
   <trkpt lat="47.3823710" lon="-122.0485130">
    <ele>140.9</ele>
    <time>2021-08-23T00:19:53Z</time>
   </trkpt>
   <trkpt lat="47.3823700" lon="-122.0485060">
    <ele>141.0</ele>
    <time>2021-08-23T00:19:54Z</time>
   </trkpt>
   <trkpt lat="47.3823590" lon="-122.0484970">
    <ele>141.0</ele>
    <time>2021-08-23T00:19:55Z</time>
   </trkpt>
   <trkpt lat="47.3823480" lon="-122.0484860">
    <ele>141.0</ele>
    <time>2021-08-23T00:19:56Z</time>
   </trkpt>
   <trkpt lat="47.3823400" lon="-122.0484730">
    <ele>141.0</ele>
    <time>2021-08-23T00:19:57Z</time>
   </trkpt>
   <trkpt lat="47.3823270" lon="-122.0484580">
    <ele>141.1</ele>
    <time>2021-08-23T00:19:58Z</time>
   </trkpt>
   <trkpt lat="47.3823130" lon="-122.0484540">
    <ele>141.1</ele>
    <time>2021-08-23T00:19:59Z</time>
   </trkpt>
   <trkpt lat="47.3823000" lon="-122.0484480">
    <ele>141.1</ele>
    <time>2021-08-23T00:20:00Z</time>
   </trkpt>
   <trkpt lat="47.3822880" lon="-122.0484380">
    <ele>141.2</ele>
    <time>2021-08-23T00:20:01Z</time>
   </trkpt>
   <trkpt lat="47.3822790" lon="-122.0484310">
    <ele>141.2</ele>
    <time>2021-08-23T00:20:02Z</time>
   </trkpt>
   <trkpt lat="47.3822720" lon="-122.0484240">
    <ele>141.2</ele>
    <time>2021-08-23T00:20:03Z</time>
   </trkpt>
   <trkpt lat="47.3822660" lon="-122.0484140">
    <ele>141.2</ele>
    <time>2021-08-23T00:20:04Z</time>
   </trkpt>
   <trkpt lat="47.3822720" lon="-122.0484190">
    <ele>141.2</ele>
    <time>2021-08-23T00:20:05Z</time>
   </trkpt>
   <trkpt lat="47.3822660" lon="-122.0484170">
    <ele>141.3</ele>
    <time>2021-08-23T00:20:06Z</time>
   </trkpt>
   <trkpt lat="47.3822480" lon="-122.0484040">
    <ele>141.3</ele>
    <time>2021-08-23T00:20:07Z</time>
   </trkpt>
   <trkpt lat="47.3822400" lon="-122.0484050">
    <ele>141.3</ele>
    <time>2021-08-23T00:20:08Z</time>
   </trkpt>
   <trkpt lat="47.3822320" lon="-122.0483950">
    <ele>141.3</ele>
    <time>2021-08-23T00:20:09Z</time>
   </trkpt>
   <trkpt lat="47.3822290" lon="-122.0483950">
    <ele>141.3</ele>
    <time>2021-08-23T00:20:10Z</time>
   </trkpt>
   <trkpt lat="47.3822210" lon="-122.0483880">
    <ele>141.4</ele>
    <time>2021-08-23T00:20:11Z</time>
   </trkpt>
   <trkpt lat="47.3822190" lon="-122.0483850">
    <ele>141.4</ele>
    <time>2021-08-23T00:20:12Z</time>
   </trkpt>
   <trkpt lat="47.3822180" lon="-122.0483820">
    <ele>141.4</ele>
    <time>2021-08-23T00:20:13Z</time>
   </trkpt>
   <trkpt lat="47.3822180" lon="-122.0483800">
    <ele>141.4</ele>
    <time>2021-08-23T00:20:14Z</time>
   </trkpt>
   <trkpt lat="47.3822140" lon="-122.0483760">
    <ele>141.4</ele>
    <time>2021-08-23T00:20:15Z</time>
   </trkpt>
   <trkpt lat="47.3822120" lon="-122.0483730">
    <ele>141.4</ele>
    <time>2021-08-23T00:20:16Z</time>
   </trkpt>
   <trkpt lat="47.3821920" lon="-122.0483640">
    <ele>141.4</ele>
    <time>2021-08-23T00:20:17Z</time>
   </trkpt>
   <trkpt lat="47.3821890" lon="-122.0483590">
    <ele>141.4</ele>
    <time>2021-08-23T00:20:18Z</time>
   </trkpt>
   <trkpt lat="47.3821830" lon="-122.0483590">
    <ele>141.4</ele>
    <time>2021-08-23T00:20:19Z</time>
   </trkpt>
   <trkpt lat="47.3821810" lon="-122.0483620">
    <ele>141.4</ele>
    <time>2021-08-23T00:20:20Z</time>
   </trkpt>
   <trkpt lat="47.3821770" lon="-122.0483620">
    <ele>141.4</ele>
    <time>2021-08-23T00:20:22Z</time>
   </trkpt>
   <trkpt lat="47.3821760" lon="-122.0483580">
    <ele>141.5</ele>
    <time>2021-08-23T00:20:23Z</time>
   </trkpt>
   <trkpt lat="47.3821690" lon="-122.0483540">
    <ele>141.5</ele>
    <time>2021-08-23T00:20:24Z</time>
   </trkpt>
   <trkpt lat="47.3821610" lon="-122.0483440">
    <ele>141.5</ele>
    <time>2021-08-23T00:20:25Z</time>
   </trkpt>
   <trkpt lat="47.3821490" lon="-122.0483370">
    <ele>141.5</ele>
    <time>2021-08-23T00:20:26Z</time>
   </trkpt>
   <trkpt lat="47.3821460" lon="-122.0483350">
    <ele>141.5</ele>
    <time>2021-08-23T00:20:27Z</time>
   </trkpt>
   <trkpt lat="47.3821390" lon="-122.0483340">
    <ele>141.5</ele>
    <time>2021-08-23T00:20:28Z</time>
   </trkpt>
   <trkpt lat="47.3821320" lon="-122.0483340">
    <ele>141.6</ele>
    <time>2021-08-23T00:20:29Z</time>
   </trkpt>
   <trkpt lat="47.3821100" lon="-122.0482940">
    <ele>141.6</ele>
    <time>2021-08-23T00:20:30Z</time>
   </trkpt>
   <trkpt lat="47.3820940" lon="-122.0482580">
    <ele>141.7</ele>
    <time>2021-08-23T00:20:31Z</time>
   </trkpt>
   <trkpt lat="47.3820770" lon="-122.0482220">
    <ele>141.7</ele>
    <time>2021-08-23T00:20:32Z</time>
   </trkpt>
   <trkpt lat="47.3820610" lon="-122.0481860">
    <ele>141.7</ele>
    <time>2021-08-23T00:20:33Z</time>
   </trkpt>
   <trkpt lat="47.3820440" lon="-122.0481500">
    <ele>141.8</ele>
    <time>2021-08-23T00:20:34Z</time>
   </trkpt>
   <trkpt lat="47.3820280" lon="-122.0481140">
    <ele>141.8</ele>
    <time>2021-08-23T00:20:36Z</time>
   </trkpt>
   <trkpt lat="47.3820110" lon="-122.0480770">
    <ele>141.8</ele>
    <time>2021-08-23T00:20:37Z</time>
   </trkpt>
   <trkpt lat="47.3819950" lon="-122.0480410">
    <ele>141.8</ele>
    <time>2021-08-23T00:20:38Z</time>
   </trkpt>
   <trkpt lat="47.3819780" lon="-122.0480050">
    <ele>141.8</ele>
    <time>2021-08-23T00:20:39Z</time>
   </trkpt>
   <trkpt lat="47.3819620" lon="-122.0479690">
    <ele>141.8</ele>
    <time>2021-08-23T00:20:40Z</time>
   </trkpt>
   <trkpt lat="47.3819450" lon="-122.0479330">
    <ele>141.8</ele>
    <time>2021-08-23T00:20:41Z</time>
   </trkpt>
   <trkpt lat="47.3819290" lon="-122.0478970">
    <ele>141.8</ele>
    <time>2021-08-23T00:20:42Z</time>
   </trkpt>
   <trkpt lat="47.3819120" lon="-122.0478610">
    <ele>141.8</ele>
    <time>2021-08-23T00:20:43Z</time>
   </trkpt>
   <trkpt lat="47.3818980" lon="-122.0478200">
    <ele>141.8</ele>
    <time>2021-08-23T00:20:44Z</time>
   </trkpt>
   <trkpt lat="47.3818920" lon="-122.0477950">
    <ele>141.8</ele>
    <time>2021-08-23T00:20:45Z</time>
   </trkpt>
   <trkpt lat="47.3818820" lon="-122.0477800">
    <ele>141.8</ele>
    <time>2021-08-23T00:20:46Z</time>
   </trkpt>
   <trkpt lat="47.3818720" lon="-122.0477560">
    <ele>141.8</ele>
    <time>2021-08-23T00:20:47Z</time>
   </trkpt>
   <trkpt lat="47.3818630" lon="-122.0477370">
    <ele>141.8</ele>
    <time>2021-08-23T00:20:48Z</time>
   </trkpt>
   <trkpt lat="47.3818540" lon="-122.0477200">
    <ele>141.7</ele>
    <time>2021-08-23T00:20:49Z</time>
   </trkpt>
   <trkpt lat="47.3818490" lon="-122.0477100">
    <ele>141.7</ele>
    <time>2021-08-23T00:20:50Z</time>
   </trkpt>
   <trkpt lat="47.3818440" lon="-122.0477050">
    <ele>141.7</ele>
    <time>2021-08-23T00:20:51Z</time>
   </trkpt>
   <trkpt lat="47.3818350" lon="-122.0476930">
    <ele>141.7</ele>
    <time>2021-08-23T00:20:52Z</time>
   </trkpt>
   <trkpt lat="47.3818290" lon="-122.0476790">
    <ele>141.7</ele>
    <time>2021-08-23T00:20:53Z</time>
   </trkpt>
   <trkpt lat="47.3818220" lon="-122.0476680">
    <ele>141.7</ele>
    <time>2021-08-23T00:20:54Z</time>
   </trkpt>
   <trkpt lat="47.3818160" lon="-122.0476620">
    <ele>141.7</ele>
    <time>2021-08-23T00:20:55Z</time>
   </trkpt>
   <trkpt lat="47.3818040" lon="-122.0476500">
    <ele>141.7</ele>
    <time>2021-08-23T00:20:56Z</time>
   </trkpt>
   <trkpt lat="47.3818000" lon="-122.0476300">
    <ele>141.7</ele>
    <time>2021-08-23T00:20:57Z</time>
   </trkpt>
   <trkpt lat="47.3817980" lon="-122.0476230">
    <ele>141.7</ele>
    <time>2021-08-23T00:20:58Z</time>
   </trkpt>
   <trkpt lat="47.3817920" lon="-122.0476150">
    <ele>141.7</ele>
    <time>2021-08-23T00:20:59Z</time>
   </trkpt>
   <trkpt lat="47.3817860" lon="-122.0476150">
    <ele>141.7</ele>
    <time>2021-08-23T00:21:00Z</time>
   </trkpt>
   <trkpt lat="47.3817760" lon="-122.0476020">
    <ele>141.7</ele>
    <time>2021-08-23T00:21:01Z</time>
   </trkpt>
   <trkpt lat="47.3817600" lon="-122.0475960">
    <ele>141.7</ele>
    <time>2021-08-23T00:21:02Z</time>
   </trkpt>
   <trkpt lat="47.3817570" lon="-122.0475980">
    <ele>141.7</ele>
    <time>2021-08-23T00:21:03Z</time>
   </trkpt>
   <trkpt lat="47.3817500" lon="-122.0475910">
    <ele>141.7</ele>
    <time>2021-08-23T00:21:04Z</time>
   </trkpt>
   <trkpt lat="47.3817390" lon="-122.0475730">
    <ele>141.7</ele>
    <time>2021-08-23T00:21:05Z</time>
   </trkpt>
   <trkpt lat="47.3817290" lon="-122.0475610">
    <ele>141.7</ele>
    <time>2021-08-23T00:21:06Z</time>
   </trkpt>
   <trkpt lat="47.3817130" lon="-122.0475450">
    <ele>141.7</ele>
    <time>2021-08-23T00:21:07Z</time>
   </trkpt>
   <trkpt lat="47.3817090" lon="-122.0475250">
    <ele>141.7</ele>
    <time>2021-08-23T00:21:08Z</time>
   </trkpt>
   <trkpt lat="47.3817080" lon="-122.0475100">
    <ele>141.7</ele>
    <time>2021-08-23T00:21:09Z</time>
   </trkpt>
   <trkpt lat="47.3817070" lon="-122.0474900">
    <ele>141.7</ele>
    <time>2021-08-23T00:21:10Z</time>
   </trkpt>
   <trkpt lat="47.3816960" lon="-122.0474840">
    <ele>141.7</ele>
    <time>2021-08-23T00:21:11Z</time>
   </trkpt>
   <trkpt lat="47.3816940" lon="-122.0474760">
    <ele>141.7</ele>
    <time>2021-08-23T00:21:12Z</time>
   </trkpt>
   <trkpt lat="47.3816860" lon="-122.0474600">
    <ele>141.7</ele>
    <time>2021-08-23T00:21:13Z</time>
   </trkpt>
   <trkpt lat="47.3816800" lon="-122.0474490">
    <ele>141.7</ele>
    <time>2021-08-23T00:21:14Z</time>
   </trkpt>
   <trkpt lat="47.3816760" lon="-122.0474350">
    <ele>141.7</ele>
    <time>2021-08-23T00:21:15Z</time>
   </trkpt>
   <trkpt lat="47.3816730" lon="-122.0474190">
    <ele>141.7</ele>
    <time>2021-08-23T00:21:16Z</time>
   </trkpt>
   <trkpt lat="47.3816720" lon="-122.0474060">
    <ele>141.7</ele>
    <time>2021-08-23T00:21:17Z</time>
   </trkpt>
   <trkpt lat="47.3816560" lon="-122.0473830">
    <ele>141.7</ele>
    <time>2021-08-23T00:21:18Z</time>
   </trkpt>
   <trkpt lat="47.3816490" lon="-122.0473730">
    <ele>141.7</ele>
    <time>2021-08-23T00:21:19Z</time>
   </trkpt>
   <trkpt lat="47.3816410" lon="-122.0473620">
    <ele>141.7</ele>
    <time>2021-08-23T00:21:20Z</time>
   </trkpt>
   <trkpt lat="47.3816290" lon="-122.0473480">
    <ele>141.7</ele>
    <time>2021-08-23T00:21:21Z</time>
   </trkpt>
   <trkpt lat="47.3816190" lon="-122.0473360">
    <ele>141.7</ele>
    <time>2021-08-23T00:21:22Z</time>
   </trkpt>
   <trkpt lat="47.3816100" lon="-122.0473260">
    <ele>141.7</ele>
    <time>2021-08-23T00:21:23Z</time>
   </trkpt>
   <trkpt lat="47.3816050" lon="-122.0473110">
    <ele>141.7</ele>
    <time>2021-08-23T00:21:24Z</time>
   </trkpt>
   <trkpt lat="47.3816040" lon="-122.0472990">
    <ele>141.7</ele>
    <time>2021-08-23T00:21:25Z</time>
   </trkpt>
   <trkpt lat="47.3815880" lon="-122.0472780">
    <ele>141.8</ele>
    <time>2021-08-23T00:21:26Z</time>
   </trkpt>
   <trkpt lat="47.3815820" lon="-122.0472690">
    <ele>141.8</ele>
    <time>2021-08-23T00:21:27Z</time>
   </trkpt>
   <trkpt lat="47.3815760" lon="-122.0472610">
    <ele>141.8</ele>
    <time>2021-08-23T00:21:28Z</time>
   </trkpt>
   <trkpt lat="47.3815560" lon="-122.0472410">
    <ele>141.8</ele>
    <time>2021-08-23T00:21:29Z</time>
   </trkpt>
   <trkpt lat="47.3815530" lon="-122.0472300">
    <ele>141.8</ele>
    <time>2021-08-23T00:21:30Z</time>
   </trkpt>
   <trkpt lat="47.3815500" lon="-122.0472190">
    <ele>141.8</ele>
    <time>2021-08-23T00:21:31Z</time>
   </trkpt>
   <trkpt lat="47.3815420" lon="-122.0472030">
    <ele>141.8</ele>
    <time>2021-08-23T00:21:32Z</time>
   </trkpt>
   <trkpt lat="47.3815360" lon="-122.0471800">
    <ele>141.8</ele>
    <time>2021-08-23T00:21:33Z</time>
   </trkpt>
   <trkpt lat="47.3815320" lon="-122.0471630">
    <ele>141.8</ele>
    <time>2021-08-23T00:21:34Z</time>
   </trkpt>
   <trkpt lat="47.3815300" lon="-122.0471510">
    <ele>141.8</ele>
    <time>2021-08-23T00:21:35Z</time>
   </trkpt>
   <trkpt lat="47.3815240" lon="-122.0471430">
    <ele>141.8</ele>
    <time>2021-08-23T00:21:36Z</time>
   </trkpt>
   <trkpt lat="47.3815190" lon="-122.0471300">
    <ele>141.8</ele>
    <time>2021-08-23T00:21:37Z</time>
   </trkpt>
   <trkpt lat="47.3815190" lon="-122.0471110">
    <ele>141.8</ele>
    <time>2021-08-23T00:21:38Z</time>
   </trkpt>
   <trkpt lat="47.3815130" lon="-122.0471040">
    <ele>141.8</ele>
    <time>2021-08-23T00:21:39Z</time>
   </trkpt>
   <trkpt lat="47.3815060" lon="-122.0470920">
    <ele>141.9</ele>
    <time>2021-08-23T00:21:40Z</time>
   </trkpt>
   <trkpt lat="47.3815070" lon="-122.0470710">
    <ele>141.9</ele>
    <time>2021-08-23T00:21:41Z</time>
   </trkpt>
   <trkpt lat="47.3815060" lon="-122.0470530">
    <ele>141.9</ele>
    <time>2021-08-23T00:21:42Z</time>
   </trkpt>
   <trkpt lat="47.3815050" lon="-122.0470450">
    <ele>141.9</ele>
    <time>2021-08-23T00:21:43Z</time>
   </trkpt>
   <trkpt lat="47.3815000" lon="-122.0470330">
    <ele>141.9</ele>
    <time>2021-08-23T00:21:44Z</time>
   </trkpt>
   <trkpt lat="47.3814990" lon="-122.0470320">
    <ele>141.9</ele>
    <time>2021-08-23T00:21:45Z</time>
   </trkpt>
   <trkpt lat="47.3814990" lon="-122.0470310">
    <ele>141.9</ele>
    <time>2021-08-23T00:21:46Z</time>
   </trkpt>
   <trkpt lat="47.3814900" lon="-122.0470200">
    <ele>141.9</ele>
    <time>2021-08-23T00:21:47Z</time>
   </trkpt>
   <trkpt lat="47.3814800" lon="-122.0470030">
    <ele>141.9</ele>
    <time>2021-08-23T00:21:48Z</time>
   </trkpt>
   <trkpt lat="47.3814730" lon="-122.0469900">
    <ele>142.0</ele>
    <time>2021-08-23T00:21:49Z</time>
   </trkpt>
   <trkpt lat="47.3814680" lon="-122.0469840">
    <ele>142.0</ele>
    <time>2021-08-23T00:21:50Z</time>
   </trkpt>
   <trkpt lat="47.3814660" lon="-122.0469700">
    <ele>142.0</ele>
    <time>2021-08-23T00:21:51Z</time>
   </trkpt>
   <trkpt lat="47.3814700" lon="-122.0469630">
    <ele>142.0</ele>
    <time>2021-08-23T00:21:52Z</time>
   </trkpt>
   <trkpt lat="47.3814690" lon="-122.0469560">
    <ele>142.0</ele>
    <time>2021-08-23T00:21:53Z</time>
   </trkpt>
   <trkpt lat="47.3814670" lon="-122.0469540">
    <ele>142.0</ele>
    <time>2021-08-23T00:21:54Z</time>
   </trkpt>
   <trkpt lat="47.3814690" lon="-122.0469420">
    <ele>142.0</ele>
    <time>2021-08-23T00:21:55Z</time>
   </trkpt>
   <trkpt lat="47.3814650" lon="-122.0469290">
    <ele>142.0</ele>
    <time>2021-08-23T00:21:56Z</time>
   </trkpt>
   <trkpt lat="47.3814580" lon="-122.0469210">
    <ele>142.0</ele>
    <time>2021-08-23T00:21:57Z</time>
   </trkpt>
   <trkpt lat="47.3814570" lon="-122.0469150">
    <ele>142.0</ele>
    <time>2021-08-23T00:21:58Z</time>
   </trkpt>
   <trkpt lat="47.3814490" lon="-122.0469070">
    <ele>142.1</ele>
    <time>2021-08-23T00:21:59Z</time>
   </trkpt>
   <trkpt lat="47.3814440" lon="-122.0468950">
    <ele>142.1</ele>
    <time>2021-08-23T00:22:00Z</time>
   </trkpt>
   <trkpt lat="47.3814380" lon="-122.0468820">
    <ele>142.1</ele>
    <time>2021-08-23T00:22:01Z</time>
   </trkpt>
   <trkpt lat="47.3814290" lon="-122.0468700">
    <ele>142.1</ele>
    <time>2021-08-23T00:22:02Z</time>
   </trkpt>
   <trkpt lat="47.3814230" lon="-122.0468400">
    <ele>142.1</ele>
    <time>2021-08-23T00:22:03Z</time>
   </trkpt>
   <trkpt lat="47.3814190" lon="-122.0468310">
    <ele>142.2</ele>
    <time>2021-08-23T00:22:04Z</time>
   </trkpt>
   <trkpt lat="47.3814160" lon="-122.0468220">
    <ele>142.2</ele>
    <time>2021-08-23T00:22:05Z</time>
   </trkpt>
   <trkpt lat="47.3814120" lon="-122.0468130">
    <ele>142.2</ele>
    <time>2021-08-23T00:22:06Z</time>
   </trkpt>
   <trkpt lat="47.3814080" lon="-122.0468050">
    <ele>142.2</ele>
    <time>2021-08-23T00:22:07Z</time>
   </trkpt>
   <trkpt lat="47.3814050" lon="-122.0467970">
    <ele>142.2</ele>
    <time>2021-08-23T00:22:08Z</time>
   </trkpt>
   <trkpt lat="47.3813980" lon="-122.0467880">
    <ele>142.2</ele>
    <time>2021-08-23T00:22:09Z</time>
   </trkpt>
   <trkpt lat="47.3813900" lon="-122.0467700">
    <ele>142.2</ele>
    <time>2021-08-23T00:22:10Z</time>
   </trkpt>
   <trkpt lat="47.3813770" lon="-122.0467510">
    <ele>142.2</ele>
    <time>2021-08-23T00:22:11Z</time>
   </trkpt>
   <trkpt lat="47.3813700" lon="-122.0467340">
    <ele>142.3</ele>
    <time>2021-08-23T00:22:12Z</time>
   </trkpt>
   <trkpt lat="47.3813590" lon="-122.0467190">
    <ele>142.3</ele>
    <time>2021-08-23T00:22:13Z</time>
   </trkpt>
   <trkpt lat="47.3813410" lon="-122.0467110">
    <ele>142.3</ele>
    <time>2021-08-23T00:22:14Z</time>
   </trkpt>
   <trkpt lat="47.3813320" lon="-122.0466840">
    <ele>142.3</ele>
    <time>2021-08-23T00:22:15Z</time>
   </trkpt>
   <trkpt lat="47.3813260" lon="-122.0466730">
    <ele>142.3</ele>
    <time>2021-08-23T00:22:16Z</time>
   </trkpt>
   <trkpt lat="47.3813200" lon="-122.0466610">
    <ele>142.3</ele>
    <time>2021-08-23T00:22:17Z</time>
   </trkpt>
   <trkpt lat="47.3813120" lon="-122.0466380">
    <ele>142.4</ele>
    <time>2021-08-23T00:22:18Z</time>
   </trkpt>
   <trkpt lat="47.3813040" lon="-122.0466190">
    <ele>142.4</ele>
    <time>2021-08-23T00:22:19Z</time>
   </trkpt>
   <trkpt lat="47.3812950" lon="-122.0465980">
    <ele>142.4</ele>
    <time>2021-08-23T00:22:20Z</time>
   </trkpt>
   <trkpt lat="47.3812860" lon="-122.0465780">
    <ele>142.4</ele>
    <time>2021-08-23T00:22:21Z</time>
   </trkpt>
   <trkpt lat="47.3812770" lon="-122.0465590">
    <ele>142.4</ele>
    <time>2021-08-23T00:22:22Z</time>
   </trkpt>
   <trkpt lat="47.3812720" lon="-122.0465480">
    <ele>142.4</ele>
    <time>2021-08-23T00:22:23Z</time>
   </trkpt>
   <trkpt lat="47.3812660" lon="-122.0465370">
    <ele>142.5</ele>
    <time>2021-08-23T00:22:24Z</time>
   </trkpt>
   <trkpt lat="47.3812610" lon="-122.0465260">
    <ele>142.5</ele>
    <time>2021-08-23T00:22:25Z</time>
   </trkpt>
   <trkpt lat="47.3812490" lon="-122.0464990">
    <ele>142.5</ele>
    <time>2021-08-23T00:22:26Z</time>
   </trkpt>
   <trkpt lat="47.3812460" lon="-122.0464860">
    <ele>142.5</ele>
    <time>2021-08-23T00:22:27Z</time>
   </trkpt>
   <trkpt lat="47.3812430" lon="-122.0464740">
    <ele>142.5</ele>
    <time>2021-08-23T00:22:28Z</time>
   </trkpt>
   <trkpt lat="47.3812310" lon="-122.0464440">
    <ele>142.5</ele>
    <time>2021-08-23T00:22:29Z</time>
   </trkpt>
   <trkpt lat="47.3812290" lon="-122.0464330">
    <ele>142.5</ele>
    <time>2021-08-23T00:22:30Z</time>
   </trkpt>
   <trkpt lat="47.3812260" lon="-122.0464230">
    <ele>142.5</ele>
    <time>2021-08-23T00:22:31Z</time>
   </trkpt>
   <trkpt lat="47.3812200" lon="-122.0464030">
    <ele>142.6</ele>
    <time>2021-08-23T00:22:32Z</time>
   </trkpt>
   <trkpt lat="47.3812180" lon="-122.0463900">
    <ele>142.6</ele>
    <time>2021-08-23T00:22:33Z</time>
   </trkpt>
   <trkpt lat="47.3812140" lon="-122.0463730">
    <ele>142.6</ele>
    <time>2021-08-23T00:22:34Z</time>
   </trkpt>
   <trkpt lat="47.3812110" lon="-122.0463420">
    <ele>142.6</ele>
    <time>2021-08-23T00:22:35Z</time>
   </trkpt>
   <trkpt lat="47.3812110" lon="-122.0463280">
    <ele>142.6</ele>
    <time>2021-08-23T00:22:36Z</time>
   </trkpt>
   <trkpt lat="47.3812120" lon="-122.0463140">
    <ele>142.6</ele>
    <time>2021-08-23T00:22:37Z</time>
   </trkpt>
   <trkpt lat="47.3812090" lon="-122.0462980">
    <ele>142.6</ele>
    <time>2021-08-23T00:22:38Z</time>
   </trkpt>
   <trkpt lat="47.3811940" lon="-122.0462800">
    <ele>142.6</ele>
    <time>2021-08-23T00:22:39Z</time>
   </trkpt>
   <trkpt lat="47.3811900" lon="-122.0462630">
    <ele>142.6</ele>
    <time>2021-08-23T00:22:40Z</time>
   </trkpt>
   <trkpt lat="47.3811800" lon="-122.0462450">
    <ele>142.6</ele>
    <time>2021-08-23T00:22:41Z</time>
   </trkpt>
   <trkpt lat="47.3811760" lon="-122.0462280">
    <ele>142.7</ele>
    <time>2021-08-23T00:22:42Z</time>
   </trkpt>
   <trkpt lat="47.3811740" lon="-122.0462100">
    <ele>142.7</ele>
    <time>2021-08-23T00:22:43Z</time>
   </trkpt>
   <trkpt lat="47.3811710" lon="-122.0461960">
    <ele>142.7</ele>
    <time>2021-08-23T00:22:44Z</time>
   </trkpt>
   <trkpt lat="47.3811650" lon="-122.0461750">
    <ele>142.7</ele>
    <time>2021-08-23T00:22:45Z</time>
   </trkpt>
   <trkpt lat="47.3811570" lon="-122.0461570">
    <ele>142.7</ele>
    <time>2021-08-23T00:22:46Z</time>
   </trkpt>
   <trkpt lat="47.3811550" lon="-122.0461430">
    <ele>142.7</ele>
    <time>2021-08-23T00:22:47Z</time>
   </trkpt>
   <trkpt lat="47.3811530" lon="-122.0461290">
    <ele>142.7</ele>
    <time>2021-08-23T00:22:48Z</time>
   </trkpt>
   <trkpt lat="47.3811520" lon="-122.0461180">
    <ele>142.7</ele>
    <time>2021-08-23T00:22:49Z</time>
   </trkpt>
   <trkpt lat="47.3811440" lon="-122.0461030">
    <ele>142.7</ele>
    <time>2021-08-23T00:22:50Z</time>
   </trkpt>
   <trkpt lat="47.3811410" lon="-122.0460810">
    <ele>142.7</ele>
    <time>2021-08-23T00:22:51Z</time>
   </trkpt>
   <trkpt lat="47.3811380" lon="-122.0460660">
    <ele>142.7</ele>
    <time>2021-08-23T00:22:52Z</time>
   </trkpt>
   <trkpt lat="47.3811390" lon="-122.0460540">
    <ele>142.8</ele>
    <time>2021-08-23T00:22:53Z</time>
   </trkpt>
   <trkpt lat="47.3811420" lon="-122.0460380">
    <ele>142.8</ele>
    <time>2021-08-23T00:22:54Z</time>
   </trkpt>
   <trkpt lat="47.3811380" lon="-122.0460240">
    <ele>142.8</ele>
    <time>2021-08-23T00:22:55Z</time>
   </trkpt>
   <trkpt lat="47.3811460" lon="-122.0460060">
    <ele>142.8</ele>
    <time>2021-08-23T00:22:56Z</time>
   </trkpt>
   <trkpt lat="47.3811460" lon="-122.0459980">
    <ele>142.8</ele>
    <time>2021-08-23T00:22:57Z</time>
   </trkpt>
   <trkpt lat="47.3811460" lon="-122.0459660">
    <ele>142.8</ele>
    <time>2021-08-23T00:22:58Z</time>
   </trkpt>
   <trkpt lat="47.3811450" lon="-122.0459510">
    <ele>142.8</ele>
    <time>2021-08-23T00:22:59Z</time>
   </trkpt>
   <trkpt lat="47.3811450" lon="-122.0459360">
    <ele>142.9</ele>
    <time>2021-08-23T00:23:00Z</time>
   </trkpt>
   <trkpt lat="47.3811410" lon="-122.0459100">
    <ele>142.9</ele>
    <time>2021-08-23T00:23:01Z</time>
   </trkpt>
   <trkpt lat="47.3811430" lon="-122.0458930">
    <ele>142.9</ele>
    <time>2021-08-23T00:23:02Z</time>
   </trkpt>
   <trkpt lat="47.3811430" lon="-122.0458690">
    <ele>142.9</ele>
    <time>2021-08-23T00:23:03Z</time>
   </trkpt>
   <trkpt lat="47.3811390" lon="-122.0458440">
    <ele>142.9</ele>
    <time>2021-08-23T00:23:04Z</time>
   </trkpt>
   <trkpt lat="47.3811390" lon="-122.0458280">
    <ele>143.0</ele>
    <time>2021-08-23T00:23:05Z</time>
   </trkpt>
   <trkpt lat="47.3811350" lon="-122.0458140">
    <ele>143.0</ele>
    <time>2021-08-23T00:23:06Z</time>
   </trkpt>
   <trkpt lat="47.3811350" lon="-122.0457950">
    <ele>143.0</ele>
    <time>2021-08-23T00:23:07Z</time>
   </trkpt>
   <trkpt lat="47.3811310" lon="-122.0457690">
    <ele>143.0</ele>
    <time>2021-08-23T00:23:08Z</time>
   </trkpt>
   <trkpt lat="47.3811200" lon="-122.0457470">
    <ele>143.0</ele>
    <time>2021-08-23T00:23:09Z</time>
   </trkpt>
   <trkpt lat="47.3811180" lon="-122.0457150">
    <ele>143.1</ele>
    <time>2021-08-23T00:23:10Z</time>
   </trkpt>
   <trkpt lat="47.3811180" lon="-122.0457030">
    <ele>143.1</ele>
    <time>2021-08-23T00:23:11Z</time>
   </trkpt>
   <trkpt lat="47.3811170" lon="-122.0456920">
    <ele>143.1</ele>
    <time>2021-08-23T00:23:12Z</time>
   </trkpt>
   <trkpt lat="47.3811150" lon="-122.0456670">
    <ele>143.1</ele>
    <time>2021-08-23T00:23:13Z</time>
   </trkpt>
   <trkpt lat="47.3811150" lon="-122.0456470">
    <ele>143.2</ele>
    <time>2021-08-23T00:23:14Z</time>
   </trkpt>
   <trkpt lat="47.3811060" lon="-122.0456190">
    <ele>143.2</ele>
    <time>2021-08-23T00:23:15Z</time>
   </trkpt>
   <trkpt lat="47.3811010" lon="-122.0456050">
    <ele>143.2</ele>
    <time>2021-08-23T00:23:16Z</time>
   </trkpt>
   <trkpt lat="47.3810960" lon="-122.0455900">
    <ele>143.2</ele>
    <time>2021-08-23T00:23:17Z</time>
   </trkpt>
   <trkpt lat="47.3810950" lon="-122.0455650">
    <ele>143.2</ele>
    <time>2021-08-23T00:23:18Z</time>
   </trkpt>
   <trkpt lat="47.3810940" lon="-122.0455490">
    <ele>143.3</ele>
    <time>2021-08-23T00:23:19Z</time>
   </trkpt>
   <trkpt lat="47.3810850" lon="-122.0455280">
    <ele>143.3</ele>
    <time>2021-08-23T00:23:20Z</time>
   </trkpt>
   <trkpt lat="47.3810800" lon="-122.0455140">
    <ele>143.3</ele>
    <time>2021-08-23T00:23:21Z</time>
   </trkpt>
   <trkpt lat="47.3810780" lon="-122.0454970">
    <ele>143.3</ele>
    <time>2021-08-23T00:23:22Z</time>
   </trkpt>
   <trkpt lat="47.3810740" lon="-122.0454850">
    <ele>143.3</ele>
    <time>2021-08-23T00:23:23Z</time>
   </trkpt>
   <trkpt lat="47.3810710" lon="-122.0454620">
    <ele>143.3</ele>
    <time>2021-08-23T00:23:24Z</time>
   </trkpt>
   <trkpt lat="47.3810700" lon="-122.0454440">
    <ele>143.4</ele>
    <time>2021-08-23T00:23:25Z</time>
   </trkpt>
   <trkpt lat="47.3810670" lon="-122.0454180">
    <ele>143.4</ele>
    <time>2021-08-23T00:23:26Z</time>
   </trkpt>
   <trkpt lat="47.3810620" lon="-122.0454010">
    <ele>143.4</ele>
    <time>2021-08-23T00:23:27Z</time>
   </trkpt>
   <trkpt lat="47.3810560" lon="-122.0453860">
    <ele>143.4</ele>
    <time>2021-08-23T00:23:28Z</time>
   </trkpt>
   <trkpt lat="47.3810530" lon="-122.0453700">
    <ele>143.4</ele>
    <time>2021-08-23T00:23:29Z</time>
   </trkpt>
   <trkpt lat="47.3810490" lon="-122.0453550">
    <ele>143.4</ele>
    <time>2021-08-23T00:23:30Z</time>
   </trkpt>
   <trkpt lat="47.3810440" lon="-122.0453370">
    <ele>143.5</ele>
    <time>2021-08-23T00:23:31Z</time>
   </trkpt>
   <trkpt lat="47.3810360" lon="-122.0453220">
    <ele>143.5</ele>
    <time>2021-08-23T00:23:32Z</time>
   </trkpt>
   <trkpt lat="47.3810340" lon="-122.0452960">
    <ele>143.5</ele>
    <time>2021-08-23T00:23:33Z</time>
   </trkpt>
   <trkpt lat="47.3810330" lon="-122.0452730">
    <ele>143.5</ele>
    <time>2021-08-23T00:23:34Z</time>
   </trkpt>
   <trkpt lat="47.3810250" lon="-122.0452580">
    <ele>143.5</ele>
    <time>2021-08-23T00:23:35Z</time>
   </trkpt>
   <trkpt lat="47.3810240" lon="-122.0452460">
    <ele>143.5</ele>
    <time>2021-08-23T00:23:36Z</time>
   </trkpt>
   <trkpt lat="47.3810190" lon="-122.0452350">
    <ele>143.6</ele>
    <time>2021-08-23T00:23:37Z</time>
   </trkpt>
   <trkpt lat="47.3810170" lon="-122.0452030">
    <ele>143.6</ele>
    <time>2021-08-23T00:23:38Z</time>
   </trkpt>
   <trkpt lat="47.3810170" lon="-122.0451890">
    <ele>143.6</ele>
    <time>2021-08-23T00:23:39Z</time>
   </trkpt>
   <trkpt lat="47.3810160" lon="-122.0451740">
    <ele>143.6</ele>
    <time>2021-08-23T00:23:40Z</time>
   </trkpt>
   <trkpt lat="47.3810110" lon="-122.0451510">
    <ele>143.6</ele>
    <time>2021-08-23T00:23:41Z</time>
   </trkpt>
   <trkpt lat="47.3810070" lon="-122.0451300">
    <ele>143.6</ele>
    <time>2021-08-23T00:23:42Z</time>
   </trkpt>
   <trkpt lat="47.3810080" lon="-122.0451070">
    <ele>143.7</ele>
    <time>2021-08-23T00:23:43Z</time>
   </trkpt>
   <trkpt lat="47.3810080" lon="-122.0450840">
    <ele>143.7</ele>
    <time>2021-08-23T00:23:44Z</time>
   </trkpt>
   <trkpt lat="47.3810090" lon="-122.0450530">
    <ele>143.7</ele>
    <time>2021-08-23T00:23:45Z</time>
   </trkpt>
   <trkpt lat="47.3810070" lon="-122.0450390">
    <ele>143.7</ele>
    <time>2021-08-23T00:23:46Z</time>
   </trkpt>
   <trkpt lat="47.3810060" lon="-122.0450260">
    <ele>143.7</ele>
    <time>2021-08-23T00:23:47Z</time>
   </trkpt>
   <trkpt lat="47.3810010" lon="-122.0449970">
    <ele>143.7</ele>
    <time>2021-08-23T00:23:48Z</time>
   </trkpt>
   <trkpt lat="47.3809970" lon="-122.0449840">
    <ele>143.8</ele>
    <time>2021-08-23T00:23:49Z</time>
   </trkpt>
   <trkpt lat="47.3809930" lon="-122.0449720">
    <ele>143.8</ele>
    <time>2021-08-23T00:23:50Z</time>
   </trkpt>
   <trkpt lat="47.3809860" lon="-122.0449560">
    <ele>143.8</ele>
    <time>2021-08-23T00:23:51Z</time>
   </trkpt>
   <trkpt lat="47.3809850" lon="-122.0449360">
    <ele>143.8</ele>
    <time>2021-08-23T00:23:52Z</time>
   </trkpt>
   <trkpt lat="47.3809810" lon="-122.0449230">
    <ele>143.8</ele>
    <time>2021-08-23T00:23:53Z</time>
   </trkpt>
   <trkpt lat="47.3809770" lon="-122.0449020">
    <ele>143.8</ele>
    <time>2021-08-23T00:23:54Z</time>
   </trkpt>
   <trkpt lat="47.3809760" lon="-122.0448760">
    <ele>143.9</ele>
    <time>2021-08-23T00:23:55Z</time>
   </trkpt>
   <trkpt lat="47.3809790" lon="-122.0448490">
    <ele>143.9</ele>
    <time>2021-08-23T00:23:56Z</time>
   </trkpt>
   <trkpt lat="47.3809800" lon="-122.0448330">
    <ele>143.9</ele>
    <time>2021-08-23T00:23:57Z</time>
   </trkpt>
   <trkpt lat="47.3809810" lon="-122.0448150">
    <ele>143.9</ele>
    <time>2021-08-23T00:23:58Z</time>
   </trkpt>
   <trkpt lat="47.3809810" lon="-122.0447910">
    <ele>143.9</ele>
    <time>2021-08-23T00:23:59Z</time>
   </trkpt>
   <trkpt lat="47.3809790" lon="-122.0447630">
    <ele>143.9</ele>
    <time>2021-08-23T00:24:00Z</time>
   </trkpt>
   <trkpt lat="47.3809790" lon="-122.0447520">
    <ele>144.0</ele>
    <time>2021-08-23T00:24:01Z</time>
   </trkpt>
   <trkpt lat="47.3809790" lon="-122.0447400">
    <ele>144.0</ele>
    <time>2021-08-23T00:24:02Z</time>
   </trkpt>
   <trkpt lat="47.3809790" lon="-122.0447280">
    <ele>144.0</ele>
    <time>2021-08-23T00:24:03Z</time>
   </trkpt>
   <trkpt lat="47.3809750" lon="-122.0447020">
    <ele>144.0</ele>
    <time>2021-08-23T00:24:04Z</time>
   </trkpt>
   <trkpt lat="47.3809750" lon="-122.0446820">
    <ele>144.0</ele>
    <time>2021-08-23T00:24:05Z</time>
   </trkpt>
   <trkpt lat="47.3809750" lon="-122.0446460">
    <ele>144.0</ele>
    <time>2021-08-23T00:24:06Z</time>
   </trkpt>
   <trkpt lat="47.3809750" lon="-122.0446360">
    <ele>144.1</ele>
    <time>2021-08-23T00:24:07Z</time>
   </trkpt>
   <trkpt lat="47.3809750" lon="-122.0446260">
    <ele>144.1</ele>
    <time>2021-08-23T00:24:08Z</time>
   </trkpt>
   <trkpt lat="47.3809800" lon="-122.0446050">
    <ele>144.1</ele>
    <time>2021-08-23T00:24:09Z</time>
   </trkpt>
   <trkpt lat="47.3809820" lon="-122.0445860">
    <ele>144.1</ele>
    <time>2021-08-23T00:24:10Z</time>
   </trkpt>
   <trkpt lat="47.3809770" lon="-122.0445400">
    <ele>144.1</ele>
    <time>2021-08-23T00:24:11Z</time>
   </trkpt>
   <trkpt lat="47.3809770" lon="-122.0445220">
    <ele>144.2</ele>
    <time>2021-08-23T00:24:12Z</time>
   </trkpt>
   <trkpt lat="47.3809760" lon="-122.0445150">
    <ele>144.2</ele>
    <time>2021-08-23T00:24:13Z</time>
   </trkpt>
   <trkpt lat="47.3809770" lon="-122.0444920">
    <ele>144.2</ele>
    <time>2021-08-23T00:24:14Z</time>
   </trkpt>
   <trkpt lat="47.3809720" lon="-122.0444710">
    <ele>144.2</ele>
    <time>2021-08-23T00:24:15Z</time>
   </trkpt>
   <trkpt lat="47.3809680" lon="-122.0444430">
    <ele>144.2</ele>
    <time>2021-08-23T00:24:16Z</time>
   </trkpt>
   <trkpt lat="47.3809650" lon="-122.0444290">
    <ele>144.2</ele>
    <time>2021-08-23T00:24:17Z</time>
   </trkpt>
   <trkpt lat="47.3809610" lon="-122.0444150">
    <ele>144.3</ele>
    <time>2021-08-23T00:24:18Z</time>
   </trkpt>
   <trkpt lat="47.3809660" lon="-122.0443970">
    <ele>144.3</ele>
    <time>2021-08-23T00:24:19Z</time>
   </trkpt>
   <trkpt lat="47.3809720" lon="-122.0443670">
    <ele>144.3</ele>
    <time>2021-08-23T00:24:20Z</time>
   </trkpt>
   <trkpt lat="47.3809710" lon="-122.0443510">
    <ele>144.3</ele>
    <time>2021-08-23T00:24:21Z</time>
   </trkpt>
   <trkpt lat="47.3809770" lon="-122.0443300">
    <ele>144.4</ele>
    <time>2021-08-23T00:24:22Z</time>
   </trkpt>
   <trkpt lat="47.3809700" lon="-122.0443170">
    <ele>144.4</ele>
    <time>2021-08-23T00:24:23Z</time>
   </trkpt>
   <trkpt lat="47.3809630" lon="-122.0442980">
    <ele>144.4</ele>
    <time>2021-08-23T00:24:24Z</time>
   </trkpt>
   <trkpt lat="47.3809580" lon="-122.0442750">
    <ele>144.4</ele>
    <time>2021-08-23T00:24:25Z</time>
   </trkpt>
   <trkpt lat="47.3809580" lon="-122.0442450">
    <ele>144.5</ele>
    <time>2021-08-23T00:24:26Z</time>
   </trkpt>
   <trkpt lat="47.3809560" lon="-122.0442330">
    <ele>144.5</ele>
    <time>2021-08-23T00:24:27Z</time>
   </trkpt>
   <trkpt lat="47.3809550" lon="-122.0442200">
    <ele>144.5</ele>
    <time>2021-08-23T00:24:28Z</time>
   </trkpt>
   <trkpt lat="47.3809530" lon="-122.0441980">
    <ele>144.5</ele>
    <time>2021-08-23T00:24:29Z</time>
   </trkpt>
   <trkpt lat="47.3809610" lon="-122.0441790">
    <ele>144.5</ele>
    <time>2021-08-23T00:24:30Z</time>
   </trkpt>
   <trkpt lat="47.3809630" lon="-122.0441520">
    <ele>144.6</ele>
    <time>2021-08-23T00:24:31Z</time>
   </trkpt>
   <trkpt lat="47.3809640" lon="-122.0441400">
    <ele>144.6</ele>
    <time>2021-08-23T00:24:32Z</time>
   </trkpt>
   <trkpt lat="47.3809640" lon="-122.0441280">
    <ele>144.6</ele>
    <time>2021-08-23T00:24:33Z</time>
   </trkpt>
   <trkpt lat="47.3809640" lon="-122.0441160">
    <ele>144.6</ele>
    <time>2021-08-23T00:24:34Z</time>
   </trkpt>
   <trkpt lat="47.3809560" lon="-122.0440930">
    <ele>144.6</ele>
    <time>2021-08-23T00:24:35Z</time>
   </trkpt>
   <trkpt lat="47.3809560" lon="-122.0440830">
    <ele>144.6</ele>
    <time>2021-08-23T00:24:36Z</time>
   </trkpt>
   <trkpt lat="47.3809550" lon="-122.0440730">
    <ele>144.7</ele>
    <time>2021-08-23T00:24:37Z</time>
   </trkpt>
   <trkpt lat="47.3809550" lon="-122.0440630">
    <ele>144.7</ele>
    <time>2021-08-23T00:24:38Z</time>
   </trkpt>
   <trkpt lat="47.3809500" lon="-122.0440450">
    <ele>144.7</ele>
    <time>2021-08-23T00:24:39Z</time>
   </trkpt>
   <trkpt lat="47.3809470" lon="-122.0440260">
    <ele>144.7</ele>
    <time>2021-08-23T00:24:40Z</time>
   </trkpt>
   <trkpt lat="47.3809480" lon="-122.0440140">
    <ele>144.7</ele>
    <time>2021-08-23T00:24:41Z</time>
   </trkpt>
   <trkpt lat="47.3809470" lon="-122.0439920">
    <ele>144.7</ele>
    <time>2021-08-23T00:24:42Z</time>
   </trkpt>
   <trkpt lat="47.3809430" lon="-122.0439680">
    <ele>144.8</ele>
    <time>2021-08-23T00:24:43Z</time>
   </trkpt>
   <trkpt lat="47.3809340" lon="-122.0439410">
    <ele>144.8</ele>
    <time>2021-08-23T00:24:44Z</time>
   </trkpt>
   <trkpt lat="47.3809290" lon="-122.0439240">
    <ele>144.8</ele>
    <time>2021-08-23T00:24:45Z</time>
   </trkpt>
   <trkpt lat="47.3809300" lon="-122.0438960">
    <ele>144.8</ele>
    <time>2021-08-23T00:24:46Z</time>
   </trkpt>
   <trkpt lat="47.3809320" lon="-122.0438810">
    <ele>144.8</ele>
    <time>2021-08-23T00:24:47Z</time>
   </trkpt>
   <trkpt lat="47.3809340" lon="-122.0438650">
    <ele>144.8</ele>
    <time>2021-08-23T00:24:48Z</time>
   </trkpt>
   <trkpt lat="47.3809420" lon="-122.0438490">
    <ele>144.9</ele>
    <time>2021-08-23T00:24:49Z</time>
   </trkpt>
   <trkpt lat="47.3809470" lon="-122.0438240">
    <ele>144.9</ele>
    <time>2021-08-23T00:24:50Z</time>
   </trkpt>
   <trkpt lat="47.3809510" lon="-122.0437900">
    <ele>144.9</ele>
    <time>2021-08-23T00:24:51Z</time>
   </trkpt>
   <trkpt lat="47.3809540" lon="-122.0437800">
    <ele>144.9</ele>
    <time>2021-08-23T00:24:52Z</time>
   </trkpt>
   <trkpt lat="47.3809560" lon="-122.0437700">
    <ele>144.9</ele>
    <time>2021-08-23T00:24:53Z</time>
   </trkpt>
   <trkpt lat="47.3809620" lon="-122.0437570">
    <ele>144.9</ele>
    <time>2021-08-23T00:24:54Z</time>
   </trkpt>
   <trkpt lat="47.3809550" lon="-122.0437370">
    <ele>145.0</ele>
    <time>2021-08-23T00:24:55Z</time>
   </trkpt>
   <trkpt lat="47.3809510" lon="-122.0437220">
    <ele>145.0</ele>
    <time>2021-08-23T00:24:56Z</time>
   </trkpt>
   <trkpt lat="47.3809490" lon="-122.0436870">
    <ele>145.0</ele>
    <time>2021-08-23T00:24:57Z</time>
   </trkpt>
   <trkpt lat="47.3809490" lon="-122.0436730">
    <ele>145.0</ele>
    <time>2021-08-23T00:24:58Z</time>
   </trkpt>
   <trkpt lat="47.3809490" lon="-122.0436600">
    <ele>145.0</ele>
    <time>2021-08-23T00:24:59Z</time>
   </trkpt>
   <trkpt lat="47.3809560" lon="-122.0436490">
    <ele>145.0</ele>
    <time>2021-08-23T00:25:00Z</time>
   </trkpt>
   <trkpt lat="47.3809540" lon="-122.0436330">
    <ele>145.1</ele>
    <time>2021-08-23T00:25:01Z</time>
   </trkpt>
   <trkpt lat="47.3809550" lon="-122.0436090">
    <ele>145.1</ele>
    <time>2021-08-23T00:25:02Z</time>
   </trkpt>
   <trkpt lat="47.3809500" lon="-122.0435970">
    <ele>145.1</ele>
    <time>2021-08-23T00:25:03Z</time>
   </trkpt>
   <trkpt lat="47.3809540" lon="-122.0435900">
    <ele>145.1</ele>
    <time>2021-08-23T00:25:04Z</time>
   </trkpt>
   <trkpt lat="47.3809490" lon="-122.0435730">
    <ele>145.1</ele>
    <time>2021-08-23T00:25:05Z</time>
   </trkpt>
   <trkpt lat="47.3809450" lon="-122.0435600">
    <ele>145.1</ele>
    <time>2021-08-23T00:25:06Z</time>
   </trkpt>
   <trkpt lat="47.3809460" lon="-122.0435300">
    <ele>145.1</ele>
    <time>2021-08-23T00:25:07Z</time>
   </trkpt>
   <trkpt lat="47.3809470" lon="-122.0435180">
    <ele>145.2</ele>
    <time>2021-08-23T00:25:08Z</time>
   </trkpt>
   <trkpt lat="47.3809480" lon="-122.0435050">
    <ele>145.2</ele>
    <time>2021-08-23T00:25:09Z</time>
   </trkpt>
   <trkpt lat="47.3809490" lon="-122.0434760">
    <ele>145.2</ele>
    <time>2021-08-23T00:25:10Z</time>
   </trkpt>
   <trkpt lat="47.3809490" lon="-122.0434680">
    <ele>145.2</ele>
    <time>2021-08-23T00:25:11Z</time>
   </trkpt>
   <trkpt lat="47.3809500" lon="-122.0434590">
    <ele>145.2</ele>
    <time>2021-08-23T00:25:12Z</time>
   </trkpt>
   <trkpt lat="47.3809500" lon="-122.0434510">
    <ele>145.2</ele>
    <time>2021-08-23T00:25:13Z</time>
   </trkpt>
   <trkpt lat="47.3809540" lon="-122.0434180">
    <ele>145.2</ele>
    <time>2021-08-23T00:25:14Z</time>
   </trkpt>
   <trkpt lat="47.3809550" lon="-122.0434020">
    <ele>145.3</ele>
    <time>2021-08-23T00:25:15Z</time>
   </trkpt>
   <trkpt lat="47.3809570" lon="-122.0433860">
    <ele>145.3</ele>
    <time>2021-08-23T00:25:16Z</time>
   </trkpt>
   <trkpt lat="47.3809530" lon="-122.0433620">
    <ele>145.3</ele>
    <time>2021-08-23T00:25:17Z</time>
   </trkpt>
   <trkpt lat="47.3809510" lon="-122.0433410">
    <ele>145.3</ele>
    <time>2021-08-23T00:25:18Z</time>
   </trkpt>
   <trkpt lat="47.3809510" lon="-122.0433170">
    <ele>145.3</ele>
    <time>2021-08-23T00:25:19Z</time>
   </trkpt>
   <trkpt lat="47.3809530" lon="-122.0433120">
    <ele>145.3</ele>
    <time>2021-08-23T00:25:20Z</time>
   </trkpt>
   <trkpt lat="47.3809500" lon="-122.0432930">
    <ele>145.4</ele>
    <time>2021-08-23T00:25:21Z</time>
   </trkpt>
   <trkpt lat="47.3809510" lon="-122.0432590">
    <ele>145.4</ele>
    <time>2021-08-23T00:25:22Z</time>
   </trkpt>
   <trkpt lat="47.3809510" lon="-122.0432490">
    <ele>145.4</ele>
    <time>2021-08-23T00:25:23Z</time>
   </trkpt>
   <trkpt lat="47.3809500" lon="-122.0432380">
    <ele>145.4</ele>
    <time>2021-08-23T00:25:24Z</time>
   </trkpt>
   <trkpt lat="47.3809450" lon="-122.0432100">
    <ele>145.4</ele>
    <time>2021-08-23T00:25:25Z</time>
   </trkpt>
   <trkpt lat="47.3809440" lon="-122.0431970">
    <ele>145.4</ele>
    <time>2021-08-23T00:25:26Z</time>
   </trkpt>
   <trkpt lat="47.3809420" lon="-122.0431830">
    <ele>145.4</ele>
    <time>2021-08-23T00:25:27Z</time>
   </trkpt>
   <trkpt lat="47.3809410" lon="-122.0431600">
    <ele>145.4</ele>
    <time>2021-08-23T00:25:28Z</time>
   </trkpt>
   <trkpt lat="47.3809400" lon="-122.0431410">
    <ele>145.5</ele>
    <time>2021-08-23T00:25:29Z</time>
   </trkpt>
   <trkpt lat="47.3809380" lon="-122.0431120">
    <ele>145.5</ele>
    <time>2021-08-23T00:25:30Z</time>
   </trkpt>
   <trkpt lat="47.3809350" lon="-122.0430920">
    <ele>145.5</ele>
    <time>2021-08-23T00:25:31Z</time>
   </trkpt>
   <trkpt lat="47.3809310" lon="-122.0430650">
    <ele>145.5</ele>
    <time>2021-08-23T00:25:32Z</time>
   </trkpt>
   <trkpt lat="47.3809280" lon="-122.0430510">
    <ele>145.5</ele>
    <time>2021-08-23T00:25:33Z</time>
   </trkpt>
   <trkpt lat="47.3809250" lon="-122.0430370">
    <ele>145.5</ele>
    <time>2021-08-23T00:25:34Z</time>
   </trkpt>
   <trkpt lat="47.3809210" lon="-122.0430120">
    <ele>145.5</ele>
    <time>2021-08-23T00:25:35Z</time>
   </trkpt>
   <trkpt lat="47.3809240" lon="-122.0429960">
    <ele>145.5</ele>
    <time>2021-08-23T00:25:36Z</time>
   </trkpt>
   <trkpt lat="47.3809150" lon="-122.0429640">
    <ele>145.5</ele>
    <time>2021-08-23T00:25:37Z</time>
   </trkpt>
   <trkpt lat="47.3809170" lon="-122.0429470">
    <ele>145.5</ele>
    <time>2021-08-23T00:25:38Z</time>
   </trkpt>
   <trkpt lat="47.3809190" lon="-122.0429300">
    <ele>145.5</ele>
    <time>2021-08-23T00:25:39Z</time>
   </trkpt>
   <trkpt lat="47.3809170" lon="-122.0429090">
    <ele>145.6</ele>
    <time>2021-08-23T00:25:40Z</time>
   </trkpt>
   <trkpt lat="47.3809180" lon="-122.0428880">
    <ele>145.6</ele>
    <time>2021-08-23T00:25:41Z</time>
   </trkpt>
   <trkpt lat="47.3809170" lon="-122.0428620">
    <ele>145.6</ele>
    <time>2021-08-23T00:25:42Z</time>
   </trkpt>
   <trkpt lat="47.3809190" lon="-122.0428440">
    <ele>145.6</ele>
    <time>2021-08-23T00:25:43Z</time>
   </trkpt>
   <trkpt lat="47.3809170" lon="-122.0428110">
    <ele>145.6</ele>
    <time>2021-08-23T00:25:44Z</time>
   </trkpt>
   <trkpt lat="47.3809190" lon="-122.0427960">
    <ele>145.6</ele>
    <time>2021-08-23T00:25:45Z</time>
   </trkpt>
   <trkpt lat="47.3809210" lon="-122.0427820">
    <ele>145.6</ele>
    <time>2021-08-23T00:25:46Z</time>
   </trkpt>
   <trkpt lat="47.3809250" lon="-122.0427430">
    <ele>145.6</ele>
    <time>2021-08-23T00:25:47Z</time>
   </trkpt>
   <trkpt lat="47.3809290" lon="-122.0427270">
    <ele>145.6</ele>
    <time>2021-08-23T00:25:48Z</time>
   </trkpt>
   <trkpt lat="47.3809220" lon="-122.0426980">
    <ele>145.6</ele>
    <time>2021-08-23T00:25:49Z</time>
   </trkpt>
   <trkpt lat="47.3809180" lon="-122.0426790">
    <ele>145.6</ele>
    <time>2021-08-23T00:25:50Z</time>
   </trkpt>
   <trkpt lat="47.3809130" lon="-122.0426640">
    <ele>145.7</ele>
    <time>2021-08-23T00:25:51Z</time>
   </trkpt>
   <trkpt lat="47.3809100" lon="-122.0426550">
    <ele>145.7</ele>
    <time>2021-08-23T00:25:52Z</time>
   </trkpt>
   <trkpt lat="47.3809090" lon="-122.0426510">
    <ele>145.7</ele>
    <time>2021-08-23T00:25:53Z</time>
   </trkpt>
   <trkpt lat="47.3809070" lon="-122.0426480">
    <ele>145.7</ele>
    <time>2021-08-23T00:25:54Z</time>
   </trkpt>
   <trkpt lat="47.3808950" lon="-122.0426460">
    <ele>145.7</ele>
    <time>2021-08-23T00:25:55Z</time>
   </trkpt>
   <trkpt lat="47.3808930" lon="-122.0426390">
    <ele>145.7</ele>
    <time>2021-08-23T00:25:56Z</time>
   </trkpt>
   <trkpt lat="47.3808850" lon="-122.0426240">
    <ele>145.7</ele>
    <time>2021-08-23T00:25:57Z</time>
   </trkpt>
   <trkpt lat="47.3808790" lon="-122.0426200">
    <ele>145.7</ele>
    <time>2021-08-23T00:25:58Z</time>
   </trkpt>
   <trkpt lat="47.3808680" lon="-122.0426160">
    <ele>145.7</ele>
    <time>2021-08-23T00:25:59Z</time>
   </trkpt>
   <trkpt lat="47.3808620" lon="-122.0426120">
    <ele>145.7</ele>
    <time>2021-08-23T00:26:00Z</time>
   </trkpt>
   <trkpt lat="47.3808550" lon="-122.0426070">
    <ele>145.7</ele>
    <time>2021-08-23T00:26:01Z</time>
   </trkpt>
   <trkpt lat="47.3808480" lon="-122.0426010">
    <ele>145.7</ele>
    <time>2021-08-23T00:26:02Z</time>
   </trkpt>
   <trkpt lat="47.3808400" lon="-122.0425960">
    <ele>145.7</ele>
    <time>2021-08-23T00:26:03Z</time>
   </trkpt>
   <trkpt lat="47.3808330" lon="-122.0425910">
    <ele>145.7</ele>
    <time>2021-08-23T00:26:04Z</time>
   </trkpt>
   <trkpt lat="47.3808260" lon="-122.0425860">
    <ele>145.1</ele>
    <time>2021-08-23T00:26:05Z</time>
   </trkpt>
   <trkpt lat="47.3808170" lon="-122.0425790">
    <ele>145.0</ele>
    <time>2021-08-23T00:26:06Z</time>
   </trkpt>
   <trkpt lat="47.3808040" lon="-122.0425810">
    <ele>145.0</ele>
    <time>2021-08-23T00:26:07Z</time>
   </trkpt>
   <trkpt lat="47.3807940" lon="-122.0425800">
    <ele>144.9</ele>
    <time>2021-08-23T00:26:08Z</time>
   </trkpt>
   <trkpt lat="47.3807730" lon="-122.0425740">
    <ele>144.8</ele>
    <time>2021-08-23T00:26:09Z</time>
   </trkpt>
   <trkpt lat="47.3807600" lon="-122.0425670">
    <ele>144.7</ele>
    <time>2021-08-23T00:26:10Z</time>
   </trkpt>
   <trkpt lat="47.3807500" lon="-122.0425550">
    <ele>144.6</ele>
    <time>2021-08-23T00:26:11Z</time>
   </trkpt>
   <trkpt lat="47.3807470" lon="-122.0425480">
    <ele>144.5</ele>
    <time>2021-08-23T00:26:12Z</time>
   </trkpt>
   <trkpt lat="47.3807470" lon="-122.0425380">
    <ele>144.5</ele>
    <time>2021-08-23T00:26:13Z</time>
   </trkpt>
   <trkpt lat="47.3807480" lon="-122.0425210">
    <ele>144.4</ele>
    <time>2021-08-23T00:26:14Z</time>
   </trkpt>
   <trkpt lat="47.3807480" lon="-122.0425140">
    <ele>143.8</ele>
    <time>2021-08-23T00:26:15Z</time>
   </trkpt>
   <trkpt lat="47.3807530" lon="-122.0425050">
    <ele>143.8</ele>
    <time>2021-08-23T00:26:16Z</time>
   </trkpt>
   <trkpt lat="47.3807570" lon="-122.0425050">
    <ele>143.8</ele>
    <time>2021-08-23T00:26:17Z</time>
   </trkpt>
   <trkpt lat="47.3807610" lon="-122.0424990">
    <ele>143.8</ele>
    <time>2021-08-23T00:26:18Z</time>
   </trkpt>
   <trkpt lat="47.3807620" lon="-122.0424870">
    <ele>143.8</ele>
    <time>2021-08-23T00:26:19Z</time>
   </trkpt>
   <trkpt lat="47.3807560" lon="-122.0424840">
    <ele>143.8</ele>
    <time>2021-08-23T00:26:20Z</time>
   </trkpt>
   <trkpt lat="47.3807540" lon="-122.0424710">
    <ele>143.8</ele>
    <time>2021-08-23T00:26:21Z</time>
   </trkpt>
   <trkpt lat="47.3807560" lon="-122.0424680">
    <ele>143.8</ele>
    <time>2021-08-23T00:26:22Z</time>
   </trkpt>
   <trkpt lat="47.3807570" lon="-122.0424560">
    <ele>143.8</ele>
    <time>2021-08-23T00:26:23Z</time>
   </trkpt>
   <trkpt lat="47.3807570" lon="-122.0424490">
    <ele>143.8</ele>
    <time>2021-08-23T00:26:24Z</time>
   </trkpt>
   <trkpt lat="47.3807590" lon="-122.0424400">
    <ele>143.8</ele>
    <time>2021-08-23T00:26:25Z</time>
   </trkpt>
   <trkpt lat="47.3807610" lon="-122.0424270">
    <ele>143.8</ele>
    <time>2021-08-23T00:26:26Z</time>
   </trkpt>
   <trkpt lat="47.3807700" lon="-122.0424190">
    <ele>143.8</ele>
    <time>2021-08-23T00:26:27Z</time>
   </trkpt>
   <trkpt lat="47.3807740" lon="-122.0424100">
    <ele>143.8</ele>
    <time>2021-08-23T00:26:28Z</time>
   </trkpt>
   <trkpt lat="47.3807750" lon="-122.0424120">
    <ele>143.8</ele>
    <time>2021-08-23T00:26:29Z</time>
   </trkpt>
   <trkpt lat="47.3807760" lon="-122.0424160">
    <ele>143.8</ele>
    <time>2021-08-23T00:26:30Z</time>
   </trkpt>
   <trkpt lat="47.3807750" lon="-122.0424120">
    <ele>143.8</ele>
    <time>2021-08-23T00:26:31Z</time>
   </trkpt>
   <trkpt lat="47.3807790" lon="-122.0424090">
    <ele>143.8</ele>
    <time>2021-08-23T00:26:32Z</time>
   </trkpt>
   <trkpt lat="47.3807820" lon="-122.0423990">
    <ele>143.8</ele>
    <time>2021-08-23T00:26:33Z</time>
   </trkpt>
   <trkpt lat="47.3807820" lon="-122.0423960">
    <ele>143.8</ele>
    <time>2021-08-23T00:26:34Z</time>
   </trkpt>
   <trkpt lat="47.3807820" lon="-122.0423900">
    <ele>143.8</ele>
    <time>2021-08-23T00:26:35Z</time>
   </trkpt>
   <trkpt lat="47.3807760" lon="-122.0423860">
    <ele>143.8</ele>
    <time>2021-08-23T00:26:36Z</time>
   </trkpt>
   <trkpt lat="47.3807580" lon="-122.0423870">
    <ele>143.8</ele>
    <time>2021-08-23T00:26:37Z</time>
   </trkpt>
   <trkpt lat="47.3807560" lon="-122.0423830">
    <ele>143.8</ele>
    <time>2021-08-23T00:26:38Z</time>
   </trkpt>
   <trkpt lat="47.3807550" lon="-122.0423780">
    <ele>143.8</ele>
    <time>2021-08-23T00:26:39Z</time>
   </trkpt>
   <trkpt lat="47.3807590" lon="-122.0423690">
    <ele>143.8</ele>
    <time>2021-08-23T00:26:40Z</time>
   </trkpt>
   <trkpt lat="47.3807580" lon="-122.0423600">
    <ele>143.8</ele>
    <time>2021-08-23T00:26:41Z</time>
   </trkpt>
   <trkpt lat="47.3807590" lon="-122.0423470">
    <ele>143.8</ele>
    <time>2021-08-23T00:26:42Z</time>
   </trkpt>
   <trkpt lat="47.3807590" lon="-122.0423390">
    <ele>143.8</ele>
    <time>2021-08-23T00:26:43Z</time>
   </trkpt>
   <trkpt lat="47.3807590" lon="-122.0423320">
    <ele>143.8</ele>
    <time>2021-08-23T00:26:44Z</time>
   </trkpt>
   <trkpt lat="47.3807630" lon="-122.0423270">
    <ele>143.8</ele>
    <time>2021-08-23T00:26:45Z</time>
   </trkpt>
   <trkpt lat="47.3807680" lon="-122.0423200">
    <ele>143.8</ele>
    <time>2021-08-23T00:26:46Z</time>
   </trkpt>
   <trkpt lat="47.3807760" lon="-122.0423120">
    <ele>143.8</ele>
    <time>2021-08-23T00:26:47Z</time>
   </trkpt>
   <trkpt lat="47.3807780" lon="-122.0423030">
    <ele>143.8</ele>
    <time>2021-08-23T00:26:48Z</time>
   </trkpt>
   <trkpt lat="47.3807790" lon="-122.0422910">
    <ele>143.8</ele>
    <time>2021-08-23T00:26:49Z</time>
   </trkpt>
   <trkpt lat="47.3807790" lon="-122.0422840">
    <ele>143.8</ele>
    <time>2021-08-23T00:26:50Z</time>
   </trkpt>
   <trkpt lat="47.3807800" lon="-122.0422720">
    <ele>143.8</ele>
    <time>2021-08-23T00:26:51Z</time>
   </trkpt>
   <trkpt lat="47.3807840" lon="-122.0422670">
    <ele>143.7</ele>
    <time>2021-08-23T00:26:52Z</time>
   </trkpt>
   <trkpt lat="47.3807860" lon="-122.0422650">
    <ele>143.7</ele>
    <time>2021-08-23T00:26:53Z</time>
   </trkpt>
   <trkpt lat="47.3807920" lon="-122.0422660">
    <ele>143.7</ele>
    <time>2021-08-23T00:26:54Z</time>
   </trkpt>
   <trkpt lat="47.3807940" lon="-122.0422500">
    <ele>143.7</ele>
    <time>2021-08-23T00:26:55Z</time>
   </trkpt>
   <trkpt lat="47.3807960" lon="-122.0422370">
    <ele>143.7</ele>
    <time>2021-08-23T00:26:56Z</time>
   </trkpt>
   <trkpt lat="47.3807940" lon="-122.0422270">
    <ele>143.7</ele>
    <time>2021-08-23T00:26:57Z</time>
   </trkpt>
   <trkpt lat="47.3807920" lon="-122.0422180">
    <ele>143.7</ele>
    <time>2021-08-23T00:26:58Z</time>
   </trkpt>
   <trkpt lat="47.3807980" lon="-122.0422180">
    <ele>143.7</ele>
    <time>2021-08-23T00:26:59Z</time>
   </trkpt>
   <trkpt lat="47.3807950" lon="-122.0422090">
    <ele>143.7</ele>
    <time>2021-08-23T00:27:00Z</time>
   </trkpt>
   <trkpt lat="47.3807940" lon="-122.0421860">
    <ele>143.7</ele>
    <time>2021-08-23T00:27:01Z</time>
   </trkpt>
   <trkpt lat="47.3807950" lon="-122.0421630">
    <ele>143.7</ele>
    <time>2021-08-23T00:27:02Z</time>
   </trkpt>
   <trkpt lat="47.3807900" lon="-122.0421420">
    <ele>143.7</ele>
    <time>2021-08-23T00:27:03Z</time>
   </trkpt>
   <trkpt lat="47.3807830" lon="-122.0421150">
    <ele>143.7</ele>
    <time>2021-08-23T00:27:04Z</time>
   </trkpt>
   <trkpt lat="47.3807800" lon="-122.0421010">
    <ele>143.7</ele>
    <time>2021-08-23T00:27:05Z</time>
   </trkpt>
   <trkpt lat="47.3807780" lon="-122.0420880">
    <ele>143.7</ele>
    <time>2021-08-23T00:27:06Z</time>
   </trkpt>
   <trkpt lat="47.3807750" lon="-122.0420740">
    <ele>143.7</ele>
    <time>2021-08-23T00:27:07Z</time>
   </trkpt>
   <trkpt lat="47.3807680" lon="-122.0420470">
    <ele>143.8</ele>
    <time>2021-08-23T00:27:08Z</time>
   </trkpt>
   <trkpt lat="47.3807620" lon="-122.0420380">
    <ele>143.8</ele>
    <time>2021-08-23T00:27:09Z</time>
   </trkpt>
   <trkpt lat="47.3807560" lon="-122.0420280">
    <ele>143.8</ele>
    <time>2021-08-23T00:27:10Z</time>
   </trkpt>
   <trkpt lat="47.3807570" lon="-122.0420110">
    <ele>143.8</ele>
    <time>2021-08-23T00:27:11Z</time>
   </trkpt>
   <trkpt lat="47.3807520" lon="-122.0419980">
    <ele>143.8</ele>
    <time>2021-08-23T00:27:12Z</time>
   </trkpt>
   <trkpt lat="47.3807470" lon="-122.0419890">
    <ele>143.8</ele>
    <time>2021-08-23T00:27:13Z</time>
   </trkpt>
   <trkpt lat="47.3807470" lon="-122.0419770">
    <ele>143.8</ele>
    <time>2021-08-23T00:27:14Z</time>
   </trkpt>
   <trkpt lat="47.3807440" lon="-122.0419650">
    <ele>143.8</ele>
    <time>2021-08-23T00:27:15Z</time>
   </trkpt>
   <trkpt lat="47.3807440" lon="-122.0419470">
    <ele>143.8</ele>
    <time>2021-08-23T00:27:16Z</time>
   </trkpt>
   <trkpt lat="47.3807440" lon="-122.0419170">
    <ele>143.8</ele>
    <time>2021-08-23T00:27:17Z</time>
   </trkpt>
   <trkpt lat="47.3807390" lon="-122.0419070">
    <ele>143.8</ele>
    <time>2021-08-23T00:27:18Z</time>
   </trkpt>
   <trkpt lat="47.3807300" lon="-122.0418910">
    <ele>143.8</ele>
    <time>2021-08-23T00:27:19Z</time>
   </trkpt>
   <trkpt lat="47.3807340" lon="-122.0418800">
    <ele>143.8</ele>
    <time>2021-08-23T00:27:20Z</time>
   </trkpt>
   <trkpt lat="47.3807360" lon="-122.0418640">
    <ele>143.8</ele>
    <time>2021-08-23T00:27:21Z</time>
   </trkpt>
   <trkpt lat="47.3807310" lon="-122.0418300">
    <ele>143.8</ele>
    <time>2021-08-23T00:27:22Z</time>
   </trkpt>
   <trkpt lat="47.3807260" lon="-122.0418150">
    <ele>143.8</ele>
    <time>2021-08-23T00:27:23Z</time>
   </trkpt>
   <trkpt lat="47.3807210" lon="-122.0417990">
    <ele>143.8</ele>
    <time>2021-08-23T00:27:24Z</time>
   </trkpt>
   <trkpt lat="47.3807240" lon="-122.0417740">
    <ele>143.8</ele>
    <time>2021-08-23T00:27:25Z</time>
   </trkpt>
   <trkpt lat="47.3807210" lon="-122.0417550">
    <ele>143.8</ele>
    <time>2021-08-23T00:27:26Z</time>
   </trkpt>
   <trkpt lat="47.3807200" lon="-122.0417400">
    <ele>143.8</ele>
    <time>2021-08-23T00:27:27Z</time>
   </trkpt>
   <trkpt lat="47.3807120" lon="-122.0417250">
    <ele>143.8</ele>
    <time>2021-08-23T00:27:28Z</time>
   </trkpt>
   <trkpt lat="47.3807080" lon="-122.0417160">
    <ele>143.8</ele>
    <time>2021-08-23T00:27:29Z</time>
   </trkpt>
   <trkpt lat="47.3807100" lon="-122.0417060">
    <ele>143.8</ele>
    <time>2021-08-23T00:27:30Z</time>
   </trkpt>
   <trkpt lat="47.3807060" lon="-122.0416950">
    <ele>143.8</ele>
    <time>2021-08-23T00:27:31Z</time>
   </trkpt>
   <trkpt lat="47.3807090" lon="-122.0416810">
    <ele>143.9</ele>
    <time>2021-08-23T00:27:32Z</time>
   </trkpt>
   <trkpt lat="47.3807060" lon="-122.0416690">
    <ele>143.9</ele>
    <time>2021-08-23T00:27:33Z</time>
   </trkpt>
   <trkpt lat="47.3807040" lon="-122.0416490">
    <ele>143.9</ele>
    <time>2021-08-23T00:27:34Z</time>
   </trkpt>
   <trkpt lat="47.3807050" lon="-122.0416280">
    <ele>143.9</ele>
    <time>2021-08-23T00:27:35Z</time>
   </trkpt>
   <trkpt lat="47.3807010" lon="-122.0415990">
    <ele>143.9</ele>
    <time>2021-08-23T00:27:36Z</time>
   </trkpt>
   <trkpt lat="47.3806970" lon="-122.0415870">
    <ele>143.9</ele>
    <time>2021-08-23T00:27:37Z</time>
   </trkpt>
   <trkpt lat="47.3806940" lon="-122.0415760">
    <ele>143.9</ele>
    <time>2021-08-23T00:27:38Z</time>
   </trkpt>
   <trkpt lat="47.3806940" lon="-122.0415580">
    <ele>143.9</ele>
    <time>2021-08-23T00:27:39Z</time>
   </trkpt>
   <trkpt lat="47.3806920" lon="-122.0415400">
    <ele>143.9</ele>
    <time>2021-08-23T00:27:40Z</time>
   </trkpt>
   <trkpt lat="47.3806960" lon="-122.0415270">
    <ele>143.9</ele>
    <time>2021-08-23T00:27:41Z</time>
   </trkpt>
   <trkpt lat="47.3806980" lon="-122.0415000">
    <ele>143.9</ele>
    <time>2021-08-23T00:27:42Z</time>
   </trkpt>
   <trkpt lat="47.3806960" lon="-122.0414920">
    <ele>143.9</ele>
    <time>2021-08-23T00:27:43Z</time>
   </trkpt>
   <trkpt lat="47.3806950" lon="-122.0414840">
    <ele>143.9</ele>
    <time>2021-08-23T00:27:44Z</time>
   </trkpt>
   <trkpt lat="47.3806880" lon="-122.0414630">
    <ele>143.9</ele>
    <time>2021-08-23T00:27:45Z</time>
   </trkpt>
   <trkpt lat="47.3806880" lon="-122.0414520">
    <ele>144.0</ele>
    <time>2021-08-23T00:27:46Z</time>
   </trkpt>
   <trkpt lat="47.3806870" lon="-122.0414400">
    <ele>144.0</ele>
    <time>2021-08-23T00:27:47Z</time>
   </trkpt>
   <trkpt lat="47.3806870" lon="-122.0414290">
    <ele>144.0</ele>
    <time>2021-08-23T00:27:48Z</time>
   </trkpt>
   <trkpt lat="47.3806840" lon="-122.0414040">
    <ele>144.0</ele>
    <time>2021-08-23T00:27:49Z</time>
   </trkpt>
   <trkpt lat="47.3806850" lon="-122.0413820">
    <ele>144.0</ele>
    <time>2021-08-23T00:27:50Z</time>
   </trkpt>
   <trkpt lat="47.3806860" lon="-122.0413710">
    <ele>144.0</ele>
    <time>2021-08-23T00:27:51Z</time>
   </trkpt>
   <trkpt lat="47.3806910" lon="-122.0413530">
    <ele>144.0</ele>
    <time>2021-08-23T00:27:52Z</time>
   </trkpt>
   <trkpt lat="47.3806980" lon="-122.0413350">
    <ele>144.0</ele>
    <time>2021-08-23T00:27:53Z</time>
   </trkpt>
   <trkpt lat="47.3806990" lon="-122.0413100">
    <ele>144.0</ele>
    <time>2021-08-23T00:27:54Z</time>
   </trkpt>
   <trkpt lat="47.3806980" lon="-122.0412950">
    <ele>144.1</ele>
    <time>2021-08-23T00:27:55Z</time>
   </trkpt>
   <trkpt lat="47.3806960" lon="-122.0412810">
    <ele>144.1</ele>
    <time>2021-08-23T00:27:56Z</time>
   </trkpt>
   <trkpt lat="47.3806980" lon="-122.0412590">
    <ele>144.1</ele>
    <time>2021-08-23T00:27:57Z</time>
   </trkpt>
   <trkpt lat="47.3807020" lon="-122.0412430">
    <ele>144.1</ele>
    <time>2021-08-23T00:27:58Z</time>
   </trkpt>
   <trkpt lat="47.3806910" lon="-122.0412340">
    <ele>144.1</ele>
    <time>2021-08-23T00:27:59Z</time>
   </trkpt>
   <trkpt lat="47.3806890" lon="-122.0412090">
    <ele>144.1</ele>
    <time>2021-08-23T00:28:00Z</time>
   </trkpt>
   <trkpt lat="47.3806900" lon="-122.0411960">
    <ele>144.1</ele>
    <time>2021-08-23T00:28:01Z</time>
   </trkpt>
   <trkpt lat="47.3806910" lon="-122.0411820">
    <ele>144.1</ele>
    <time>2021-08-23T00:28:02Z</time>
   </trkpt>
   <trkpt lat="47.3806920" lon="-122.0411680">
    <ele>144.1</ele>
    <time>2021-08-23T00:28:03Z</time>
   </trkpt>
   <trkpt lat="47.3806900" lon="-122.0411610">
    <ele>144.1</ele>
    <time>2021-08-23T00:28:04Z</time>
   </trkpt>
   <trkpt lat="47.3806890" lon="-122.0411540">
    <ele>144.1</ele>
    <time>2021-08-23T00:28:05Z</time>
   </trkpt>
   <trkpt lat="47.3806900" lon="-122.0411400">
    <ele>144.1</ele>
    <time>2021-08-23T00:28:06Z</time>
   </trkpt>
   <trkpt lat="47.3806940" lon="-122.0411260">
    <ele>144.2</ele>
    <time>2021-08-23T00:28:07Z</time>
   </trkpt>
   <trkpt lat="47.3806990" lon="-122.0411070">
    <ele>144.2</ele>
    <time>2021-08-23T00:28:08Z</time>
   </trkpt>
   <trkpt lat="47.3806950" lon="-122.0410870">
    <ele>144.2</ele>
    <time>2021-08-23T00:28:09Z</time>
   </trkpt>
   <trkpt lat="47.3807070" lon="-122.0410370">
    <ele>144.2</ele>
    <time>2021-08-23T00:28:10Z</time>
   </trkpt>
   <trkpt lat="47.3807100" lon="-122.0410210">
    <ele>144.2</ele>
    <time>2021-08-23T00:28:11Z</time>
   </trkpt>
   <trkpt lat="47.3807130" lon="-122.0410060">
    <ele>144.2</ele>
    <time>2021-08-23T00:28:12Z</time>
   </trkpt>
   <trkpt lat="47.3807160" lon="-122.0409900">
    <ele>144.2</ele>
    <time>2021-08-23T00:28:13Z</time>
   </trkpt>
   <trkpt lat="47.3807180" lon="-122.0409720">
    <ele>144.2</ele>
    <time>2021-08-23T00:28:14Z</time>
   </trkpt>
   <trkpt lat="47.3807280" lon="-122.0409640">
    <ele>144.2</ele>
    <time>2021-08-23T00:28:15Z</time>
   </trkpt>
   <trkpt lat="47.3807350" lon="-122.0409450">
    <ele>144.3</ele>
    <time>2021-08-23T00:28:16Z</time>
   </trkpt>
   <trkpt lat="47.3807360" lon="-122.0409340">
    <ele>144.3</ele>
    <time>2021-08-23T00:28:17Z</time>
   </trkpt>
   <trkpt lat="47.3807350" lon="-122.0409200">
    <ele>144.3</ele>
    <time>2021-08-23T00:28:18Z</time>
   </trkpt>
   <trkpt lat="47.3807280" lon="-122.0409110">
    <ele>144.3</ele>
    <time>2021-08-23T00:28:19Z</time>
   </trkpt>
   <trkpt lat="47.3807240" lon="-122.0408990">
    <ele>144.3</ele>
    <time>2021-08-23T00:28:20Z</time>
   </trkpt>
   <trkpt lat="47.3807180" lon="-122.0408730">
    <ele>144.3</ele>
    <time>2021-08-23T00:28:21Z</time>
   </trkpt>
   <trkpt lat="47.3807110" lon="-122.0408610">
    <ele>144.3</ele>
    <time>2021-08-23T00:28:22Z</time>
   </trkpt>
   <trkpt lat="47.3807120" lon="-122.0408410">
    <ele>144.3</ele>
    <time>2021-08-23T00:28:23Z</time>
   </trkpt>
   <trkpt lat="47.3807130" lon="-122.0408250">
    <ele>144.3</ele>
    <time>2021-08-23T00:28:24Z</time>
   </trkpt>
   <trkpt lat="47.3807090" lon="-122.0408170">
    <ele>144.3</ele>
    <time>2021-08-23T00:28:25Z</time>
   </trkpt>
   <trkpt lat="47.3807060" lon="-122.0407750">
    <ele>144.3</ele>
    <time>2021-08-23T00:28:26Z</time>
   </trkpt>
   <trkpt lat="47.3806980" lon="-122.0407610">
    <ele>144.4</ele>
    <time>2021-08-23T00:28:27Z</time>
   </trkpt>
   <trkpt lat="47.3806900" lon="-122.0407460">
    <ele>144.4</ele>
    <time>2021-08-23T00:28:28Z</time>
   </trkpt>
   <trkpt lat="47.3806900" lon="-122.0407140">
    <ele>144.4</ele>
    <time>2021-08-23T00:28:29Z</time>
   </trkpt>
   <trkpt lat="47.3806930" lon="-122.0407020">
    <ele>144.4</ele>
    <time>2021-08-23T00:28:30Z</time>
   </trkpt>
   <trkpt lat="47.3806970" lon="-122.0406890">
    <ele>144.4</ele>
    <time>2021-08-23T00:28:31Z</time>
   </trkpt>
   <trkpt lat="47.3807000" lon="-122.0406760">
    <ele>144.4</ele>
    <time>2021-08-23T00:28:32Z</time>
   </trkpt>
   <trkpt lat="47.3807100" lon="-122.0406610">
    <ele>144.4</ele>
    <time>2021-08-23T00:28:33Z</time>
   </trkpt>
   <trkpt lat="47.3807200" lon="-122.0406510">
    <ele>144.4</ele>
    <time>2021-08-23T00:28:34Z</time>
   </trkpt>
   <trkpt lat="47.3807260" lon="-122.0406400">
    <ele>144.4</ele>
    <time>2021-08-23T00:28:35Z</time>
   </trkpt>
   <trkpt lat="47.3807280" lon="-122.0406190">
    <ele>144.4</ele>
    <time>2021-08-23T00:28:36Z</time>
   </trkpt>
   <trkpt lat="47.3807370" lon="-122.0405970">
    <ele>144.4</ele>
    <time>2021-08-23T00:28:37Z</time>
   </trkpt>
   <trkpt lat="47.3807340" lon="-122.0405800">
    <ele>144.5</ele>
    <time>2021-08-23T00:28:38Z</time>
   </trkpt>
   <trkpt lat="47.3807370" lon="-122.0405550">
    <ele>144.5</ele>
    <time>2021-08-23T00:28:39Z</time>
   </trkpt>
   <trkpt lat="47.3807260" lon="-122.0405260">
    <ele>144.5</ele>
    <time>2021-08-23T00:28:40Z</time>
   </trkpt>
   <trkpt lat="47.3807250" lon="-122.0405100">
    <ele>144.5</ele>
    <time>2021-08-23T00:28:41Z</time>
   </trkpt>
   <trkpt lat="47.3807280" lon="-122.0405030">
    <ele>144.5</ele>
    <time>2021-08-23T00:28:42Z</time>
   </trkpt>
   <trkpt lat="47.3807350" lon="-122.0404850">
    <ele>144.5</ele>
    <time>2021-08-23T00:28:43Z</time>
   </trkpt>
   <trkpt lat="47.3807430" lon="-122.0404740">
    <ele>144.5</ele>
    <time>2021-08-23T00:28:44Z</time>
   </trkpt>
   <trkpt lat="47.3807470" lon="-122.0404700">
    <ele>144.5</ele>
    <time>2021-08-23T00:28:45Z</time>
   </trkpt>
   <trkpt lat="47.3807430" lon="-122.0404530">
    <ele>144.5</ele>
    <time>2021-08-23T00:28:46Z</time>
   </trkpt>
   <trkpt lat="47.3807470" lon="-122.0404410">
    <ele>144.5</ele>
    <time>2021-08-23T00:28:47Z</time>
   </trkpt>
   <trkpt lat="47.3807510" lon="-122.0404220">
    <ele>144.5</ele>
    <time>2021-08-23T00:28:48Z</time>
   </trkpt>
   <trkpt lat="47.3807560" lon="-122.0403930">
    <ele>144.6</ele>
    <time>2021-08-23T00:28:49Z</time>
   </trkpt>
   <trkpt lat="47.3807610" lon="-122.0403750">
    <ele>144.6</ele>
    <time>2021-08-23T00:28:50Z</time>
   </trkpt>
   <trkpt lat="47.3807620" lon="-122.0403540">
    <ele>144.6</ele>
    <time>2021-08-23T00:28:51Z</time>
   </trkpt>
   <trkpt lat="47.3807630" lon="-122.0403400">
    <ele>144.6</ele>
    <time>2021-08-23T00:28:52Z</time>
   </trkpt>
   <trkpt lat="47.3807630" lon="-122.0403250">
    <ele>144.5</ele>
    <time>2021-08-23T00:28:53Z</time>
   </trkpt>
   <trkpt lat="47.3807640" lon="-122.0403100">
    <ele>144.5</ele>
    <time>2021-08-23T00:28:54Z</time>
   </trkpt>
   <trkpt lat="47.3807660" lon="-122.0402840">
    <ele>144.5</ele>
    <time>2021-08-23T00:28:55Z</time>
   </trkpt>
   <trkpt lat="47.3807670" lon="-122.0402700">
    <ele>144.4</ele>
    <time>2021-08-23T00:28:56Z</time>
   </trkpt>
   <trkpt lat="47.3807670" lon="-122.0402570">
    <ele>144.4</ele>
    <time>2021-08-23T00:28:57Z</time>
   </trkpt>
   <trkpt lat="47.3807650" lon="-122.0402270">
    <ele>144.3</ele>
    <time>2021-08-23T00:28:58Z</time>
   </trkpt>
   <trkpt lat="47.3807630" lon="-122.0402110">
    <ele>144.3</ele>
    <time>2021-08-23T00:28:59Z</time>
   </trkpt>
   <trkpt lat="47.3807610" lon="-122.0401960">
    <ele>144.3</ele>
    <time>2021-08-23T00:29:00Z</time>
   </trkpt>
   <trkpt lat="47.3807610" lon="-122.0401840">
    <ele>144.3</ele>
    <time>2021-08-23T00:29:01Z</time>
   </trkpt>
   <trkpt lat="47.3807590" lon="-122.0401800">
    <ele>144.2</ele>
    <time>2021-08-23T00:29:02Z</time>
   </trkpt>
   <trkpt lat="47.3807560" lon="-122.0401680">
    <ele>144.2</ele>
    <time>2021-08-23T00:29:03Z</time>
   </trkpt>
   <trkpt lat="47.3807520" lon="-122.0401460">
    <ele>144.2</ele>
    <time>2021-08-23T00:29:04Z</time>
   </trkpt>
   <trkpt lat="47.3807480" lon="-122.0401270">
    <ele>144.2</ele>
    <time>2021-08-23T00:29:05Z</time>
   </trkpt>
   <trkpt lat="47.3807410" lon="-122.0401120">
    <ele>144.1</ele>
    <time>2021-08-23T00:29:06Z</time>
   </trkpt>
   <trkpt lat="47.3807380" lon="-122.0401080">
    <ele>144.1</ele>
    <time>2021-08-23T00:29:07Z</time>
   </trkpt>
   <trkpt lat="47.3807330" lon="-122.0400980">
    <ele>144.1</ele>
    <time>2021-08-23T00:29:08Z</time>
   </trkpt>
   <trkpt lat="47.3807240" lon="-122.0400690">
    <ele>144.1</ele>
    <time>2021-08-23T00:29:09Z</time>
   </trkpt>
  </trkseg>
 </trk>
</gpx>
