<?xml version="1.0" encoding="UTF-8"?>
<gpx creator="StravaGPX" version="1.1" xmlns="http://www.topografix.com/GPX/1/1" xmlns:xsi="http://www.w3.org/2001/XMLSchema-instance" xsi:schemaLocation="http://www.topografix.com/GPX/1/1 http://www.topografix.com/GPX/1/1/gpx.xsd">
 <metadata>
  <time>2021-09-02T17:43:57Z</time>
 </metadata>
 <trk>
  <name>Between meetings</name>
  <type>running</type>
  <trkseg>
   <trkpt lat="47.4113630" lon="-122.0399800">
    <ele>98.0</ele>
    <time>2021-09-02T17:43:57Z</time>
   </trkpt>
   <trkpt lat="47.4113960" lon="-122.0400120">
    <ele>97.9</ele>
    <time>2021-09-02T17:43:58Z</time>
   </trkpt>
   <trkpt lat="47.4114300" lon="-122.0400530">
    <ele>97.8</ele>
    <time>2021-09-02T17:43:59Z</time>
   </trkpt>
   <trkpt lat="47.4114770" lon="-122.0400750">
    <ele>97.7</ele>
    <time>2021-09-02T17:44:00Z</time>
   </trkpt>
   <trkpt lat="47.4115050" lon="-122.0401110">
    <ele>97.6</ele>
    <time>2021-09-02T17:44:01Z</time>
   </trkpt>
   <trkpt lat="47.4115430" lon="-122.0401360">
    <ele>97.6</ele>
    <time>2021-09-02T17:44:02Z</time>
   </trkpt>
   <trkpt lat="47.4115700" lon="-122.0401310">
    <ele>97.5</ele>
    <time>2021-09-02T17:44:03Z</time>
   </trkpt>
   <trkpt lat="47.4116040" lon="-122.0401550">
    <ele>97.5</ele>
    <time>2021-09-02T17:44:04Z</time>
   </trkpt>
   <trkpt lat="47.4116160" lon="-122.0401560">
    <ele>97.5</ele>
    <time>2021-09-02T17:44:05Z</time>
   </trkpt>
   <trkpt lat="47.4116620" lon="-122.0402040">
    <ele>97.4</ele>
    <time>2021-09-02T17:44:06Z</time>
   </trkpt>
   <trkpt lat="47.4117080" lon="-122.0402350">
    <ele>97.4</ele>
    <time>2021-09-02T17:44:07Z</time>
   </trkpt>
   <trkpt lat="47.4117430" lon="-122.0402770">
    <ele>97.3</ele>
    <time>2021-09-02T17:44:08Z</time>
   </trkpt>
   <trkpt lat="47.4117820" lon="-122.0403070">
    <ele>97.3</ele>
    <time>2021-09-02T17:44:09Z</time>
   </trkpt>
   <trkpt lat="47.4118190" lon="-122.0403420">
    <ele>97.2</ele>
    <time>2021-09-02T17:44:10Z</time>
   </trkpt>
   <trkpt lat="47.4118540" lon="-122.0403680">
    <ele>97.2</ele>
    <time>2021-09-02T17:44:11Z</time>
   </trkpt>
   <trkpt lat="47.4118940" lon="-122.0404080">
    <ele>97.1</ele>
    <time>2021-09-02T17:44:12Z</time>
   </trkpt>
   <trkpt lat="47.4119280" lon="-122.0404340">
    <ele>97.1</ele>
    <time>2021-09-02T17:44:13Z</time>
   </trkpt>
   <trkpt lat="47.4119620" lon="-122.0404640">
    <ele>97.0</ele>
    <time>2021-09-02T17:44:14Z</time>
   </trkpt>
   <trkpt lat="47.4119980" lon="-122.0404950">
    <ele>97.0</ele>
    <time>2021-09-02T17:44:15Z</time>
   </trkpt>
   <trkpt lat="47.4120380" lon="-122.0405210">
    <ele>96.9</ele>
    <time>2021-09-02T17:44:16Z</time>
   </trkpt>
   <trkpt lat="47.4120670" lon="-122.0405570">
    <ele>96.9</ele>
    <time>2021-09-02T17:44:17Z</time>
   </trkpt>
   <trkpt lat="47.4121020" lon="-122.0405820">
    <ele>96.9</ele>
    <time>2021-09-02T17:44:18Z</time>
   </trkpt>
   <trkpt lat="47.4121410" lon="-122.0406170">
    <ele>96.8</ele>
    <time>2021-09-02T17:44:19Z</time>
   </trkpt>
   <trkpt lat="47.4121760" lon="-122.0406460">
    <ele>96.8</ele>
    <time>2021-09-02T17:44:20Z</time>
   </trkpt>
   <trkpt lat="47.4122160" lon="-122.0406670">
    <ele>96.7</ele>
    <time>2021-09-02T17:44:21Z</time>
   </trkpt>
   <trkpt lat="47.4122560" lon="-122.0407020">
    <ele>96.7</ele>
    <time>2021-09-02T17:44:22Z</time>
   </trkpt>
   <trkpt lat="47.4122860" lon="-122.0407290">
    <ele>96.7</ele>
    <time>2021-09-02T17:44:23Z</time>
   </trkpt>
   <trkpt lat="47.4123230" lon="-122.0407560">
    <ele>96.6</ele>
    <time>2021-09-02T17:44:24Z</time>
   </trkpt>
   <trkpt lat="47.4123620" lon="-122.0407910">
    <ele>96.6</ele>
    <time>2021-09-02T17:44:25Z</time>
   </trkpt>
   <trkpt lat="47.4123950" lon="-122.0408280">
    <ele>96.5</ele>
    <time>2021-09-02T17:44:26Z</time>
   </trkpt>
   <trkpt lat="47.4124340" lon="-122.0408530">
    <ele>96.5</ele>
    <time>2021-09-02T17:44:27Z</time>
   </trkpt>
   <trkpt lat="47.4124630" lon="-122.0408840">
    <ele>96.5</ele>
    <time>2021-09-02T17:44:28Z</time>
   </trkpt>
   <trkpt lat="47.4125000" lon="-122.0409160">
    <ele>96.4</ele>
    <time>2021-09-02T17:44:29Z</time>
   </trkpt>
   <trkpt lat="47.4125290" lon="-122.0409390">
    <ele>96.4</ele>
    <time>2021-09-02T17:44:30Z</time>
   </trkpt>
   <trkpt lat="47.4125650" lon="-122.0409750">
    <ele>96.3</ele>
    <time>2021-09-02T17:44:31Z</time>
   </trkpt>
   <trkpt lat="47.4126010" lon="-122.0409920">
    <ele>96.3</ele>
    <time>2021-09-02T17:44:32Z</time>
   </trkpt>
   <trkpt lat="47.4126270" lon="-122.0410300">
    <ele>96.3</ele>
    <time>2021-09-02T17:44:33Z</time>
   </trkpt>
   <trkpt lat="47.4126610" lon="-122.0410580">
    <ele>96.2</ele>
    <time>2021-09-02T17:44:34Z</time>
   </trkpt>
   <trkpt lat="47.4126900" lon="-122.0410730">
    <ele>96.2</ele>
    <time>2021-09-02T17:44:35Z</time>
   </trkpt>
   <trkpt lat="47.4127320" lon="-122.0411230">
    <ele>96.1</ele>
    <time>2021-09-02T17:44:36Z</time>
   </trkpt>
   <trkpt lat="47.4127740" lon="-122.0411500">
    <ele>96.1</ele>
    <time>2021-09-02T17:44:37Z</time>
   </trkpt>
   <trkpt lat="47.4128090" lon="-122.0411820">
    <ele>96.1</ele>
    <time>2021-09-02T17:44:38Z</time>
   </trkpt>
   <trkpt lat="47.4128430" lon="-122.0412120">
    <ele>96.0</ele>
    <time>2021-09-02T17:44:39Z</time>
   </trkpt>
   <trkpt lat="47.4128830" lon="-122.0412220">
    <ele>96.0</ele>
    <time>2021-09-02T17:44:40Z</time>
   </trkpt>
   <trkpt lat="47.4129180" lon="-122.0412680">
    <ele>95.9</ele>
    <time>2021-09-02T17:44:41Z</time>
   </trkpt>
   <trkpt lat="47.4129480" lon="-122.0412920">
    <ele>95.9</ele>
    <time>2021-09-02T17:44:42Z</time>
   </trkpt>
   <trkpt lat="47.4129850" lon="-122.0413210">
    <ele>95.9</ele>
    <time>2021-09-02T17:44:43Z</time>
   </trkpt>
   <trkpt lat="47.4130280" lon="-122.0413640">
    <ele>95.8</ele>
    <time>2021-09-02T17:44:44Z</time>
   </trkpt>
   <trkpt lat="47.4130640" lon="-122.0413800">
    <ele>95.8</ele>
    <time>2021-09-02T17:44:46Z</time>
   </trkpt>
   <trkpt lat="47.4130950" lon="-122.0414010">
    <ele>95.7</ele>
    <time>2021-09-02T17:44:47Z</time>
   </trkpt>
   <trkpt lat="47.4131600" lon="-122.0414150">
    <ele>95.7</ele>
    <time>2021-09-02T17:44:48Z</time>
   </trkpt>
   <trkpt lat="47.4131820" lon="-122.0414580">
    <ele>95.7</ele>
    <time>2021-09-02T17:44:49Z</time>
   </trkpt>
   <trkpt lat="47.4132140" lon="-122.0415020">
    <ele>95.6</ele>
    <time>2021-09-02T17:44:50Z</time>
   </trkpt>
   <trkpt lat="47.4132520" lon="-122.0415380">
    <ele>95.6</ele>
    <time>2021-09-02T17:44:51Z</time>
   </trkpt>
   <trkpt lat="47.4132820" lon="-122.0415570">
    <ele>95.5</ele>
    <time>2021-09-02T17:44:52Z</time>
   </trkpt>
   <trkpt lat="47.4133250" lon="-122.0415880">
    <ele>95.5</ele>
    <time>2021-09-02T17:44:53Z</time>
   </trkpt>
   <trkpt lat="47.4133620" lon="-122.0416210">
    <ele>95.5</ele>
    <time>2021-09-02T17:44:54Z</time>
   </trkpt>
   <trkpt lat="47.4133740" lon="-122.0416360">
    <ele>95.4</ele>
    <time>2021-09-02T17:44:55Z</time>
   </trkpt>
   <trkpt lat="47.4134270" lon="-122.0416680">
    <ele>95.4</ele>
    <time>2021-09-02T17:44:56Z</time>
   </trkpt>
   <trkpt lat="47.4134570" lon="-122.0417140">
    <ele>95.4</ele>
    <time>2021-09-02T17:44:57Z</time>
   </trkpt>
   <trkpt lat="47.4134990" lon="-122.0417590">
    <ele>95.3</ele>
    <time>2021-09-02T17:44:58Z</time>
   </trkpt>
   <trkpt lat="47.4135350" lon="-122.0417890">
    <ele>95.3</ele>
    <time>2021-09-02T17:44:59Z</time>
   </trkpt>
   <trkpt lat="47.4135760" lon="-122.0418180">
    <ele>95.2</ele>
    <time>2021-09-02T17:45:00Z</time>
   </trkpt>
   <trkpt lat="47.4136070" lon="-122.0418450">
    <ele>95.2</ele>
    <time>2021-09-02T17:45:01Z</time>
   </trkpt>
   <trkpt lat="47.4136470" lon="-122.0419030">
    <ele>95.1</ele>
    <time>2021-09-02T17:45:02Z</time>
   </trkpt>
   <trkpt lat="47.4137010" lon="-122.0419170">
    <ele>95.1</ele>
    <time>2021-09-02T17:45:03Z</time>
   </trkpt>
   <trkpt lat="47.4137370" lon="-122.0419650">
    <ele>95.0</ele>
    <time>2021-09-02T17:45:04Z</time>
   </trkpt>
   <trkpt lat="47.4137700" lon="-122.0419830">
    <ele>95.0</ele>
    <time>2021-09-02T17:45:05Z</time>
   </trkpt>
   <trkpt lat="47.4137930" lon="-122.0420080">
    <ele>95.0</ele>
    <time>2021-09-02T17:45:06Z</time>
   </trkpt>
   <trkpt lat="47.4138160" lon="-122.0420390">
    <ele>94.9</ele>
    <time>2021-09-02T17:45:07Z</time>
   </trkpt>
   <trkpt lat="47.4138600" lon="-122.0420580">
    <ele>94.9</ele>
    <time>2021-09-02T17:45:08Z</time>
   </trkpt>
   <trkpt lat="47.4138950" lon="-122.0421050">
    <ele>94.9</ele>
    <time>2021-09-02T17:45:09Z</time>
   </trkpt>
   <trkpt lat="47.4139440" lon="-122.0421130">
    <ele>94.8</ele>
    <time>2021-09-02T17:45:10Z</time>
   </trkpt>
   <trkpt lat="47.4139720" lon="-122.0421630">
    <ele>94.8</ele>
    <time>2021-09-02T17:45:11Z</time>
   </trkpt>
   <trkpt lat="47.4139970" lon="-122.0422040">
    <ele>94.8</ele>
    <time>2021-09-02T17:45:12Z</time>
   </trkpt>
   <trkpt lat="47.4140460" lon="-122.0421990">
    <ele>94.7</ele>
    <time>2021-09-02T17:45:13Z</time>
   </trkpt>
   <trkpt lat="47.4140830" lon="-122.0422350">
    <ele>94.7</ele>
    <time>2021-09-02T17:45:14Z</time>
   </trkpt>
   <trkpt lat="47.4141160" lon="-122.0422580">
    <ele>94.7</ele>
    <time>2021-09-02T17:45:15Z</time>
   </trkpt>
   <trkpt lat="47.4141530" lon="-122.0422900">
    <ele>94.7</ele>
    <time>2021-09-02T17:45:16Z</time>
   </trkpt>
   <trkpt lat="47.4141870" lon="-122.0423330">
    <ele>94.6</ele>
    <time>2021-09-02T17:45:17Z</time>
   </trkpt>
   <trkpt lat="47.4142370" lon="-122.0423640">
    <ele>94.6</ele>
    <time>2021-09-02T17:45:18Z</time>
   </trkpt>
   <trkpt lat="47.4142620" lon="-122.0423780">
    <ele>94.6</ele>
    <time>2021-09-02T17:45:19Z</time>
   </trkpt>
   <trkpt lat="47.4142900" lon="-122.0424080">
    <ele>94.6</ele>
    <time>2021-09-02T17:45:20Z</time>
   </trkpt>
   <trkpt lat="47.4143280" lon="-122.0424360">
    <ele>94.5</ele>
    <time>2021-09-02T17:45:21Z</time>
   </trkpt>
   <trkpt lat="47.4143570" lon="-122.0424860">
    <ele>94.5</ele>
    <time>2021-09-02T17:45:22Z</time>
   </trkpt>
   <trkpt lat="47.4143850" lon="-122.0425100">
    <ele>94.5</ele>
    <time>2021-09-02T17:45:23Z</time>
   </trkpt>
   <trkpt lat="47.4144310" lon="-122.0425380">
    <ele>94.5</ele>
    <time>2021-09-02T17:45:24Z</time>
   </trkpt>
   <trkpt lat="47.4144540" lon="-122.0425690">
    <ele>94.4</ele>
    <time>2021-09-02T17:45:25Z</time>
   </trkpt>
   <trkpt lat="47.4145000" lon="-122.0425960">
    <ele>94.4</ele>
    <time>2021-09-02T17:45:26Z</time>
   </trkpt>
   <trkpt lat="47.4145370" lon="-122.0426310">
    <ele>94.4</ele>
    <time>2021-09-02T17:45:27Z</time>
   </trkpt>
   <trkpt lat="47.4145610" lon="-122.0426540">
    <ele>94.4</ele>
    <time>2021-09-02T17:45:28Z</time>
   </trkpt>
   <trkpt lat="47.4146090" lon="-122.0426870">
    <ele>94.3</ele>
    <time>2021-09-02T17:45:29Z</time>
   </trkpt>
   <trkpt lat="47.4146320" lon="-122.0427220">
    <ele>94.3</ele>
    <time>2021-09-02T17:45:30Z</time>
   </trkpt>
   <trkpt lat="47.4146640" lon="-122.0427360">
    <ele>94.3</ele>
    <time>2021-09-02T17:45:31Z</time>
   </trkpt>
   <trkpt lat="47.4147140" lon="-122.0427730">
    <ele>94.3</ele>
    <time>2021-09-02T17:45:32Z</time>
   </trkpt>
   <trkpt lat="47.4147390" lon="-122.0428040">
    <ele>94.2</ele>
    <time>2021-09-02T17:45:33Z</time>
   </trkpt>
   <trkpt lat="47.4147710" lon="-122.0428360">
    <ele>94.2</ele>
    <time>2021-09-02T17:45:34Z</time>
   </trkpt>
   <trkpt lat="47.4147980" lon="-122.0428570">
    <ele>94.2</ele>
    <time>2021-09-02T17:45:35Z</time>
   </trkpt>
   <trkpt lat="47.4148260" lon="-122.0428820">
    <ele>94.2</ele>
    <time>2021-09-02T17:45:36Z</time>
   </trkpt>
   <trkpt lat="47.4148600" lon="-122.0429200">
    <ele>94.1</ele>
    <time>2021-09-02T17:45:37Z</time>
   </trkpt>
   <trkpt lat="47.4148970" lon="-122.0429430">
    <ele>94.1</ele>
    <time>2021-09-02T17:45:38Z</time>
   </trkpt>
   <trkpt lat="47.4149400" lon="-122.0429710">
    <ele>94.1</ele>
    <time>2021-09-02T17:45:39Z</time>
   </trkpt>
   <trkpt lat="47.4149630" lon="-122.0429960">
    <ele>94.1</ele>
    <time>2021-09-02T17:45:40Z</time>
   </trkpt>
   <trkpt lat="47.4149990" lon="-122.0430270">
    <ele>94.1</ele>
    <time>2021-09-02T17:45:41Z</time>
   </trkpt>
   <trkpt lat="47.4150300" lon="-122.0430510">
    <ele>94.1</ele>
    <time>2021-09-02T17:45:42Z</time>
   </trkpt>
   <trkpt lat="47.4150580" lon="-122.0430710">
    <ele>94.1</ele>
    <time>2021-09-02T17:45:43Z</time>
   </trkpt>
   <trkpt lat="47.4150890" lon="-122.0431030">
    <ele>94.1</ele>
    <time>2021-09-02T17:45:44Z</time>
   </trkpt>
   <trkpt lat="47.4151200" lon="-122.0431370">
    <ele>94.1</ele>
    <time>2021-09-02T17:45:45Z</time>
   </trkpt>
   <trkpt lat="47.4151610" lon="-122.0431660">
    <ele>94.1</ele>
    <time>2021-09-02T17:45:46Z</time>
   </trkpt>
   <trkpt lat="47.4151800" lon="-122.0432170">
    <ele>94.1</ele>
    <time>2021-09-02T17:45:47Z</time>
   </trkpt>
   <trkpt lat="47.4152210" lon="-122.0432360">
    <ele>94.1</ele>
    <time>2021-09-02T17:45:48Z</time>
   </trkpt>
   <trkpt lat="47.4152370" lon="-122.0432460">
    <ele>94.1</ele>
    <time>2021-09-02T17:45:49Z</time>
   </trkpt>
   <trkpt lat="47.4152700" lon="-122.0432850">
    <ele>94.1</ele>
    <time>2021-09-02T17:45:50Z</time>
   </trkpt>
   <trkpt lat="47.4152930" lon="-122.0433070">
    <ele>94.0</ele>
    <time>2021-09-02T17:45:51Z</time>
   </trkpt>
   <trkpt lat="47.4153280" lon="-122.0433360">
    <ele>94.0</ele>
    <time>2021-09-02T17:45:52Z</time>
   </trkpt>
   <trkpt lat="47.4153580" lon="-122.0433570">
    <ele>94.0</ele>
    <time>2021-09-02T17:45:53Z</time>
   </trkpt>
   <trkpt lat="47.4154040" lon="-122.0433750">
    <ele>93.9</ele>
    <time>2021-09-02T17:45:54Z</time>
   </trkpt>
   <trkpt lat="47.4154420" lon="-122.0434080">
    <ele>93.9</ele>
    <time>2021-09-02T17:45:55Z</time>
   </trkpt>
   <trkpt lat="47.4154810" lon="-122.0434340">
    <ele>93.8</ele>
    <time>2021-09-02T17:45:56Z</time>
   </trkpt>
   <trkpt lat="47.4155220" lon="-122.0434650">
    <ele>93.7</ele>
    <time>2021-09-02T17:45:57Z</time>
   </trkpt>
   <trkpt lat="47.4155470" lon="-122.0434930">
    <ele>93.7</ele>
    <time>2021-09-02T17:45:58Z</time>
   </trkpt>
   <trkpt lat="47.4155800" lon="-122.0435130">
    <ele>93.6</ele>
    <time>2021-09-02T17:45:59Z</time>
   </trkpt>
   <trkpt lat="47.4156190" lon="-122.0435500">
    <ele>93.6</ele>
    <time>2021-09-02T17:46:00Z</time>
   </trkpt>
   <trkpt lat="47.4156460" lon="-122.0435650">
    <ele>93.5</ele>
    <time>2021-09-02T17:46:01Z</time>
   </trkpt>
   <trkpt lat="47.4156820" lon="-122.0436140">
    <ele>93.5</ele>
    <time>2021-09-02T17:46:02Z</time>
   </trkpt>
   <trkpt lat="47.4157070" lon="-122.0436340">
    <ele>93.4</ele>
    <time>2021-09-02T17:46:03Z</time>
   </trkpt>
   <trkpt lat="47.4157350" lon="-122.0436600">
    <ele>93.4</ele>
    <time>2021-09-02T17:46:04Z</time>
   </trkpt>
   <trkpt lat="47.4157890" lon="-122.0436980">
    <ele>93.3</ele>
    <time>2021-09-02T17:46:05Z</time>
   </trkpt>
   <trkpt lat="47.4158120" lon="-122.0437220">
    <ele>93.3</ele>
    <time>2021-09-02T17:46:06Z</time>
   </trkpt>
   <trkpt lat="47.4158360" lon="-122.0437560">
    <ele>93.3</ele>
    <time>2021-09-02T17:46:07Z</time>
   </trkpt>
   <trkpt lat="47.4158770" lon="-122.0437980">
    <ele>93.2</ele>
    <time>2021-09-02T17:46:08Z</time>
   </trkpt>
   <trkpt lat="47.4159200" lon="-122.0438220">
    <ele>93.2</ele>
    <time>2021-09-02T17:46:09Z</time>
   </trkpt>
   <trkpt lat="47.4159380" lon="-122.0438350">
    <ele>93.2</ele>
    <time>2021-09-02T17:46:10Z</time>
   </trkpt>
   <trkpt lat="47.4159680" lon="-122.0438610">
    <ele>93.1</ele>
    <time>2021-09-02T17:46:11Z</time>
   </trkpt>
   <trkpt lat="47.4160070" lon="-122.0438760">
    <ele>93.1</ele>
    <time>2021-09-02T17:46:12Z</time>
   </trkpt>
   <trkpt lat="47.4160330" lon="-122.0439310">
    <ele>93.0</ele>
    <time>2021-09-02T17:46:13Z</time>
   </trkpt>
   <trkpt lat="47.4160770" lon="-122.0439640">
    <ele>93.0</ele>
    <time>2021-09-02T17:46:14Z</time>
   </trkpt>
   <trkpt lat="47.4160990" lon="-122.0439790">
    <ele>93.0</ele>
    <time>2021-09-02T17:46:15Z</time>
   </trkpt>
   <trkpt lat="47.4161250" lon="-122.0440090">
    <ele>93.0</ele>
    <time>2021-09-02T17:46:16Z</time>
   </trkpt>
   <trkpt lat="47.4161670" lon="-122.0440350">
    <ele>92.9</ele>
    <time>2021-09-02T17:46:17Z</time>
   </trkpt>
   <trkpt lat="47.4161880" lon="-122.0440530">
    <ele>92.9</ele>
    <time>2021-09-02T17:46:18Z</time>
   </trkpt>
   <trkpt lat="47.4162170" lon="-122.0440740">
    <ele>92.9</ele>
    <time>2021-09-02T17:46:19Z</time>
   </trkpt>
   <trkpt lat="47.4162440" lon="-122.0440960">
    <ele>92.9</ele>
    <time>2021-09-02T17:46:20Z</time>
   </trkpt>
   <trkpt lat="47.4163080" lon="-122.0441410">
    <ele>92.8</ele>
    <time>2021-09-02T17:46:21Z</time>
   </trkpt>
   <trkpt lat="47.4163410" lon="-122.0441730">
    <ele>92.8</ele>
    <time>2021-09-02T17:46:22Z</time>
   </trkpt>
   <trkpt lat="47.4163610" lon="-122.0442150">
    <ele>92.7</ele>
    <time>2021-09-02T17:46:23Z</time>
   </trkpt>
   <trkpt lat="47.4163920" lon="-122.0442360">
    <ele>92.7</ele>
    <time>2021-09-02T17:46:24Z</time>
   </trkpt>
   <trkpt lat="47.4164270" lon="-122.0442520">
    <ele>92.7</ele>
    <time>2021-09-02T17:46:25Z</time>
   </trkpt>
   <trkpt lat="47.4164540" lon="-122.0442870">
    <ele>92.7</ele>
    <time>2021-09-02T17:46:26Z</time>
   </trkpt>
   <trkpt lat="47.4164900" lon="-122.0443170">
    <ele>92.6</ele>
    <time>2021-09-02T17:46:27Z</time>
   </trkpt>
   <trkpt lat="47.4165210" lon="-122.0443540">
    <ele>92.6</ele>
    <time>2021-09-02T17:46:28Z</time>
   </trkpt>
   <trkpt lat="47.4165580" lon="-122.0443530">
    <ele>92.6</ele>
    <time>2021-09-02T17:46:29Z</time>
   </trkpt>
   <trkpt lat="47.4165940" lon="-122.0443790">
    <ele>92.6</ele>
    <time>2021-09-02T17:46:30Z</time>
   </trkpt>
   <trkpt lat="47.4166140" lon="-122.0444060">
    <ele>92.5</ele>
    <time>2021-09-02T17:46:31Z</time>
   </trkpt>
   <trkpt lat="47.4166370" lon="-122.0444390">
    <ele>92.5</ele>
    <time>2021-09-02T17:46:32Z</time>
   </trkpt>
   <trkpt lat="47.4166860" lon="-122.0444660">
    <ele>92.5</ele>
    <time>2021-09-02T17:46:33Z</time>
   </trkpt>
   <trkpt lat="47.4167090" lon="-122.0445010">
    <ele>92.4</ele>
    <time>2021-09-02T17:46:34Z</time>
   </trkpt>
   <trkpt lat="47.4167500" lon="-122.0445260">
    <ele>92.4</ele>
    <time>2021-09-02T17:46:35Z</time>
   </trkpt>
   <trkpt lat="47.4167850" lon="-122.0445520">
    <ele>92.4</ele>
    <time>2021-09-02T17:46:36Z</time>
   </trkpt>
   <trkpt lat="47.4168060" lon="-122.0445810">
    <ele>92.4</ele>
    <time>2021-09-02T17:46:37Z</time>
   </trkpt>
   <trkpt lat="47.4168430" lon="-122.0445950">
    <ele>92.3</ele>
    <time>2021-09-02T17:46:38Z</time>
   </trkpt>
   <trkpt lat="47.4168750" lon="-122.0446350">
    <ele>92.3</ele>
    <time>2021-09-02T17:46:39Z</time>
   </trkpt>
   <trkpt lat="47.4168890" lon="-122.0446510">
    <ele>92.3</ele>
    <time>2021-09-02T17:46:40Z</time>
   </trkpt>
   <trkpt lat="47.4169220" lon="-122.0446610">
    <ele>92.2</ele>
    <time>2021-09-02T17:46:41Z</time>
   </trkpt>
   <trkpt lat="47.4169480" lon="-122.0446870">
    <ele>92.2</ele>
    <time>2021-09-02T17:46:42Z</time>
   </trkpt>
   <trkpt lat="47.4169790" lon="-122.0447100">
    <ele>92.2</ele>
    <time>2021-09-02T17:46:43Z</time>
   </trkpt>
   <trkpt lat="47.4170100" lon="-122.0447510">
    <ele>92.1</ele>
    <time>2021-09-02T17:46:44Z</time>
   </trkpt>
   <trkpt lat="47.4170460" lon="-122.0447800">
    <ele>92.1</ele>
    <time>2021-09-02T17:46:45Z</time>
   </trkpt>
   <trkpt lat="47.4170740" lon="-122.0447950">
    <ele>92.1</ele>
    <time>2021-09-02T17:46:46Z</time>
   </trkpt>
   <trkpt lat="47.4171040" lon="-122.0448260">
    <ele>92.0</ele>
    <time>2021-09-02T17:46:47Z</time>
   </trkpt>
   <trkpt lat="47.4171330" lon="-122.0448490">
    <ele>92.0</ele>
    <time>2021-09-02T17:46:48Z</time>
   </trkpt>
   <trkpt lat="47.4171660" lon="-122.0448740">
    <ele>92.0</ele>
    <time>2021-09-02T17:46:49Z</time>
   </trkpt>
   <trkpt lat="47.4171940" lon="-122.0449050">
    <ele>91.9</ele>
    <time>2021-09-02T17:46:50Z</time>
   </trkpt>
   <trkpt lat="47.4172250" lon="-122.0449180">
    <ele>91.9</ele>
    <time>2021-09-02T17:46:52Z</time>
   </trkpt>
   <trkpt lat="47.4172450" lon="-122.0449460">
    <ele>91.9</ele>
    <time>2021-09-02T17:46:53Z</time>
   </trkpt>
   <trkpt lat="47.4172670" lon="-122.0449770">
    <ele>91.9</ele>
    <time>2021-09-02T17:46:54Z</time>
   </trkpt>
   <trkpt lat="47.4173130" lon="-122.0449970">
    <ele>91.8</ele>
    <time>2021-09-02T17:46:55Z</time>
   </trkpt>
   <trkpt lat="47.4173350" lon="-122.0450360">
    <ele>91.8</ele>
    <time>2021-09-02T17:46:56Z</time>
   </trkpt>
   <trkpt lat="47.4173720" lon="-122.0450470">
    <ele>91.8</ele>
    <time>2021-09-02T17:46:57Z</time>
   </trkpt>
   <trkpt lat="47.4173940" lon="-122.0450720">
    <ele>91.8</ele>
    <time>2021-09-02T17:46:58Z</time>
   </trkpt>
   <trkpt lat="47.4174210" lon="-122.0451130">
    <ele>91.8</ele>
    <time>2021-09-02T17:46:59Z</time>
   </trkpt>
   <trkpt lat="47.4174610" lon="-122.0451320">
    <ele>91.7</ele>
    <time>2021-09-02T17:47:00Z</time>
   </trkpt>
   <trkpt lat="47.4174800" lon="-122.0451810">
    <ele>91.7</ele>
    <time>2021-09-02T17:47:01Z</time>
   </trkpt>
   <trkpt lat="47.4175050" lon="-122.0452040">
    <ele>91.7</ele>
    <time>2021-09-02T17:47:02Z</time>
   </trkpt>
   <trkpt lat="47.4175600" lon="-122.0452210">
    <ele>91.6</ele>
    <time>2021-09-02T17:47:03Z</time>
   </trkpt>
   <trkpt lat="47.4175860" lon="-122.0452410">
    <ele>91.6</ele>
    <time>2021-09-02T17:47:04Z</time>
   </trkpt>
   <trkpt lat="47.4176260" lon="-122.0452600">
    <ele>91.6</ele>
    <time>2021-09-02T17:47:05Z</time>
   </trkpt>
   <trkpt lat="47.4176570" lon="-122.0452930">
    <ele>91.6</ele>
    <time>2021-09-02T17:47:06Z</time>
   </trkpt>
   <trkpt lat="47.4176950" lon="-122.0453150">
    <ele>91.5</ele>
    <time>2021-09-02T17:47:07Z</time>
   </trkpt>
   <trkpt lat="47.4177380" lon="-122.0453540">
    <ele>91.5</ele>
    <time>2021-09-02T17:47:08Z</time>
   </trkpt>
   <trkpt lat="47.4177650" lon="-122.0454070">
    <ele>91.5</ele>
    <time>2021-09-02T17:47:09Z</time>
   </trkpt>
   <trkpt lat="47.4177930" lon="-122.0454430">
    <ele>91.5</ele>
    <time>2021-09-02T17:47:10Z</time>
   </trkpt>
   <trkpt lat="47.4178360" lon="-122.0454720">
    <ele>91.4</ele>
    <time>2021-09-02T17:47:11Z</time>
   </trkpt>
   <trkpt lat="47.4178640" lon="-122.0455030">
    <ele>91.4</ele>
    <time>2021-09-02T17:47:12Z</time>
   </trkpt>
   <trkpt lat="47.4178930" lon="-122.0455130">
    <ele>91.4</ele>
    <time>2021-09-02T17:47:13Z</time>
   </trkpt>
   <trkpt lat="47.4179220" lon="-122.0455500">
    <ele>91.4</ele>
    <time>2021-09-02T17:47:14Z</time>
   </trkpt>
   <trkpt lat="47.4179520" lon="-122.0455760">
    <ele>91.4</ele>
    <time>2021-09-02T17:47:15Z</time>
   </trkpt>
   <trkpt lat="47.4179920" lon="-122.0455980">
    <ele>91.4</ele>
    <time>2021-09-02T17:47:16Z</time>
   </trkpt>
   <trkpt lat="47.4180120" lon="-122.0456320">
    <ele>91.3</ele>
    <time>2021-09-02T17:47:17Z</time>
   </trkpt>
   <trkpt lat="47.4180500" lon="-122.0456490">
    <ele>91.3</ele>
    <time>2021-09-02T17:47:18Z</time>
   </trkpt>
   <trkpt lat="47.4180750" lon="-122.0456740">
    <ele>91.3</ele>
    <time>2021-09-02T17:47:19Z</time>
   </trkpt>
   <trkpt lat="47.4180980" lon="-122.0457070">
    <ele>91.3</ele>
    <time>2021-09-02T17:47:20Z</time>
   </trkpt>
   <trkpt lat="47.4181300" lon="-122.0457310">
    <ele>91.2</ele>
    <time>2021-09-02T17:47:21Z</time>
   </trkpt>
   <trkpt lat="47.4181570" lon="-122.0457750">
    <ele>91.2</ele>
    <time>2021-09-02T17:47:22Z</time>
   </trkpt>
   <trkpt lat="47.4181960" lon="-122.0457980">
    <ele>91.2</ele>
    <time>2021-09-02T17:47:23Z</time>
   </trkpt>
   <trkpt lat="47.4182300" lon="-122.0458280">
    <ele>91.1</ele>
    <time>2021-09-02T17:47:24Z</time>
   </trkpt>
   <trkpt lat="47.4182450" lon="-122.0458610">
    <ele>91.1</ele>
    <time>2021-09-02T17:47:25Z</time>
   </trkpt>
   <trkpt lat="47.4182870" lon="-122.0458880">
    <ele>91.0</ele>
    <time>2021-09-02T17:47:26Z</time>
   </trkpt>
   <trkpt lat="47.4183210" lon="-122.0459300">
    <ele>91.0</ele>
    <time>2021-09-02T17:47:27Z</time>
   </trkpt>
   <trkpt lat="47.4183450" lon="-122.0459490">
    <ele>91.0</ele>
    <time>2021-09-02T17:47:28Z</time>
   </trkpt>
   <trkpt lat="47.4183820" lon="-122.0459720">
    <ele>91.0</ele>
    <time>2021-09-02T17:47:29Z</time>
   </trkpt>
   <trkpt lat="47.4184070" lon="-122.0460070">
    <ele>91.0</ele>
    <time>2021-09-02T17:47:30Z</time>
   </trkpt>
   <trkpt lat="47.4184450" lon="-122.0460270">
    <ele>91.0</ele>
    <time>2021-09-02T17:47:31Z</time>
   </trkpt>
   <trkpt lat="47.4184790" lon="-122.0460540">
    <ele>90.9</ele>
    <time>2021-09-02T17:47:32Z</time>
   </trkpt>
   <trkpt lat="47.4185000" lon="-122.0460810">
    <ele>90.9</ele>
    <time>2021-09-02T17:47:33Z</time>
   </trkpt>
   <trkpt lat="47.4185320" lon="-122.0461000">
    <ele>90.9</ele>
    <time>2021-09-02T17:47:34Z</time>
   </trkpt>
   <trkpt lat="47.4185400" lon="-122.0461060">
    <ele>90.9</ele>
    <time>2021-09-02T17:47:35Z</time>
   </trkpt>
   <trkpt lat="47.4185680" lon="-122.0461310">
    <ele>90.9</ele>
    <time>2021-09-02T17:47:36Z</time>
   </trkpt>
   <trkpt lat="47.4185980" lon="-122.0461660">
    <ele>90.9</ele>
    <time>2021-09-02T17:47:37Z</time>
   </trkpt>
   <trkpt lat="47.4186280" lon="-122.0462010">
    <ele>90.9</ele>
    <time>2021-09-02T17:47:38Z</time>
   </trkpt>
   <trkpt lat="47.4186410" lon="-122.0462170">
    <ele>90.8</ele>
    <time>2021-09-02T17:47:39Z</time>
   </trkpt>
   <trkpt lat="47.4186740" lon="-122.0462360">
    <ele>90.8</ele>
    <time>2021-09-02T17:47:40Z</time>
   </trkpt>
   <trkpt lat="47.4187000" lon="-122.0462570">
    <ele>90.8</ele>
    <time>2021-09-02T17:47:41Z</time>
   </trkpt>
   <trkpt lat="47.4187360" lon="-122.0462880">
    <ele>90.7</ele>
    <time>2021-09-02T17:47:42Z</time>
   </trkpt>
   <trkpt lat="47.4187740" lon="-122.0463190">
    <ele>90.7</ele>
    <time>2021-09-02T17:47:43Z</time>
   </trkpt>
   <trkpt lat="47.4188010" lon="-122.0463330">
    <ele>90.7</ele>
    <time>2021-09-02T17:47:44Z</time>
   </trkpt>
   <trkpt lat="47.4188530" lon="-122.0463360">
    <ele>90.6</ele>
    <time>2021-09-02T17:47:45Z</time>
   </trkpt>
   <trkpt lat="47.4188560" lon="-122.0463770">
    <ele>90.6</ele>
    <time>2021-09-02T17:47:46Z</time>
   </trkpt>
   <trkpt lat="47.4187890" lon="-122.0463570">
    <ele>90.7</ele>
    <time>2021-09-02T17:47:47Z</time>
   </trkpt>
   <trkpt lat="47.4187630" lon="-122.0463280">
    <ele>90.7</ele>
    <time>2021-09-02T17:47:48Z</time>
   </trkpt>
   <trkpt lat="47.4187330" lon="-122.0463130">
    <ele>90.7</ele>
    <time>2021-09-02T17:47:49Z</time>
   </trkpt>
   <trkpt lat="47.4187170" lon="-122.0463030">
    <ele>90.7</ele>
    <time>2021-09-02T17:47:50Z</time>
   </trkpt>
   <trkpt lat="47.4186940" lon="-122.0462810">
    <ele>90.8</ele>
    <time>2021-09-02T17:47:51Z</time>
   </trkpt>
   <trkpt lat="47.4186640" lon="-122.0462670">
    <ele>90.8</ele>
    <time>2021-09-02T17:47:52Z</time>
   </trkpt>
   <trkpt lat="47.4186380" lon="-122.0462400">
    <ele>90.8</ele>
    <time>2021-09-02T17:47:53Z</time>
   </trkpt>
   <trkpt lat="47.4186070" lon="-122.0462140">
    <ele>90.9</ele>
    <time>2021-09-02T17:47:54Z</time>
   </trkpt>
   <trkpt lat="47.4185880" lon="-122.0462010">
    <ele>90.9</ele>
    <time>2021-09-02T17:47:55Z</time>
   </trkpt>
   <trkpt lat="47.4185600" lon="-122.0461780">
    <ele>90.9</ele>
    <time>2021-09-02T17:47:56Z</time>
   </trkpt>
   <trkpt lat="47.4185250" lon="-122.0461550">
    <ele>90.9</ele>
    <time>2021-09-02T17:47:57Z</time>
   </trkpt>
   <trkpt lat="47.4184940" lon="-122.0461180">
    <ele>90.9</ele>
    <time>2021-09-02T17:47:58Z</time>
   </trkpt>
   <trkpt lat="47.4184610" lon="-122.0460860">
    <ele>90.9</ele>
    <time>2021-09-02T17:47:59Z</time>
   </trkpt>
   <trkpt lat="47.4184490" lon="-122.0460760">
    <ele>91.0</ele>
    <time>2021-09-02T17:48:00Z</time>
   </trkpt>
   <trkpt lat="47.4184160" lon="-122.0460420">
    <ele>91.0</ele>
    <time>2021-09-02T17:48:01Z</time>
   </trkpt>
   <trkpt lat="47.4183900" lon="-122.0460230">
    <ele>91.0</ele>
    <time>2021-09-02T17:48:02Z</time>
   </trkpt>
   <trkpt lat="47.4183520" lon="-122.0459660">
    <ele>91.0</ele>
    <time>2021-09-02T17:48:03Z</time>
   </trkpt>
   <trkpt lat="47.4183170" lon="-122.0459420">
    <ele>91.0</ele>
    <time>2021-09-02T17:48:04Z</time>
   </trkpt>
   <trkpt lat="47.4183020" lon="-122.0459290">
    <ele>91.0</ele>
    <time>2021-09-02T17:48:05Z</time>
   </trkpt>
   <trkpt lat="47.4182650" lon="-122.0459050">
    <ele>91.0</ele>
    <time>2021-09-02T17:48:06Z</time>
   </trkpt>
   <trkpt lat="47.4182310" lon="-122.0458880">
    <ele>91.1</ele>
    <time>2021-09-02T17:48:07Z</time>
   </trkpt>
   <trkpt lat="47.4181860" lon="-122.0458400">
    <ele>91.2</ele>
    <time>2021-09-02T17:48:08Z</time>
   </trkpt>
   <trkpt lat="47.4181580" lon="-122.0458050">
    <ele>91.2</ele>
    <time>2021-09-02T17:48:09Z</time>
   </trkpt>
   <trkpt lat="47.4181180" lon="-122.0457850">
    <ele>91.2</ele>
    <time>2021-09-02T17:48:10Z</time>
   </trkpt>
   <trkpt lat="47.4180840" lon="-122.0457500">
    <ele>91.3</ele>
    <time>2021-09-02T17:48:11Z</time>
   </trkpt>
   <trkpt lat="47.4180490" lon="-122.0457120">
    <ele>91.3</ele>
    <time>2021-09-02T17:48:12Z</time>
   </trkpt>
   <trkpt lat="47.4180260" lon="-122.0457020">
    <ele>91.3</ele>
    <time>2021-09-02T17:48:13Z</time>
   </trkpt>
   <trkpt lat="47.4179960" lon="-122.0456810">
    <ele>91.3</ele>
    <time>2021-09-02T17:48:14Z</time>
   </trkpt>
   <trkpt lat="47.4179560" lon="-122.0456370">
    <ele>91.4</ele>
    <time>2021-09-02T17:48:15Z</time>
   </trkpt>
   <trkpt lat="47.4179240" lon="-122.0456120">
    <ele>91.4</ele>
    <time>2021-09-02T17:48:16Z</time>
   </trkpt>
   <trkpt lat="47.4178830" lon="-122.0455840">
    <ele>91.4</ele>
    <time>2021-09-02T17:48:17Z</time>
   </trkpt>
   <trkpt lat="47.4178430" lon="-122.0455590">
    <ele>91.4</ele>
    <time>2021-09-02T17:48:18Z</time>
   </trkpt>
   <trkpt lat="47.4178110" lon="-122.0455330">
    <ele>91.4</ele>
    <time>2021-09-02T17:48:19Z</time>
   </trkpt>
   <trkpt lat="47.4177800" lon="-122.0454980">
    <ele>91.5</ele>
    <time>2021-09-02T17:48:20Z</time>
   </trkpt>
   <trkpt lat="47.4177530" lon="-122.0454840">
    <ele>91.5</ele>
    <time>2021-09-02T17:48:21Z</time>
   </trkpt>
   <trkpt lat="47.4177090" lon="-122.0454460">
    <ele>91.5</ele>
    <time>2021-09-02T17:48:22Z</time>
   </trkpt>
   <trkpt lat="47.4176860" lon="-122.0454250">
    <ele>91.5</ele>
    <time>2021-09-02T17:48:23Z</time>
   </trkpt>
   <trkpt lat="47.4176630" lon="-122.0453960">
    <ele>91.5</ele>
    <time>2021-09-02T17:48:24Z</time>
   </trkpt>
   <trkpt lat="47.4176250" lon="-122.0453620">
    <ele>91.6</ele>
    <time>2021-09-02T17:48:25Z</time>
   </trkpt>
   <trkpt lat="47.4175920" lon="-122.0453360">
    <ele>91.6</ele>
    <time>2021-09-02T17:48:26Z</time>
   </trkpt>
   <trkpt lat="47.4175480" lon="-122.0453020">
    <ele>91.6</ele>
    <time>2021-09-02T17:48:27Z</time>
   </trkpt>
   <trkpt lat="47.4175280" lon="-122.0452870">
    <ele>91.6</ele>
    <time>2021-09-02T17:48:28Z</time>
   </trkpt>
   <trkpt lat="47.4174960" lon="-122.0452640">
    <ele>91.7</ele>
    <time>2021-09-02T17:48:29Z</time>
   </trkpt>
   <trkpt lat="47.4174840" lon="-122.0452560">
    <ele>91.7</ele>
    <time>2021-09-02T17:48:30Z</time>
   </trkpt>
   <trkpt lat="47.4174630" lon="-122.0452290">
    <ele>91.7</ele>
    <time>2021-09-02T17:48:31Z</time>
   </trkpt>
   <trkpt lat="47.4174450" lon="-122.0452140">
    <ele>91.7</ele>
    <time>2021-09-02T17:48:33Z</time>
   </trkpt>
   <trkpt lat="47.4174270" lon="-122.0452000">
    <ele>91.7</ele>
    <time>2021-09-02T17:48:34Z</time>
   </trkpt>
   <trkpt lat="47.4174090" lon="-122.0451850">
    <ele>91.7</ele>
    <time>2021-09-02T17:48:35Z</time>
   </trkpt>
   <trkpt lat="47.4173620" lon="-122.0451520">
    <ele>91.8</ele>
    <time>2021-09-02T17:48:36Z</time>
   </trkpt>
   <trkpt lat="47.4172870" lon="-122.0451290">
    <ele>91.8</ele>
    <time>2021-09-02T17:48:37Z</time>
   </trkpt>
   <trkpt lat="47.4173010" lon="-122.0450850">
    <ele>91.8</ele>
    <time>2021-09-02T17:48:38Z</time>
   </trkpt>
   <trkpt lat="47.4172730" lon="-122.0450570">
    <ele>91.9</ele>
    <time>2021-09-02T17:48:39Z</time>
   </trkpt>
   <trkpt lat="47.4172430" lon="-122.0450340">
    <ele>91.9</ele>
    <time>2021-09-02T17:48:40Z</time>
   </trkpt>
   <trkpt lat="47.4172150" lon="-122.0450210">
    <ele>91.9</ele>
    <time>2021-09-02T17:48:41Z</time>
   </trkpt>
   <trkpt lat="47.4171780" lon="-122.0449830">
    <ele>91.9</ele>
    <time>2021-09-02T17:48:42Z</time>
   </trkpt>
   <trkpt lat="47.4171540" lon="-122.0449630">
    <ele>92.0</ele>
    <time>2021-09-02T17:48:43Z</time>
   </trkpt>
   <trkpt lat="47.4171130" lon="-122.0449190">
    <ele>92.0</ele>
    <time>2021-09-02T17:48:44Z</time>
   </trkpt>
   <trkpt lat="47.4170900" lon="-122.0448660">
    <ele>92.0</ele>
    <time>2021-09-02T17:48:45Z</time>
   </trkpt>
   <trkpt lat="47.4170590" lon="-122.0448550">
    <ele>92.1</ele>
    <time>2021-09-02T17:48:46Z</time>
   </trkpt>
   <trkpt lat="47.4170210" lon="-122.0448260">
    <ele>92.1</ele>
    <time>2021-09-02T17:48:47Z</time>
   </trkpt>
   <trkpt lat="47.4169850" lon="-122.0448230">
    <ele>92.1</ele>
    <time>2021-09-02T17:48:48Z</time>
   </trkpt>
   <trkpt lat="47.4169370" lon="-122.0447810">
    <ele>92.2</ele>
    <time>2021-09-02T17:48:49Z</time>
   </trkpt>
   <trkpt lat="47.4169110" lon="-122.0447520">
    <ele>92.2</ele>
    <time>2021-09-02T17:48:50Z</time>
   </trkpt>
   <trkpt lat="47.4168810" lon="-122.0447030">
    <ele>92.3</ele>
    <time>2021-09-02T17:48:51Z</time>
   </trkpt>
   <trkpt lat="47.4168330" lon="-122.0446720">
    <ele>92.3</ele>
    <time>2021-09-02T17:48:52Z</time>
   </trkpt>
   <trkpt lat="47.4167980" lon="-122.0446830">
    <ele>92.3</ele>
    <time>2021-09-02T17:48:53Z</time>
   </trkpt>
   <trkpt lat="47.4167550" lon="-122.0446270">
    <ele>92.4</ele>
    <time>2021-09-02T17:48:54Z</time>
   </trkpt>
   <trkpt lat="47.4167250" lon="-122.0446000">
    <ele>92.4</ele>
    <time>2021-09-02T17:48:55Z</time>
   </trkpt>
   <trkpt lat="47.4166830" lon="-122.0445760">
    <ele>92.5</ele>
    <time>2021-09-02T17:48:56Z</time>
   </trkpt>
   <trkpt lat="47.4166550" lon="-122.0445230">
    <ele>92.5</ele>
    <time>2021-09-02T17:48:57Z</time>
   </trkpt>
   <trkpt lat="47.4166270" lon="-122.0445090">
    <ele>92.5</ele>
    <time>2021-09-02T17:48:58Z</time>
   </trkpt>
   <trkpt lat="47.4165890" lon="-122.0444710">
    <ele>92.5</ele>
    <time>2021-09-02T17:48:59Z</time>
   </trkpt>
   <trkpt lat="47.4165690" lon="-122.0444430">
    <ele>92.6</ele>
    <time>2021-09-02T17:49:00Z</time>
   </trkpt>
   <trkpt lat="47.4165260" lon="-122.0444070">
    <ele>92.6</ele>
    <time>2021-09-02T17:49:01Z</time>
   </trkpt>
   <trkpt lat="47.4165020" lon="-122.0443760">
    <ele>92.6</ele>
    <time>2021-09-02T17:49:02Z</time>
   </trkpt>
   <trkpt lat="47.4164690" lon="-122.0443570">
    <ele>92.6</ele>
    <time>2021-09-02T17:49:03Z</time>
   </trkpt>
   <trkpt lat="47.4164280" lon="-122.0443160">
    <ele>92.7</ele>
    <time>2021-09-02T17:49:04Z</time>
   </trkpt>
   <trkpt lat="47.4163980" lon="-122.0443020">
    <ele>92.7</ele>
    <time>2021-09-02T17:49:05Z</time>
   </trkpt>
   <trkpt lat="47.4163630" lon="-122.0442710">
    <ele>92.7</ele>
    <time>2021-09-02T17:49:06Z</time>
   </trkpt>
   <trkpt lat="47.4163300" lon="-122.0442480">
    <ele>92.8</ele>
    <time>2021-09-02T17:49:07Z</time>
   </trkpt>
   <trkpt lat="47.4163040" lon="-122.0442300">
    <ele>92.8</ele>
    <time>2021-09-02T17:49:08Z</time>
   </trkpt>
   <trkpt lat="47.4162770" lon="-122.0442000">
    <ele>92.8</ele>
    <time>2021-09-02T17:49:09Z</time>
   </trkpt>
   <trkpt lat="47.4162390" lon="-122.0441720">
    <ele>92.8</ele>
    <time>2021-09-02T17:49:10Z</time>
   </trkpt>
   <trkpt lat="47.4162210" lon="-122.0441410">
    <ele>92.9</ele>
    <time>2021-09-02T17:49:11Z</time>
   </trkpt>
   <trkpt lat="47.4161870" lon="-122.0441260">
    <ele>92.9</ele>
    <time>2021-09-02T17:49:12Z</time>
   </trkpt>
   <trkpt lat="47.4161580" lon="-122.0441030">
    <ele>92.9</ele>
    <time>2021-09-02T17:49:13Z</time>
   </trkpt>
   <trkpt lat="47.4161280" lon="-122.0440740">
    <ele>92.9</ele>
    <time>2021-09-02T17:49:14Z</time>
   </trkpt>
   <trkpt lat="47.4161000" lon="-122.0440580">
    <ele>93.0</ele>
    <time>2021-09-02T17:49:15Z</time>
   </trkpt>
   <trkpt lat="47.4160630" lon="-122.0440220">
    <ele>93.0</ele>
    <time>2021-09-02T17:49:16Z</time>
   </trkpt>
   <trkpt lat="47.4160290" lon="-122.0440060">
    <ele>93.0</ele>
    <time>2021-09-02T17:49:17Z</time>
   </trkpt>
   <trkpt lat="47.4160060" lon="-122.0439800">
    <ele>93.1</ele>
    <time>2021-09-02T17:49:18Z</time>
   </trkpt>
   <trkpt lat="47.4159870" lon="-122.0439510">
    <ele>93.1</ele>
    <time>2021-09-02T17:49:19Z</time>
   </trkpt>
   <trkpt lat="47.4159420" lon="-122.0439400">
    <ele>93.1</ele>
    <time>2021-09-02T17:49:20Z</time>
   </trkpt>
   <trkpt lat="47.4159130" lon="-122.0439110">
    <ele>93.2</ele>
    <time>2021-09-02T17:49:21Z</time>
   </trkpt>
   <trkpt lat="47.4158820" lon="-122.0438790">
    <ele>93.2</ele>
    <time>2021-09-02T17:49:22Z</time>
   </trkpt>
   <trkpt lat="47.4158500" lon="-122.0438580">
    <ele>93.2</ele>
    <time>2021-09-02T17:49:23Z</time>
   </trkpt>
   <trkpt lat="47.4158180" lon="-122.0438230">
    <ele>93.3</ele>
    <time>2021-09-02T17:49:24Z</time>
   </trkpt>
   <trkpt lat="47.4157860" lon="-122.0438060">
    <ele>93.3</ele>
    <time>2021-09-02T17:49:25Z</time>
   </trkpt>
   <trkpt lat="47.4157470" lon="-122.0437720">
    <ele>93.3</ele>
    <time>2021-09-02T17:49:26Z</time>
   </trkpt>
   <trkpt lat="47.4157120" lon="-122.0437520">
    <ele>93.4</ele>
    <time>2021-09-02T17:49:27Z</time>
   </trkpt>
   <trkpt lat="47.4156890" lon="-122.0437290">
    <ele>93.4</ele>
    <time>2021-09-02T17:49:28Z</time>
   </trkpt>
   <trkpt lat="47.4156570" lon="-122.0436840">
    <ele>93.5</ele>
    <time>2021-09-02T17:49:29Z</time>
   </trkpt>
   <trkpt lat="47.4156160" lon="-122.0436520">
    <ele>93.5</ele>
    <time>2021-09-02T17:49:30Z</time>
   </trkpt>
   <trkpt lat="47.4156000" lon="-122.0436320">
    <ele>93.6</ele>
    <time>2021-09-02T17:49:31Z</time>
   </trkpt>
   <trkpt lat="47.4155710" lon="-122.0436110">
    <ele>93.6</ele>
    <time>2021-09-02T17:49:32Z</time>
   </trkpt>
   <trkpt lat="47.4155310" lon="-122.0435740">
    <ele>93.7</ele>
    <time>2021-09-02T17:49:33Z</time>
   </trkpt>
   <trkpt lat="47.4155110" lon="-122.0435560">
    <ele>93.7</ele>
    <time>2021-09-02T17:49:34Z</time>
   </trkpt>
   <trkpt lat="47.4154760" lon="-122.0435440">
    <ele>93.8</ele>
    <time>2021-09-02T17:49:35Z</time>
   </trkpt>
   <trkpt lat="47.4154440" lon="-122.0435170">
    <ele>93.8</ele>
    <time>2021-09-02T17:49:36Z</time>
   </trkpt>
   <trkpt lat="47.4154120" lon="-122.0434900">
    <ele>93.9</ele>
    <time>2021-09-02T17:49:37Z</time>
   </trkpt>
   <trkpt lat="47.4153890" lon="-122.0434600">
    <ele>93.9</ele>
    <time>2021-09-02T17:49:38Z</time>
   </trkpt>
   <trkpt lat="47.4153620" lon="-122.0434320">
    <ele>94.0</ele>
    <time>2021-09-02T17:49:39Z</time>
   </trkpt>
   <trkpt lat="47.4153260" lon="-122.0434260">
    <ele>94.0</ele>
    <time>2021-09-02T17:49:40Z</time>
   </trkpt>
   <trkpt lat="47.4152930" lon="-122.0433950">
    <ele>94.0</ele>
    <time>2021-09-02T17:49:41Z</time>
   </trkpt>
   <trkpt lat="47.4152620" lon="-122.0433660">
    <ele>94.0</ele>
    <time>2021-09-02T17:49:42Z</time>
   </trkpt>
   <trkpt lat="47.4152280" lon="-122.0433230">
    <ele>94.1</ele>
    <time>2021-09-02T17:49:43Z</time>
   </trkpt>
   <trkpt lat="47.4152140" lon="-122.0433050">
    <ele>94.1</ele>
    <time>2021-09-02T17:49:44Z</time>
   </trkpt>
   <trkpt lat="47.4151830" lon="-122.0432920">
    <ele>94.1</ele>
    <time>2021-09-02T17:49:45Z</time>
   </trkpt>
   <trkpt lat="47.4151590" lon="-122.0432610">
    <ele>94.1</ele>
    <time>2021-09-02T17:49:46Z</time>
   </trkpt>
   <trkpt lat="47.4151270" lon="-122.0432420">
    <ele>94.1</ele>
    <time>2021-09-02T17:49:47Z</time>
   </trkpt>
   <trkpt lat="47.4150980" lon="-122.0432120">
    <ele>94.1</ele>
    <time>2021-09-02T17:49:48Z</time>
   </trkpt>
   <trkpt lat="47.4150680" lon="-122.0431790">
    <ele>94.1</ele>
    <time>2021-09-02T17:49:49Z</time>
   </trkpt>
   <trkpt lat="47.4150350" lon="-122.0431630">
    <ele>94.1</ele>
    <time>2021-09-02T17:49:50Z</time>
   </trkpt>
   <trkpt lat="47.4150140" lon="-122.0431300">
    <ele>94.1</ele>
    <time>2021-09-02T17:49:51Z</time>
   </trkpt>
   <trkpt lat="47.4149770" lon="-122.0430950">
    <ele>94.1</ele>
    <time>2021-09-02T17:49:52Z</time>
   </trkpt>
   <trkpt lat="47.4149450" lon="-122.0430780">
    <ele>94.1</ele>
    <time>2021-09-02T17:49:53Z</time>
   </trkpt>
   <trkpt lat="47.4149150" lon="-122.0430520">
    <ele>94.1</ele>
    <time>2021-09-02T17:49:54Z</time>
   </trkpt>
   <trkpt lat="47.4148800" lon="-122.0430390">
    <ele>94.1</ele>
    <time>2021-09-02T17:49:55Z</time>
   </trkpt>
   <trkpt lat="47.4148500" lon="-122.0430150">
    <ele>94.1</ele>
    <time>2021-09-02T17:49:56Z</time>
   </trkpt>
   <trkpt lat="47.4148120" lon="-122.0429850">
    <ele>94.2</ele>
    <time>2021-09-02T17:49:57Z</time>
   </trkpt>
   <trkpt lat="47.4147760" lon="-122.0429710">
    <ele>94.2</ele>
    <time>2021-09-02T17:49:58Z</time>
   </trkpt>
   <trkpt lat="47.4147520" lon="-122.0429300">
    <ele>94.2</ele>
    <time>2021-09-02T17:49:59Z</time>
   </trkpt>
   <trkpt lat="47.4147030" lon="-122.0429120">
    <ele>94.2</ele>
    <time>2021-09-02T17:50:00Z</time>
   </trkpt>
   <trkpt lat="47.4146780" lon="-122.0428690">
    <ele>94.3</ele>
    <time>2021-09-02T17:50:01Z</time>
   </trkpt>
   <trkpt lat="47.4146350" lon="-122.0428370">
    <ele>94.3</ele>
    <time>2021-09-02T17:50:02Z</time>
   </trkpt>
   <trkpt lat="47.4145910" lon="-122.0428170">
    <ele>94.3</ele>
    <time>2021-09-02T17:50:03Z</time>
   </trkpt>
   <trkpt lat="47.4145660" lon="-122.0427840">
    <ele>94.3</ele>
    <time>2021-09-02T17:50:04Z</time>
   </trkpt>
   <trkpt lat="47.4145240" lon="-122.0427760">
    <ele>94.4</ele>
    <time>2021-09-02T17:50:05Z</time>
   </trkpt>
   <trkpt lat="47.4145050" lon="-122.0427360">
    <ele>94.4</ele>
    <time>2021-09-02T17:50:06Z</time>
   </trkpt>
   <trkpt lat="47.4144660" lon="-122.0427080">
    <ele>94.4</ele>
    <time>2021-09-02T17:50:07Z</time>
   </trkpt>
   <trkpt lat="47.4144210" lon="-122.0426820">
    <ele>94.4</ele>
    <time>2021-09-02T17:50:08Z</time>
   </trkpt>
   <trkpt lat="47.4143930" lon="-122.0426410">
    <ele>94.5</ele>
    <time>2021-09-02T17:50:09Z</time>
   </trkpt>
   <trkpt lat="47.4143540" lon="-122.0426210">
    <ele>94.5</ele>
    <time>2021-09-02T17:50:10Z</time>
   </trkpt>
   <trkpt lat="47.4143230" lon="-122.0425960">
    <ele>94.5</ele>
    <time>2021-09-02T17:50:11Z</time>
   </trkpt>
   <trkpt lat="47.4143060" lon="-122.0425480">
    <ele>94.5</ele>
    <time>2021-09-02T17:50:12Z</time>
   </trkpt>
   <trkpt lat="47.4142670" lon="-122.0425140">
    <ele>94.6</ele>
    <time>2021-09-02T17:50:13Z</time>
   </trkpt>
   <trkpt lat="47.4142340" lon="-122.0424990">
    <ele>94.6</ele>
    <time>2021-09-02T17:50:14Z</time>
   </trkpt>
   <trkpt lat="47.4142050" lon="-122.0424700">
    <ele>94.6</ele>
    <time>2021-09-02T17:50:15Z</time>
   </trkpt>
   <trkpt lat="47.4141820" lon="-122.0424300">
    <ele>94.6</ele>
    <time>2021-09-02T17:50:16Z</time>
   </trkpt>
   <trkpt lat="47.4141490" lon="-122.0424100">
    <ele>94.6</ele>
    <time>2021-09-02T17:50:17Z</time>
   </trkpt>
   <trkpt lat="47.4141070" lon="-122.0423730">
    <ele>94.7</ele>
    <time>2021-09-02T17:50:18Z</time>
   </trkpt>
   <trkpt lat="47.4140730" lon="-122.0423420">
    <ele>94.7</ele>
    <time>2021-09-02T17:50:19Z</time>
   </trkpt>
   <trkpt lat="47.4140310" lon="-122.0423070">
    <ele>94.7</ele>
    <time>2021-09-02T17:50:20Z</time>
   </trkpt>
   <trkpt lat="47.4139910" lon="-122.0423030">
    <ele>94.8</ele>
    <time>2021-09-02T17:50:21Z</time>
   </trkpt>
   <trkpt lat="47.4139610" lon="-122.0422630">
    <ele>94.8</ele>
    <time>2021-09-02T17:50:22Z</time>
   </trkpt>
   <trkpt lat="47.4139300" lon="-122.0422440">
    <ele>94.8</ele>
    <time>2021-09-02T17:50:23Z</time>
   </trkpt>
   <trkpt lat="47.4139040" lon="-122.0422010">
    <ele>94.8</ele>
    <time>2021-09-02T17:50:24Z</time>
   </trkpt>
   <trkpt lat="47.4138730" lon="-122.0421700">
    <ele>94.9</ele>
    <time>2021-09-02T17:50:25Z</time>
   </trkpt>
   <trkpt lat="47.4138410" lon="-122.0421480">
    <ele>94.9</ele>
    <time>2021-09-02T17:50:26Z</time>
   </trkpt>
   <trkpt lat="47.4138140" lon="-122.0421210">
    <ele>94.9</ele>
    <time>2021-09-02T17:50:27Z</time>
   </trkpt>
   <trkpt lat="47.4137740" lon="-122.0420880">
    <ele>95.0</ele>
    <time>2021-09-02T17:50:28Z</time>
   </trkpt>
   <trkpt lat="47.4137510" lon="-122.0420660">
    <ele>95.0</ele>
    <time>2021-09-02T17:50:29Z</time>
   </trkpt>
   <trkpt lat="47.4137110" lon="-122.0420370">
    <ele>95.0</ele>
    <time>2021-09-02T17:50:30Z</time>
   </trkpt>
   <trkpt lat="47.4136870" lon="-122.0420110">
    <ele>95.1</ele>
    <time>2021-09-02T17:50:31Z</time>
   </trkpt>
   <trkpt lat="47.4136560" lon="-122.0419810">
    <ele>95.1</ele>
    <time>2021-09-02T17:50:32Z</time>
   </trkpt>
   <trkpt lat="47.4136270" lon="-122.0419540">
    <ele>95.1</ele>
    <time>2021-09-02T17:50:33Z</time>
   </trkpt>
   <trkpt lat="47.4136000" lon="-122.0419300">
    <ele>95.2</ele>
    <time>2021-09-02T17:50:34Z</time>
   </trkpt>
   <trkpt lat="47.4135660" lon="-122.0419070">
    <ele>95.2</ele>
    <time>2021-09-02T17:50:35Z</time>
   </trkpt>
   <trkpt lat="47.4135410" lon="-122.0418800">
    <ele>95.2</ele>
    <time>2021-09-02T17:50:36Z</time>
   </trkpt>
   <trkpt lat="47.4135090" lon="-122.0418610">
    <ele>95.3</ele>
    <time>2021-09-02T17:50:37Z</time>
   </trkpt>
   <trkpt lat="47.4134690" lon="-122.0418360">
    <ele>95.3</ele>
    <time>2021-09-02T17:50:38Z</time>
   </trkpt>
   <trkpt lat="47.4134430" lon="-122.0418130">
    <ele>95.3</ele>
    <time>2021-09-02T17:50:39Z</time>
   </trkpt>
   <trkpt lat="47.4134020" lon="-122.0417860">
    <ele>95.4</ele>
    <time>2021-09-02T17:50:40Z</time>
   </trkpt>
   <trkpt lat="47.4133770" lon="-122.0417640">
    <ele>95.4</ele>
    <time>2021-09-02T17:50:41Z</time>
   </trkpt>
   <trkpt lat="47.4133040" lon="-122.0416820">
    <ele>95.5</ele>
    <time>2021-09-02T17:50:42Z</time>
   </trkpt>
   <trkpt lat="47.4132790" lon="-122.0416650">
    <ele>95.5</ele>
    <time>2021-09-02T17:50:43Z</time>
   </trkpt>
   <trkpt lat="47.4132360" lon="-122.0416090">
    <ele>95.6</ele>
    <time>2021-09-02T17:50:44Z</time>
   </trkpt>
   <trkpt lat="47.4132070" lon="-122.0415880">
    <ele>95.6</ele>
    <time>2021-09-02T17:50:45Z</time>
   </trkpt>
   <trkpt lat="47.4131740" lon="-122.0415650">
    <ele>95.6</ele>
    <time>2021-09-02T17:50:46Z</time>
   </trkpt>
   <trkpt lat="47.4131400" lon="-122.0415360">
    <ele>95.7</ele>
    <time>2021-09-02T17:50:47Z</time>
   </trkpt>
   <trkpt lat="47.4131160" lon="-122.0415130">
    <ele>95.7</ele>
    <time>2021-09-02T17:50:48Z</time>
   </trkpt>
   <trkpt lat="47.4130870" lon="-122.0414730">
    <ele>95.7</ele>
    <time>2021-09-02T17:50:49Z</time>
   </trkpt>
   <trkpt lat="47.4130540" lon="-122.0414490">
    <ele>95.8</ele>
    <time>2021-09-02T17:50:50Z</time>
   </trkpt>
   <trkpt lat="47.4130240" lon="-122.0414210">
    <ele>95.8</ele>
    <time>2021-09-02T17:50:51Z</time>
   </trkpt>
   <trkpt lat="47.4129900" lon="-122.0414010">
    <ele>95.8</ele>
    <time>2021-09-02T17:50:52Z</time>
   </trkpt>
   <trkpt lat="47.4129510" lon="-122.0413640">
    <ele>95.9</ele>
    <time>2021-09-02T17:50:53Z</time>
   </trkpt>
   <trkpt lat="47.4129320" lon="-122.0413460">
    <ele>95.9</ele>
    <time>2021-09-02T17:50:54Z</time>
   </trkpt>
   <trkpt lat="47.4129060" lon="-122.0413330">
    <ele>95.9</ele>
    <time>2021-09-02T17:50:55Z</time>
   </trkpt>
   <trkpt lat="47.4128750" lon="-122.0413080">
    <ele>95.9</ele>
    <time>2021-09-02T17:50:56Z</time>
   </trkpt>
   <trkpt lat="47.4128490" lon="-122.0412760">
    <ele>96.0</ele>
    <time>2021-09-02T17:50:57Z</time>
   </trkpt>
   <trkpt lat="47.4128250" lon="-122.0412570">
    <ele>96.0</ele>
    <time>2021-09-02T17:50:58Z</time>
   </trkpt>
   <trkpt lat="47.4127920" lon="-122.0412400">
    <ele>96.0</ele>
    <time>2021-09-02T17:50:59Z</time>
   </trkpt>
   <trkpt lat="47.4127600" lon="-122.0412160">
    <ele>96.1</ele>
    <time>2021-09-02T17:51:00Z</time>
   </trkpt>
   <trkpt lat="47.4127330" lon="-122.0411940">
    <ele>96.1</ele>
    <time>2021-09-02T17:51:01Z</time>
   </trkpt>
   <trkpt lat="47.4127030" lon="-122.0411610">
    <ele>96.1</ele>
    <time>2021-09-02T17:51:02Z</time>
   </trkpt>
   <trkpt lat="47.4126810" lon="-122.0411270">
    <ele>96.2</ele>
    <time>2021-09-02T17:51:04Z</time>
   </trkpt>
   <trkpt lat="47.4126430" lon="-122.0411080">
    <ele>96.2</ele>
    <time>2021-09-02T17:51:05Z</time>
   </trkpt>
   <trkpt lat="47.4126210" lon="-122.0410750">
    <ele>96.2</ele>
    <time>2021-09-02T17:51:06Z</time>
   </trkpt>
   <trkpt lat="47.4125900" lon="-122.0410580">
    <ele>96.3</ele>
    <time>2021-09-02T17:51:07Z</time>
   </trkpt>
   <trkpt lat="47.4125560" lon="-122.0410420">
    <ele>96.3</ele>
    <time>2021-09-02T17:51:08Z</time>
   </trkpt>
   <trkpt lat="47.4125330" lon="-122.0410050">
    <ele>96.4</ele>
    <time>2021-09-02T17:51:09Z</time>
   </trkpt>
   <trkpt lat="47.4124970" lon="-122.0409690">
    <ele>96.4</ele>
    <time>2021-09-02T17:51:10Z</time>
   </trkpt>
   <trkpt lat="47.4124730" lon="-122.0409400">
    <ele>96.4</ele>
    <time>2021-09-02T17:51:11Z</time>
   </trkpt>
   <trkpt lat="47.4124450" lon="-122.0409070">
    <ele>96.5</ele>
    <time>2021-09-02T17:51:12Z</time>
   </trkpt>
   <trkpt lat="47.4124040" lon="-122.0408890">
    <ele>96.5</ele>
    <time>2021-09-02T17:51:13Z</time>
   </trkpt>
   <trkpt lat="47.4123670" lon="-122.0408510">
    <ele>96.5</ele>
    <time>2021-09-02T17:51:14Z</time>
   </trkpt>
   <trkpt lat="47.4123280" lon="-122.0408420">
    <ele>96.6</ele>
    <time>2021-09-02T17:51:15Z</time>
   </trkpt>
   <trkpt lat="47.4122950" lon="-122.0408110">
    <ele>96.6</ele>
    <time>2021-09-02T17:51:16Z</time>
   </trkpt>
   <trkpt lat="47.4122630" lon="-122.0407810">
    <ele>96.7</ele>
    <time>2021-09-02T17:51:17Z</time>
   </trkpt>
   <trkpt lat="47.4122340" lon="-122.0407570">
    <ele>96.7</ele>
    <time>2021-09-02T17:51:18Z</time>
   </trkpt>
   <trkpt lat="47.4122120" lon="-122.0407150">
    <ele>96.7</ele>
    <time>2021-09-02T17:51:19Z</time>
   </trkpt>
   <trkpt lat="47.4121730" lon="-122.0406880">
    <ele>96.8</ele>
    <time>2021-09-02T17:51:20Z</time>
   </trkpt>
   <trkpt lat="47.4121390" lon="-122.0406630">
    <ele>96.8</ele>
    <time>2021-09-02T17:51:21Z</time>
   </trkpt>
   <trkpt lat="47.4121020" lon="-122.0406300">
    <ele>96.8</ele>
    <time>2021-09-02T17:51:22Z</time>
   </trkpt>
   <trkpt lat="47.4120660" lon="-122.0406130">
    <ele>96.9</ele>
    <time>2021-09-02T17:51:23Z</time>
   </trkpt>
   <trkpt lat="47.4120440" lon="-122.0405770">
    <ele>96.9</ele>
    <time>2021-09-02T17:51:24Z</time>
   </trkpt>
   <trkpt lat="47.4120070" lon="-122.0405620">
    <ele>96.9</ele>
    <time>2021-09-02T17:51:25Z</time>
   </trkpt>
   <trkpt lat="47.4119830" lon="-122.0405240">
    <ele>97.0</ele>
    <time>2021-09-02T17:51:26Z</time>
   </trkpt>
   <trkpt lat="47.4119420" lon="-122.0405060">
    <ele>97.0</ele>
    <time>2021-09-02T17:51:27Z</time>
   </trkpt>
   <trkpt lat="47.4119060" lon="-122.0404810">
    <ele>97.1</ele>
    <time>2021-09-02T17:51:28Z</time>
   </trkpt>
   <trkpt lat="47.4118840" lon="-122.0404460">
    <ele>97.1</ele>
    <time>2021-09-02T17:51:29Z</time>
   </trkpt>
   <trkpt lat="47.4118490" lon="-122.0404240">
    <ele>97.2</ele>
    <time>2021-09-02T17:51:30Z</time>
   </trkpt>
   <trkpt lat="47.4118170" lon="-122.0404030">
    <ele>97.2</ele>
    <time>2021-09-02T17:51:31Z</time>
   </trkpt>
   <trkpt lat="47.4117960" lon="-122.0403620">
    <ele>97.2</ele>
    <time>2021-09-02T17:51:32Z</time>
   </trkpt>
   <trkpt lat="47.4117630" lon="-122.0403340">
    <ele>97.3</ele>
    <time>2021-09-02T17:51:33Z</time>
   </trkpt>
   <trkpt lat="47.4117350" lon="-122.0403100">
    <ele>97.3</ele>
    <time>2021-09-02T17:51:34Z</time>
   </trkpt>
   <trkpt lat="47.4116950" lon="-122.0402850">
    <ele>97.4</ele>
    <time>2021-09-02T17:51:35Z</time>
   </trkpt>
   <trkpt lat="47.4116730" lon="-122.0402600">
    <ele>97.4</ele>
    <time>2021-09-02T17:51:36Z</time>
   </trkpt>
   <trkpt lat="47.4116390" lon="-122.0402260">
    <ele>97.4</ele>
    <time>2021-09-02T17:51:37Z</time>
   </trkpt>
   <trkpt lat="47.4116060" lon="-122.0402110">
    <ele>97.5</ele>
    <time>2021-09-02T17:51:38Z</time>
   </trkpt>
   <trkpt lat="47.4115960" lon="-122.0402030">
    <ele>97.5</ele>
    <time>2021-09-02T17:51:39Z</time>
   </trkpt>
   <trkpt lat="47.4115610" lon="-122.0401680">
    <ele>97.5</ele>
    <time>2021-09-02T17:51:40Z</time>
   </trkpt>
   <trkpt lat="47.4115380" lon="-122.0401420">
    <ele>97.6</ele>
    <time>2021-09-02T17:51:41Z</time>
   </trkpt>
   <trkpt lat="47.4115090" lon="-122.0401250">
    <ele>97.6</ele>
    <time>2021-09-02T17:51:42Z</time>
   </trkpt>
   <trkpt lat="47.4114770" lon="-122.0401050">
    <ele>97.7</ele>
    <time>2021-09-02T17:51:43Z</time>
   </trkpt>
   <trkpt lat="47.4114390" lon="-122.0400610">
    <ele>97.8</ele>
    <time>2021-09-02T17:51:44Z</time>
   </trkpt>
   <trkpt lat="47.4114000" lon="-122.0400570">
    <ele>97.8</ele>
    <time>2021-09-02T17:51:45Z</time>
   </trkpt>
   <trkpt lat="47.4113780" lon="-122.0400220">
    <ele>97.9</ele>
    <time>2021-09-02T17:51:46Z</time>
   </trkpt>
   <trkpt lat="47.4113600" lon="-122.0399810">
    <ele>98.0</ele>
    <time>2021-09-02T17:51:47Z</time>
   </trkpt>
   <trkpt lat="47.4113140" lon="-122.0399500">
    <ele>98.1</ele>
    <time>2021-09-02T17:51:48Z</time>
   </trkpt>
   <trkpt lat="47.4112800" lon="-122.0399310">
    <ele>98.1</ele>
    <time>2021-09-02T17:51:49Z</time>
   </trkpt>
   <trkpt lat="47.4112440" lon="-122.0399020">
    <ele>98.2</ele>
    <time>2021-09-02T17:51:50Z</time>
   </trkpt>
   <trkpt lat="47.4112300" lon="-122.0398850">
    <ele>98.2</ele>
    <time>2021-09-02T17:51:51Z</time>
   </trkpt>
   <trkpt lat="47.4111940" lon="-122.0398630">
    <ele>98.2</ele>
    <time>2021-09-02T17:51:52Z</time>
   </trkpt>
   <trkpt lat="47.4111690" lon="-122.0398430">
    <ele>98.2</ele>
    <time>2021-09-02T17:51:53Z</time>
   </trkpt>
   <trkpt lat="47.4111560" lon="-122.0398350">
    <ele>98.2</ele>
    <time>2021-09-02T17:51:54Z</time>
   </trkpt>
   <trkpt lat="47.4111500" lon="-122.0398290">
    <ele>98.2</ele>
    <time>2021-09-02T17:51:55Z</time>
   </trkpt>
   <trkpt lat="47.4111370" lon="-122.0398230">
    <ele>98.2</ele>
    <time>2021-09-02T17:51:56Z</time>
   </trkpt>
  </trkseg>
 </trk>
</gpx>
