<?xml version="1.0" encoding="UTF-8"?>
<gpx creator="StravaGPX" version="1.1" xmlns="http://www.topografix.com/GPX/1/1" xmlns:xsi="http://www.w3.org/2001/XMLSchema-instance" xsi:schemaLocation="http://www.topografix.com/GPX/1/1 http://www.topografix.com/GPX/1/1/gpx.xsd">
 <metadata>
  <time>2021-09-04T23:10:31Z</time>
 </metadata>
 <trk>
  <name>Cool down walkin’</name>
  <type>walking</type>
  <trkseg>
   <trkpt lat="47.3812160" lon="-122.0462520">
    <ele>142.6</ele>
    <time>2021-09-04T23:10:31Z</time>
   </trkpt>
   <trkpt lat="47.3812090" lon="-122.0462290">
    <ele>142.6</ele>
    <time>2021-09-04T23:10:32Z</time>
   </trkpt>
   <trkpt lat="47.3812060" lon="-122.0462050">
    <ele>142.7</ele>
    <time>2021-09-04T23:10:33Z</time>
   </trkpt>
   <trkpt lat="47.3812000" lon="-122.0461830">
    <ele>142.7</ele>
    <time>2021-09-04T23:10:34Z</time>
   </trkpt>
   <trkpt lat="47.3811980" lon="-122.0461650">
    <ele>142.7</ele>
    <time>2021-09-04T23:10:35Z</time>
   </trkpt>
   <trkpt lat="47.3811940" lon="-122.0461360">
    <ele>142.7</ele>
    <time>2021-09-04T23:10:36Z</time>
   </trkpt>
   <trkpt lat="47.3811930" lon="-122.0461230">
    <ele>142.7</ele>
    <time>2021-09-04T23:10:37Z</time>
   </trkpt>
   <trkpt lat="47.3811910" lon="-122.0461110">
    <ele>142.7</ele>
    <time>2021-09-04T23:10:38Z</time>
   </trkpt>
   <trkpt lat="47.3811910" lon="-122.0460820">
    <ele>142.7</ele>
    <time>2021-09-04T23:10:39Z</time>
   </trkpt>
   <trkpt lat="47.3811860" lon="-122.0460620">
    <ele>142.7</ele>
    <time>2021-09-04T23:10:40Z</time>
   </trkpt>
   <trkpt lat="47.3811860" lon="-122.0460470">
    <ele>142.7</ele>
    <time>2021-09-04T23:10:41Z</time>
   </trkpt>
   <trkpt lat="47.3811820" lon="-122.0460290">
    <ele>142.8</ele>
    <time>2021-09-04T23:10:42Z</time>
   </trkpt>
   <trkpt lat="47.3811820" lon="-122.0460170">
    <ele>142.8</ele>
    <time>2021-09-04T23:10:43Z</time>
   </trkpt>
   <trkpt lat="47.3811780" lon="-122.0460050">
    <ele>142.8</ele>
    <time>2021-09-04T23:10:44Z</time>
   </trkpt>
   <trkpt lat="47.3811720" lon="-122.0459750">
    <ele>142.8</ele>
    <time>2021-09-04T23:10:45Z</time>
   </trkpt>
   <trkpt lat="47.3811660" lon="-122.0459570">
    <ele>142.8</ele>
    <time>2021-09-04T23:10:46Z</time>
   </trkpt>
   <trkpt lat="47.3811610" lon="-122.0459380">
    <ele>142.8</ele>
    <time>2021-09-04T23:10:47Z</time>
   </trkpt>
   <trkpt lat="47.3811590" lon="-122.0459170">
    <ele>142.9</ele>
    <time>2021-09-04T23:10:48Z</time>
   </trkpt>
   <trkpt lat="47.3811560" lon="-122.0458940">
    <ele>142.9</ele>
    <time>2021-09-04T23:10:49Z</time>
   </trkpt>
   <trkpt lat="47.3811540" lon="-122.0458730">
    <ele>142.9</ele>
    <time>2021-09-04T23:10:50Z</time>
   </trkpt>
   <trkpt lat="47.3811490" lon="-122.0458460">
    <ele>142.9</ele>
    <time>2021-09-04T23:10:51Z</time>
   </trkpt>
   <trkpt lat="47.3811470" lon="-122.0458330">
    <ele>142.9</ele>
    <time>2021-09-04T23:10:52Z</time>
   </trkpt>
   <trkpt lat="47.3811470" lon="-122.0458170">
    <ele>142.9</ele>
    <time>2021-09-04T23:10:53Z</time>
   </trkpt>
   <trkpt lat="47.3811450" lon="-122.0458020">
    <ele>143.0</ele>
    <time>2021-09-04T23:10:54Z</time>
   </trkpt>
   <trkpt lat="47.3811400" lon="-122.0457950">
    <ele>143.0</ele>
    <time>2021-09-04T23:10:55Z</time>
   </trkpt>
   <trkpt lat="47.3811330" lon="-122.0457800">
    <ele>143.0</ele>
    <time>2021-09-04T23:10:56Z</time>
   </trkpt>
   <trkpt lat="47.3811340" lon="-122.0457580">
    <ele>143.0</ele>
    <time>2021-09-04T23:10:57Z</time>
   </trkpt>
   <trkpt lat="47.3811250" lon="-122.0457370">
    <ele>143.0</ele>
    <time>2021-09-04T23:10:58Z</time>
   </trkpt>
   <trkpt lat="47.3811160" lon="-122.0457280">
    <ele>143.1</ele>
    <time>2021-09-04T23:10:59Z</time>
   </trkpt>
   <trkpt lat="47.3811100" lon="-122.0457080">
    <ele>143.1</ele>
    <time>2021-09-04T23:11:00Z</time>
   </trkpt>
   <trkpt lat="47.3811010" lon="-122.0456850">
    <ele>143.1</ele>
    <time>2021-09-04T23:11:01Z</time>
   </trkpt>
   <trkpt lat="47.3810960" lon="-122.0456720">
    <ele>143.1</ele>
    <time>2021-09-04T23:11:02Z</time>
   </trkpt>
   <trkpt lat="47.3810910" lon="-122.0456560">
    <ele>143.1</ele>
    <time>2021-09-04T23:11:03Z</time>
   </trkpt>
   <trkpt lat="47.3810880" lon="-122.0456360">
    <ele>143.2</ele>
    <time>2021-09-04T23:11:05Z</time>
   </trkpt>
   <trkpt lat="47.3810860" lon="-122.0456220">
    <ele>143.2</ele>
    <time>2021-09-04T23:11:06Z</time>
   </trkpt>
   <trkpt lat="47.3810860" lon="-122.0456050">
    <ele>143.2</ele>
    <time>2021-09-04T23:11:07Z</time>
   </trkpt>
   <trkpt lat="47.3810810" lon="-122.0455920">
    <ele>143.2</ele>
    <time>2021-09-04T23:11:08Z</time>
   </trkpt>
   <trkpt lat="47.3810800" lon="-122.0455840">
    <ele>143.2</ele>
    <time>2021-09-04T23:11:09Z</time>
   </trkpt>
   <trkpt lat="47.3810780" lon="-122.0455690">
    <ele>143.2</ele>
    <time>2021-09-04T23:11:10Z</time>
   </trkpt>
   <trkpt lat="47.3810750" lon="-122.0455510">
    <ele>143.3</ele>
    <time>2021-09-04T23:11:11Z</time>
   </trkpt>
   <trkpt lat="47.3810740" lon="-122.0455260">
    <ele>143.3</ele>
    <time>2021-09-04T23:11:12Z</time>
   </trkpt>
   <trkpt lat="47.3810770" lon="-122.0455020">
    <ele>143.3</ele>
    <time>2021-09-04T23:11:13Z</time>
   </trkpt>
   <trkpt lat="47.3810780" lon="-122.0454850">
    <ele>143.3</ele>
    <time>2021-09-04T23:11:14Z</time>
   </trkpt>
   <trkpt lat="47.3810780" lon="-122.0454650">
    <ele>143.3</ele>
    <time>2021-09-04T23:11:15Z</time>
   </trkpt>
   <trkpt lat="47.3810740" lon="-122.0454560">
    <ele>143.3</ele>
    <time>2021-09-04T23:11:16Z</time>
   </trkpt>
   <trkpt lat="47.3810670" lon="-122.0454500">
    <ele>143.3</ele>
    <time>2021-09-04T23:11:17Z</time>
   </trkpt>
   <trkpt lat="47.3810610" lon="-122.0454380">
    <ele>143.4</ele>
    <time>2021-09-04T23:11:18Z</time>
   </trkpt>
   <trkpt lat="47.3810610" lon="-122.0454190">
    <ele>143.4</ele>
    <time>2021-09-04T23:11:19Z</time>
   </trkpt>
   <trkpt lat="47.3810580" lon="-122.0454060">
    <ele>143.4</ele>
    <time>2021-09-04T23:11:20Z</time>
   </trkpt>
   <trkpt lat="47.3810510" lon="-122.0453880">
    <ele>143.4</ele>
    <time>2021-09-04T23:11:21Z</time>
   </trkpt>
   <trkpt lat="47.3810460" lon="-122.0453770">
    <ele>143.4</ele>
    <time>2021-09-04T23:11:22Z</time>
   </trkpt>
   <trkpt lat="47.3810430" lon="-122.0453530">
    <ele>143.4</ele>
    <time>2021-09-04T23:11:23Z</time>
   </trkpt>
   <trkpt lat="47.3810380" lon="-122.0453330">
    <ele>143.5</ele>
    <time>2021-09-04T23:11:24Z</time>
   </trkpt>
   <trkpt lat="47.3810350" lon="-122.0453110">
    <ele>143.5</ele>
    <time>2021-09-04T23:11:25Z</time>
   </trkpt>
   <trkpt lat="47.3810320" lon="-122.0452910">
    <ele>143.5</ele>
    <time>2021-09-04T23:11:26Z</time>
   </trkpt>
   <trkpt lat="47.3810260" lon="-122.0452790">
    <ele>143.5</ele>
    <time>2021-09-04T23:11:27Z</time>
   </trkpt>
   <trkpt lat="47.3810200" lon="-122.0452640">
    <ele>143.5</ele>
    <time>2021-09-04T23:11:28Z</time>
   </trkpt>
   <trkpt lat="47.3810160" lon="-122.0452490">
    <ele>143.5</ele>
    <time>2021-09-04T23:11:29Z</time>
   </trkpt>
   <trkpt lat="47.3810200" lon="-122.0452400">
    <ele>143.5</ele>
    <time>2021-09-04T23:11:30Z</time>
   </trkpt>
   <trkpt lat="47.3810180" lon="-122.0452230">
    <ele>143.6</ele>
    <time>2021-09-04T23:11:31Z</time>
   </trkpt>
   <trkpt lat="47.3810180" lon="-122.0452040">
    <ele>143.6</ele>
    <time>2021-09-04T23:11:32Z</time>
   </trkpt>
   <trkpt lat="47.3810200" lon="-122.0451890">
    <ele>143.6</ele>
    <time>2021-09-04T23:11:33Z</time>
   </trkpt>
   <trkpt lat="47.3810200" lon="-122.0451850">
    <ele>143.6</ele>
    <time>2021-09-04T23:11:34Z</time>
   </trkpt>
   <trkpt lat="47.3810230" lon="-122.0451750">
    <ele>143.6</ele>
    <time>2021-09-04T23:11:35Z</time>
   </trkpt>
   <trkpt lat="47.3810220" lon="-122.0451620">
    <ele>143.6</ele>
    <time>2021-09-04T23:11:36Z</time>
   </trkpt>
   <trkpt lat="47.3810190" lon="-122.0451300">
    <ele>143.6</ele>
    <time>2021-09-04T23:11:37Z</time>
   </trkpt>
   <trkpt lat="47.3810180" lon="-122.0451160">
    <ele>143.6</ele>
    <time>2021-09-04T23:11:38Z</time>
   </trkpt>
   <trkpt lat="47.3810160" lon="-122.0451030">
    <ele>143.6</ele>
    <time>2021-09-04T23:11:39Z</time>
   </trkpt>
   <trkpt lat="47.3810130" lon="-122.0450770">
    <ele>143.7</ele>
    <time>2021-09-04T23:11:40Z</time>
   </trkpt>
   <trkpt lat="47.3810130" lon="-122.0450630">
    <ele>143.7</ele>
    <time>2021-09-04T23:11:41Z</time>
   </trkpt>
   <trkpt lat="47.3810120" lon="-122.0450480">
    <ele>143.7</ele>
    <time>2021-09-04T23:11:42Z</time>
   </trkpt>
   <trkpt lat="47.3810100" lon="-122.0450320">
    <ele>143.7</ele>
    <time>2021-09-04T23:11:43Z</time>
   </trkpt>
   <trkpt lat="47.3810100" lon="-122.0450210">
    <ele>143.7</ele>
    <time>2021-09-04T23:11:44Z</time>
   </trkpt>
   <trkpt lat="47.3810030" lon="-122.0450010">
    <ele>143.7</ele>
    <time>2021-09-04T23:11:45Z</time>
   </trkpt>
   <trkpt lat="47.3809970" lon="-122.0449690">
    <ele>143.8</ele>
    <time>2021-09-04T23:11:46Z</time>
   </trkpt>
   <trkpt lat="47.3809950" lon="-122.0449570">
    <ele>143.8</ele>
    <time>2021-09-04T23:11:47Z</time>
   </trkpt>
   <trkpt lat="47.3809940" lon="-122.0449450">
    <ele>143.8</ele>
    <time>2021-09-04T23:11:48Z</time>
   </trkpt>
   <trkpt lat="47.3809910" lon="-122.0449250">
    <ele>143.8</ele>
    <time>2021-09-04T23:11:49Z</time>
   </trkpt>
   <trkpt lat="47.3809930" lon="-122.0449140">
    <ele>143.8</ele>
    <time>2021-09-04T23:11:50Z</time>
   </trkpt>
   <trkpt lat="47.3809860" lon="-122.0448990">
    <ele>143.8</ele>
    <time>2021-09-04T23:11:51Z</time>
   </trkpt>
   <trkpt lat="47.3809830" lon="-122.0448820">
    <ele>143.8</ele>
    <time>2021-09-04T23:11:52Z</time>
   </trkpt>
   <trkpt lat="47.3809760" lon="-122.0448790">
    <ele>143.8</ele>
    <time>2021-09-04T23:11:53Z</time>
   </trkpt>
   <trkpt lat="47.3809680" lon="-122.0448610">
    <ele>143.9</ele>
    <time>2021-09-04T23:11:54Z</time>
   </trkpt>
   <trkpt lat="47.3809610" lon="-122.0448410">
    <ele>143.9</ele>
    <time>2021-09-04T23:11:55Z</time>
   </trkpt>
   <trkpt lat="47.3809590" lon="-122.0448160">
    <ele>143.9</ele>
    <time>2021-09-04T23:11:56Z</time>
   </trkpt>
   <trkpt lat="47.3809560" lon="-122.0447970">
    <ele>143.9</ele>
    <time>2021-09-04T23:11:57Z</time>
   </trkpt>
   <trkpt lat="47.3809570" lon="-122.0447820">
    <ele>143.9</ele>
    <time>2021-09-04T23:11:58Z</time>
   </trkpt>
   <trkpt lat="47.3809590" lon="-122.0447620">
    <ele>143.9</ele>
    <time>2021-09-04T23:11:59Z</time>
   </trkpt>
   <trkpt lat="47.3809540" lon="-122.0447240">
    <ele>144.0</ele>
    <time>2021-09-04T23:12:00Z</time>
   </trkpt>
   <trkpt lat="47.3809540" lon="-122.0447000">
    <ele>144.0</ele>
    <time>2021-09-04T23:12:01Z</time>
   </trkpt>
   <trkpt lat="47.3809540" lon="-122.0446760">
    <ele>144.0</ele>
    <time>2021-09-04T23:12:02Z</time>
   </trkpt>
   <trkpt lat="47.3809500" lon="-122.0446530">
    <ele>144.0</ele>
    <time>2021-09-04T23:12:03Z</time>
   </trkpt>
   <trkpt lat="47.3809470" lon="-122.0446430">
    <ele>144.0</ele>
    <time>2021-09-04T23:12:04Z</time>
   </trkpt>
   <trkpt lat="47.3809430" lon="-122.0446120">
    <ele>144.1</ele>
    <time>2021-09-04T23:12:05Z</time>
   </trkpt>
   <trkpt lat="47.3809400" lon="-122.0445960">
    <ele>144.1</ele>
    <time>2021-09-04T23:12:07Z</time>
   </trkpt>
   <trkpt lat="47.3809360" lon="-122.0445790">
    <ele>144.1</ele>
    <time>2021-09-04T23:12:08Z</time>
   </trkpt>
   <trkpt lat="47.3809330" lon="-122.0445630">
    <ele>144.1</ele>
    <time>2021-09-04T23:12:09Z</time>
   </trkpt>
   <trkpt lat="47.3809290" lon="-122.0445460">
    <ele>144.1</ele>
    <time>2021-09-04T23:12:10Z</time>
   </trkpt>
   <trkpt lat="47.3809300" lon="-122.0445320">
    <ele>144.1</ele>
    <time>2021-09-04T23:12:11Z</time>
   </trkpt>
   <trkpt lat="47.3809270" lon="-122.0445090">
    <ele>144.2</ele>
    <time>2021-09-04T23:12:12Z</time>
   </trkpt>
   <trkpt lat="47.3809290" lon="-122.0444940">
    <ele>144.2</ele>
    <time>2021-09-04T23:12:13Z</time>
   </trkpt>
   <trkpt lat="47.3809320" lon="-122.0444780">
    <ele>144.2</ele>
    <time>2021-09-04T23:12:14Z</time>
   </trkpt>
   <trkpt lat="47.3809360" lon="-122.0444630">
    <ele>144.2</ele>
    <time>2021-09-04T23:12:15Z</time>
   </trkpt>
   <trkpt lat="47.3809380" lon="-122.0444500">
    <ele>144.2</ele>
    <time>2021-09-04T23:12:16Z</time>
   </trkpt>
   <trkpt lat="47.3809390" lon="-122.0444370">
    <ele>144.2</ele>
    <time>2021-09-04T23:12:17Z</time>
   </trkpt>
   <trkpt lat="47.3809360" lon="-122.0444130">
    <ele>144.3</ele>
    <time>2021-09-04T23:12:18Z</time>
   </trkpt>
   <trkpt lat="47.3809360" lon="-122.0443980">
    <ele>144.3</ele>
    <time>2021-09-04T23:12:19Z</time>
   </trkpt>
   <trkpt lat="47.3809360" lon="-122.0443810">
    <ele>144.3</ele>
    <time>2021-09-04T23:12:20Z</time>
   </trkpt>
   <trkpt lat="47.3809370" lon="-122.0443710">
    <ele>144.3</ele>
    <time>2021-09-04T23:12:21Z</time>
   </trkpt>
   <trkpt lat="47.3809360" lon="-122.0443560">
    <ele>144.3</ele>
    <time>2021-09-04T23:12:22Z</time>
   </trkpt>
   <trkpt lat="47.3809320" lon="-122.0443460">
    <ele>144.3</ele>
    <time>2021-09-04T23:12:23Z</time>
   </trkpt>
   <trkpt lat="47.3809280" lon="-122.0443280">
    <ele>144.3</ele>
    <time>2021-09-04T23:12:24Z</time>
   </trkpt>
   <trkpt lat="47.3809240" lon="-122.0443140">
    <ele>144.4</ele>
    <time>2021-09-04T23:12:25Z</time>
   </trkpt>
   <trkpt lat="47.3809300" lon="-122.0442870">
    <ele>144.4</ele>
    <time>2021-09-04T23:12:26Z</time>
   </trkpt>
   <trkpt lat="47.3809340" lon="-122.0442730">
    <ele>144.4</ele>
    <time>2021-09-04T23:12:27Z</time>
   </trkpt>
   <trkpt lat="47.3809370" lon="-122.0442600">
    <ele>144.4</ele>
    <time>2021-09-04T23:12:28Z</time>
   </trkpt>
   <trkpt lat="47.3809440" lon="-122.0442440">
    <ele>144.5</ele>
    <time>2021-09-04T23:12:29Z</time>
   </trkpt>
   <trkpt lat="47.3809440" lon="-122.0442240">
    <ele>144.5</ele>
    <time>2021-09-04T23:12:30Z</time>
   </trkpt>
   <trkpt lat="47.3809460" lon="-122.0442130">
    <ele>144.5</ele>
    <time>2021-09-04T23:12:31Z</time>
   </trkpt>
   <trkpt lat="47.3809470" lon="-122.0442000">
    <ele>144.5</ele>
    <time>2021-09-04T23:12:32Z</time>
   </trkpt>
   <trkpt lat="47.3809420" lon="-122.0441840">
    <ele>144.5</ele>
    <time>2021-09-04T23:12:33Z</time>
   </trkpt>
   <trkpt lat="47.3809450" lon="-122.0441720">
    <ele>144.5</ele>
    <time>2021-09-04T23:12:34Z</time>
   </trkpt>
   <trkpt lat="47.3809500" lon="-122.0441440">
    <ele>144.6</ele>
    <time>2021-09-04T23:12:35Z</time>
   </trkpt>
   <trkpt lat="47.3809510" lon="-122.0441300">
    <ele>144.6</ele>
    <time>2021-09-04T23:12:36Z</time>
   </trkpt>
   <trkpt lat="47.3809520" lon="-122.0441170">
    <ele>144.6</ele>
    <time>2021-09-04T23:12:37Z</time>
   </trkpt>
   <trkpt lat="47.3809550" lon="-122.0440980">
    <ele>144.6</ele>
    <time>2021-09-04T23:12:38Z</time>
   </trkpt>
   <trkpt lat="47.3809560" lon="-122.0440850">
    <ele>144.6</ele>
    <time>2021-09-04T23:12:39Z</time>
   </trkpt>
   <trkpt lat="47.3809580" lon="-122.0440730">
    <ele>144.6</ele>
    <time>2021-09-04T23:12:40Z</time>
   </trkpt>
   <trkpt lat="47.3809590" lon="-122.0440600">
    <ele>144.7</ele>
    <time>2021-09-04T23:12:41Z</time>
   </trkpt>
   <trkpt lat="47.3809520" lon="-122.0440280">
    <ele>144.7</ele>
    <time>2021-09-04T23:12:42Z</time>
   </trkpt>
   <trkpt lat="47.3809530" lon="-122.0440160">
    <ele>144.7</ele>
    <time>2021-09-04T23:12:43Z</time>
   </trkpt>
   <trkpt lat="47.3809530" lon="-122.0440050">
    <ele>144.7</ele>
    <time>2021-09-04T23:12:44Z</time>
   </trkpt>
   <trkpt lat="47.3809490" lon="-122.0439840">
    <ele>144.7</ele>
    <time>2021-09-04T23:12:45Z</time>
   </trkpt>
   <trkpt lat="47.3809440" lon="-122.0439730">
    <ele>144.7</ele>
    <time>2021-09-04T23:12:46Z</time>
   </trkpt>
   <trkpt lat="47.3809360" lon="-122.0439580">
    <ele>144.8</ele>
    <time>2021-09-04T23:12:47Z</time>
   </trkpt>
   <trkpt lat="47.3809380" lon="-122.0439230">
    <ele>144.8</ele>
    <time>2021-09-04T23:12:48Z</time>
   </trkpt>
   <trkpt lat="47.3809370" lon="-122.0439030">
    <ele>144.8</ele>
    <time>2021-09-04T23:12:49Z</time>
   </trkpt>
   <trkpt lat="47.3809380" lon="-122.0438840">
    <ele>144.8</ele>
    <time>2021-09-04T23:12:50Z</time>
   </trkpt>
   <trkpt lat="47.3809380" lon="-122.0438790">
    <ele>144.8</ele>
    <time>2021-09-04T23:12:51Z</time>
   </trkpt>
   <trkpt lat="47.3809390" lon="-122.0438580">
    <ele>144.8</ele>
    <time>2021-09-04T23:12:52Z</time>
   </trkpt>
   <trkpt lat="47.3809380" lon="-122.0438500">
    <ele>144.8</ele>
    <time>2021-09-04T23:12:53Z</time>
   </trkpt>
   <trkpt lat="47.3809400" lon="-122.0438380">
    <ele>144.9</ele>
    <time>2021-09-04T23:12:54Z</time>
   </trkpt>
   <trkpt lat="47.3809400" lon="-122.0438330">
    <ele>144.9</ele>
    <time>2021-09-04T23:12:55Z</time>
   </trkpt>
   <trkpt lat="47.3809360" lon="-122.0438070">
    <ele>144.9</ele>
    <time>2021-09-04T23:12:56Z</time>
   </trkpt>
   <trkpt lat="47.3809340" lon="-122.0437880">
    <ele>144.9</ele>
    <time>2021-09-04T23:12:57Z</time>
   </trkpt>
   <trkpt lat="47.3809370" lon="-122.0437800">
    <ele>144.9</ele>
    <time>2021-09-04T23:12:58Z</time>
   </trkpt>
   <trkpt lat="47.3809390" lon="-122.0437730">
    <ele>144.9</ele>
    <time>2021-09-04T23:12:59Z</time>
   </trkpt>
   <trkpt lat="47.3809390" lon="-122.0437600">
    <ele>144.9</ele>
    <time>2021-09-04T23:13:00Z</time>
   </trkpt>
   <trkpt lat="47.3809460" lon="-122.0437420">
    <ele>144.9</ele>
    <time>2021-09-04T23:13:01Z</time>
   </trkpt>
   <trkpt lat="47.3809540" lon="-122.0437270">
    <ele>145.0</ele>
    <time>2021-09-04T23:13:02Z</time>
   </trkpt>
   <trkpt lat="47.3809610" lon="-122.0436900">
    <ele>145.0</ele>
    <time>2021-09-04T23:13:03Z</time>
   </trkpt>
   <trkpt lat="47.3809630" lon="-122.0436800">
    <ele>145.0</ele>
    <time>2021-09-04T23:13:04Z</time>
   </trkpt>
   <trkpt lat="47.3809660" lon="-122.0436700">
    <ele>145.0</ele>
    <time>2021-09-04T23:13:05Z</time>
   </trkpt>
   <trkpt lat="47.3809740" lon="-122.0436640">
    <ele>145.0</ele>
    <time>2021-09-04T23:13:06Z</time>
   </trkpt>
   <trkpt lat="47.3809760" lon="-122.0436530">
    <ele>145.0</ele>
    <time>2021-09-04T23:13:07Z</time>
   </trkpt>
   <trkpt lat="47.3809760" lon="-122.0436400">
    <ele>145.0</ele>
    <time>2021-09-04T23:13:08Z</time>
   </trkpt>
   <trkpt lat="47.3809780" lon="-122.0436240">
    <ele>145.0</ele>
    <time>2021-09-04T23:13:09Z</time>
   </trkpt>
   <trkpt lat="47.3809770" lon="-122.0436090">
    <ele>145.1</ele>
    <time>2021-09-04T23:13:10Z</time>
   </trkpt>
   <trkpt lat="47.3809770" lon="-122.0435910">
    <ele>145.1</ele>
    <time>2021-09-04T23:13:11Z</time>
   </trkpt>
   <trkpt lat="47.3809760" lon="-122.0435780">
    <ele>145.1</ele>
    <time>2021-09-04T23:13:12Z</time>
   </trkpt>
   <trkpt lat="47.3809710" lon="-122.0435690">
    <ele>145.1</ele>
    <time>2021-09-04T23:13:13Z</time>
   </trkpt>
   <trkpt lat="47.3809700" lon="-122.0435570">
    <ele>145.1</ele>
    <time>2021-09-04T23:13:14Z</time>
   </trkpt>
   <trkpt lat="47.3809680" lon="-122.0435350">
    <ele>145.1</ele>
    <time>2021-09-04T23:13:15Z</time>
   </trkpt>
   <trkpt lat="47.3809680" lon="-122.0435110">
    <ele>145.1</ele>
    <time>2021-09-04T23:13:16Z</time>
   </trkpt>
   <trkpt lat="47.3809740" lon="-122.0434900">
    <ele>145.2</ele>
    <time>2021-09-04T23:13:17Z</time>
   </trkpt>
   <trkpt lat="47.3809750" lon="-122.0434630">
    <ele>145.2</ele>
    <time>2021-09-04T23:13:18Z</time>
   </trkpt>
   <trkpt lat="47.3809730" lon="-122.0434490">
    <ele>145.2</ele>
    <time>2021-09-04T23:13:19Z</time>
   </trkpt>
   <trkpt lat="47.3809720" lon="-122.0434360">
    <ele>145.2</ele>
    <time>2021-09-04T23:13:20Z</time>
   </trkpt>
   <trkpt lat="47.3809740" lon="-122.0434240">
    <ele>145.2</ele>
    <time>2021-09-04T23:13:21Z</time>
   </trkpt>
   <trkpt lat="47.3809570" lon="-122.0434140">
    <ele>145.2</ele>
    <time>2021-09-04T23:13:22Z</time>
   </trkpt>
   <trkpt lat="47.3809560" lon="-122.0433930">
    <ele>145.3</ele>
    <time>2021-09-04T23:13:23Z</time>
   </trkpt>
   <trkpt lat="47.3809570" lon="-122.0433770">
    <ele>145.3</ele>
    <time>2021-09-04T23:13:24Z</time>
   </trkpt>
   <trkpt lat="47.3809620" lon="-122.0433660">
    <ele>145.3</ele>
    <time>2021-09-04T23:13:25Z</time>
   </trkpt>
   <trkpt lat="47.3809660" lon="-122.0433480">
    <ele>145.3</ele>
    <time>2021-09-04T23:13:26Z</time>
   </trkpt>
   <trkpt lat="47.3809690" lon="-122.0433220">
    <ele>145.3</ele>
    <time>2021-09-04T23:13:27Z</time>
   </trkpt>
   <trkpt lat="47.3809700" lon="-122.0433070">
    <ele>145.3</ele>
    <time>2021-09-04T23:13:28Z</time>
   </trkpt>
   <trkpt lat="47.3809710" lon="-122.0432930">
    <ele>145.4</ele>
    <time>2021-09-04T23:13:29Z</time>
   </trkpt>
   <trkpt lat="47.3809720" lon="-122.0432470">
    <ele>145.4</ele>
    <time>2021-09-04T23:13:30Z</time>
   </trkpt>
   <trkpt lat="47.3809730" lon="-122.0432320">
    <ele>145.4</ele>
    <time>2021-09-04T23:13:31Z</time>
   </trkpt>
   <trkpt lat="47.3809670" lon="-122.0432000">
    <ele>145.4</ele>
    <time>2021-09-04T23:13:32Z</time>
   </trkpt>
   <trkpt lat="47.3809640" lon="-122.0431850">
    <ele>145.4</ele>
    <time>2021-09-04T23:13:33Z</time>
   </trkpt>
   <trkpt lat="47.3809610" lon="-122.0431710">
    <ele>145.4</ele>
    <time>2021-09-04T23:13:34Z</time>
   </trkpt>
   <trkpt lat="47.3809560" lon="-122.0431370">
    <ele>145.5</ele>
    <time>2021-09-04T23:13:35Z</time>
   </trkpt>
   <trkpt lat="47.3809570" lon="-122.0431200">
    <ele>145.5</ele>
    <time>2021-09-04T23:13:36Z</time>
   </trkpt>
   <trkpt lat="47.3809560" lon="-122.0431130">
    <ele>145.5</ele>
    <time>2021-09-04T23:13:37Z</time>
   </trkpt>
   <trkpt lat="47.3809550" lon="-122.0431030">
    <ele>145.5</ele>
    <time>2021-09-04T23:13:38Z</time>
   </trkpt>
   <trkpt lat="47.3809580" lon="-122.0430940">
    <ele>145.5</ele>
    <time>2021-09-04T23:13:39Z</time>
   </trkpt>
   <trkpt lat="47.3809580" lon="-122.0430770">
    <ele>145.5</ele>
    <time>2021-09-04T23:13:40Z</time>
   </trkpt>
   <trkpt lat="47.3809560" lon="-122.0430620">
    <ele>145.5</ele>
    <time>2021-09-04T23:13:41Z</time>
   </trkpt>
   <trkpt lat="47.3809530" lon="-122.0430550">
    <ele>145.5</ele>
    <time>2021-09-04T23:13:42Z</time>
   </trkpt>
   <trkpt lat="47.3809540" lon="-122.0430400">
    <ele>145.5</ele>
    <time>2021-09-04T23:13:43Z</time>
   </trkpt>
   <trkpt lat="47.3809570" lon="-122.0430290">
    <ele>145.5</ele>
    <time>2021-09-04T23:13:44Z</time>
   </trkpt>
   <trkpt lat="47.3809520" lon="-122.0430110">
    <ele>145.5</ele>
    <time>2021-09-04T23:13:45Z</time>
   </trkpt>
   <trkpt lat="47.3809510" lon="-122.0430020">
    <ele>145.5</ele>
    <time>2021-09-04T23:13:46Z</time>
   </trkpt>
   <trkpt lat="47.3809500" lon="-122.0429940">
    <ele>145.5</ele>
    <time>2021-09-04T23:13:47Z</time>
   </trkpt>
   <trkpt lat="47.3809500" lon="-122.0429780">
    <ele>145.5</ele>
    <time>2021-09-04T23:13:48Z</time>
   </trkpt>
   <trkpt lat="47.3809510" lon="-122.0429660">
    <ele>145.5</ele>
    <time>2021-09-04T23:13:49Z</time>
   </trkpt>
   <trkpt lat="47.3809520" lon="-122.0429460">
    <ele>145.5</ele>
    <time>2021-09-04T23:13:50Z</time>
   </trkpt>
   <trkpt lat="47.3809520" lon="-122.0429280">
    <ele>145.5</ele>
    <time>2021-09-04T23:13:51Z</time>
   </trkpt>
   <trkpt lat="47.3809530" lon="-122.0429080">
    <ele>145.6</ele>
    <time>2021-09-04T23:13:52Z</time>
   </trkpt>
   <trkpt lat="47.3809580" lon="-122.0428820">
    <ele>145.6</ele>
    <time>2021-09-04T23:13:53Z</time>
   </trkpt>
   <trkpt lat="47.3809560" lon="-122.0428410">
    <ele>145.6</ele>
    <time>2021-09-04T23:13:54Z</time>
   </trkpt>
   <trkpt lat="47.3809570" lon="-122.0428240">
    <ele>145.6</ele>
    <time>2021-09-04T23:13:55Z</time>
   </trkpt>
   <trkpt lat="47.3809570" lon="-122.0427970">
    <ele>145.6</ele>
    <time>2021-09-04T23:13:56Z</time>
   </trkpt>
   <trkpt lat="47.3809600" lon="-122.0427750">
    <ele>145.6</ele>
    <time>2021-09-04T23:13:57Z</time>
   </trkpt>
   <trkpt lat="47.3809580" lon="-122.0427640">
    <ele>145.6</ele>
    <time>2021-09-04T23:13:58Z</time>
   </trkpt>
   <trkpt lat="47.3809550" lon="-122.0427450">
    <ele>145.6</ele>
    <time>2021-09-04T23:13:59Z</time>
   </trkpt>
   <trkpt lat="47.3809580" lon="-122.0427300">
    <ele>145.6</ele>
    <time>2021-09-04T23:14:00Z</time>
   </trkpt>
   <trkpt lat="47.3809570" lon="-122.0427030">
    <ele>145.6</ele>
    <time>2021-09-04T23:14:01Z</time>
   </trkpt>
   <trkpt lat="47.3809590" lon="-122.0426930">
    <ele>145.6</ele>
    <time>2021-09-04T23:14:02Z</time>
   </trkpt>
   <trkpt lat="47.3809640" lon="-122.0426800">
    <ele>145.6</ele>
    <time>2021-09-04T23:14:03Z</time>
   </trkpt>
   <trkpt lat="47.3809540" lon="-122.0426560">
    <ele>145.7</ele>
    <time>2021-09-04T23:14:04Z</time>
   </trkpt>
   <trkpt lat="47.3809490" lon="-122.0426420">
    <ele>145.7</ele>
    <time>2021-09-04T23:14:05Z</time>
   </trkpt>
   <trkpt lat="47.3809440" lon="-122.0426280">
    <ele>145.7</ele>
    <time>2021-09-04T23:14:06Z</time>
   </trkpt>
   <trkpt lat="47.3809370" lon="-122.0426060">
    <ele>145.7</ele>
    <time>2021-09-04T23:14:07Z</time>
   </trkpt>
   <trkpt lat="47.3809410" lon="-122.0425880">
    <ele>145.7</ele>
    <time>2021-09-04T23:14:08Z</time>
   </trkpt>
   <trkpt lat="47.3809530" lon="-122.0425530">
    <ele>145.7</ele>
    <time>2021-09-04T23:14:09Z</time>
   </trkpt>
   <trkpt lat="47.3809570" lon="-122.0425440">
    <ele>145.7</ele>
    <time>2021-09-04T23:14:10Z</time>
   </trkpt>
   <trkpt lat="47.3809600" lon="-122.0425340">
    <ele>145.7</ele>
    <time>2021-09-04T23:14:11Z</time>
   </trkpt>
   <trkpt lat="47.3809640" lon="-122.0425270">
    <ele>145.7</ele>
    <time>2021-09-04T23:14:12Z</time>
   </trkpt>
   <trkpt lat="47.3809640" lon="-122.0425190">
    <ele>145.7</ele>
    <time>2021-09-04T23:14:13Z</time>
   </trkpt>
   <trkpt lat="47.3809620" lon="-122.0425140">
    <ele>145.7</ele>
    <time>2021-09-04T23:14:14Z</time>
   </trkpt>
   <trkpt lat="47.3809600" lon="-122.0424960">
    <ele>145.7</ele>
    <time>2021-09-04T23:14:15Z</time>
   </trkpt>
   <trkpt lat="47.3809590" lon="-122.0424810">
    <ele>145.7</ele>
    <time>2021-09-04T23:14:16Z</time>
   </trkpt>
   <trkpt lat="47.3809650" lon="-122.0424520">
    <ele>145.7</ele>
    <time>2021-09-04T23:14:17Z</time>
   </trkpt>
   <trkpt lat="47.3809630" lon="-122.0424380">
    <ele>145.8</ele>
    <time>2021-09-04T23:14:18Z</time>
   </trkpt>
   <trkpt lat="47.3809600" lon="-122.0424240">
    <ele>145.8</ele>
    <time>2021-09-04T23:14:19Z</time>
   </trkpt>
   <trkpt lat="47.3809580" lon="-122.0424080">
    <ele>145.8</ele>
    <time>2021-09-04T23:14:20Z</time>
   </trkpt>
   <trkpt lat="47.3809580" lon="-122.0423970">
    <ele>145.8</ele>
    <time>2021-09-04T23:14:21Z</time>
   </trkpt>
   <trkpt lat="47.3809590" lon="-122.0423870">
    <ele>145.8</ele>
    <time>2021-09-04T23:14:22Z</time>
   </trkpt>
   <trkpt lat="47.3809590" lon="-122.0423760">
    <ele>145.8</ele>
    <time>2021-09-04T23:14:23Z</time>
   </trkpt>
   <trkpt lat="47.3809590" lon="-122.0423650">
    <ele>145.8</ele>
    <time>2021-09-04T23:14:24Z</time>
   </trkpt>
   <trkpt lat="47.3809610" lon="-122.0423410">
    <ele>145.8</ele>
    <time>2021-09-04T23:14:25Z</time>
   </trkpt>
   <trkpt lat="47.3809630" lon="-122.0423190">
    <ele>145.9</ele>
    <time>2021-09-04T23:14:26Z</time>
   </trkpt>
   <trkpt lat="47.3809650" lon="-122.0423070">
    <ele>145.9</ele>
    <time>2021-09-04T23:14:27Z</time>
   </trkpt>
   <trkpt lat="47.3809680" lon="-122.0422990">
    <ele>145.9</ele>
    <time>2021-09-04T23:14:28Z</time>
   </trkpt>
   <trkpt lat="47.3809720" lon="-122.0422950">
    <ele>145.9</ele>
    <time>2021-09-04T23:14:29Z</time>
   </trkpt>
   <trkpt lat="47.3809770" lon="-122.0422840">
    <ele>145.9</ele>
    <time>2021-09-04T23:14:30Z</time>
   </trkpt>
   <trkpt lat="47.3809800" lon="-122.0422710">
    <ele>145.9</ele>
    <time>2021-09-04T23:14:31Z</time>
   </trkpt>
   <trkpt lat="47.3809820" lon="-122.0422560">
    <ele>145.9</ele>
    <time>2021-09-04T23:14:32Z</time>
   </trkpt>
   <trkpt lat="47.3809780" lon="-122.0422430">
    <ele>145.9</ele>
    <time>2021-09-04T23:14:33Z</time>
   </trkpt>
   <trkpt lat="47.3809770" lon="-122.0422240">
    <ele>145.9</ele>
    <time>2021-09-04T23:14:34Z</time>
   </trkpt>
   <trkpt lat="47.3809770" lon="-122.0422040">
    <ele>146.0</ele>
    <time>2021-09-04T23:14:35Z</time>
   </trkpt>
   <trkpt lat="47.3809730" lon="-122.0421910">
    <ele>146.0</ele>
    <time>2021-09-04T23:14:36Z</time>
   </trkpt>
   <trkpt lat="47.3809770" lon="-122.0421670">
    <ele>146.0</ele>
    <time>2021-09-04T23:14:37Z</time>
   </trkpt>
   <trkpt lat="47.3809670" lon="-122.0421470">
    <ele>146.0</ele>
    <time>2021-09-04T23:14:38Z</time>
   </trkpt>
   <trkpt lat="47.3809690" lon="-122.0421240">
    <ele>146.0</ele>
    <time>2021-09-04T23:14:39Z</time>
   </trkpt>
   <trkpt lat="47.3809650" lon="-122.0421130">
    <ele>146.0</ele>
    <time>2021-09-04T23:14:40Z</time>
   </trkpt>
   <trkpt lat="47.3809610" lon="-122.0420940">
    <ele>146.0</ele>
    <time>2021-09-04T23:14:41Z</time>
   </trkpt>
   <trkpt lat="47.3809580" lon="-122.0420840">
    <ele>146.1</ele>
    <time>2021-09-04T23:14:42Z</time>
   </trkpt>
   <trkpt lat="47.3809600" lon="-122.0420740">
    <ele>146.1</ele>
    <time>2021-09-04T23:14:43Z</time>
   </trkpt>
   <trkpt lat="47.3809590" lon="-122.0420570">
    <ele>146.1</ele>
    <time>2021-09-04T23:14:44Z</time>
   </trkpt>
   <trkpt lat="47.3809580" lon="-122.0420450">
    <ele>146.1</ele>
    <time>2021-09-04T23:14:45Z</time>
   </trkpt>
   <trkpt lat="47.3809530" lon="-122.0420390">
    <ele>146.1</ele>
    <time>2021-09-04T23:14:46Z</time>
   </trkpt>
   <trkpt lat="47.3809490" lon="-122.0420250">
    <ele>146.1</ele>
    <time>2021-09-04T23:14:47Z</time>
   </trkpt>
   <trkpt lat="47.3809500" lon="-122.0420150">
    <ele>146.1</ele>
    <time>2021-09-04T23:14:48Z</time>
   </trkpt>
   <trkpt lat="47.3809490" lon="-122.0420010">
    <ele>146.1</ele>
    <time>2021-09-04T23:14:49Z</time>
   </trkpt>
   <trkpt lat="47.3809510" lon="-122.0419820">
    <ele>146.1</ele>
    <time>2021-09-04T23:14:50Z</time>
   </trkpt>
   <trkpt lat="47.3809580" lon="-122.0419760">
    <ele>146.2</ele>
    <time>2021-09-04T23:14:51Z</time>
   </trkpt>
   <trkpt lat="47.3809620" lon="-122.0419660">
    <ele>146.2</ele>
    <time>2021-09-04T23:14:52Z</time>
   </trkpt>
   <trkpt lat="47.3809590" lon="-122.0419590">
    <ele>146.2</ele>
    <time>2021-09-04T23:14:53Z</time>
   </trkpt>
   <trkpt lat="47.3809570" lon="-122.0419510">
    <ele>146.2</ele>
    <time>2021-09-04T23:14:54Z</time>
   </trkpt>
   <trkpt lat="47.3809570" lon="-122.0419310">
    <ele>146.2</ele>
    <time>2021-09-04T23:14:55Z</time>
   </trkpt>
   <trkpt lat="47.3809490" lon="-122.0419160">
    <ele>146.2</ele>
    <time>2021-09-04T23:14:56Z</time>
   </trkpt>
   <trkpt lat="47.3809480" lon="-122.0419020">
    <ele>146.2</ele>
    <time>2021-09-04T23:14:57Z</time>
   </trkpt>
   <trkpt lat="47.3809490" lon="-122.0418900">
    <ele>146.2</ele>
    <time>2021-09-04T23:14:58Z</time>
   </trkpt>
   <trkpt lat="47.3809410" lon="-122.0418770">
    <ele>146.2</ele>
    <time>2021-09-04T23:14:59Z</time>
   </trkpt>
   <trkpt lat="47.3809390" lon="-122.0418550">
    <ele>146.3</ele>
    <time>2021-09-04T23:15:00Z</time>
   </trkpt>
   <trkpt lat="47.3809290" lon="-122.0418350">
    <ele>146.3</ele>
    <time>2021-09-04T23:15:01Z</time>
   </trkpt>
   <trkpt lat="47.3809290" lon="-122.0418070">
    <ele>146.3</ele>
    <time>2021-09-04T23:15:02Z</time>
   </trkpt>
   <trkpt lat="47.3809200" lon="-122.0417900">
    <ele>146.3</ele>
    <time>2021-09-04T23:15:03Z</time>
   </trkpt>
   <trkpt lat="47.3809190" lon="-122.0417740">
    <ele>146.3</ele>
    <time>2021-09-04T23:15:04Z</time>
   </trkpt>
   <trkpt lat="47.3809130" lon="-122.0417550">
    <ele>146.3</ele>
    <time>2021-09-04T23:15:05Z</time>
   </trkpt>
   <trkpt lat="47.3809070" lon="-122.0417410">
    <ele>146.4</ele>
    <time>2021-09-04T23:15:06Z</time>
   </trkpt>
   <trkpt lat="47.3809040" lon="-122.0417170">
    <ele>146.4</ele>
    <time>2021-09-04T23:15:07Z</time>
   </trkpt>
   <trkpt lat="47.3809060" lon="-122.0417050">
    <ele>146.4</ele>
    <time>2021-09-04T23:15:08Z</time>
   </trkpt>
   <trkpt lat="47.3809070" lon="-122.0416930">
    <ele>146.4</ele>
    <time>2021-09-04T23:15:09Z</time>
   </trkpt>
   <trkpt lat="47.3809080" lon="-122.0416810">
    <ele>146.4</ele>
    <time>2021-09-04T23:15:10Z</time>
   </trkpt>
   <trkpt lat="47.3809080" lon="-122.0416430">
    <ele>146.4</ele>
    <time>2021-09-04T23:15:11Z</time>
   </trkpt>
   <trkpt lat="47.3809150" lon="-122.0416290">
    <ele>146.4</ele>
    <time>2021-09-04T23:15:12Z</time>
   </trkpt>
   <trkpt lat="47.3809170" lon="-122.0416110">
    <ele>146.4</ele>
    <time>2021-09-04T23:15:13Z</time>
   </trkpt>
   <trkpt lat="47.3809210" lon="-122.0415820">
    <ele>146.5</ele>
    <time>2021-09-04T23:15:14Z</time>
   </trkpt>
   <trkpt lat="47.3809250" lon="-122.0415650">
    <ele>146.5</ele>
    <time>2021-09-04T23:15:15Z</time>
   </trkpt>
   <trkpt lat="47.3809170" lon="-122.0415390">
    <ele>146.5</ele>
    <time>2021-09-04T23:15:16Z</time>
   </trkpt>
   <trkpt lat="47.3809200" lon="-122.0415030">
    <ele>146.5</ele>
    <time>2021-09-04T23:15:17Z</time>
   </trkpt>
   <trkpt lat="47.3809200" lon="-122.0414900">
    <ele>146.5</ele>
    <time>2021-09-04T23:15:18Z</time>
   </trkpt>
   <trkpt lat="47.3809200" lon="-122.0414760">
    <ele>146.5</ele>
    <time>2021-09-04T23:15:19Z</time>
   </trkpt>
   <trkpt lat="47.3809220" lon="-122.0414640">
    <ele>146.5</ele>
    <time>2021-09-04T23:15:20Z</time>
   </trkpt>
   <trkpt lat="47.3809250" lon="-122.0414610">
    <ele>146.5</ele>
    <time>2021-09-04T23:15:21Z</time>
   </trkpt>
   <trkpt lat="47.3809260" lon="-122.0414480">
    <ele>146.5</ele>
    <time>2021-09-04T23:15:22Z</time>
   </trkpt>
   <trkpt lat="47.3809220" lon="-122.0414360">
    <ele>146.6</ele>
    <time>2021-09-04T23:15:23Z</time>
   </trkpt>
   <trkpt lat="47.3809160" lon="-122.0414130">
    <ele>146.6</ele>
    <time>2021-09-04T23:15:24Z</time>
   </trkpt>
   <trkpt lat="47.3809090" lon="-122.0413950">
    <ele>146.6</ele>
    <time>2021-09-04T23:15:25Z</time>
   </trkpt>
   <trkpt lat="47.3809050" lon="-122.0413650">
    <ele>146.6</ele>
    <time>2021-09-04T23:15:26Z</time>
   </trkpt>
   <trkpt lat="47.3809040" lon="-122.0413480">
    <ele>146.6</ele>
    <time>2021-09-04T23:15:27Z</time>
   </trkpt>
   <trkpt lat="47.3809040" lon="-122.0413320">
    <ele>146.6</ele>
    <time>2021-09-04T23:15:28Z</time>
   </trkpt>
   <trkpt lat="47.3808940" lon="-122.0412990">
    <ele>146.6</ele>
    <time>2021-09-04T23:15:29Z</time>
   </trkpt>
   <trkpt lat="47.3808880" lon="-122.0412880">
    <ele>146.6</ele>
    <time>2021-09-04T23:15:30Z</time>
   </trkpt>
   <trkpt lat="47.3808830" lon="-122.0412760">
    <ele>146.6</ele>
    <time>2021-09-04T23:15:31Z</time>
   </trkpt>
   <trkpt lat="47.3808690" lon="-122.0412420">
    <ele>146.7</ele>
    <time>2021-09-04T23:15:32Z</time>
   </trkpt>
   <trkpt lat="47.3808600" lon="-122.0412330">
    <ele>146.7</ele>
    <time>2021-09-04T23:15:33Z</time>
   </trkpt>
   <trkpt lat="47.3808610" lon="-122.0412030">
    <ele>146.7</ele>
    <time>2021-09-04T23:15:34Z</time>
   </trkpt>
   <trkpt lat="47.3808610" lon="-122.0411910">
    <ele>146.7</ele>
    <time>2021-09-04T23:15:35Z</time>
   </trkpt>
   <trkpt lat="47.3808610" lon="-122.0411780">
    <ele>146.7</ele>
    <time>2021-09-04T23:15:36Z</time>
   </trkpt>
   <trkpt lat="47.3808600" lon="-122.0411660">
    <ele>146.7</ele>
    <time>2021-09-04T23:15:37Z</time>
   </trkpt>
   <trkpt lat="47.3808630" lon="-122.0411400">
    <ele>146.7</ele>
    <time>2021-09-04T23:15:38Z</time>
   </trkpt>
   <trkpt lat="47.3808610" lon="-122.0411280">
    <ele>146.7</ele>
    <time>2021-09-04T23:15:39Z</time>
   </trkpt>
   <trkpt lat="47.3808560" lon="-122.0411140">
    <ele>146.7</ele>
    <time>2021-09-04T23:15:40Z</time>
   </trkpt>
   <trkpt lat="47.3808530" lon="-122.0411030">
    <ele>146.7</ele>
    <time>2021-09-04T23:15:41Z</time>
   </trkpt>
   <trkpt lat="47.3808500" lon="-122.0410870">
    <ele>146.7</ele>
    <time>2021-09-04T23:15:42Z</time>
   </trkpt>
   <trkpt lat="47.3808580" lon="-122.0410730">
    <ele>146.7</ele>
    <time>2021-09-04T23:15:43Z</time>
   </trkpt>
   <trkpt lat="47.3808610" lon="-122.0410580">
    <ele>146.7</ele>
    <time>2021-09-04T23:15:44Z</time>
   </trkpt>
   <trkpt lat="47.3808620" lon="-122.0410420">
    <ele>146.7</ele>
    <time>2021-09-04T23:15:45Z</time>
   </trkpt>
   <trkpt lat="47.3808580" lon="-122.0410230">
    <ele>146.7</ele>
    <time>2021-09-04T23:15:46Z</time>
   </trkpt>
   <trkpt lat="47.3808570" lon="-122.0410110">
    <ele>146.7</ele>
    <time>2021-09-04T23:15:47Z</time>
   </trkpt>
   <trkpt lat="47.3808550" lon="-122.0409990">
    <ele>146.7</ele>
    <time>2021-09-04T23:15:48Z</time>
   </trkpt>
   <trkpt lat="47.3808540" lon="-122.0409870">
    <ele>146.7</ele>
    <time>2021-09-04T23:15:49Z</time>
   </trkpt>
   <trkpt lat="47.3808550" lon="-122.0409750">
    <ele>146.7</ele>
    <time>2021-09-04T23:15:50Z</time>
   </trkpt>
   <trkpt lat="47.3808630" lon="-122.0409560">
    <ele>146.8</ele>
    <time>2021-09-04T23:15:51Z</time>
   </trkpt>
   <trkpt lat="47.3808690" lon="-122.0409450">
    <ele>146.8</ele>
    <time>2021-09-04T23:15:52Z</time>
   </trkpt>
   <trkpt lat="47.3808710" lon="-122.0409320">
    <ele>146.8</ele>
    <time>2021-09-04T23:15:53Z</time>
   </trkpt>
   <trkpt lat="47.3808670" lon="-122.0409110">
    <ele>146.8</ele>
    <time>2021-09-04T23:15:54Z</time>
   </trkpt>
   <trkpt lat="47.3808680" lon="-122.0408970">
    <ele>146.8</ele>
    <time>2021-09-04T23:15:55Z</time>
   </trkpt>
   <trkpt lat="47.3808710" lon="-122.0408730">
    <ele>146.8</ele>
    <time>2021-09-04T23:15:56Z</time>
   </trkpt>
   <trkpt lat="47.3808790" lon="-122.0408490">
    <ele>146.8</ele>
    <time>2021-09-04T23:15:57Z</time>
   </trkpt>
   <trkpt lat="47.3808840" lon="-122.0408370">
    <ele>146.8</ele>
    <time>2021-09-04T23:15:58Z</time>
   </trkpt>
   <trkpt lat="47.3808860" lon="-122.0408130">
    <ele>146.8</ele>
    <time>2021-09-04T23:15:59Z</time>
   </trkpt>
   <trkpt lat="47.3808860" lon="-122.0408010">
    <ele>146.8</ele>
    <time>2021-09-04T23:16:00Z</time>
   </trkpt>
   <trkpt lat="47.3808850" lon="-122.0407780">
    <ele>146.8</ele>
    <time>2021-09-04T23:16:01Z</time>
   </trkpt>
   <trkpt lat="47.3808810" lon="-122.0407580">
    <ele>146.8</ele>
    <time>2021-09-04T23:16:02Z</time>
   </trkpt>
   <trkpt lat="47.3808770" lon="-122.0407450">
    <ele>146.8</ele>
    <time>2021-09-04T23:16:03Z</time>
   </trkpt>
   <trkpt lat="47.3808770" lon="-122.0407260">
    <ele>146.8</ele>
    <time>2021-09-04T23:16:04Z</time>
   </trkpt>
   <trkpt lat="47.3808820" lon="-122.0407110">
    <ele>146.8</ele>
    <time>2021-09-04T23:16:05Z</time>
   </trkpt>
   <trkpt lat="47.3808780" lon="-122.0406780">
    <ele>146.8</ele>
    <time>2021-09-04T23:16:06Z</time>
   </trkpt>
   <trkpt lat="47.3808720" lon="-122.0406620">
    <ele>146.8</ele>
    <time>2021-09-04T23:16:07Z</time>
   </trkpt>
   <trkpt lat="47.3808650" lon="-122.0406470">
    <ele>146.8</ele>
    <time>2021-09-04T23:16:08Z</time>
   </trkpt>
   <trkpt lat="47.3808560" lon="-122.0406250">
    <ele>146.8</ele>
    <time>2021-09-04T23:16:09Z</time>
   </trkpt>
   <trkpt lat="47.3808470" lon="-122.0406070">
    <ele>146.8</ele>
    <time>2021-09-04T23:16:10Z</time>
   </trkpt>
   <trkpt lat="47.3808450" lon="-122.0405800">
    <ele>146.8</ele>
    <time>2021-09-04T23:16:11Z</time>
   </trkpt>
   <trkpt lat="47.3808440" lon="-122.0405650">
    <ele>146.8</ele>
    <time>2021-09-04T23:16:12Z</time>
   </trkpt>
   <trkpt lat="47.3808430" lon="-122.0405490">
    <ele>146.9</ele>
    <time>2021-09-04T23:16:13Z</time>
   </trkpt>
   <trkpt lat="47.3808380" lon="-122.0405260">
    <ele>146.9</ele>
    <time>2021-09-04T23:16:14Z</time>
   </trkpt>
   <trkpt lat="47.3808310" lon="-122.0405080">
    <ele>146.9</ele>
    <time>2021-09-04T23:16:15Z</time>
   </trkpt>
   <trkpt lat="47.3808260" lon="-122.0404790">
    <ele>146.9</ele>
    <time>2021-09-04T23:16:16Z</time>
   </trkpt>
   <trkpt lat="47.3808220" lon="-122.0404590">
    <ele>146.9</ele>
    <time>2021-09-04T23:16:17Z</time>
   </trkpt>
   <trkpt lat="47.3808210" lon="-122.0404400">
    <ele>146.9</ele>
    <time>2021-09-04T23:16:18Z</time>
   </trkpt>
   <trkpt lat="47.3808150" lon="-122.0404190">
    <ele>146.9</ele>
    <time>2021-09-04T23:16:19Z</time>
   </trkpt>
   <trkpt lat="47.3808110" lon="-122.0403760">
    <ele>146.9</ele>
    <time>2021-09-04T23:16:20Z</time>
   </trkpt>
   <trkpt lat="47.3808070" lon="-122.0403610">
    <ele>146.9</ele>
    <time>2021-09-04T23:16:21Z</time>
   </trkpt>
   <trkpt lat="47.3807980" lon="-122.0403320">
    <ele>146.9</ele>
    <time>2021-09-04T23:16:22Z</time>
   </trkpt>
   <trkpt lat="47.3807970" lon="-122.0403200">
    <ele>146.9</ele>
    <time>2021-09-04T23:16:23Z</time>
   </trkpt>
   <trkpt lat="47.3807970" lon="-122.0403070">
    <ele>147.0</ele>
    <time>2021-09-04T23:16:24Z</time>
   </trkpt>
   <trkpt lat="47.3807950" lon="-122.0402970">
    <ele>147.0</ele>
    <time>2021-09-04T23:16:25Z</time>
   </trkpt>
   <trkpt lat="47.3807930" lon="-122.0402760">
    <ele>147.0</ele>
    <time>2021-09-04T23:16:26Z</time>
   </trkpt>
   <trkpt lat="47.3807930" lon="-122.0402570">
    <ele>147.0</ele>
    <time>2021-09-04T23:16:27Z</time>
   </trkpt>
   <trkpt lat="47.3807920" lon="-122.0402370">
    <ele>147.0</ele>
    <time>2021-09-04T23:16:28Z</time>
   </trkpt>
   <trkpt lat="47.3807880" lon="-122.0402200">
    <ele>147.0</ele>
    <time>2021-09-04T23:16:29Z</time>
   </trkpt>
   <trkpt lat="47.3807890" lon="-122.0402110">
    <ele>147.0</ele>
    <time>2021-09-04T23:16:30Z</time>
   </trkpt>
   <trkpt lat="47.3807890" lon="-122.0402020">
    <ele>147.1</ele>
    <time>2021-09-04T23:16:31Z</time>
   </trkpt>
   <trkpt lat="47.3807960" lon="-122.0401870">
    <ele>147.1</ele>
    <time>2021-09-04T23:16:32Z</time>
   </trkpt>
   <trkpt lat="47.3808000" lon="-122.0401690">
    <ele>147.1</ele>
    <time>2021-09-04T23:16:33Z</time>
   </trkpt>
   <trkpt lat="47.3807990" lon="-122.0401460">
    <ele>147.1</ele>
    <time>2021-09-04T23:16:34Z</time>
   </trkpt>
   <trkpt lat="47.3807980" lon="-122.0401220">
    <ele>147.1</ele>
    <time>2021-09-04T23:16:35Z</time>
   </trkpt>
   <trkpt lat="47.3807950" lon="-122.0401070">
    <ele>147.1</ele>
    <time>2021-09-04T23:16:36Z</time>
   </trkpt>
   <trkpt lat="47.3807940" lon="-122.0400830">
    <ele>147.2</ele>
    <time>2021-09-04T23:16:37Z</time>
   </trkpt>
   <trkpt lat="47.3807930" lon="-122.0400770">
    <ele>147.2</ele>
    <time>2021-09-04T23:16:38Z</time>
   </trkpt>
   <trkpt lat="47.3807930" lon="-122.0400550">
    <ele>147.2</ele>
    <time>2021-09-04T23:16:39Z</time>
   </trkpt>
   <trkpt lat="47.3807890" lon="-122.0400350">
    <ele>147.2</ele>
    <time>2021-09-04T23:16:40Z</time>
   </trkpt>
   <trkpt lat="47.3807830" lon="-122.0400150">
    <ele>147.2</ele>
    <time>2021-09-04T23:16:41Z</time>
   </trkpt>
   <trkpt lat="47.3807850" lon="-122.0399910">
    <ele>147.2</ele>
    <time>2021-09-04T23:16:42Z</time>
   </trkpt>
   <trkpt lat="47.3807900" lon="-122.0399670">
    <ele>147.3</ele>
    <time>2021-09-04T23:16:43Z</time>
   </trkpt>
   <trkpt lat="47.3807960" lon="-122.0399520">
    <ele>147.3</ele>
    <time>2021-09-04T23:16:44Z</time>
   </trkpt>
   <trkpt lat="47.3807900" lon="-122.0399310">
    <ele>147.3</ele>
    <time>2021-09-04T23:16:45Z</time>
   </trkpt>
   <trkpt lat="47.3807910" lon="-122.0399120">
    <ele>147.3</ele>
    <time>2021-09-04T23:16:46Z</time>
   </trkpt>
   <trkpt lat="47.3807960" lon="-122.0398990">
    <ele>147.3</ele>
    <time>2021-09-04T23:16:47Z</time>
   </trkpt>
   <trkpt lat="47.3807970" lon="-122.0398860">
    <ele>147.3</ele>
    <time>2021-09-04T23:16:48Z</time>
   </trkpt>
   <trkpt lat="47.3807920" lon="-122.0398630">
    <ele>147.3</ele>
    <time>2021-09-04T23:16:49Z</time>
   </trkpt>
   <trkpt lat="47.3807890" lon="-122.0398440">
    <ele>147.4</ele>
    <time>2021-09-04T23:16:50Z</time>
   </trkpt>
   <trkpt lat="47.3807840" lon="-122.0398230">
    <ele>147.4</ele>
    <time>2021-09-04T23:16:51Z</time>
   </trkpt>
   <trkpt lat="47.3807830" lon="-122.0397930">
    <ele>147.4</ele>
    <time>2021-09-04T23:16:52Z</time>
   </trkpt>
   <trkpt lat="47.3807840" lon="-122.0397800">
    <ele>147.4</ele>
    <time>2021-09-04T23:16:53Z</time>
   </trkpt>
   <trkpt lat="47.3807850" lon="-122.0397680">
    <ele>147.4</ele>
    <time>2021-09-04T23:16:54Z</time>
   </trkpt>
   <trkpt lat="47.3807820" lon="-122.0397540">
    <ele>147.4</ele>
    <time>2021-09-04T23:16:55Z</time>
   </trkpt>
   <trkpt lat="47.3807770" lon="-122.0397360">
    <ele>147.5</ele>
    <time>2021-09-04T23:16:56Z</time>
   </trkpt>
   <trkpt lat="47.3807750" lon="-122.0397240">
    <ele>147.5</ele>
    <time>2021-09-04T23:16:57Z</time>
   </trkpt>
   <trkpt lat="47.3807760" lon="-122.0397050">
    <ele>147.5</ele>
    <time>2021-09-04T23:16:58Z</time>
   </trkpt>
   <trkpt lat="47.3807740" lon="-122.0396920">
    <ele>147.5</ele>
    <time>2021-09-04T23:16:59Z</time>
   </trkpt>
   <trkpt lat="47.3807720" lon="-122.0396710">
    <ele>147.5</ele>
    <time>2021-09-04T23:17:00Z</time>
   </trkpt>
   <trkpt lat="47.3807710" lon="-122.0396510">
    <ele>147.5</ele>
    <time>2021-09-04T23:17:01Z</time>
   </trkpt>
   <trkpt lat="47.3807650" lon="-122.0396320">
    <ele>147.5</ele>
    <time>2021-09-04T23:17:02Z</time>
   </trkpt>
   <trkpt lat="47.3807660" lon="-122.0396190">
    <ele>147.5</ele>
    <time>2021-09-04T23:17:03Z</time>
   </trkpt>
   <trkpt lat="47.3807640" lon="-122.0396030">
    <ele>147.6</ele>
    <time>2021-09-04T23:17:04Z</time>
   </trkpt>
   <trkpt lat="47.3807630" lon="-122.0395900">
    <ele>147.6</ele>
    <time>2021-09-04T23:17:05Z</time>
   </trkpt>
   <trkpt lat="47.3807540" lon="-122.0395730">
    <ele>147.6</ele>
    <time>2021-09-04T23:17:06Z</time>
   </trkpt>
   <trkpt lat="47.3807520" lon="-122.0395680">
    <ele>147.6</ele>
    <time>2021-09-04T23:17:07Z</time>
   </trkpt>
   <trkpt lat="47.3807480" lon="-122.0395540">
    <ele>147.6</ele>
    <time>2021-09-04T23:17:08Z</time>
   </trkpt>
   <trkpt lat="47.3807430" lon="-122.0395470">
    <ele>147.6</ele>
    <time>2021-09-04T23:17:09Z</time>
   </trkpt>
   <trkpt lat="47.3807410" lon="-122.0395350">
    <ele>147.6</ele>
    <time>2021-09-04T23:17:10Z</time>
   </trkpt>
   <trkpt lat="47.3807390" lon="-122.0395130">
    <ele>147.6</ele>
    <time>2021-09-04T23:17:11Z</time>
   </trkpt>
   <trkpt lat="47.3807380" lon="-122.0395050">
    <ele>147.6</ele>
    <time>2021-09-04T23:17:12Z</time>
   </trkpt>
   <trkpt lat="47.3807340" lon="-122.0394860">
    <ele>147.7</ele>
    <time>2021-09-04T23:17:13Z</time>
   </trkpt>
   <trkpt lat="47.3807360" lon="-122.0394580">
    <ele>147.7</ele>
    <time>2021-09-04T23:17:14Z</time>
   </trkpt>
   <trkpt lat="47.3807330" lon="-122.0394440">
    <ele>147.7</ele>
    <time>2021-09-04T23:17:15Z</time>
   </trkpt>
   <trkpt lat="47.3807310" lon="-122.0394290">
    <ele>147.7</ele>
    <time>2021-09-04T23:17:16Z</time>
   </trkpt>
   <trkpt lat="47.3807250" lon="-122.0394130">
    <ele>147.7</ele>
    <time>2021-09-04T23:17:17Z</time>
   </trkpt>
   <trkpt lat="47.3807260" lon="-122.0393950">
    <ele>147.8</ele>
    <time>2021-09-04T23:17:18Z</time>
   </trkpt>
   <trkpt lat="47.3807290" lon="-122.0393780">
    <ele>147.8</ele>
    <time>2021-09-04T23:17:19Z</time>
   </trkpt>
   <trkpt lat="47.3807350" lon="-122.0393630">
    <ele>147.8</ele>
    <time>2021-09-04T23:17:20Z</time>
   </trkpt>
   <trkpt lat="47.3807370" lon="-122.0393530">
    <ele>147.8</ele>
    <time>2021-09-04T23:17:21Z</time>
   </trkpt>
   <trkpt lat="47.3807350" lon="-122.0393310">
    <ele>147.8</ele>
    <time>2021-09-04T23:17:22Z</time>
   </trkpt>
   <trkpt lat="47.3807350" lon="-122.0393090">
    <ele>147.8</ele>
    <time>2021-09-04T23:17:23Z</time>
   </trkpt>
   <trkpt lat="47.3807350" lon="-122.0392970">
    <ele>147.8</ele>
    <time>2021-09-04T23:17:24Z</time>
   </trkpt>
   <trkpt lat="47.3807350" lon="-122.0392860">
    <ele>147.9</ele>
    <time>2021-09-04T23:17:25Z</time>
   </trkpt>
   <trkpt lat="47.3807350" lon="-122.0392750">
    <ele>147.9</ele>
    <time>2021-09-04T23:17:26Z</time>
   </trkpt>
   <trkpt lat="47.3807300" lon="-122.0392460">
    <ele>147.9</ele>
    <time>2021-09-04T23:17:27Z</time>
   </trkpt>
   <trkpt lat="47.3807260" lon="-122.0392360">
    <ele>147.9</ele>
    <time>2021-09-04T23:17:28Z</time>
   </trkpt>
   <trkpt lat="47.3807210" lon="-122.0392270">
    <ele>147.9</ele>
    <time>2021-09-04T23:17:29Z</time>
   </trkpt>
   <trkpt lat="47.3807160" lon="-122.0392170">
    <ele>147.9</ele>
    <time>2021-09-04T23:17:30Z</time>
   </trkpt>
   <trkpt lat="47.3807060" lon="-122.0391970">
    <ele>148.0</ele>
    <time>2021-09-04T23:17:31Z</time>
   </trkpt>
   <trkpt lat="47.3807030" lon="-122.0391850">
    <ele>148.0</ele>
    <time>2021-09-04T23:17:32Z</time>
   </trkpt>
   <trkpt lat="47.3807010" lon="-122.0391750">
    <ele>148.0</ele>
    <time>2021-09-04T23:17:33Z</time>
   </trkpt>
   <trkpt lat="47.3807020" lon="-122.0391680">
    <ele>148.0</ele>
    <time>2021-09-04T23:17:34Z</time>
   </trkpt>
   <trkpt lat="47.3807000" lon="-122.0391620">
    <ele>148.0</ele>
    <time>2021-09-04T23:17:35Z</time>
   </trkpt>
   <trkpt lat="47.3806920" lon="-122.0391450">
    <ele>148.0</ele>
    <time>2021-09-04T23:17:36Z</time>
   </trkpt>
   <trkpt lat="47.3806840" lon="-122.0391330">
    <ele>148.0</ele>
    <time>2021-09-04T23:17:37Z</time>
   </trkpt>
   <trkpt lat="47.3806830" lon="-122.0391220">
    <ele>148.0</ele>
    <time>2021-09-04T23:17:38Z</time>
   </trkpt>
   <trkpt lat="47.3806750" lon="-122.0391120">
    <ele>148.1</ele>
    <time>2021-09-04T23:17:39Z</time>
   </trkpt>
   <trkpt lat="47.3806620" lon="-122.0390950">
    <ele>148.1</ele>
    <time>2021-09-04T23:17:40Z</time>
   </trkpt>
   <trkpt lat="47.3806510" lon="-122.0390710">
    <ele>148.1</ele>
    <time>2021-09-04T23:17:41Z</time>
   </trkpt>
   <trkpt lat="47.3806470" lon="-122.0390600">
    <ele>148.1</ele>
    <time>2021-09-04T23:17:42Z</time>
   </trkpt>
   <trkpt lat="47.3806430" lon="-122.0390480">
    <ele>148.1</ele>
    <time>2021-09-04T23:17:43Z</time>
   </trkpt>
   <trkpt lat="47.3806330" lon="-122.0390270">
    <ele>148.1</ele>
    <time>2021-09-04T23:17:44Z</time>
   </trkpt>
   <trkpt lat="47.3806240" lon="-122.0390080">
    <ele>148.2</ele>
    <time>2021-09-04T23:17:45Z</time>
   </trkpt>
   <trkpt lat="47.3806170" lon="-122.0389840">
    <ele>148.2</ele>
    <time>2021-09-04T23:17:46Z</time>
   </trkpt>
   <trkpt lat="47.3806150" lon="-122.0389630">
    <ele>148.2</ele>
    <time>2021-09-04T23:17:47Z</time>
   </trkpt>
   <trkpt lat="47.3806100" lon="-122.0389380">
    <ele>148.2</ele>
    <time>2021-09-04T23:17:48Z</time>
   </trkpt>
   <trkpt lat="47.3806080" lon="-122.0389260">
    <ele>148.2</ele>
    <time>2021-09-04T23:17:49Z</time>
   </trkpt>
   <trkpt lat="47.3806050" lon="-122.0389180">
    <ele>148.2</ele>
    <time>2021-09-04T23:17:50Z</time>
   </trkpt>
   <trkpt lat="47.3805890" lon="-122.0388950">
    <ele>148.3</ele>
    <time>2021-09-04T23:17:51Z</time>
   </trkpt>
   <trkpt lat="47.3805800" lon="-122.0388850">
    <ele>148.3</ele>
    <time>2021-09-04T23:17:52Z</time>
   </trkpt>
   <trkpt lat="47.3805720" lon="-122.0388750">
    <ele>148.3</ele>
    <time>2021-09-04T23:17:53Z</time>
   </trkpt>
   <trkpt lat="47.3805620" lon="-122.0388570">
    <ele>148.3</ele>
    <time>2021-09-04T23:17:54Z</time>
   </trkpt>
   <trkpt lat="47.3805550" lon="-122.0388370">
    <ele>148.3</ele>
    <time>2021-09-04T23:17:55Z</time>
   </trkpt>
   <trkpt lat="47.3805510" lon="-122.0388070">
    <ele>148.4</ele>
    <time>2021-09-04T23:17:56Z</time>
   </trkpt>
   <trkpt lat="47.3805550" lon="-122.0387910">
    <ele>148.4</ele>
    <time>2021-09-04T23:17:57Z</time>
   </trkpt>
   <trkpt lat="47.3805590" lon="-122.0387760">
    <ele>148.4</ele>
    <time>2021-09-04T23:17:58Z</time>
   </trkpt>
   <trkpt lat="47.3805630" lon="-122.0387600">
    <ele>148.4</ele>
    <time>2021-09-04T23:17:59Z</time>
   </trkpt>
   <trkpt lat="47.3805670" lon="-122.0387450">
    <ele>148.4</ele>
    <time>2021-09-04T23:18:00Z</time>
   </trkpt>
   <trkpt lat="47.3805630" lon="-122.0387340">
    <ele>148.4</ele>
    <time>2021-09-04T23:18:01Z</time>
   </trkpt>
   <trkpt lat="47.3805660" lon="-122.0387160">
    <ele>148.5</ele>
    <time>2021-09-04T23:18:02Z</time>
   </trkpt>
   <trkpt lat="47.3805610" lon="-122.0387000">
    <ele>148.5</ele>
    <time>2021-09-04T23:18:03Z</time>
   </trkpt>
   <trkpt lat="47.3805510" lon="-122.0386720">
    <ele>148.5</ele>
    <time>2021-09-04T23:18:04Z</time>
   </trkpt>
   <trkpt lat="47.3805480" lon="-122.0386620">
    <ele>148.5</ele>
    <time>2021-09-04T23:18:05Z</time>
   </trkpt>
   <trkpt lat="47.3805440" lon="-122.0386510">
    <ele>148.5</ele>
    <time>2021-09-04T23:18:06Z</time>
   </trkpt>
   <trkpt lat="47.3805420" lon="-122.0386330">
    <ele>148.5</ele>
    <time>2021-09-04T23:18:07Z</time>
   </trkpt>
   <trkpt lat="47.3805340" lon="-122.0386190">
    <ele>148.6</ele>
    <time>2021-09-04T23:18:08Z</time>
   </trkpt>
   <trkpt lat="47.3805330" lon="-122.0386040">
    <ele>148.6</ele>
    <time>2021-09-04T23:18:09Z</time>
   </trkpt>
   <trkpt lat="47.3805330" lon="-122.0385970">
    <ele>148.6</ele>
    <time>2021-09-04T23:18:10Z</time>
   </trkpt>
   <trkpt lat="47.3805310" lon="-122.0385910">
    <ele>148.6</ele>
    <time>2021-09-04T23:18:11Z</time>
   </trkpt>
   <trkpt lat="47.3805170" lon="-122.0385730">
    <ele>148.6</ele>
    <time>2021-09-04T23:18:12Z</time>
   </trkpt>
   <trkpt lat="47.3805100" lon="-122.0385590">
    <ele>148.6</ele>
    <time>2021-09-04T23:18:13Z</time>
   </trkpt>
   <trkpt lat="47.3805100" lon="-122.0385380">
    <ele>148.7</ele>
    <time>2021-09-04T23:18:14Z</time>
   </trkpt>
   <trkpt lat="47.3805060" lon="-122.0385240">
    <ele>148.7</ele>
    <time>2021-09-04T23:18:15Z</time>
   </trkpt>
   <trkpt lat="47.3805080" lon="-122.0385010">
    <ele>148.7</ele>
    <time>2021-09-04T23:18:16Z</time>
   </trkpt>
   <trkpt lat="47.3805080" lon="-122.0384750">
    <ele>148.7</ele>
    <time>2021-09-04T23:18:17Z</time>
   </trkpt>
   <trkpt lat="47.3805010" lon="-122.0384500">
    <ele>148.7</ele>
    <time>2021-09-04T23:18:18Z</time>
   </trkpt>
   <trkpt lat="47.3804930" lon="-122.0384400">
    <ele>148.8</ele>
    <time>2021-09-04T23:18:19Z</time>
   </trkpt>
   <trkpt lat="47.3804930" lon="-122.0384230">
    <ele>148.8</ele>
    <time>2021-09-04T23:18:20Z</time>
   </trkpt>
   <trkpt lat="47.3804860" lon="-122.0384120">
    <ele>148.8</ele>
    <time>2021-09-04T23:18:21Z</time>
   </trkpt>
   <trkpt lat="47.3804830" lon="-122.0383940">
    <ele>148.8</ele>
    <time>2021-09-04T23:18:22Z</time>
   </trkpt>
   <trkpt lat="47.3804670" lon="-122.0383700">
    <ele>148.9</ele>
    <time>2021-09-04T23:18:23Z</time>
   </trkpt>
   <trkpt lat="47.3804630" lon="-122.0383590">
    <ele>148.9</ele>
    <time>2021-09-04T23:18:24Z</time>
   </trkpt>
   <trkpt lat="47.3804580" lon="-122.0383470">
    <ele>148.9</ele>
    <time>2021-09-04T23:18:25Z</time>
   </trkpt>
   <trkpt lat="47.3804520" lon="-122.0383310">
    <ele>148.9</ele>
    <time>2021-09-04T23:18:26Z</time>
   </trkpt>
   <trkpt lat="47.3804520" lon="-122.0383180">
    <ele>148.9</ele>
    <time>2021-09-04T23:18:27Z</time>
   </trkpt>
   <trkpt lat="47.3804490" lon="-122.0383000">
    <ele>148.9</ele>
    <time>2021-09-04T23:18:28Z</time>
   </trkpt>
   <trkpt lat="47.3804450" lon="-122.0382880">
    <ele>149.0</ele>
    <time>2021-09-04T23:18:29Z</time>
   </trkpt>
   <trkpt lat="47.3804350" lon="-122.0382750">
    <ele>149.0</ele>
    <time>2021-09-04T23:18:30Z</time>
   </trkpt>
   <trkpt lat="47.3804290" lon="-122.0382620">
    <ele>149.0</ele>
    <time>2021-09-04T23:18:31Z</time>
   </trkpt>
   <trkpt lat="47.3804270" lon="-122.0382540">
    <ele>149.0</ele>
    <time>2021-09-04T23:18:32Z</time>
   </trkpt>
   <trkpt lat="47.3804260" lon="-122.0382450">
    <ele>149.0</ele>
    <time>2021-09-04T23:18:33Z</time>
   </trkpt>
   <trkpt lat="47.3804210" lon="-122.0382270">
    <ele>149.0</ele>
    <time>2021-09-04T23:18:34Z</time>
   </trkpt>
   <trkpt lat="47.3804160" lon="-122.0382130">
    <ele>149.1</ele>
    <time>2021-09-04T23:18:35Z</time>
   </trkpt>
   <trkpt lat="47.3804150" lon="-122.0381950">
    <ele>149.1</ele>
    <time>2021-09-04T23:18:36Z</time>
   </trkpt>
   <trkpt lat="47.3804090" lon="-122.0381850">
    <ele>149.1</ele>
    <time>2021-09-04T23:18:37Z</time>
   </trkpt>
   <trkpt lat="47.3804050" lon="-122.0381840">
    <ele>149.1</ele>
    <time>2021-09-04T23:18:38Z</time>
   </trkpt>
   <trkpt lat="47.3804040" lon="-122.0381760">
    <ele>149.1</ele>
    <time>2021-09-04T23:18:39Z</time>
   </trkpt>
   <trkpt lat="47.3803980" lon="-122.0381640">
    <ele>149.1</ele>
    <time>2021-09-04T23:18:40Z</time>
   </trkpt>
   <trkpt lat="47.3803950" lon="-122.0381600">
    <ele>149.1</ele>
    <time>2021-09-04T23:18:41Z</time>
   </trkpt>
   <trkpt lat="47.3803920" lon="-122.0381570">
    <ele>149.1</ele>
    <time>2021-09-04T23:18:42Z</time>
   </trkpt>
   <trkpt lat="47.3803890" lon="-122.0381530">
    <ele>149.1</ele>
    <time>2021-09-04T23:18:43Z</time>
   </trkpt>
   <trkpt lat="47.3803860" lon="-122.0381490">
    <ele>149.2</ele>
    <time>2021-09-04T23:18:44Z</time>
   </trkpt>
   <trkpt lat="47.3803830" lon="-122.0381450">
    <ele>149.2</ele>
    <time>2021-09-04T23:18:45Z</time>
   </trkpt>
   <trkpt lat="47.3803800" lon="-122.0381420">
    <ele>149.2</ele>
    <time>2021-09-04T23:18:46Z</time>
   </trkpt>
   <trkpt lat="47.3803770" lon="-122.0381380">
    <ele>149.2</ele>
    <time>2021-09-04T23:18:47Z</time>
   </trkpt>
   <trkpt lat="47.3803720" lon="-122.0381330">
    <ele>149.2</ele>
    <time>2021-09-04T23:18:48Z</time>
   </trkpt>
   <trkpt lat="47.3803720" lon="-122.0381340">
    <ele>149.2</ele>
    <time>2021-09-04T23:18:49Z</time>
   </trkpt>
   <trkpt lat="47.3803700" lon="-122.0381380">
    <ele>149.2</ele>
    <time>2021-09-04T23:18:50Z</time>
   </trkpt>
   <trkpt lat="47.3803700" lon="-122.0381440">
    <ele>149.2</ele>
    <time>2021-09-04T23:18:51Z</time>
   </trkpt>
   <trkpt lat="47.3803690" lon="-122.0381490">
    <ele>149.2</ele>
    <time>2021-09-04T23:18:52Z</time>
   </trkpt>
   <trkpt lat="47.3803720" lon="-122.0381590">
    <ele>149.2</ele>
    <time>2021-09-04T23:18:53Z</time>
   </trkpt>
   <trkpt lat="47.3803730" lon="-122.0381730">
    <ele>149.2</ele>
    <time>2021-09-04T23:18:54Z</time>
   </trkpt>
   <trkpt lat="47.3803740" lon="-122.0381800">
    <ele>149.2</ele>
    <time>2021-09-04T23:18:55Z</time>
   </trkpt>
   <trkpt lat="47.3803750" lon="-122.0381920">
    <ele>149.3</ele>
    <time>2021-09-04T23:18:56Z</time>
   </trkpt>
   <trkpt lat="47.3803760" lon="-122.0382030">
    <ele>149.3</ele>
    <time>2021-09-04T23:18:57Z</time>
   </trkpt>
   <trkpt lat="47.3803780" lon="-122.0382050">
    <ele>149.3</ele>
    <time>2021-09-04T23:18:58Z</time>
   </trkpt>
   <trkpt lat="47.3803800" lon="-122.0382120">
    <ele>149.3</ele>
    <time>2021-09-04T23:18:59Z</time>
   </trkpt>
   <trkpt lat="47.3803740" lon="-122.0382190">
    <ele>149.3</ele>
    <time>2021-09-04T23:19:00Z</time>
   </trkpt>
   <trkpt lat="47.3803730" lon="-122.0382240">
    <ele>149.2</ele>
    <time>2021-09-04T23:19:01Z</time>
   </trkpt>
   <trkpt lat="47.3803670" lon="-122.0382330">
    <ele>149.1</ele>
    <time>2021-09-04T23:19:02Z</time>
   </trkpt>
   <trkpt lat="47.3803590" lon="-122.0382350">
    <ele>148.9</ele>
    <time>2021-09-04T23:19:03Z</time>
   </trkpt>
   <trkpt lat="47.3803600" lon="-122.0382490">
    <ele>148.7</ele>
    <time>2021-09-04T23:19:04Z</time>
   </trkpt>
   <trkpt lat="47.3803550" lon="-122.0382590">
    <ele>148.5</ele>
    <time>2021-09-04T23:19:05Z</time>
   </trkpt>
   <trkpt lat="47.3803540" lon="-122.0382700">
    <ele>148.4</ele>
    <time>2021-09-04T23:19:06Z</time>
   </trkpt>
   <trkpt lat="47.3803530" lon="-122.0382720">
    <ele>148.3</ele>
    <time>2021-09-04T23:19:07Z</time>
   </trkpt>
   <trkpt lat="47.3803530" lon="-122.0382820">
    <ele>148.2</ele>
    <time>2021-09-04T23:19:08Z</time>
   </trkpt>
   <trkpt lat="47.3803500" lon="-122.0382860">
    <ele>148.1</ele>
    <time>2021-09-04T23:19:09Z</time>
   </trkpt>
   <trkpt lat="47.3803470" lon="-122.0383030">
    <ele>147.9</ele>
    <time>2021-09-04T23:19:10Z</time>
   </trkpt>
   <trkpt lat="47.3803460" lon="-122.0383060">
    <ele>147.8</ele>
    <time>2021-09-04T23:19:11Z</time>
   </trkpt>
   <trkpt lat="47.3803450" lon="-122.0383130">
    <ele>147.7</ele>
    <time>2021-09-04T23:19:12Z</time>
   </trkpt>
   <trkpt lat="47.3803430" lon="-122.0383230">
    <ele>147.6</ele>
    <time>2021-09-04T23:19:13Z</time>
   </trkpt>
   <trkpt lat="47.3803510" lon="-122.0383230">
    <ele>147.4</ele>
    <time>2021-09-04T23:19:14Z</time>
   </trkpt>
   <trkpt lat="47.3803580" lon="-122.0383430">
    <ele>147.1</ele>
    <time>2021-09-04T23:19:15Z</time>
   </trkpt>
   <trkpt lat="47.3803550" lon="-122.0383510">
    <ele>147.0</ele>
    <time>2021-09-04T23:19:16Z</time>
   </trkpt>
   <trkpt lat="47.3803540" lon="-122.0383580">
    <ele>146.9</ele>
    <time>2021-09-04T23:19:17Z</time>
   </trkpt>
   <trkpt lat="47.3803520" lon="-122.0383690">
    <ele>146.8</ele>
    <time>2021-09-04T23:19:18Z</time>
   </trkpt>
   <trkpt lat="47.3803490" lon="-122.0383860">
    <ele>146.6</ele>
    <time>2021-09-04T23:19:19Z</time>
   </trkpt>
   <trkpt lat="47.3803430" lon="-122.0383930">
    <ele>146.4</ele>
    <time>2021-09-04T23:19:20Z</time>
   </trkpt>
   <trkpt lat="47.3803390" lon="-122.0384030">
    <ele>146.3</ele>
    <time>2021-09-04T23:19:21Z</time>
   </trkpt>
   <trkpt lat="47.3803370" lon="-122.0384080">
    <ele>146.2</ele>
    <time>2021-09-04T23:19:22Z</time>
   </trkpt>
   <trkpt lat="47.3803280" lon="-122.0384140">
    <ele>146.1</ele>
    <time>2021-09-04T23:19:23Z</time>
   </trkpt>
   <trkpt lat="47.3803280" lon="-122.0384270">
    <ele>145.9</ele>
    <time>2021-09-04T23:19:24Z</time>
   </trkpt>
   <trkpt lat="47.3803250" lon="-122.0384380">
    <ele>145.8</ele>
    <time>2021-09-04T23:19:25Z</time>
   </trkpt>
   <trkpt lat="47.3803240" lon="-122.0384480">
    <ele>145.7</ele>
    <time>2021-09-04T23:19:26Z</time>
   </trkpt>
   <trkpt lat="47.3803180" lon="-122.0384500">
    <ele>145.6</ele>
    <time>2021-09-04T23:19:27Z</time>
   </trkpt>
   <trkpt lat="47.3803160" lon="-122.0384680">
    <ele>145.4</ele>
    <time>2021-09-04T23:19:28Z</time>
   </trkpt>
   <trkpt lat="47.3803070" lon="-122.0384710">
    <ele>145.3</ele>
    <time>2021-09-04T23:19:29Z</time>
   </trkpt>
   <trkpt lat="47.3803010" lon="-122.0384740">
    <ele>145.2</ele>
    <time>2021-09-04T23:19:30Z</time>
   </trkpt>
   <trkpt lat="47.3803020" lon="-122.0384920">
    <ele>145.1</ele>
    <time>2021-09-04T23:19:31Z</time>
   </trkpt>
   <trkpt lat="47.3803040" lon="-122.0385010">
    <ele>145.0</ele>
    <time>2021-09-04T23:19:32Z</time>
   </trkpt>
   <trkpt lat="47.3803080" lon="-122.0385170">
    <ele>144.8</ele>
    <time>2021-09-04T23:19:33Z</time>
   </trkpt>
   <trkpt lat="47.3802970" lon="-122.0385360">
    <ele>144.7</ele>
    <time>2021-09-04T23:19:34Z</time>
   </trkpt>
   <trkpt lat="47.3802910" lon="-122.0385410">
    <ele>144.6</ele>
    <time>2021-09-04T23:19:35Z</time>
   </trkpt>
   <trkpt lat="47.3802840" lon="-122.0385450">
    <ele>144.5</ele>
    <time>2021-09-04T23:19:36Z</time>
   </trkpt>
   <trkpt lat="47.3802780" lon="-122.0385500">
    <ele>144.5</ele>
    <time>2021-09-04T23:19:37Z</time>
   </trkpt>
   <trkpt lat="47.3802580" lon="-122.0385610">
    <ele>144.3</ele>
    <time>2021-09-04T23:19:38Z</time>
   </trkpt>
   <trkpt lat="47.3802560" lon="-122.0385610">
    <ele>144.3</ele>
    <time>2021-09-04T23:19:39Z</time>
   </trkpt>
   <trkpt lat="47.3802460" lon="-122.0385700">
    <ele>144.2</ele>
    <time>2021-09-04T23:19:40Z</time>
   </trkpt>
   <trkpt lat="47.3802380" lon="-122.0385780">
    <ele>144.1</ele>
    <time>2021-09-04T23:19:41Z</time>
   </trkpt>
   <trkpt lat="47.3802290" lon="-122.0385830">
    <ele>144.1</ele>
    <time>2021-09-04T23:19:42Z</time>
   </trkpt>
   <trkpt lat="47.3802280" lon="-122.0385850">
    <ele>144.0</ele>
    <time>2021-09-04T23:19:43Z</time>
   </trkpt>
   <trkpt lat="47.3802200" lon="-122.0385880">
    <ele>144.0</ele>
    <time>2021-09-04T23:19:44Z</time>
   </trkpt>
   <trkpt lat="47.3802030" lon="-122.0385970">
    <ele>143.9</ele>
    <time>2021-09-04T23:19:45Z</time>
   </trkpt>
   <trkpt lat="47.3801920" lon="-122.0386010">
    <ele>143.8</ele>
    <time>2021-09-04T23:19:46Z</time>
   </trkpt>
   <trkpt lat="47.3801810" lon="-122.0386050">
    <ele>143.8</ele>
    <time>2021-09-04T23:19:47Z</time>
   </trkpt>
   <trkpt lat="47.3801760" lon="-122.0386210">
    <ele>143.7</ele>
    <time>2021-09-04T23:19:48Z</time>
   </trkpt>
   <trkpt lat="47.3801810" lon="-122.0386350">
    <ele>143.7</ele>
    <time>2021-09-04T23:19:49Z</time>
   </trkpt>
   <trkpt lat="47.3801680" lon="-122.0386400">
    <ele>143.6</ele>
    <time>2021-09-04T23:19:50Z</time>
   </trkpt>
   <trkpt lat="47.3801580" lon="-122.0386380">
    <ele>143.6</ele>
    <time>2021-09-04T23:19:51Z</time>
   </trkpt>
   <trkpt lat="47.3801440" lon="-122.0386490">
    <ele>143.5</ele>
    <time>2021-09-04T23:19:52Z</time>
   </trkpt>
   <trkpt lat="47.3801350" lon="-122.0386560">
    <ele>143.4</ele>
    <time>2021-09-04T23:19:53Z</time>
   </trkpt>
   <trkpt lat="47.3801290" lon="-122.0386670">
    <ele>143.4</ele>
    <time>2021-09-04T23:19:54Z</time>
   </trkpt>
   <trkpt lat="47.3801130" lon="-122.0386750">
    <ele>143.3</ele>
    <time>2021-09-04T23:19:55Z</time>
   </trkpt>
   <trkpt lat="47.3801050" lon="-122.0386850">
    <ele>143.3</ele>
    <time>2021-09-04T23:19:56Z</time>
   </trkpt>
   <trkpt lat="47.3800950" lon="-122.0386970">
    <ele>143.3</ele>
    <time>2021-09-04T23:19:57Z</time>
   </trkpt>
   <trkpt lat="47.3800880" lon="-122.0387190">
    <ele>143.2</ele>
    <time>2021-09-04T23:19:58Z</time>
   </trkpt>
   <trkpt lat="47.3800680" lon="-122.0387540">
    <ele>143.1</ele>
    <time>2021-09-04T23:19:59Z</time>
   </trkpt>
   <trkpt lat="47.3800650" lon="-122.0387650">
    <ele>143.1</ele>
    <time>2021-09-04T23:20:00Z</time>
   </trkpt>
   <trkpt lat="47.3800530" lon="-122.0387820">
    <ele>143.1</ele>
    <time>2021-09-04T23:20:01Z</time>
   </trkpt>
   <trkpt lat="47.3800410" lon="-122.0387950">
    <ele>143.1</ele>
    <time>2021-09-04T23:20:02Z</time>
   </trkpt>
   <trkpt lat="47.3800330" lon="-122.0388080">
    <ele>143.1</ele>
    <time>2021-09-04T23:20:03Z</time>
   </trkpt>
   <trkpt lat="47.3800300" lon="-122.0388230">
    <ele>143.2</ele>
    <time>2021-09-04T23:20:04Z</time>
   </trkpt>
   <trkpt lat="47.3800280" lon="-122.0388380">
    <ele>143.2</ele>
    <time>2021-09-04T23:20:05Z</time>
   </trkpt>
   <trkpt lat="47.3800230" lon="-122.0388550">
    <ele>143.2</ele>
    <time>2021-09-04T23:20:06Z</time>
   </trkpt>
   <trkpt lat="47.3800250" lon="-122.0388600">
    <ele>143.2</ele>
    <time>2021-09-04T23:20:07Z</time>
   </trkpt>
   <trkpt lat="47.3800260" lon="-122.0388650">
    <ele>143.2</ele>
    <time>2021-09-04T23:20:08Z</time>
   </trkpt>
   <trkpt lat="47.3800270" lon="-122.0388700">
    <ele>143.2</ele>
    <time>2021-09-04T23:20:09Z</time>
   </trkpt>
   <trkpt lat="47.3800280" lon="-122.0388750">
    <ele>143.2</ele>
    <time>2021-09-04T23:20:10Z</time>
   </trkpt>
   <trkpt lat="47.3800300" lon="-122.0388800">
    <ele>143.2</ele>
    <time>2021-09-04T23:20:11Z</time>
   </trkpt>
   <trkpt lat="47.3800310" lon="-122.0388850">
    <ele>143.2</ele>
    <time>2021-09-04T23:20:12Z</time>
   </trkpt>
   <trkpt lat="47.3800320" lon="-122.0388890">
    <ele>143.2</ele>
    <time>2021-09-04T23:20:13Z</time>
   </trkpt>
   <trkpt lat="47.3800330" lon="-122.0388940">
    <ele>143.2</ele>
    <time>2021-09-04T23:20:14Z</time>
   </trkpt>
   <trkpt lat="47.3800350" lon="-122.0388990">
    <ele>143.2</ele>
    <time>2021-09-04T23:20:15Z</time>
   </trkpt>
   <trkpt lat="47.3800360" lon="-122.0389040">
    <ele>143.2</ele>
    <time>2021-09-04T23:20:16Z</time>
   </trkpt>
   <trkpt lat="47.3800370" lon="-122.0389090">
    <ele>143.2</ele>
    <time>2021-09-04T23:20:17Z</time>
   </trkpt>
   <trkpt lat="47.3800380" lon="-122.0389140">
    <ele>143.2</ele>
    <time>2021-09-04T23:20:18Z</time>
   </trkpt>
   <trkpt lat="47.3800400" lon="-122.0389190">
    <ele>143.2</ele>
    <time>2021-09-04T23:20:19Z</time>
   </trkpt>
   <trkpt lat="47.3800410" lon="-122.0389240">
    <ele>143.2</ele>
    <time>2021-09-04T23:20:20Z</time>
   </trkpt>
   <trkpt lat="47.3800320" lon="-122.0389410">
    <ele>143.2</ele>
    <time>2021-09-04T23:20:21Z</time>
   </trkpt>
   <trkpt lat="47.3800270" lon="-122.0389460">
    <ele>143.2</ele>
    <time>2021-09-04T23:20:22Z</time>
   </trkpt>
   <trkpt lat="47.3800230" lon="-122.0389500">
    <ele>143.2</ele>
    <time>2021-09-04T23:20:23Z</time>
   </trkpt>
   <trkpt lat="47.3800180" lon="-122.0389550">
    <ele>143.2</ele>
    <time>2021-09-04T23:20:24Z</time>
   </trkpt>
   <trkpt lat="47.3800130" lon="-122.0389590">
    <ele>143.2</ele>
    <time>2021-09-04T23:20:25Z</time>
   </trkpt>
   <trkpt lat="47.3800060" lon="-122.0389710">
    <ele>143.2</ele>
    <time>2021-09-04T23:20:26Z</time>
   </trkpt>
   <trkpt lat="47.3799990" lon="-122.0389770">
    <ele>143.2</ele>
    <time>2021-09-04T23:20:27Z</time>
   </trkpt>
   <trkpt lat="47.3800080" lon="-122.0389930">
    <ele>143.2</ele>
    <time>2021-09-04T23:20:28Z</time>
   </trkpt>
   <trkpt lat="47.3800050" lon="-122.0390070">
    <ele>143.2</ele>
    <time>2021-09-04T23:20:29Z</time>
   </trkpt>
   <trkpt lat="47.3799930" lon="-122.0390270">
    <ele>143.2</ele>
    <time>2021-09-04T23:20:30Z</time>
   </trkpt>
   <trkpt lat="47.3799900" lon="-122.0390330">
    <ele>143.2</ele>
    <time>2021-09-04T23:20:31Z</time>
   </trkpt>
   <trkpt lat="47.3799880" lon="-122.0390400">
    <ele>143.2</ele>
    <time>2021-09-04T23:20:32Z</time>
   </trkpt>
   <trkpt lat="47.3799850" lon="-122.0390460">
    <ele>143.2</ele>
    <time>2021-09-04T23:20:33Z</time>
   </trkpt>
   <trkpt lat="47.3799830" lon="-122.0390530">
    <ele>143.2</ele>
    <time>2021-09-04T23:20:34Z</time>
   </trkpt>
   <trkpt lat="47.3799800" lon="-122.0390590">
    <ele>143.2</ele>
    <time>2021-09-04T23:20:35Z</time>
   </trkpt>
   <trkpt lat="47.3799780" lon="-122.0390720">
    <ele>143.2</ele>
    <time>2021-09-04T23:20:36Z</time>
   </trkpt>
   <trkpt lat="47.3799690" lon="-122.0390760">
    <ele>143.2</ele>
    <time>2021-09-04T23:20:37Z</time>
   </trkpt>
   <trkpt lat="47.3799610" lon="-122.0390740">
    <ele>143.2</ele>
    <time>2021-09-04T23:20:38Z</time>
   </trkpt>
   <trkpt lat="47.3799530" lon="-122.0390670">
    <ele>143.2</ele>
    <time>2021-09-04T23:20:39Z</time>
   </trkpt>
   <trkpt lat="47.3799330" lon="-122.0390670">
    <ele>143.2</ele>
    <time>2021-09-04T23:20:40Z</time>
   </trkpt>
   <trkpt lat="47.3799180" lon="-122.0390710">
    <ele>143.2</ele>
    <time>2021-09-04T23:20:41Z</time>
   </trkpt>
   <trkpt lat="47.3799140" lon="-122.0390650">
    <ele>143.2</ele>
    <time>2021-09-04T23:20:42Z</time>
   </trkpt>
   <trkpt lat="47.3799060" lon="-122.0390600">
    <ele>143.2</ele>
    <time>2021-09-04T23:20:43Z</time>
   </trkpt>
   <trkpt lat="47.3798950" lon="-122.0390490">
    <ele>143.2</ele>
    <time>2021-09-04T23:20:44Z</time>
   </trkpt>
   <trkpt lat="47.3798860" lon="-122.0390440">
    <ele>143.2</ele>
    <time>2021-09-04T23:20:45Z</time>
   </trkpt>
   <trkpt lat="47.3798750" lon="-122.0390350">
    <ele>143.2</ele>
    <time>2021-09-04T23:20:46Z</time>
   </trkpt>
   <trkpt lat="47.3798700" lon="-122.0390300">
    <ele>143.2</ele>
    <time>2021-09-04T23:20:47Z</time>
   </trkpt>
   <trkpt lat="47.3798590" lon="-122.0390250">
    <ele>143.2</ele>
    <time>2021-09-04T23:20:48Z</time>
   </trkpt>
   <trkpt lat="47.3798570" lon="-122.0390260">
    <ele>143.2</ele>
    <time>2021-09-04T23:20:49Z</time>
   </trkpt>
   <trkpt lat="47.3798550" lon="-122.0390270">
    <ele>143.2</ele>
    <time>2021-09-04T23:20:50Z</time>
   </trkpt>
   <trkpt lat="47.3798530" lon="-122.0390290">
    <ele>143.2</ele>
    <time>2021-09-04T23:20:51Z</time>
   </trkpt>
   <trkpt lat="47.3798510" lon="-122.0390300">
    <ele>143.2</ele>
    <time>2021-09-04T23:20:52Z</time>
   </trkpt>
   <trkpt lat="47.3798490" lon="-122.0390310">
    <ele>143.2</ele>
    <time>2021-09-04T23:20:53Z</time>
   </trkpt>
   <trkpt lat="47.3798470" lon="-122.0390320">
    <ele>143.2</ele>
    <time>2021-09-04T23:20:54Z</time>
   </trkpt>
   <trkpt lat="47.3798450" lon="-122.0390330">
    <ele>143.2</ele>
    <time>2021-09-04T23:20:55Z</time>
   </trkpt>
   <trkpt lat="47.3798420" lon="-122.0390340">
    <ele>143.2</ele>
    <time>2021-09-04T23:20:56Z</time>
   </trkpt>
   <trkpt lat="47.3798400" lon="-122.0390350">
    <ele>143.2</ele>
    <time>2021-09-04T23:20:57Z</time>
   </trkpt>
   <trkpt lat="47.3798380" lon="-122.0390360">
    <ele>143.2</ele>
    <time>2021-09-04T23:20:58Z</time>
   </trkpt>
   <trkpt lat="47.3798360" lon="-122.0390380">
    <ele>143.2</ele>
    <time>2021-09-04T23:20:59Z</time>
   </trkpt>
   <trkpt lat="47.3798340" lon="-122.0390390">
    <ele>143.2</ele>
    <time>2021-09-04T23:21:00Z</time>
   </trkpt>
   <trkpt lat="47.3798320" lon="-122.0390400">
    <ele>143.2</ele>
    <time>2021-09-04T23:21:01Z</time>
   </trkpt>
   <trkpt lat="47.3798300" lon="-122.0390410">
    <ele>143.2</ele>
    <time>2021-09-04T23:21:02Z</time>
   </trkpt>
   <trkpt lat="47.3798280" lon="-122.0390420">
    <ele>143.2</ele>
    <time>2021-09-04T23:21:03Z</time>
   </trkpt>
   <trkpt lat="47.3798370" lon="-122.0390560">
    <ele>143.2</ele>
    <time>2021-09-04T23:21:04Z</time>
   </trkpt>
   <trkpt lat="47.3798370" lon="-122.0390680">
    <ele>143.2</ele>
    <time>2021-09-04T23:21:05Z</time>
   </trkpt>
   <trkpt lat="47.3798320" lon="-122.0390830">
    <ele>143.2</ele>
    <time>2021-09-04T23:21:06Z</time>
   </trkpt>
   <trkpt lat="47.3798340" lon="-122.0390990">
    <ele>143.2</ele>
    <time>2021-09-04T23:21:07Z</time>
   </trkpt>
   <trkpt lat="47.3798320" lon="-122.0391130">
    <ele>143.2</ele>
    <time>2021-09-04T23:21:08Z</time>
   </trkpt>
   <trkpt lat="47.3798240" lon="-122.0391310">
    <ele>143.2</ele>
    <time>2021-09-04T23:21:09Z</time>
   </trkpt>
   <trkpt lat="47.3798220" lon="-122.0391470">
    <ele>143.2</ele>
    <time>2021-09-04T23:21:10Z</time>
   </trkpt>
   <trkpt lat="47.3798190" lon="-122.0391590">
    <ele>143.2</ele>
    <time>2021-09-04T23:21:11Z</time>
   </trkpt>
   <trkpt lat="47.3798180" lon="-122.0391730">
    <ele>143.2</ele>
    <time>2021-09-04T23:21:12Z</time>
   </trkpt>
   <trkpt lat="47.3798160" lon="-122.0391840">
    <ele>143.2</ele>
    <time>2021-09-04T23:21:13Z</time>
   </trkpt>
   <trkpt lat="47.3798180" lon="-122.0391970">
    <ele>143.2</ele>
    <time>2021-09-04T23:21:14Z</time>
   </trkpt>
   <trkpt lat="47.3798150" lon="-122.0392120">
    <ele>143.2</ele>
    <time>2021-09-04T23:21:15Z</time>
   </trkpt>
   <trkpt lat="47.3798180" lon="-122.0392230">
    <ele>143.2</ele>
    <time>2021-09-04T23:21:16Z</time>
   </trkpt>
   <trkpt lat="47.3798200" lon="-122.0392270">
    <ele>143.2</ele>
    <time>2021-09-04T23:21:17Z</time>
   </trkpt>
   <trkpt lat="47.3798170" lon="-122.0392300">
    <ele>143.2</ele>
    <time>2021-09-04T23:21:18Z</time>
   </trkpt>
   <trkpt lat="47.3798120" lon="-122.0392320">
    <ele>143.2</ele>
    <time>2021-09-04T23:21:19Z</time>
   </trkpt>
   <trkpt lat="47.3798090" lon="-122.0392360">
    <ele>143.2</ele>
    <time>2021-09-04T23:21:20Z</time>
   </trkpt>
   <trkpt lat="47.3798050" lon="-122.0392440">
    <ele>143.1</ele>
    <time>2021-09-04T23:21:21Z</time>
   </trkpt>
   <trkpt lat="47.3798020" lon="-122.0392460">
    <ele>143.1</ele>
    <time>2021-09-04T23:21:22Z</time>
   </trkpt>
   <trkpt lat="47.3798010" lon="-122.0392460">
    <ele>143.1</ele>
    <time>2021-09-04T23:21:23Z</time>
   </trkpt>
   <trkpt lat="47.3798000" lon="-122.0392460">
    <ele>143.1</ele>
    <time>2021-09-04T23:21:24Z</time>
   </trkpt>
   <trkpt lat="47.3797990" lon="-122.0392580">
    <ele>143.1</ele>
    <time>2021-09-04T23:21:25Z</time>
   </trkpt>
   <trkpt lat="47.3797940" lon="-122.0392620">
    <ele>143.1</ele>
    <time>2021-09-04T23:21:26Z</time>
   </trkpt>
   <trkpt lat="47.3797790" lon="-122.0392710">
    <ele>143.1</ele>
    <time>2021-09-04T23:21:27Z</time>
   </trkpt>
   <trkpt lat="47.3797830" lon="-122.0392810">
    <ele>143.1</ele>
    <time>2021-09-04T23:21:28Z</time>
   </trkpt>
   <trkpt lat="47.3797790" lon="-122.0392910">
    <ele>143.1</ele>
    <time>2021-09-04T23:21:29Z</time>
   </trkpt>
   <trkpt lat="47.3797780" lon="-122.0393050">
    <ele>143.1</ele>
    <time>2021-09-04T23:21:30Z</time>
   </trkpt>
   <trkpt lat="47.3797770" lon="-122.0393150">
    <ele>143.1</ele>
    <time>2021-09-04T23:21:31Z</time>
   </trkpt>
   <trkpt lat="47.3797740" lon="-122.0393240">
    <ele>143.1</ele>
    <time>2021-09-04T23:21:32Z</time>
   </trkpt>
   <trkpt lat="47.3797710" lon="-122.0393390">
    <ele>143.1</ele>
    <time>2021-09-04T23:21:33Z</time>
   </trkpt>
   <trkpt lat="47.3797710" lon="-122.0393480">
    <ele>143.1</ele>
    <time>2021-09-04T23:21:34Z</time>
   </trkpt>
   <trkpt lat="47.3797690" lon="-122.0393630">
    <ele>143.1</ele>
    <time>2021-09-04T23:21:35Z</time>
   </trkpt>
   <trkpt lat="47.3797680" lon="-122.0393740">
    <ele>143.1</ele>
    <time>2021-09-04T23:21:36Z</time>
   </trkpt>
   <trkpt lat="47.3797660" lon="-122.0393880">
    <ele>143.1</ele>
    <time>2021-09-04T23:21:37Z</time>
   </trkpt>
   <trkpt lat="47.3797640" lon="-122.0394040">
    <ele>143.1</ele>
    <time>2021-09-04T23:21:38Z</time>
   </trkpt>
   <trkpt lat="47.3797610" lon="-122.0394160">
    <ele>143.1</ele>
    <time>2021-09-04T23:21:39Z</time>
   </trkpt>
   <trkpt lat="47.3797630" lon="-122.0394190">
    <ele>143.1</ele>
    <time>2021-09-04T23:21:40Z</time>
   </trkpt>
   <trkpt lat="47.3797590" lon="-122.0394270">
    <ele>143.1</ele>
    <time>2021-09-04T23:21:41Z</time>
   </trkpt>
   <trkpt lat="47.3797600" lon="-122.0394450">
    <ele>143.1</ele>
    <time>2021-09-04T23:21:42Z</time>
   </trkpt>
   <trkpt lat="47.3797610" lon="-122.0394580">
    <ele>143.1</ele>
    <time>2021-09-04T23:21:43Z</time>
   </trkpt>
   <trkpt lat="47.3797620" lon="-122.0394700">
    <ele>143.1</ele>
    <time>2021-09-04T23:21:44Z</time>
   </trkpt>
   <trkpt lat="47.3797630" lon="-122.0394830">
    <ele>143.1</ele>
    <time>2021-09-04T23:21:45Z</time>
   </trkpt>
   <trkpt lat="47.3797610" lon="-122.0394960">
    <ele>143.1</ele>
    <time>2021-09-04T23:21:46Z</time>
   </trkpt>
   <trkpt lat="47.3797590" lon="-122.0395180">
    <ele>143.0</ele>
    <time>2021-09-04T23:21:47Z</time>
   </trkpt>
   <trkpt lat="47.3797610" lon="-122.0395280">
    <ele>143.0</ele>
    <time>2021-09-04T23:21:48Z</time>
   </trkpt>
   <trkpt lat="47.3797620" lon="-122.0395380">
    <ele>143.0</ele>
    <time>2021-09-04T23:21:49Z</time>
   </trkpt>
   <trkpt lat="47.3797650" lon="-122.0395520">
    <ele>143.0</ele>
    <time>2021-09-04T23:21:50Z</time>
   </trkpt>
   <trkpt lat="47.3797600" lon="-122.0395670">
    <ele>143.0</ele>
    <time>2021-09-04T23:21:51Z</time>
   </trkpt>
   <trkpt lat="47.3797650" lon="-122.0395690">
    <ele>143.0</ele>
    <time>2021-09-04T23:21:52Z</time>
   </trkpt>
   <trkpt lat="47.3797650" lon="-122.0395820">
    <ele>143.0</ele>
    <time>2021-09-04T23:21:53Z</time>
   </trkpt>
   <trkpt lat="47.3797610" lon="-122.0395870">
    <ele>143.0</ele>
    <time>2021-09-04T23:21:54Z</time>
   </trkpt>
   <trkpt lat="47.3797580" lon="-122.0395930">
    <ele>143.0</ele>
    <time>2021-09-04T23:21:55Z</time>
   </trkpt>
   <trkpt lat="47.3797540" lon="-122.0395980">
    <ele>143.0</ele>
    <time>2021-09-04T23:21:56Z</time>
   </trkpt>
   <trkpt lat="47.3797510" lon="-122.0396040">
    <ele>143.0</ele>
    <time>2021-09-04T23:21:57Z</time>
   </trkpt>
   <trkpt lat="47.3797470" lon="-122.0396090">
    <ele>143.0</ele>
    <time>2021-09-04T23:21:58Z</time>
   </trkpt>
   <trkpt lat="47.3797440" lon="-122.0396150">
    <ele>143.0</ele>
    <time>2021-09-04T23:21:59Z</time>
   </trkpt>
   <trkpt lat="47.3797400" lon="-122.0396200">
    <ele>143.0</ele>
    <time>2021-09-04T23:22:00Z</time>
   </trkpt>
   <trkpt lat="47.3797380" lon="-122.0396170">
    <ele>143.0</ele>
    <time>2021-09-04T23:22:01Z</time>
   </trkpt>
   <trkpt lat="47.3797370" lon="-122.0396190">
    <ele>143.0</ele>
    <time>2021-09-04T23:22:02Z</time>
   </trkpt>
   <trkpt lat="47.3797360" lon="-122.0396210">
    <ele>143.0</ele>
    <time>2021-09-04T23:22:03Z</time>
   </trkpt>
   <trkpt lat="47.3797350" lon="-122.0396220">
    <ele>143.0</ele>
    <time>2021-09-04T23:22:04Z</time>
   </trkpt>
   <trkpt lat="47.3797340" lon="-122.0396240">
    <ele>143.0</ele>
    <time>2021-09-04T23:22:05Z</time>
   </trkpt>
   <trkpt lat="47.3797330" lon="-122.0396260">
    <ele>143.0</ele>
    <time>2021-09-04T23:22:06Z</time>
   </trkpt>
   <trkpt lat="47.3797320" lon="-122.0396280">
    <ele>143.0</ele>
    <time>2021-09-04T23:22:07Z</time>
   </trkpt>
   <trkpt lat="47.3797310" lon="-122.0396300">
    <ele>143.0</ele>
    <time>2021-09-04T23:22:08Z</time>
   </trkpt>
   <trkpt lat="47.3797300" lon="-122.0396320">
    <ele>143.0</ele>
    <time>2021-09-04T23:22:09Z</time>
   </trkpt>
   <trkpt lat="47.3797290" lon="-122.0396340">
    <ele>143.0</ele>
    <time>2021-09-04T23:22:10Z</time>
   </trkpt>
   <trkpt lat="47.3797280" lon="-122.0396350">
    <ele>143.0</ele>
    <time>2021-09-04T23:22:11Z</time>
   </trkpt>
   <trkpt lat="47.3797270" lon="-122.0396370">
    <ele>143.0</ele>
    <time>2021-09-04T23:22:12Z</time>
   </trkpt>
   <trkpt lat="47.3797260" lon="-122.0396390">
    <ele>143.0</ele>
    <time>2021-09-04T23:22:13Z</time>
   </trkpt>
   <trkpt lat="47.3797240" lon="-122.0396410">
    <ele>143.0</ele>
    <time>2021-09-04T23:22:14Z</time>
   </trkpt>
   <trkpt lat="47.3797230" lon="-122.0396430">
    <ele>143.0</ele>
    <time>2021-09-04T23:22:15Z</time>
   </trkpt>
   <trkpt lat="47.3797220" lon="-122.0396450">
    <ele>143.0</ele>
    <time>2021-09-04T23:22:16Z</time>
   </trkpt>
   <trkpt lat="47.3797210" lon="-122.0396460">
    <ele>143.0</ele>
    <time>2021-09-04T23:22:17Z</time>
   </trkpt>
   <trkpt lat="47.3797200" lon="-122.0396480">
    <ele>143.0</ele>
    <time>2021-09-04T23:22:18Z</time>
   </trkpt>
   <trkpt lat="47.3797190" lon="-122.0396500">
    <ele>143.0</ele>
    <time>2021-09-04T23:22:19Z</time>
   </trkpt>
   <trkpt lat="47.3797180" lon="-122.0396520">
    <ele>143.0</ele>
    <time>2021-09-04T23:22:20Z</time>
   </trkpt>
   <trkpt lat="47.3797170" lon="-122.0396540">
    <ele>143.0</ele>
    <time>2021-09-04T23:22:21Z</time>
   </trkpt>
   <trkpt lat="47.3797160" lon="-122.0396560">
    <ele>143.0</ele>
    <time>2021-09-04T23:22:22Z</time>
   </trkpt>
   <trkpt lat="47.3797150" lon="-122.0396580">
    <ele>143.0</ele>
    <time>2021-09-04T23:22:23Z</time>
   </trkpt>
   <trkpt lat="47.3797140" lon="-122.0396590">
    <ele>143.0</ele>
    <time>2021-09-04T23:22:24Z</time>
   </trkpt>
   <trkpt lat="47.3797130" lon="-122.0396610">
    <ele>143.0</ele>
    <time>2021-09-04T23:22:25Z</time>
   </trkpt>
   <trkpt lat="47.3797120" lon="-122.0396630">
    <ele>143.0</ele>
    <time>2021-09-04T23:22:26Z</time>
   </trkpt>
   <trkpt lat="47.3797110" lon="-122.0396650">
    <ele>143.0</ele>
    <time>2021-09-04T23:22:27Z</time>
   </trkpt>
   <trkpt lat="47.3797180" lon="-122.0396770">
    <ele>143.0</ele>
    <time>2021-09-04T23:22:28Z</time>
   </trkpt>
   <trkpt lat="47.3797190" lon="-122.0396850">
    <ele>143.0</ele>
    <time>2021-09-04T23:22:29Z</time>
   </trkpt>
   <trkpt lat="47.3797220" lon="-122.0396960">
    <ele>143.0</ele>
    <time>2021-09-04T23:22:30Z</time>
   </trkpt>
   <trkpt lat="47.3797190" lon="-122.0397000">
    <ele>143.0</ele>
    <time>2021-09-04T23:22:31Z</time>
   </trkpt>
   <trkpt lat="47.3797150" lon="-122.0397050">
    <ele>143.0</ele>
    <time>2021-09-04T23:22:32Z</time>
   </trkpt>
   <trkpt lat="47.3797090" lon="-122.0397140">
    <ele>143.0</ele>
    <time>2021-09-04T23:22:33Z</time>
   </trkpt>
   <trkpt lat="47.3797040" lon="-122.0397270">
    <ele>143.0</ele>
    <time>2021-09-04T23:22:34Z</time>
   </trkpt>
   <trkpt lat="47.3796920" lon="-122.0397370">
    <ele>143.0</ele>
    <time>2021-09-04T23:22:35Z</time>
   </trkpt>
   <trkpt lat="47.3796940" lon="-122.0397420">
    <ele>143.0</ele>
    <time>2021-09-04T23:22:36Z</time>
   </trkpt>
   <trkpt lat="47.3796940" lon="-122.0397490">
    <ele>143.0</ele>
    <time>2021-09-04T23:22:37Z</time>
   </trkpt>
   <trkpt lat="47.3796930" lon="-122.0397540">
    <ele>143.0</ele>
    <time>2021-09-04T23:22:38Z</time>
   </trkpt>
   <trkpt lat="47.3796880" lon="-122.0397610">
    <ele>143.0</ele>
    <time>2021-09-04T23:22:39Z</time>
   </trkpt>
   <trkpt lat="47.3796830" lon="-122.0397740">
    <ele>143.0</ele>
    <time>2021-09-04T23:22:40Z</time>
   </trkpt>
   <trkpt lat="47.3796810" lon="-122.0397810">
    <ele>143.0</ele>
    <time>2021-09-04T23:22:41Z</time>
   </trkpt>
   <trkpt lat="47.3796810" lon="-122.0397980">
    <ele>143.0</ele>
    <time>2021-09-04T23:22:42Z</time>
   </trkpt>
   <trkpt lat="47.3796790" lon="-122.0397990">
    <ele>143.1</ele>
    <time>2021-09-04T23:22:43Z</time>
   </trkpt>
   <trkpt lat="47.3796720" lon="-122.0398070">
    <ele>143.1</ele>
    <time>2021-09-04T23:22:44Z</time>
   </trkpt>
   <trkpt lat="47.3796720" lon="-122.0398130">
    <ele>143.1</ele>
    <time>2021-09-04T23:22:45Z</time>
   </trkpt>
   <trkpt lat="47.3796670" lon="-122.0398160">
    <ele>143.1</ele>
    <time>2021-09-04T23:22:46Z</time>
   </trkpt>
   <trkpt lat="47.3796630" lon="-122.0398180">
    <ele>143.1</ele>
    <time>2021-09-04T23:22:47Z</time>
   </trkpt>
   <trkpt lat="47.3796620" lon="-122.0398350">
    <ele>143.1</ele>
    <time>2021-09-04T23:22:48Z</time>
   </trkpt>
   <trkpt lat="47.3796660" lon="-122.0398540">
    <ele>143.1</ele>
    <time>2021-09-04T23:22:49Z</time>
   </trkpt>
   <trkpt lat="47.3796580" lon="-122.0398670">
    <ele>143.1</ele>
    <time>2021-09-04T23:22:50Z</time>
   </trkpt>
   <trkpt lat="47.3796500" lon="-122.0398780">
    <ele>143.1</ele>
    <time>2021-09-04T23:22:51Z</time>
   </trkpt>
  </trkseg>
 </trk>
</gpx>
