<?xml version="1.0" encoding="UTF-8"?>
<gpx creator="StravaGPX" version="1.1" xmlns="http://www.topografix.com/GPX/1/1" xmlns:xsi="http://www.w3.org/2001/XMLSchema-instance" xsi:schemaLocation="http://www.topografix.com/GPX/1/1 http://www.topografix.com/GPX/1/1/gpx.xsd">
 <metadata>
  <time>2021-09-05T22:37:30Z</time>
 </metadata>
 <trk>
  <name>Cool down </name>
  <type>walking</type>
  <trkseg>
   <trkpt lat="47.3789120" lon="-122.0357230">
    <ele>152.7</ele>
    <time>2021-09-05T22:37:30Z</time>
   </trkpt>
   <trkpt lat="47.3789230" lon="-122.0357380">
    <ele>152.7</ele>
    <time>2021-09-05T22:37:31Z</time>
   </trkpt>
   <trkpt lat="47.3789350" lon="-122.0357520">
    <ele>152.7</ele>
    <time>2021-09-05T22:37:32Z</time>
   </trkpt>
   <trkpt lat="47.3789560" lon="-122.0357860">
    <ele>152.6</ele>
    <time>2021-09-05T22:37:33Z</time>
   </trkpt>
   <trkpt lat="47.3789690" lon="-122.0358080">
    <ele>152.6</ele>
    <time>2021-09-05T22:37:38Z</time>
   </trkpt>
   <trkpt lat="47.3789830" lon="-122.0358310">
    <ele>152.5</ele>
    <time>2021-09-05T22:37:39Z</time>
   </trkpt>
   <trkpt lat="47.3789960" lon="-122.0358530">
    <ele>152.5</ele>
    <time>2021-09-05T22:37:40Z</time>
   </trkpt>
   <trkpt lat="47.3790100" lon="-122.0358750">
    <ele>152.4</ele>
    <time>2021-09-05T22:37:41Z</time>
   </trkpt>
   <trkpt lat="47.3790220" lon="-122.0358890">
    <ele>152.4</ele>
    <time>2021-09-05T22:37:42Z</time>
   </trkpt>
   <trkpt lat="47.3790270" lon="-122.0359080">
    <ele>152.4</ele>
    <time>2021-09-05T22:37:43Z</time>
   </trkpt>
   <trkpt lat="47.3790410" lon="-122.0359310">
    <ele>152.3</ele>
    <time>2021-09-05T22:37:44Z</time>
   </trkpt>
   <trkpt lat="47.3790470" lon="-122.0359400">
    <ele>152.3</ele>
    <time>2021-09-05T22:37:45Z</time>
   </trkpt>
   <trkpt lat="47.3790540" lon="-122.0359490">
    <ele>152.3</ele>
    <time>2021-09-05T22:37:46Z</time>
   </trkpt>
   <trkpt lat="47.3790600" lon="-122.0359530">
    <ele>152.3</ele>
    <time>2021-09-05T22:37:47Z</time>
   </trkpt>
   <trkpt lat="47.3790780" lon="-122.0359710">
    <ele>152.3</ele>
    <time>2021-09-05T22:37:48Z</time>
   </trkpt>
   <trkpt lat="47.3790820" lon="-122.0359910">
    <ele>152.2</ele>
    <time>2021-09-05T22:37:49Z</time>
   </trkpt>
   <trkpt lat="47.3790880" lon="-122.0359930">
    <ele>152.2</ele>
    <time>2021-09-05T22:37:50Z</time>
   </trkpt>
   <trkpt lat="47.3790970" lon="-122.0360070">
    <ele>152.2</ele>
    <time>2021-09-05T22:37:51Z</time>
   </trkpt>
   <trkpt lat="47.3791040" lon="-122.0360260">
    <ele>152.2</ele>
    <time>2021-09-05T22:37:52Z</time>
   </trkpt>
   <trkpt lat="47.3791110" lon="-122.0360360">
    <ele>152.1</ele>
    <time>2021-09-05T22:37:53Z</time>
   </trkpt>
   <trkpt lat="47.3791250" lon="-122.0360380">
    <ele>152.1</ele>
    <time>2021-09-05T22:37:54Z</time>
   </trkpt>
   <trkpt lat="47.3791370" lon="-122.0360420">
    <ele>152.1</ele>
    <time>2021-09-05T22:37:55Z</time>
   </trkpt>
   <trkpt lat="47.3791470" lon="-122.0360470">
    <ele>152.1</ele>
    <time>2021-09-05T22:37:56Z</time>
   </trkpt>
   <trkpt lat="47.3791540" lon="-122.0360570">
    <ele>152.1</ele>
    <time>2021-09-05T22:37:57Z</time>
   </trkpt>
   <trkpt lat="47.3791710" lon="-122.0360730">
    <ele>152.0</ele>
    <time>2021-09-05T22:37:58Z</time>
   </trkpt>
   <trkpt lat="47.3791780" lon="-122.0360790">
    <ele>152.0</ele>
    <time>2021-09-05T22:37:59Z</time>
   </trkpt>
   <trkpt lat="47.3791850" lon="-122.0360840">
    <ele>152.0</ele>
    <time>2021-09-05T22:38:00Z</time>
   </trkpt>
   <trkpt lat="47.3791980" lon="-122.0360910">
    <ele>152.0</ele>
    <time>2021-09-05T22:38:01Z</time>
   </trkpt>
   <trkpt lat="47.3792060" lon="-122.0361120">
    <ele>152.0</ele>
    <time>2021-09-05T22:38:02Z</time>
   </trkpt>
   <trkpt lat="47.3792170" lon="-122.0361190">
    <ele>151.9</ele>
    <time>2021-09-05T22:38:03Z</time>
   </trkpt>
   <trkpt lat="47.3792260" lon="-122.0361270">
    <ele>151.9</ele>
    <time>2021-09-05T22:38:04Z</time>
   </trkpt>
   <trkpt lat="47.3792370" lon="-122.0361390">
    <ele>151.9</ele>
    <time>2021-09-05T22:38:05Z</time>
   </trkpt>
   <trkpt lat="47.3792510" lon="-122.0361620">
    <ele>151.9</ele>
    <time>2021-09-05T22:38:06Z</time>
   </trkpt>
   <trkpt lat="47.3792570" lon="-122.0361720">
    <ele>151.9</ele>
    <time>2021-09-05T22:38:07Z</time>
   </trkpt>
   <trkpt lat="47.3792630" lon="-122.0361830">
    <ele>151.8</ele>
    <time>2021-09-05T22:38:08Z</time>
   </trkpt>
   <trkpt lat="47.3792700" lon="-122.0361920">
    <ele>151.8</ele>
    <time>2021-09-05T22:38:09Z</time>
   </trkpt>
   <trkpt lat="47.3792830" lon="-122.0361960">
    <ele>151.8</ele>
    <time>2021-09-05T22:38:10Z</time>
   </trkpt>
   <trkpt lat="47.3792900" lon="-122.0362050">
    <ele>151.8</ele>
    <time>2021-09-05T22:38:11Z</time>
   </trkpt>
   <trkpt lat="47.3792980" lon="-122.0362260">
    <ele>151.8</ele>
    <time>2021-09-05T22:38:12Z</time>
   </trkpt>
   <trkpt lat="47.3793060" lon="-122.0362390">
    <ele>151.8</ele>
    <time>2021-09-05T22:38:13Z</time>
   </trkpt>
   <trkpt lat="47.3793130" lon="-122.0362440">
    <ele>151.7</ele>
    <time>2021-09-05T22:38:14Z</time>
   </trkpt>
   <trkpt lat="47.3793190" lon="-122.0362460">
    <ele>151.7</ele>
    <time>2021-09-05T22:38:15Z</time>
   </trkpt>
   <trkpt lat="47.3793280" lon="-122.0362580">
    <ele>151.7</ele>
    <time>2021-09-05T22:38:16Z</time>
   </trkpt>
   <trkpt lat="47.3793350" lon="-122.0362670">
    <ele>151.7</ele>
    <time>2021-09-05T22:38:17Z</time>
   </trkpt>
   <trkpt lat="47.3793470" lon="-122.0362880">
    <ele>151.7</ele>
    <time>2021-09-05T22:38:18Z</time>
   </trkpt>
   <trkpt lat="47.3793520" lon="-122.0362990">
    <ele>151.7</ele>
    <time>2021-09-05T22:38:19Z</time>
   </trkpt>
   <trkpt lat="47.3793570" lon="-122.0363110">
    <ele>151.7</ele>
    <time>2021-09-05T22:38:20Z</time>
   </trkpt>
   <trkpt lat="47.3793690" lon="-122.0363310">
    <ele>151.6</ele>
    <time>2021-09-05T22:38:21Z</time>
   </trkpt>
   <trkpt lat="47.3793750" lon="-122.0363450">
    <ele>151.6</ele>
    <time>2021-09-05T22:38:22Z</time>
   </trkpt>
   <trkpt lat="47.3793880" lon="-122.0363620">
    <ele>151.6</ele>
    <time>2021-09-05T22:38:23Z</time>
   </trkpt>
   <trkpt lat="47.3793950" lon="-122.0363730">
    <ele>151.6</ele>
    <time>2021-09-05T22:38:24Z</time>
   </trkpt>
   <trkpt lat="47.3794020" lon="-122.0363830">
    <ele>151.6</ele>
    <time>2021-09-05T22:38:25Z</time>
   </trkpt>
   <trkpt lat="47.3794130" lon="-122.0363980">
    <ele>151.6</ele>
    <time>2021-09-05T22:38:26Z</time>
   </trkpt>
   <trkpt lat="47.3794230" lon="-122.0364160">
    <ele>151.5</ele>
    <time>2021-09-05T22:38:27Z</time>
   </trkpt>
   <trkpt lat="47.3794380" lon="-122.0364250">
    <ele>151.5</ele>
    <time>2021-09-05T22:38:28Z</time>
   </trkpt>
   <trkpt lat="47.3794520" lon="-122.0364350">
    <ele>151.5</ele>
    <time>2021-09-05T22:38:29Z</time>
   </trkpt>
   <trkpt lat="47.3794600" lon="-122.0364440">
    <ele>151.5</ele>
    <time>2021-09-05T22:38:30Z</time>
   </trkpt>
   <trkpt lat="47.3794720" lon="-122.0364570">
    <ele>151.5</ele>
    <time>2021-09-05T22:38:31Z</time>
   </trkpt>
   <trkpt lat="47.3794730" lon="-122.0364630">
    <ele>151.5</ele>
    <time>2021-09-05T22:38:32Z</time>
   </trkpt>
   <trkpt lat="47.3794780" lon="-122.0364700">
    <ele>151.5</ele>
    <time>2021-09-05T22:38:33Z</time>
   </trkpt>
   <trkpt lat="47.3794910" lon="-122.0364830">
    <ele>151.4</ele>
    <time>2021-09-05T22:38:34Z</time>
   </trkpt>
   <trkpt lat="47.3794990" lon="-122.0364970">
    <ele>151.4</ele>
    <time>2021-09-05T22:38:35Z</time>
   </trkpt>
   <trkpt lat="47.3795150" lon="-122.0365110">
    <ele>151.4</ele>
    <time>2021-09-05T22:38:36Z</time>
   </trkpt>
   <trkpt lat="47.3795270" lon="-122.0365270">
    <ele>151.4</ele>
    <time>2021-09-05T22:38:37Z</time>
   </trkpt>
   <trkpt lat="47.3795340" lon="-122.0365320">
    <ele>151.4</ele>
    <time>2021-09-05T22:38:38Z</time>
   </trkpt>
   <trkpt lat="47.3795360" lon="-122.0365360">
    <ele>151.4</ele>
    <time>2021-09-05T22:38:39Z</time>
   </trkpt>
   <trkpt lat="47.3795390" lon="-122.0365480">
    <ele>151.4</ele>
    <time>2021-09-05T22:38:40Z</time>
   </trkpt>
   <trkpt lat="47.3795490" lon="-122.0365610">
    <ele>151.4</ele>
    <time>2021-09-05T22:38:41Z</time>
   </trkpt>
   <trkpt lat="47.3795650" lon="-122.0365840">
    <ele>151.3</ele>
    <time>2021-09-05T22:38:42Z</time>
   </trkpt>
   <trkpt lat="47.3795710" lon="-122.0365910">
    <ele>151.3</ele>
    <time>2021-09-05T22:38:43Z</time>
   </trkpt>
   <trkpt lat="47.3795770" lon="-122.0365990">
    <ele>151.3</ele>
    <time>2021-09-05T22:38:44Z</time>
   </trkpt>
   <trkpt lat="47.3795830" lon="-122.0366100">
    <ele>151.3</ele>
    <time>2021-09-05T22:38:45Z</time>
   </trkpt>
   <trkpt lat="47.3795940" lon="-122.0366240">
    <ele>151.3</ele>
    <time>2021-09-05T22:38:46Z</time>
   </trkpt>
   <trkpt lat="47.3796000" lon="-122.0366390">
    <ele>151.3</ele>
    <time>2021-09-05T22:38:48Z</time>
   </trkpt>
   <trkpt lat="47.3796160" lon="-122.0366730">
    <ele>151.3</ele>
    <time>2021-09-05T22:38:49Z</time>
   </trkpt>
   <trkpt lat="47.3796220" lon="-122.0366820">
    <ele>151.2</ele>
    <time>2021-09-05T22:38:50Z</time>
   </trkpt>
   <trkpt lat="47.3796300" lon="-122.0366990">
    <ele>151.2</ele>
    <time>2021-09-05T22:38:51Z</time>
   </trkpt>
   <trkpt lat="47.3796410" lon="-122.0367080">
    <ele>151.2</ele>
    <time>2021-09-05T22:38:52Z</time>
   </trkpt>
   <trkpt lat="47.3796490" lon="-122.0367120">
    <ele>151.2</ele>
    <time>2021-09-05T22:38:53Z</time>
   </trkpt>
   <trkpt lat="47.3796600" lon="-122.0367260">
    <ele>151.2</ele>
    <time>2021-09-05T22:38:54Z</time>
   </trkpt>
   <trkpt lat="47.3796710" lon="-122.0367430">
    <ele>151.2</ele>
    <time>2021-09-05T22:38:55Z</time>
   </trkpt>
   <trkpt lat="47.3796830" lon="-122.0367520">
    <ele>151.2</ele>
    <time>2021-09-05T22:38:56Z</time>
   </trkpt>
   <trkpt lat="47.3797010" lon="-122.0367630">
    <ele>151.1</ele>
    <time>2021-09-05T22:38:57Z</time>
   </trkpt>
   <trkpt lat="47.3797130" lon="-122.0367710">
    <ele>151.1</ele>
    <time>2021-09-05T22:38:58Z</time>
   </trkpt>
   <trkpt lat="47.3797300" lon="-122.0367750">
    <ele>151.1</ele>
    <time>2021-09-05T22:38:59Z</time>
   </trkpt>
   <trkpt lat="47.3797430" lon="-122.0367780">
    <ele>151.1</ele>
    <time>2021-09-05T22:39:00Z</time>
   </trkpt>
   <trkpt lat="47.3797550" lon="-122.0367960">
    <ele>151.1</ele>
    <time>2021-09-05T22:39:01Z</time>
   </trkpt>
   <trkpt lat="47.3797640" lon="-122.0368090">
    <ele>151.1</ele>
    <time>2021-09-05T22:39:02Z</time>
   </trkpt>
   <trkpt lat="47.3797710" lon="-122.0368270">
    <ele>151.0</ele>
    <time>2021-09-05T22:39:03Z</time>
   </trkpt>
   <trkpt lat="47.3797750" lon="-122.0368360">
    <ele>151.0</ele>
    <time>2021-09-05T22:39:04Z</time>
   </trkpt>
   <trkpt lat="47.3797840" lon="-122.0368470">
    <ele>151.0</ele>
    <time>2021-09-05T22:39:05Z</time>
   </trkpt>
   <trkpt lat="47.3797970" lon="-122.0368630">
    <ele>151.0</ele>
    <time>2021-09-05T22:39:06Z</time>
   </trkpt>
   <trkpt lat="47.3798050" lon="-122.0368770">
    <ele>151.0</ele>
    <time>2021-09-05T22:39:07Z</time>
   </trkpt>
   <trkpt lat="47.3798100" lon="-122.0368960">
    <ele>150.9</ele>
    <time>2021-09-05T22:39:08Z</time>
   </trkpt>
   <trkpt lat="47.3798160" lon="-122.0369030">
    <ele>150.9</ele>
    <time>2021-09-05T22:39:09Z</time>
   </trkpt>
   <trkpt lat="47.3798300" lon="-122.0369300">
    <ele>150.9</ele>
    <time>2021-09-05T22:39:10Z</time>
   </trkpt>
   <trkpt lat="47.3798340" lon="-122.0369380">
    <ele>150.9</ele>
    <time>2021-09-05T22:39:11Z</time>
   </trkpt>
   <trkpt lat="47.3798390" lon="-122.0369450">
    <ele>150.9</ele>
    <time>2021-09-05T22:39:12Z</time>
   </trkpt>
   <trkpt lat="47.3798530" lon="-122.0369590">
    <ele>150.9</ele>
    <time>2021-09-05T22:39:13Z</time>
   </trkpt>
   <trkpt lat="47.3798680" lon="-122.0369700">
    <ele>150.8</ele>
    <time>2021-09-05T22:39:14Z</time>
   </trkpt>
   <trkpt lat="47.3798710" lon="-122.0369850">
    <ele>150.8</ele>
    <time>2021-09-05T22:39:15Z</time>
   </trkpt>
   <trkpt lat="47.3798730" lon="-122.0369930">
    <ele>150.8</ele>
    <time>2021-09-05T22:39:16Z</time>
   </trkpt>
   <trkpt lat="47.3798790" lon="-122.0370000">
    <ele>150.8</ele>
    <time>2021-09-05T22:39:17Z</time>
   </trkpt>
   <trkpt lat="47.3798910" lon="-122.0370340">
    <ele>150.8</ele>
    <time>2021-09-05T22:39:18Z</time>
   </trkpt>
   <trkpt lat="47.3798970" lon="-122.0370490">
    <ele>150.8</ele>
    <time>2021-09-05T22:39:19Z</time>
   </trkpt>
   <trkpt lat="47.3799080" lon="-122.0370700">
    <ele>150.7</ele>
    <time>2021-09-05T22:39:20Z</time>
   </trkpt>
   <trkpt lat="47.3799120" lon="-122.0370800">
    <ele>150.7</ele>
    <time>2021-09-05T22:39:21Z</time>
   </trkpt>
   <trkpt lat="47.3799150" lon="-122.0370890">
    <ele>150.7</ele>
    <time>2021-09-05T22:39:22Z</time>
   </trkpt>
   <trkpt lat="47.3799190" lon="-122.0370990">
    <ele>150.7</ele>
    <time>2021-09-05T22:39:23Z</time>
   </trkpt>
   <trkpt lat="47.3799220" lon="-122.0371100">
    <ele>150.7</ele>
    <time>2021-09-05T22:39:24Z</time>
   </trkpt>
   <trkpt lat="47.3799220" lon="-122.0371170">
    <ele>150.7</ele>
    <time>2021-09-05T22:39:25Z</time>
   </trkpt>
   <trkpt lat="47.3799220" lon="-122.0371250">
    <ele>150.7</ele>
    <time>2021-09-05T22:39:26Z</time>
   </trkpt>
   <trkpt lat="47.3799290" lon="-122.0371450">
    <ele>150.7</ele>
    <time>2021-09-05T22:39:27Z</time>
   </trkpt>
   <trkpt lat="47.3799360" lon="-122.0371530">
    <ele>150.7</ele>
    <time>2021-09-05T22:39:28Z</time>
   </trkpt>
   <trkpt lat="47.3799420" lon="-122.0371630">
    <ele>150.6</ele>
    <time>2021-09-05T22:39:29Z</time>
   </trkpt>
   <trkpt lat="47.3799480" lon="-122.0371770">
    <ele>150.6</ele>
    <time>2021-09-05T22:39:30Z</time>
   </trkpt>
   <trkpt lat="47.3799500" lon="-122.0371840">
    <ele>150.6</ele>
    <time>2021-09-05T22:39:31Z</time>
   </trkpt>
   <trkpt lat="47.3799530" lon="-122.0371970">
    <ele>150.6</ele>
    <time>2021-09-05T22:39:32Z</time>
   </trkpt>
   <trkpt lat="47.3799590" lon="-122.0372110">
    <ele>150.6</ele>
    <time>2021-09-05T22:39:33Z</time>
   </trkpt>
   <trkpt lat="47.3799640" lon="-122.0372140">
    <ele>150.6</ele>
    <time>2021-09-05T22:39:34Z</time>
   </trkpt>
   <trkpt lat="47.3799720" lon="-122.0372340">
    <ele>150.6</ele>
    <time>2021-09-05T22:39:35Z</time>
   </trkpt>
   <trkpt lat="47.3799770" lon="-122.0372580">
    <ele>150.5</ele>
    <time>2021-09-05T22:39:36Z</time>
   </trkpt>
   <trkpt lat="47.3799880" lon="-122.0372780">
    <ele>150.5</ele>
    <time>2021-09-05T22:39:37Z</time>
   </trkpt>
   <trkpt lat="47.3799950" lon="-122.0372910">
    <ele>150.5</ele>
    <time>2021-09-05T22:39:38Z</time>
   </trkpt>
   <trkpt lat="47.3800040" lon="-122.0373200">
    <ele>150.5</ele>
    <time>2021-09-05T22:39:39Z</time>
   </trkpt>
   <trkpt lat="47.3800060" lon="-122.0373340">
    <ele>150.5</ele>
    <time>2021-09-05T22:39:40Z</time>
   </trkpt>
   <trkpt lat="47.3800090" lon="-122.0373480">
    <ele>150.4</ele>
    <time>2021-09-05T22:39:41Z</time>
   </trkpt>
   <trkpt lat="47.3800130" lon="-122.0373600">
    <ele>150.4</ele>
    <time>2021-09-05T22:39:42Z</time>
   </trkpt>
   <trkpt lat="47.3800220" lon="-122.0373700">
    <ele>150.4</ele>
    <time>2021-09-05T22:39:43Z</time>
   </trkpt>
   <trkpt lat="47.3800250" lon="-122.0373850">
    <ele>150.4</ele>
    <time>2021-09-05T22:39:44Z</time>
   </trkpt>
   <trkpt lat="47.3800340" lon="-122.0373970">
    <ele>150.4</ele>
    <time>2021-09-05T22:39:45Z</time>
   </trkpt>
   <trkpt lat="47.3800440" lon="-122.0374170">
    <ele>150.4</ele>
    <time>2021-09-05T22:39:46Z</time>
   </trkpt>
   <trkpt lat="47.3800540" lon="-122.0374340">
    <ele>150.3</ele>
    <time>2021-09-05T22:39:47Z</time>
   </trkpt>
   <trkpt lat="47.3800630" lon="-122.0374520">
    <ele>150.3</ele>
    <time>2021-09-05T22:39:48Z</time>
   </trkpt>
   <trkpt lat="47.3800820" lon="-122.0374730">
    <ele>150.3</ele>
    <time>2021-09-05T22:39:49Z</time>
   </trkpt>
   <trkpt lat="47.3800880" lon="-122.0374830">
    <ele>150.3</ele>
    <time>2021-09-05T22:39:50Z</time>
   </trkpt>
   <trkpt lat="47.3800930" lon="-122.0374930">
    <ele>150.3</ele>
    <time>2021-09-05T22:39:51Z</time>
   </trkpt>
   <trkpt lat="47.3801050" lon="-122.0375100">
    <ele>150.2</ele>
    <time>2021-09-05T22:39:52Z</time>
   </trkpt>
   <trkpt lat="47.3801140" lon="-122.0375210">
    <ele>150.2</ele>
    <time>2021-09-05T22:39:53Z</time>
   </trkpt>
   <trkpt lat="47.3801220" lon="-122.0375350">
    <ele>150.2</ele>
    <time>2021-09-05T22:39:54Z</time>
   </trkpt>
   <trkpt lat="47.3801250" lon="-122.0375480">
    <ele>150.2</ele>
    <time>2021-09-05T22:39:55Z</time>
   </trkpt>
   <trkpt lat="47.3801280" lon="-122.0375650">
    <ele>150.2</ele>
    <time>2021-09-05T22:39:56Z</time>
   </trkpt>
   <trkpt lat="47.3801440" lon="-122.0375900">
    <ele>150.2</ele>
    <time>2021-09-05T22:39:57Z</time>
   </trkpt>
   <trkpt lat="47.3801490" lon="-122.0376040">
    <ele>150.1</ele>
    <time>2021-09-05T22:39:58Z</time>
   </trkpt>
   <trkpt lat="47.3801550" lon="-122.0376170">
    <ele>150.1</ele>
    <time>2021-09-05T22:39:59Z</time>
   </trkpt>
   <trkpt lat="47.3801650" lon="-122.0376460">
    <ele>150.1</ele>
    <time>2021-09-05T22:40:00Z</time>
   </trkpt>
   <trkpt lat="47.3801700" lon="-122.0376590">
    <ele>150.1</ele>
    <time>2021-09-05T22:40:01Z</time>
   </trkpt>
   <trkpt lat="47.3801760" lon="-122.0376730">
    <ele>150.1</ele>
    <time>2021-09-05T22:40:02Z</time>
   </trkpt>
   <trkpt lat="47.3801790" lon="-122.0376910">
    <ele>150.1</ele>
    <time>2021-09-05T22:40:03Z</time>
   </trkpt>
   <trkpt lat="47.3801850" lon="-122.0377020">
    <ele>150.0</ele>
    <time>2021-09-05T22:40:04Z</time>
   </trkpt>
   <trkpt lat="47.3801940" lon="-122.0377150">
    <ele>150.0</ele>
    <time>2021-09-05T22:40:05Z</time>
   </trkpt>
   <trkpt lat="47.3802080" lon="-122.0377280">
    <ele>150.0</ele>
    <time>2021-09-05T22:40:06Z</time>
   </trkpt>
   <trkpt lat="47.3802150" lon="-122.0377450">
    <ele>150.0</ele>
    <time>2021-09-05T22:40:07Z</time>
   </trkpt>
   <trkpt lat="47.3802200" lon="-122.0377570">
    <ele>150.0</ele>
    <time>2021-09-05T22:40:08Z</time>
   </trkpt>
   <trkpt lat="47.3802290" lon="-122.0377650">
    <ele>150.0</ele>
    <time>2021-09-05T22:40:09Z</time>
   </trkpt>
   <trkpt lat="47.3802340" lon="-122.0377790">
    <ele>150.0</ele>
    <time>2021-09-05T22:40:10Z</time>
   </trkpt>
   <trkpt lat="47.3802470" lon="-122.0377980">
    <ele>149.9</ele>
    <time>2021-09-05T22:40:11Z</time>
   </trkpt>
   <trkpt lat="47.3802530" lon="-122.0378060">
    <ele>149.9</ele>
    <time>2021-09-05T22:40:12Z</time>
   </trkpt>
   <trkpt lat="47.3802590" lon="-122.0378130">
    <ele>149.9</ele>
    <time>2021-09-05T22:40:13Z</time>
   </trkpt>
   <trkpt lat="47.3802650" lon="-122.0378210">
    <ele>149.9</ele>
    <time>2021-09-05T22:40:14Z</time>
   </trkpt>
   <trkpt lat="47.3802760" lon="-122.0378380">
    <ele>149.9</ele>
    <time>2021-09-05T22:40:15Z</time>
   </trkpt>
   <trkpt lat="47.3802850" lon="-122.0378540">
    <ele>149.9</ele>
    <time>2021-09-05T22:40:16Z</time>
   </trkpt>
   <trkpt lat="47.3802940" lon="-122.0378710">
    <ele>149.8</ele>
    <time>2021-09-05T22:40:17Z</time>
   </trkpt>
   <trkpt lat="47.3803010" lon="-122.0378880">
    <ele>149.8</ele>
    <time>2021-09-05T22:40:18Z</time>
   </trkpt>
   <trkpt lat="47.3803120" lon="-122.0379160">
    <ele>149.8</ele>
    <time>2021-09-05T22:40:19Z</time>
   </trkpt>
   <trkpt lat="47.3803190" lon="-122.0379260">
    <ele>149.8</ele>
    <time>2021-09-05T22:40:20Z</time>
   </trkpt>
   <trkpt lat="47.3803260" lon="-122.0379370">
    <ele>149.8</ele>
    <time>2021-09-05T22:40:21Z</time>
   </trkpt>
   <trkpt lat="47.3803330" lon="-122.0379490">
    <ele>149.8</ele>
    <time>2021-09-05T22:40:22Z</time>
   </trkpt>
   <trkpt lat="47.3803380" lon="-122.0379580">
    <ele>149.8</ele>
    <time>2021-09-05T22:40:23Z</time>
   </trkpt>
   <trkpt lat="47.3803460" lon="-122.0379800">
    <ele>149.7</ele>
    <time>2021-09-05T22:40:24Z</time>
   </trkpt>
   <trkpt lat="47.3803510" lon="-122.0379970">
    <ele>149.7</ele>
    <time>2021-09-05T22:40:25Z</time>
   </trkpt>
   <trkpt lat="47.3803570" lon="-122.0380060">
    <ele>149.7</ele>
    <time>2021-09-05T22:40:26Z</time>
   </trkpt>
   <trkpt lat="47.3803620" lon="-122.0380240">
    <ele>149.7</ele>
    <time>2021-09-05T22:40:27Z</time>
   </trkpt>
   <trkpt lat="47.3803660" lon="-122.0380360">
    <ele>149.7</ele>
    <time>2021-09-05T22:40:28Z</time>
   </trkpt>
   <trkpt lat="47.3803700" lon="-122.0380520">
    <ele>149.6</ele>
    <time>2021-09-05T22:40:29Z</time>
   </trkpt>
   <trkpt lat="47.3803780" lon="-122.0380690">
    <ele>149.6</ele>
    <time>2021-09-05T22:40:30Z</time>
   </trkpt>
   <trkpt lat="47.3803740" lon="-122.0380790">
    <ele>149.6</ele>
    <time>2021-09-05T22:40:31Z</time>
   </trkpt>
   <trkpt lat="47.3803790" lon="-122.0380920">
    <ele>149.6</ele>
    <time>2021-09-05T22:40:32Z</time>
   </trkpt>
   <trkpt lat="47.3803830" lon="-122.0381110">
    <ele>149.6</ele>
    <time>2021-09-05T22:40:33Z</time>
   </trkpt>
   <trkpt lat="47.3803870" lon="-122.0381320">
    <ele>149.5</ele>
    <time>2021-09-05T22:40:34Z</time>
   </trkpt>
   <trkpt lat="47.3803950" lon="-122.0381430">
    <ele>149.5</ele>
    <time>2021-09-05T22:40:35Z</time>
   </trkpt>
   <trkpt lat="47.3804020" lon="-122.0381480">
    <ele>149.5</ele>
    <time>2021-09-05T22:40:36Z</time>
   </trkpt>
   <trkpt lat="47.3804080" lon="-122.0381500">
    <ele>149.5</ele>
    <time>2021-09-05T22:40:37Z</time>
   </trkpt>
   <trkpt lat="47.3804120" lon="-122.0381590">
    <ele>149.5</ele>
    <time>2021-09-05T22:40:38Z</time>
   </trkpt>
   <trkpt lat="47.3804130" lon="-122.0381670">
    <ele>149.5</ele>
    <time>2021-09-05T22:40:39Z</time>
   </trkpt>
   <trkpt lat="47.3804110" lon="-122.0381720">
    <ele>149.4</ele>
    <time>2021-09-05T22:40:40Z</time>
   </trkpt>
   <trkpt lat="47.3804150" lon="-122.0381770">
    <ele>149.4</ele>
    <time>2021-09-05T22:40:41Z</time>
   </trkpt>
   <trkpt lat="47.3804160" lon="-122.0381850">
    <ele>149.4</ele>
    <time>2021-09-05T22:40:42Z</time>
   </trkpt>
   <trkpt lat="47.3804170" lon="-122.0381920">
    <ele>149.4</ele>
    <time>2021-09-05T22:40:43Z</time>
   </trkpt>
   <trkpt lat="47.3804200" lon="-122.0381930">
    <ele>149.4</ele>
    <time>2021-09-05T22:40:44Z</time>
   </trkpt>
   <trkpt lat="47.3804190" lon="-122.0381950">
    <ele>149.4</ele>
    <time>2021-09-05T22:40:45Z</time>
   </trkpt>
   <trkpt lat="47.3804230" lon="-122.0382070">
    <ele>149.4</ele>
    <time>2021-09-05T22:40:46Z</time>
   </trkpt>
   <trkpt lat="47.3804200" lon="-122.0382110">
    <ele>149.4</ele>
    <time>2021-09-05T22:40:47Z</time>
   </trkpt>
   <trkpt lat="47.3804210" lon="-122.0382220">
    <ele>149.4</ele>
    <time>2021-09-05T22:40:48Z</time>
   </trkpt>
   <trkpt lat="47.3804210" lon="-122.0382280">
    <ele>149.3</ele>
    <time>2021-09-05T22:40:49Z</time>
   </trkpt>
   <trkpt lat="47.3804210" lon="-122.0382320">
    <ele>149.3</ele>
    <time>2021-09-05T22:40:50Z</time>
   </trkpt>
   <trkpt lat="47.3804210" lon="-122.0382330">
    <ele>149.3</ele>
    <time>2021-09-05T22:40:51Z</time>
   </trkpt>
   <trkpt lat="47.3804160" lon="-122.0382340">
    <ele>149.2</ele>
    <time>2021-09-05T22:40:52Z</time>
   </trkpt>
   <trkpt lat="47.3804120" lon="-122.0382330">
    <ele>149.1</ele>
    <time>2021-09-05T22:40:53Z</time>
   </trkpt>
   <trkpt lat="47.3804070" lon="-122.0382280">
    <ele>149.0</ele>
    <time>2021-09-05T22:40:54Z</time>
   </trkpt>
   <trkpt lat="47.3803960" lon="-122.0382190">
    <ele>148.8</ele>
    <time>2021-09-05T22:40:55Z</time>
   </trkpt>
   <trkpt lat="47.3803990" lon="-122.0382150">
    <ele>148.7</ele>
    <time>2021-09-05T22:40:56Z</time>
   </trkpt>
   <trkpt lat="47.3803960" lon="-122.0382100">
    <ele>148.6</ele>
    <time>2021-09-05T22:40:57Z</time>
   </trkpt>
   <trkpt lat="47.3803910" lon="-122.0382080">
    <ele>148.5</ele>
    <time>2021-09-05T22:40:58Z</time>
   </trkpt>
   <trkpt lat="47.3803900" lon="-122.0382140">
    <ele>148.4</ele>
    <time>2021-09-05T22:40:59Z</time>
   </trkpt>
   <trkpt lat="47.3803880" lon="-122.0382190">
    <ele>148.4</ele>
    <time>2021-09-05T22:41:00Z</time>
   </trkpt>
   <trkpt lat="47.3803860" lon="-122.0382250">
    <ele>148.3</ele>
    <time>2021-09-05T22:41:01Z</time>
   </trkpt>
   <trkpt lat="47.3803840" lon="-122.0382300">
    <ele>148.2</ele>
    <time>2021-09-05T22:41:02Z</time>
   </trkpt>
   <trkpt lat="47.3803830" lon="-122.0382350">
    <ele>148.1</ele>
    <time>2021-09-05T22:41:03Z</time>
   </trkpt>
   <trkpt lat="47.3803810" lon="-122.0382410">
    <ele>148.1</ele>
    <time>2021-09-05T22:41:04Z</time>
   </trkpt>
   <trkpt lat="47.3803790" lon="-122.0382460">
    <ele>148.0</ele>
    <time>2021-09-05T22:41:05Z</time>
   </trkpt>
   <trkpt lat="47.3803770" lon="-122.0382520">
    <ele>147.9</ele>
    <time>2021-09-05T22:41:06Z</time>
   </trkpt>
   <trkpt lat="47.3803760" lon="-122.0382570">
    <ele>147.8</ele>
    <time>2021-09-05T22:41:07Z</time>
   </trkpt>
   <trkpt lat="47.3803740" lon="-122.0382620">
    <ele>147.8</ele>
    <time>2021-09-05T22:41:08Z</time>
   </trkpt>
   <trkpt lat="47.3803720" lon="-122.0382680">
    <ele>147.7</ele>
    <time>2021-09-05T22:41:09Z</time>
   </trkpt>
   <trkpt lat="47.3803700" lon="-122.0382730">
    <ele>147.6</ele>
    <time>2021-09-05T22:41:10Z</time>
   </trkpt>
   <trkpt lat="47.3803690" lon="-122.0382790">
    <ele>147.5</ele>
    <time>2021-09-05T22:41:11Z</time>
   </trkpt>
   <trkpt lat="47.3803670" lon="-122.0382840">
    <ele>147.5</ele>
    <time>2021-09-05T22:41:12Z</time>
   </trkpt>
   <trkpt lat="47.3803650" lon="-122.0382890">
    <ele>147.4</ele>
    <time>2021-09-05T22:41:13Z</time>
   </trkpt>
   <trkpt lat="47.3803630" lon="-122.0382950">
    <ele>147.3</ele>
    <time>2021-09-05T22:41:14Z</time>
   </trkpt>
   <trkpt lat="47.3803620" lon="-122.0383000">
    <ele>147.2</ele>
    <time>2021-09-05T22:41:15Z</time>
   </trkpt>
   <trkpt lat="47.3803600" lon="-122.0383060">
    <ele>147.2</ele>
    <time>2021-09-05T22:41:16Z</time>
   </trkpt>
   <trkpt lat="47.3803580" lon="-122.0383110">
    <ele>147.1</ele>
    <time>2021-09-05T22:41:17Z</time>
   </trkpt>
   <trkpt lat="47.3803560" lon="-122.0383160">
    <ele>147.0</ele>
    <time>2021-09-05T22:41:18Z</time>
   </trkpt>
   <trkpt lat="47.3803550" lon="-122.0383220">
    <ele>147.0</ele>
    <time>2021-09-05T22:41:19Z</time>
   </trkpt>
   <trkpt lat="47.3803530" lon="-122.0383270">
    <ele>146.9</ele>
    <time>2021-09-05T22:41:20Z</time>
   </trkpt>
   <trkpt lat="47.3803510" lon="-122.0383330">
    <ele>146.8</ele>
    <time>2021-09-05T22:41:21Z</time>
   </trkpt>
   <trkpt lat="47.3803490" lon="-122.0383380">
    <ele>146.8</ele>
    <time>2021-09-05T22:41:22Z</time>
   </trkpt>
   <trkpt lat="47.3803480" lon="-122.0383430">
    <ele>146.7</ele>
    <time>2021-09-05T22:41:23Z</time>
   </trkpt>
   <trkpt lat="47.3803460" lon="-122.0383490">
    <ele>146.6</ele>
    <time>2021-09-05T22:41:24Z</time>
   </trkpt>
   <trkpt lat="47.3803440" lon="-122.0383540">
    <ele>146.6</ele>
    <time>2021-09-05T22:41:25Z</time>
   </trkpt>
   <trkpt lat="47.3803430" lon="-122.0383600">
    <ele>146.5</ele>
    <time>2021-09-05T22:41:26Z</time>
   </trkpt>
   <trkpt lat="47.3803410" lon="-122.0383650">
    <ele>146.4</ele>
    <time>2021-09-05T22:41:27Z</time>
   </trkpt>
   <trkpt lat="47.3803390" lon="-122.0383700">
    <ele>146.4</ele>
    <time>2021-09-05T22:41:28Z</time>
   </trkpt>
   <trkpt lat="47.3803370" lon="-122.0383760">
    <ele>146.3</ele>
    <time>2021-09-05T22:41:29Z</time>
   </trkpt>
   <trkpt lat="47.3803360" lon="-122.0383810">
    <ele>146.3</ele>
    <time>2021-09-05T22:41:30Z</time>
   </trkpt>
   <trkpt lat="47.3803340" lon="-122.0383860">
    <ele>146.2</ele>
    <time>2021-09-05T22:41:31Z</time>
   </trkpt>
   <trkpt lat="47.3803320" lon="-122.0383920">
    <ele>146.1</ele>
    <time>2021-09-05T22:41:32Z</time>
   </trkpt>
   <trkpt lat="47.3803300" lon="-122.0383970">
    <ele>146.1</ele>
    <time>2021-09-05T22:41:33Z</time>
   </trkpt>
   <trkpt lat="47.3803290" lon="-122.0384030">
    <ele>146.0</ele>
    <time>2021-09-05T22:41:34Z</time>
   </trkpt>
   <trkpt lat="47.3803270" lon="-122.0384080">
    <ele>146.0</ele>
    <time>2021-09-05T22:41:35Z</time>
   </trkpt>
   <trkpt lat="47.3803250" lon="-122.0384130">
    <ele>145.9</ele>
    <time>2021-09-05T22:41:36Z</time>
   </trkpt>
   <trkpt lat="47.3803230" lon="-122.0384190">
    <ele>145.8</ele>
    <time>2021-09-05T22:41:37Z</time>
   </trkpt>
   <trkpt lat="47.3803220" lon="-122.0384240">
    <ele>145.8</ele>
    <time>2021-09-05T22:41:38Z</time>
   </trkpt>
   <trkpt lat="47.3803200" lon="-122.0384300">
    <ele>145.7</ele>
    <time>2021-09-05T22:41:39Z</time>
   </trkpt>
   <trkpt lat="47.3803180" lon="-122.0384350">
    <ele>145.7</ele>
    <time>2021-09-05T22:41:40Z</time>
   </trkpt>
   <trkpt lat="47.3803160" lon="-122.0384400">
    <ele>145.6</ele>
    <time>2021-09-05T22:41:41Z</time>
   </trkpt>
   <trkpt lat="47.3803150" lon="-122.0384460">
    <ele>145.6</ele>
    <time>2021-09-05T22:41:42Z</time>
   </trkpt>
   <trkpt lat="47.3803130" lon="-122.0384510">
    <ele>145.5</ele>
    <time>2021-09-05T22:41:43Z</time>
   </trkpt>
   <trkpt lat="47.3803110" lon="-122.0384570">
    <ele>145.5</ele>
    <time>2021-09-05T22:41:44Z</time>
   </trkpt>
   <trkpt lat="47.3803090" lon="-122.0384620">
    <ele>145.4</ele>
    <time>2021-09-05T22:41:45Z</time>
   </trkpt>
   <trkpt lat="47.3803080" lon="-122.0384670">
    <ele>145.4</ele>
    <time>2021-09-05T22:41:46Z</time>
   </trkpt>
   <trkpt lat="47.3803060" lon="-122.0384730">
    <ele>145.3</ele>
    <time>2021-09-05T22:41:47Z</time>
   </trkpt>
   <trkpt lat="47.3803040" lon="-122.0384780">
    <ele>145.3</ele>
    <time>2021-09-05T22:41:48Z</time>
   </trkpt>
   <trkpt lat="47.3803020" lon="-122.0384840">
    <ele>145.2</ele>
    <time>2021-09-05T22:41:49Z</time>
   </trkpt>
   <trkpt lat="47.3803010" lon="-122.0384890">
    <ele>145.2</ele>
    <time>2021-09-05T22:41:50Z</time>
   </trkpt>
   <trkpt lat="47.3802990" lon="-122.0384940">
    <ele>145.1</ele>
    <time>2021-09-05T22:41:51Z</time>
   </trkpt>
   <trkpt lat="47.3802970" lon="-122.0385000">
    <ele>145.1</ele>
    <time>2021-09-05T22:41:52Z</time>
   </trkpt>
   <trkpt lat="47.3802950" lon="-122.0385050">
    <ele>145.0</ele>
    <time>2021-09-05T22:41:53Z</time>
   </trkpt>
   <trkpt lat="47.3802940" lon="-122.0385110">
    <ele>145.0</ele>
    <time>2021-09-05T22:41:54Z</time>
   </trkpt>
   <trkpt lat="47.3802920" lon="-122.0385160">
    <ele>144.9</ele>
    <time>2021-09-05T22:41:55Z</time>
   </trkpt>
   <trkpt lat="47.3802810" lon="-122.0385300">
    <ele>144.8</ele>
    <time>2021-09-05T22:41:56Z</time>
   </trkpt>
   <trkpt lat="47.3802680" lon="-122.0385360">
    <ele>144.7</ele>
    <time>2021-09-05T22:41:57Z</time>
   </trkpt>
   <trkpt lat="47.3802630" lon="-122.0385440">
    <ele>144.6</ele>
    <time>2021-09-05T22:41:58Z</time>
   </trkpt>
   <trkpt lat="47.3802500" lon="-122.0385500">
    <ele>144.5</ele>
    <time>2021-09-05T22:41:59Z</time>
   </trkpt>
   <trkpt lat="47.3802430" lon="-122.0385570">
    <ele>144.4</ele>
    <time>2021-09-05T22:42:00Z</time>
   </trkpt>
   <trkpt lat="47.3802310" lon="-122.0385580">
    <ele>144.3</ele>
    <time>2021-09-05T22:42:01Z</time>
   </trkpt>
   <trkpt lat="47.3802210" lon="-122.0385730">
    <ele>144.2</ele>
    <time>2021-09-05T22:42:02Z</time>
   </trkpt>
   <trkpt lat="47.3802140" lon="-122.0385720">
    <ele>144.2</ele>
    <time>2021-09-05T22:42:03Z</time>
   </trkpt>
   <trkpt lat="47.3802100" lon="-122.0385790">
    <ele>144.2</ele>
    <time>2021-09-05T22:42:04Z</time>
   </trkpt>
   <trkpt lat="47.3802020" lon="-122.0385760">
    <ele>144.1</ele>
    <time>2021-09-05T22:42:05Z</time>
   </trkpt>
   <trkpt lat="47.3801960" lon="-122.0385710">
    <ele>144.1</ele>
    <time>2021-09-05T22:42:06Z</time>
   </trkpt>
   <trkpt lat="47.3801850" lon="-122.0385790">
    <ele>144.0</ele>
    <time>2021-09-05T22:42:07Z</time>
   </trkpt>
   <trkpt lat="47.3801840" lon="-122.0385930">
    <ele>143.9</ele>
    <time>2021-09-05T22:42:08Z</time>
   </trkpt>
   <trkpt lat="47.3801710" lon="-122.0386080">
    <ele>143.8</ele>
    <time>2021-09-05T22:42:09Z</time>
   </trkpt>
   <trkpt lat="47.3801680" lon="-122.0386020">
    <ele>143.8</ele>
    <time>2021-09-05T22:42:10Z</time>
   </trkpt>
   <trkpt lat="47.3801640" lon="-122.0386050">
    <ele>143.8</ele>
    <time>2021-09-05T22:42:11Z</time>
   </trkpt>
   <trkpt lat="47.3801520" lon="-122.0386170">
    <ele>143.7</ele>
    <time>2021-09-05T22:42:12Z</time>
   </trkpt>
   <trkpt lat="47.3801460" lon="-122.0386250">
    <ele>143.7</ele>
    <time>2021-09-05T22:42:13Z</time>
   </trkpt>
   <trkpt lat="47.3801390" lon="-122.0386330">
    <ele>143.7</ele>
    <time>2021-09-05T22:42:14Z</time>
   </trkpt>
   <trkpt lat="47.3801330" lon="-122.0386410">
    <ele>143.6</ele>
    <time>2021-09-05T22:42:15Z</time>
   </trkpt>
   <trkpt lat="47.3801220" lon="-122.0386510">
    <ele>143.6</ele>
    <time>2021-09-05T22:42:16Z</time>
   </trkpt>
   <trkpt lat="47.3801190" lon="-122.0386600">
    <ele>143.6</ele>
    <time>2021-09-05T22:42:17Z</time>
   </trkpt>
   <trkpt lat="47.3801090" lon="-122.0386740">
    <ele>143.5</ele>
    <time>2021-09-05T22:42:18Z</time>
   </trkpt>
   <trkpt lat="47.3801040" lon="-122.0386810">
    <ele>143.5</ele>
    <time>2021-09-05T22:42:19Z</time>
   </trkpt>
   <trkpt lat="47.3800990" lon="-122.0386850">
    <ele>143.5</ele>
    <time>2021-09-05T22:42:20Z</time>
   </trkpt>
   <trkpt lat="47.3800950" lon="-122.0387010">
    <ele>143.4</ele>
    <time>2021-09-05T22:42:21Z</time>
   </trkpt>
   <trkpt lat="47.3800930" lon="-122.0387190">
    <ele>143.4</ele>
    <time>2021-09-05T22:42:22Z</time>
   </trkpt>
   <trkpt lat="47.3800950" lon="-122.0387320">
    <ele>143.3</ele>
    <time>2021-09-05T22:42:23Z</time>
   </trkpt>
   <trkpt lat="47.3800890" lon="-122.0387470">
    <ele>143.3</ele>
    <time>2021-09-05T22:42:24Z</time>
   </trkpt>
   <trkpt lat="47.3800890" lon="-122.0387680">
    <ele>143.3</ele>
    <time>2021-09-05T22:42:25Z</time>
   </trkpt>
   <trkpt lat="47.3800830" lon="-122.0387780">
    <ele>143.2</ele>
    <time>2021-09-05T22:42:26Z</time>
   </trkpt>
   <trkpt lat="47.3800780" lon="-122.0387860">
    <ele>143.2</ele>
    <time>2021-09-05T22:42:27Z</time>
   </trkpt>
   <trkpt lat="47.3800790" lon="-122.0387980">
    <ele>143.2</ele>
    <time>2021-09-05T22:42:28Z</time>
   </trkpt>
   <trkpt lat="47.3800760" lon="-122.0388100">
    <ele>143.2</ele>
    <time>2021-09-05T22:42:29Z</time>
   </trkpt>
   <trkpt lat="47.3800710" lon="-122.0388200">
    <ele>143.1</ele>
    <time>2021-09-05T22:42:30Z</time>
   </trkpt>
   <trkpt lat="47.3800730" lon="-122.0388250">
    <ele>143.1</ele>
    <time>2021-09-05T22:42:31Z</time>
   </trkpt>
   <trkpt lat="47.3800750" lon="-122.0388390">
    <ele>143.1</ele>
    <time>2021-09-05T22:42:32Z</time>
   </trkpt>
   <trkpt lat="47.3800840" lon="-122.0388540">
    <ele>143.1</ele>
    <time>2021-09-05T22:42:33Z</time>
   </trkpt>
   <trkpt lat="47.3800880" lon="-122.0388620">
    <ele>143.1</ele>
    <time>2021-09-05T22:42:34Z</time>
   </trkpt>
   <trkpt lat="47.3800960" lon="-122.0388680">
    <ele>143.1</ele>
    <time>2021-09-05T22:42:35Z</time>
   </trkpt>
   <trkpt lat="47.3801070" lon="-122.0388700">
    <ele>143.2</ele>
    <time>2021-09-05T22:42:36Z</time>
   </trkpt>
   <trkpt lat="47.3801150" lon="-122.0388670">
    <ele>143.2</ele>
    <time>2021-09-05T22:42:37Z</time>
   </trkpt>
   <trkpt lat="47.3801190" lon="-122.0388760">
    <ele>143.2</ele>
    <time>2021-09-05T22:42:38Z</time>
   </trkpt>
  </trkseg>
 </trk>
</gpx>
