<?xml version="1.0" encoding="UTF-8"?>
<gpx creator="StravaGPX" version="1.1" xmlns="http://www.topografix.com/GPX/1/1" xmlns:xsi="http://www.w3.org/2001/XMLSchema-instance" xsi:schemaLocation="http://www.topografix.com/GPX/1/1 http://www.topografix.com/GPX/1/1/gpx.xsd">
 <metadata>
  <time>2021-09-13T19:29:40Z</time>
 </metadata>
 <trk>
  <name>Monday</name>
  <type>running</type>
  <trkseg>
   <trkpt lat="47.3809770" lon="-122.0441000">
    <ele>144.6</ele>
    <time>2021-09-13T19:29:40Z</time>
   </trkpt>
   <trkpt lat="47.3810080" lon="-122.0440910">
    <ele>144.6</ele>
    <time>2021-09-13T19:29:41Z</time>
   </trkpt>
   <trkpt lat="47.3810310" lon="-122.0440910">
    <ele>144.5</ele>
    <time>2021-09-13T19:29:42Z</time>
   </trkpt>
   <trkpt lat="47.3810380" lon="-122.0440990">
    <ele>144.5</ele>
    <time>2021-09-13T19:29:43Z</time>
   </trkpt>
   <trkpt lat="47.3810460" lon="-122.0441080">
    <ele>144.5</ele>
    <time>2021-09-13T19:29:44Z</time>
   </trkpt>
   <trkpt lat="47.3810390" lon="-122.0441660">
    <ele>144.4</ele>
    <time>2021-09-13T19:29:45Z</time>
   </trkpt>
   <trkpt lat="47.3810360" lon="-122.0442210">
    <ele>144.4</ele>
    <time>2021-09-13T19:29:46Z</time>
   </trkpt>
   <trkpt lat="47.3810330" lon="-122.0442380">
    <ele>144.4</ele>
    <time>2021-09-13T19:29:47Z</time>
   </trkpt>
   <trkpt lat="47.3810300" lon="-122.0442840">
    <ele>144.3</ele>
    <time>2021-09-13T19:29:48Z</time>
   </trkpt>
   <trkpt lat="47.3810260" lon="-122.0443410">
    <ele>144.2</ele>
    <time>2021-09-13T19:29:49Z</time>
   </trkpt>
   <trkpt lat="47.3810240" lon="-122.0443630">
    <ele>144.2</ele>
    <time>2021-09-13T19:29:50Z</time>
   </trkpt>
   <trkpt lat="47.3810180" lon="-122.0444220">
    <ele>144.2</ele>
    <time>2021-09-13T19:29:51Z</time>
   </trkpt>
   <trkpt lat="47.3810170" lon="-122.0444870">
    <ele>144.1</ele>
    <time>2021-09-13T19:29:52Z</time>
   </trkpt>
   <trkpt lat="47.3810150" lon="-122.0445170">
    <ele>144.1</ele>
    <time>2021-09-13T19:29:53Z</time>
   </trkpt>
   <trkpt lat="47.3810140" lon="-122.0445730">
    <ele>144.0</ele>
    <time>2021-09-13T19:29:54Z</time>
   </trkpt>
   <trkpt lat="47.3810200" lon="-122.0446290">
    <ele>144.0</ele>
    <time>2021-09-13T19:29:55Z</time>
   </trkpt>
   <trkpt lat="47.3810280" lon="-122.0446840">
    <ele>144.0</ele>
    <time>2021-09-13T19:29:56Z</time>
   </trkpt>
   <trkpt lat="47.3810310" lon="-122.0447340">
    <ele>143.9</ele>
    <time>2021-09-13T19:29:57Z</time>
   </trkpt>
   <trkpt lat="47.3810260" lon="-122.0447770">
    <ele>143.9</ele>
    <time>2021-09-13T19:29:58Z</time>
   </trkpt>
   <trkpt lat="47.3810340" lon="-122.0448160">
    <ele>143.8</ele>
    <time>2021-09-13T19:29:59Z</time>
   </trkpt>
   <trkpt lat="47.3810340" lon="-122.0448620">
    <ele>143.8</ele>
    <time>2021-09-13T19:30:00Z</time>
   </trkpt>
   <trkpt lat="47.3810470" lon="-122.0449180">
    <ele>143.8</ele>
    <time>2021-09-13T19:30:01Z</time>
   </trkpt>
   <trkpt lat="47.3810530" lon="-122.0449630">
    <ele>143.7</ele>
    <time>2021-09-13T19:30:02Z</time>
   </trkpt>
   <trkpt lat="47.3810540" lon="-122.0450230">
    <ele>143.7</ele>
    <time>2021-09-13T19:30:03Z</time>
   </trkpt>
   <trkpt lat="47.3810660" lon="-122.0450780">
    <ele>143.6</ele>
    <time>2021-09-13T19:30:04Z</time>
   </trkpt>
   <trkpt lat="47.3810670" lon="-122.0451250">
    <ele>143.6</ele>
    <time>2021-09-13T19:30:05Z</time>
   </trkpt>
   <trkpt lat="47.3810750" lon="-122.0451710">
    <ele>143.6</ele>
    <time>2021-09-13T19:30:06Z</time>
   </trkpt>
   <trkpt lat="47.3810810" lon="-122.0452220">
    <ele>143.5</ele>
    <time>2021-09-13T19:30:07Z</time>
   </trkpt>
   <trkpt lat="47.3810830" lon="-122.0452780">
    <ele>143.5</ele>
    <time>2021-09-13T19:30:08Z</time>
   </trkpt>
   <trkpt lat="47.3811020" lon="-122.0453220">
    <ele>143.4</ele>
    <time>2021-09-13T19:30:09Z</time>
   </trkpt>
   <trkpt lat="47.3811150" lon="-122.0453820">
    <ele>143.4</ele>
    <time>2021-09-13T19:30:10Z</time>
   </trkpt>
   <trkpt lat="47.3811250" lon="-122.0454300">
    <ele>143.3</ele>
    <time>2021-09-13T19:30:11Z</time>
   </trkpt>
   <trkpt lat="47.3811190" lon="-122.0454850">
    <ele>143.3</ele>
    <time>2021-09-13T19:30:12Z</time>
   </trkpt>
   <trkpt lat="47.3811280" lon="-122.0455310">
    <ele>143.2</ele>
    <time>2021-09-13T19:30:13Z</time>
   </trkpt>
   <trkpt lat="47.3811380" lon="-122.0455740">
    <ele>143.2</ele>
    <time>2021-09-13T19:30:14Z</time>
   </trkpt>
   <trkpt lat="47.3811500" lon="-122.0456240">
    <ele>143.1</ele>
    <time>2021-09-13T19:30:15Z</time>
   </trkpt>
   <trkpt lat="47.3811570" lon="-122.0456690">
    <ele>143.1</ele>
    <time>2021-09-13T19:30:16Z</time>
   </trkpt>
   <trkpt lat="47.3811610" lon="-122.0457120">
    <ele>143.0</ele>
    <time>2021-09-13T19:30:17Z</time>
   </trkpt>
   <trkpt lat="47.3811660" lon="-122.0457580">
    <ele>143.0</ele>
    <time>2021-09-13T19:30:18Z</time>
   </trkpt>
   <trkpt lat="47.3811760" lon="-122.0458050">
    <ele>142.9</ele>
    <time>2021-09-13T19:30:19Z</time>
   </trkpt>
   <trkpt lat="47.3811820" lon="-122.0458520">
    <ele>142.9</ele>
    <time>2021-09-13T19:30:20Z</time>
   </trkpt>
   <trkpt lat="47.3812010" lon="-122.0458980">
    <ele>142.9</ele>
    <time>2021-09-13T19:30:21Z</time>
   </trkpt>
   <trkpt lat="47.3812050" lon="-122.0459490">
    <ele>142.8</ele>
    <time>2021-09-13T19:30:22Z</time>
   </trkpt>
   <trkpt lat="47.3812240" lon="-122.0459800">
    <ele>142.8</ele>
    <time>2021-09-13T19:30:23Z</time>
   </trkpt>
   <trkpt lat="47.3812390" lon="-122.0460350">
    <ele>142.7</ele>
    <time>2021-09-13T19:30:24Z</time>
   </trkpt>
   <trkpt lat="47.3812540" lon="-122.0460800">
    <ele>142.7</ele>
    <time>2021-09-13T19:30:25Z</time>
   </trkpt>
   <trkpt lat="47.3812630" lon="-122.0461200">
    <ele>142.7</ele>
    <time>2021-09-13T19:30:26Z</time>
   </trkpt>
   <trkpt lat="47.3812800" lon="-122.0461650">
    <ele>142.6</ele>
    <time>2021-09-13T19:30:27Z</time>
   </trkpt>
   <trkpt lat="47.3812960" lon="-122.0462100">
    <ele>142.6</ele>
    <time>2021-09-13T19:30:28Z</time>
   </trkpt>
   <trkpt lat="47.3813070" lon="-122.0462700">
    <ele>142.6</ele>
    <time>2021-09-13T19:30:29Z</time>
   </trkpt>
   <trkpt lat="47.3813360" lon="-122.0463190">
    <ele>142.5</ele>
    <time>2021-09-13T19:30:30Z</time>
   </trkpt>
   <trkpt lat="47.3813460" lon="-122.0463660">
    <ele>142.5</ele>
    <time>2021-09-13T19:30:31Z</time>
   </trkpt>
   <trkpt lat="47.3813540" lon="-122.0464240">
    <ele>142.5</ele>
    <time>2021-09-13T19:30:32Z</time>
   </trkpt>
   <trkpt lat="47.3813680" lon="-122.0464690">
    <ele>142.4</ele>
    <time>2021-09-13T19:30:33Z</time>
   </trkpt>
   <trkpt lat="47.3813890" lon="-122.0465280">
    <ele>142.4</ele>
    <time>2021-09-13T19:30:34Z</time>
   </trkpt>
   <trkpt lat="47.3814130" lon="-122.0465760">
    <ele>142.3</ele>
    <time>2021-09-13T19:30:35Z</time>
   </trkpt>
   <trkpt lat="47.3814290" lon="-122.0466320">
    <ele>142.3</ele>
    <time>2021-09-13T19:30:36Z</time>
   </trkpt>
   <trkpt lat="47.3814430" lon="-122.0466750">
    <ele>142.2</ele>
    <time>2021-09-13T19:30:37Z</time>
   </trkpt>
   <trkpt lat="47.3814570" lon="-122.0467230">
    <ele>142.2</ele>
    <time>2021-09-13T19:30:38Z</time>
   </trkpt>
   <trkpt lat="47.3814700" lon="-122.0467790">
    <ele>142.1</ele>
    <time>2021-09-13T19:30:39Z</time>
   </trkpt>
   <trkpt lat="47.3814890" lon="-122.0468230">
    <ele>142.1</ele>
    <time>2021-09-13T19:30:40Z</time>
   </trkpt>
   <trkpt lat="47.3815150" lon="-122.0468700">
    <ele>142.0</ele>
    <time>2021-09-13T19:30:41Z</time>
   </trkpt>
   <trkpt lat="47.3815200" lon="-122.0469220">
    <ele>142.0</ele>
    <time>2021-09-13T19:30:42Z</time>
   </trkpt>
   <trkpt lat="47.3815410" lon="-122.0469680">
    <ele>141.9</ele>
    <time>2021-09-13T19:30:43Z</time>
   </trkpt>
   <trkpt lat="47.3815650" lon="-122.0470180">
    <ele>141.9</ele>
    <time>2021-09-13T19:30:44Z</time>
   </trkpt>
   <trkpt lat="47.3815810" lon="-122.0470640">
    <ele>141.8</ele>
    <time>2021-09-13T19:30:45Z</time>
   </trkpt>
   <trkpt lat="47.3816010" lon="-122.0471070">
    <ele>141.8</ele>
    <time>2021-09-13T19:30:46Z</time>
   </trkpt>
   <trkpt lat="47.3816120" lon="-122.0471570">
    <ele>141.8</ele>
    <time>2021-09-13T19:30:47Z</time>
   </trkpt>
   <trkpt lat="47.3816300" lon="-122.0471900">
    <ele>141.8</ele>
    <time>2021-09-13T19:30:48Z</time>
   </trkpt>
   <trkpt lat="47.3816600" lon="-122.0472390">
    <ele>141.7</ele>
    <time>2021-09-13T19:30:49Z</time>
   </trkpt>
   <trkpt lat="47.3816810" lon="-122.0472810">
    <ele>141.7</ele>
    <time>2021-09-13T19:30:50Z</time>
   </trkpt>
   <trkpt lat="47.3817070" lon="-122.0473330">
    <ele>141.7</ele>
    <time>2021-09-13T19:30:51Z</time>
   </trkpt>
   <trkpt lat="47.3817180" lon="-122.0473760">
    <ele>141.7</ele>
    <time>2021-09-13T19:30:52Z</time>
   </trkpt>
   <trkpt lat="47.3817410" lon="-122.0474210">
    <ele>141.7</ele>
    <time>2021-09-13T19:30:53Z</time>
   </trkpt>
   <trkpt lat="47.3817640" lon="-122.0474640">
    <ele>141.7</ele>
    <time>2021-09-13T19:30:54Z</time>
   </trkpt>
   <trkpt lat="47.3817940" lon="-122.0475070">
    <ele>141.7</ele>
    <time>2021-09-13T19:30:55Z</time>
   </trkpt>
   <trkpt lat="47.3818100" lon="-122.0475580">
    <ele>141.7</ele>
    <time>2021-09-13T19:30:56Z</time>
   </trkpt>
   <trkpt lat="47.3818280" lon="-122.0476080">
    <ele>141.7</ele>
    <time>2021-09-13T19:30:57Z</time>
   </trkpt>
   <trkpt lat="47.3818550" lon="-122.0476640">
    <ele>141.7</ele>
    <time>2021-09-13T19:30:58Z</time>
   </trkpt>
   <trkpt lat="47.3818810" lon="-122.0477020">
    <ele>141.8</ele>
    <time>2021-09-13T19:30:59Z</time>
   </trkpt>
   <trkpt lat="47.3819000" lon="-122.0477570">
    <ele>141.8</ele>
    <time>2021-09-13T19:31:00Z</time>
   </trkpt>
   <trkpt lat="47.3819190" lon="-122.0477940">
    <ele>141.8</ele>
    <time>2021-09-13T19:31:01Z</time>
   </trkpt>
   <trkpt lat="47.3819510" lon="-122.0478300">
    <ele>141.8</ele>
    <time>2021-09-13T19:31:02Z</time>
   </trkpt>
   <trkpt lat="47.3819650" lon="-122.0478730">
    <ele>141.8</ele>
    <time>2021-09-13T19:31:03Z</time>
   </trkpt>
   <trkpt lat="47.3819760" lon="-122.0479160">
    <ele>141.8</ele>
    <time>2021-09-13T19:31:04Z</time>
   </trkpt>
   <trkpt lat="47.3819870" lon="-122.0479630">
    <ele>141.8</ele>
    <time>2021-09-13T19:31:05Z</time>
   </trkpt>
   <trkpt lat="47.3819980" lon="-122.0480120">
    <ele>141.8</ele>
    <time>2021-09-13T19:31:06Z</time>
   </trkpt>
   <trkpt lat="47.3820090" lon="-122.0480660">
    <ele>141.8</ele>
    <time>2021-09-13T19:31:07Z</time>
   </trkpt>
   <trkpt lat="47.3820170" lon="-122.0481200">
    <ele>141.8</ele>
    <time>2021-09-13T19:31:08Z</time>
   </trkpt>
   <trkpt lat="47.3820310" lon="-122.0481690">
    <ele>141.8</ele>
    <time>2021-09-13T19:31:09Z</time>
   </trkpt>
   <trkpt lat="47.3820540" lon="-122.0482170">
    <ele>141.7</ele>
    <time>2021-09-13T19:31:10Z</time>
   </trkpt>
   <trkpt lat="47.3820710" lon="-122.0482660">
    <ele>141.7</ele>
    <time>2021-09-13T19:31:11Z</time>
   </trkpt>
   <trkpt lat="47.3820860" lon="-122.0483160">
    <ele>141.6</ele>
    <time>2021-09-13T19:31:12Z</time>
   </trkpt>
   <trkpt lat="47.3821090" lon="-122.0484180">
    <ele>141.5</ele>
    <time>2021-09-13T19:31:14Z</time>
   </trkpt>
   <trkpt lat="47.3822210" lon="-122.0484280">
    <ele>141.3</ele>
    <time>2021-09-13T19:31:15Z</time>
   </trkpt>
   <trkpt lat="47.3822240" lon="-122.0484740">
    <ele>141.3</ele>
    <time>2021-09-13T19:31:16Z</time>
   </trkpt>
   <trkpt lat="47.3822070" lon="-122.0485020">
    <ele>141.2</ele>
    <time>2021-09-13T19:31:17Z</time>
   </trkpt>
   <trkpt lat="47.3822880" lon="-122.0485250">
    <ele>141.0</ele>
    <time>2021-09-13T19:31:18Z</time>
   </trkpt>
   <trkpt lat="47.3823610" lon="-122.0485550">
    <ele>140.9</ele>
    <time>2021-09-13T19:31:19Z</time>
   </trkpt>
   <trkpt lat="47.3824140" lon="-122.0485800">
    <ele>140.8</ele>
    <time>2021-09-13T19:31:20Z</time>
   </trkpt>
   <trkpt lat="47.3824570" lon="-122.0486080">
    <ele>140.7</ele>
    <time>2021-09-13T19:31:21Z</time>
   </trkpt>
   <trkpt lat="47.3824880" lon="-122.0486280">
    <ele>140.6</ele>
    <time>2021-09-13T19:31:22Z</time>
   </trkpt>
   <trkpt lat="47.3825170" lon="-122.0486640">
    <ele>140.6</ele>
    <time>2021-09-13T19:31:23Z</time>
   </trkpt>
   <trkpt lat="47.3825410" lon="-122.0487010">
    <ele>140.5</ele>
    <time>2021-09-13T19:31:24Z</time>
   </trkpt>
   <trkpt lat="47.3825710" lon="-122.0487380">
    <ele>140.5</ele>
    <time>2021-09-13T19:31:25Z</time>
   </trkpt>
   <trkpt lat="47.3826070" lon="-122.0487680">
    <ele>140.4</ele>
    <time>2021-09-13T19:31:26Z</time>
   </trkpt>
   <trkpt lat="47.3826420" lon="-122.0487800">
    <ele>140.4</ele>
    <time>2021-09-13T19:31:27Z</time>
   </trkpt>
   <trkpt lat="47.3826690" lon="-122.0487950">
    <ele>140.4</ele>
    <time>2021-09-13T19:31:28Z</time>
   </trkpt>
   <trkpt lat="47.3826960" lon="-122.0488240">
    <ele>140.3</ele>
    <time>2021-09-13T19:31:29Z</time>
   </trkpt>
   <trkpt lat="47.3827180" lon="-122.0488680">
    <ele>140.3</ele>
    <time>2021-09-13T19:31:30Z</time>
   </trkpt>
   <trkpt lat="47.3827460" lon="-122.0489010">
    <ele>140.2</ele>
    <time>2021-09-13T19:31:31Z</time>
   </trkpt>
   <trkpt lat="47.3827750" lon="-122.0489290">
    <ele>140.2</ele>
    <time>2021-09-13T19:31:32Z</time>
   </trkpt>
   <trkpt lat="47.3828040" lon="-122.0489640">
    <ele>140.2</ele>
    <time>2021-09-13T19:31:33Z</time>
   </trkpt>
   <trkpt lat="47.3828420" lon="-122.0489750">
    <ele>140.1</ele>
    <time>2021-09-13T19:31:34Z</time>
   </trkpt>
   <trkpt lat="47.3828750" lon="-122.0489880">
    <ele>140.1</ele>
    <time>2021-09-13T19:31:35Z</time>
   </trkpt>
   <trkpt lat="47.3829030" lon="-122.0490140">
    <ele>140.0</ele>
    <time>2021-09-13T19:31:36Z</time>
   </trkpt>
   <trkpt lat="47.3829380" lon="-122.0490290">
    <ele>139.9</ele>
    <time>2021-09-13T19:31:37Z</time>
   </trkpt>
   <trkpt lat="47.3829730" lon="-122.0490750">
    <ele>139.9</ele>
    <time>2021-09-13T19:31:38Z</time>
   </trkpt>
   <trkpt lat="47.3830070" lon="-122.0491100">
    <ele>139.8</ele>
    <time>2021-09-13T19:31:39Z</time>
   </trkpt>
   <trkpt lat="47.3830350" lon="-122.0491520">
    <ele>139.7</ele>
    <time>2021-09-13T19:31:40Z</time>
   </trkpt>
   <trkpt lat="47.3830690" lon="-122.0491710">
    <ele>139.7</ele>
    <time>2021-09-13T19:31:41Z</time>
   </trkpt>
   <trkpt lat="47.3831020" lon="-122.0492030">
    <ele>139.6</ele>
    <time>2021-09-13T19:31:42Z</time>
   </trkpt>
   <trkpt lat="47.3831340" lon="-122.0492390">
    <ele>139.5</ele>
    <time>2021-09-13T19:31:43Z</time>
   </trkpt>
   <trkpt lat="47.3831710" lon="-122.0492690">
    <ele>139.4</ele>
    <time>2021-09-13T19:31:44Z</time>
   </trkpt>
   <trkpt lat="47.3832130" lon="-122.0492880">
    <ele>139.4</ele>
    <time>2021-09-13T19:31:45Z</time>
   </trkpt>
   <trkpt lat="47.3832490" lon="-122.0493120">
    <ele>139.3</ele>
    <time>2021-09-13T19:31:46Z</time>
   </trkpt>
   <trkpt lat="47.3832830" lon="-122.0493380">
    <ele>139.3</ele>
    <time>2021-09-13T19:31:47Z</time>
   </trkpt>
   <trkpt lat="47.3833180" lon="-122.0493420">
    <ele>139.2</ele>
    <time>2021-09-13T19:31:48Z</time>
   </trkpt>
   <trkpt lat="47.3833500" lon="-122.0493790">
    <ele>139.1</ele>
    <time>2021-09-13T19:31:49Z</time>
   </trkpt>
   <trkpt lat="47.3833860" lon="-122.0493850">
    <ele>139.1</ele>
    <time>2021-09-13T19:31:50Z</time>
   </trkpt>
   <trkpt lat="47.3834300" lon="-122.0493920">
    <ele>139.0</ele>
    <time>2021-09-13T19:31:52Z</time>
   </trkpt>
   <trkpt lat="47.3834720" lon="-122.0494030">
    <ele>139.0</ele>
    <time>2021-09-13T19:31:53Z</time>
   </trkpt>
   <trkpt lat="47.3835050" lon="-122.0494450">
    <ele>139.0</ele>
    <time>2021-09-13T19:31:54Z</time>
   </trkpt>
   <trkpt lat="47.3835380" lon="-122.0494820">
    <ele>138.9</ele>
    <time>2021-09-13T19:31:55Z</time>
   </trkpt>
   <trkpt lat="47.3835700" lon="-122.0495080">
    <ele>138.9</ele>
    <time>2021-09-13T19:31:56Z</time>
   </trkpt>
   <trkpt lat="47.3836120" lon="-122.0495170">
    <ele>138.8</ele>
    <time>2021-09-13T19:31:57Z</time>
   </trkpt>
   <trkpt lat="47.3836430" lon="-122.0495360">
    <ele>138.7</ele>
    <time>2021-09-13T19:31:58Z</time>
   </trkpt>
   <trkpt lat="47.3836770" lon="-122.0495570">
    <ele>138.7</ele>
    <time>2021-09-13T19:31:59Z</time>
   </trkpt>
   <trkpt lat="47.3837200" lon="-122.0495650">
    <ele>138.6</ele>
    <time>2021-09-13T19:32:00Z</time>
   </trkpt>
   <trkpt lat="47.3837550" lon="-122.0495770">
    <ele>138.5</ele>
    <time>2021-09-13T19:32:01Z</time>
   </trkpt>
   <trkpt lat="47.3837940" lon="-122.0495840">
    <ele>138.4</ele>
    <time>2021-09-13T19:32:02Z</time>
   </trkpt>
   <trkpt lat="47.3838330" lon="-122.0496040">
    <ele>138.3</ele>
    <time>2021-09-13T19:32:03Z</time>
   </trkpt>
   <trkpt lat="47.3838720" lon="-122.0496280">
    <ele>138.2</ele>
    <time>2021-09-13T19:32:04Z</time>
   </trkpt>
   <trkpt lat="47.3839090" lon="-122.0496280">
    <ele>138.2</ele>
    <time>2021-09-13T19:32:05Z</time>
   </trkpt>
   <trkpt lat="47.3839420" lon="-122.0496490">
    <ele>138.1</ele>
    <time>2021-09-13T19:32:06Z</time>
   </trkpt>
   <trkpt lat="47.3839770" lon="-122.0496680">
    <ele>138.0</ele>
    <time>2021-09-13T19:32:07Z</time>
   </trkpt>
   <trkpt lat="47.3840120" lon="-122.0496740">
    <ele>137.9</ele>
    <time>2021-09-13T19:32:08Z</time>
   </trkpt>
   <trkpt lat="47.3840540" lon="-122.0496810">
    <ele>137.8</ele>
    <time>2021-09-13T19:32:09Z</time>
   </trkpt>
   <trkpt lat="47.3840950" lon="-122.0496790">
    <ele>137.7</ele>
    <time>2021-09-13T19:32:10Z</time>
   </trkpt>
   <trkpt lat="47.3841620" lon="-122.0497300">
    <ele>137.5</ele>
    <time>2021-09-13T19:32:11Z</time>
   </trkpt>
   <trkpt lat="47.3841970" lon="-122.0497590">
    <ele>137.4</ele>
    <time>2021-09-13T19:32:12Z</time>
   </trkpt>
   <trkpt lat="47.3842410" lon="-122.0497770">
    <ele>137.4</ele>
    <time>2021-09-13T19:32:13Z</time>
   </trkpt>
   <trkpt lat="47.3842750" lon="-122.0497760">
    <ele>137.3</ele>
    <time>2021-09-13T19:32:14Z</time>
   </trkpt>
   <trkpt lat="47.3843120" lon="-122.0497860">
    <ele>137.3</ele>
    <time>2021-09-13T19:32:15Z</time>
   </trkpt>
   <trkpt lat="47.3843490" lon="-122.0498150">
    <ele>137.2</ele>
    <time>2021-09-13T19:32:16Z</time>
   </trkpt>
   <trkpt lat="47.3843860" lon="-122.0498390">
    <ele>137.2</ele>
    <time>2021-09-13T19:32:17Z</time>
   </trkpt>
   <trkpt lat="47.3844250" lon="-122.0498410">
    <ele>137.2</ele>
    <time>2021-09-13T19:32:18Z</time>
   </trkpt>
   <trkpt lat="47.3844630" lon="-122.0498470">
    <ele>137.1</ele>
    <time>2021-09-13T19:32:19Z</time>
   </trkpt>
   <trkpt lat="47.3845050" lon="-122.0498540">
    <ele>137.1</ele>
    <time>2021-09-13T19:32:20Z</time>
   </trkpt>
   <trkpt lat="47.3845400" lon="-122.0498660">
    <ele>137.0</ele>
    <time>2021-09-13T19:32:21Z</time>
   </trkpt>
   <trkpt lat="47.3845770" lon="-122.0498700">
    <ele>137.0</ele>
    <time>2021-09-13T19:32:22Z</time>
   </trkpt>
   <trkpt lat="47.3846200" lon="-122.0498760">
    <ele>136.9</ele>
    <time>2021-09-13T19:32:23Z</time>
   </trkpt>
   <trkpt lat="47.3846570" lon="-122.0498760">
    <ele>136.9</ele>
    <time>2021-09-13T19:32:24Z</time>
   </trkpt>
   <trkpt lat="47.3846920" lon="-122.0498740">
    <ele>136.8</ele>
    <time>2021-09-13T19:32:25Z</time>
   </trkpt>
   <trkpt lat="47.3847290" lon="-122.0498780">
    <ele>136.7</ele>
    <time>2021-09-13T19:32:26Z</time>
   </trkpt>
   <trkpt lat="47.3847710" lon="-122.0498850">
    <ele>136.7</ele>
    <time>2021-09-13T19:32:27Z</time>
   </trkpt>
   <trkpt lat="47.3848090" lon="-122.0498860">
    <ele>136.6</ele>
    <time>2021-09-13T19:32:28Z</time>
   </trkpt>
   <trkpt lat="47.3848520" lon="-122.0498950">
    <ele>136.5</ele>
    <time>2021-09-13T19:32:29Z</time>
   </trkpt>
   <trkpt lat="47.3848880" lon="-122.0498950">
    <ele>136.4</ele>
    <time>2021-09-13T19:32:30Z</time>
   </trkpt>
   <trkpt lat="47.3849220" lon="-122.0499130">
    <ele>136.3</ele>
    <time>2021-09-13T19:32:31Z</time>
   </trkpt>
   <trkpt lat="47.3849630" lon="-122.0499140">
    <ele>136.3</ele>
    <time>2021-09-13T19:32:32Z</time>
   </trkpt>
   <trkpt lat="47.3849930" lon="-122.0499240">
    <ele>136.2</ele>
    <time>2021-09-13T19:32:33Z</time>
   </trkpt>
   <trkpt lat="47.3850270" lon="-122.0499270">
    <ele>136.1</ele>
    <time>2021-09-13T19:32:34Z</time>
   </trkpt>
   <trkpt lat="47.3850640" lon="-122.0499290">
    <ele>136.1</ele>
    <time>2021-09-13T19:32:35Z</time>
   </trkpt>
   <trkpt lat="47.3851040" lon="-122.0499280">
    <ele>136.0</ele>
    <time>2021-09-13T19:32:36Z</time>
   </trkpt>
   <trkpt lat="47.3851440" lon="-122.0499300">
    <ele>135.9</ele>
    <time>2021-09-13T19:32:37Z</time>
   </trkpt>
   <trkpt lat="47.3851840" lon="-122.0499300">
    <ele>135.8</ele>
    <time>2021-09-13T19:32:38Z</time>
   </trkpt>
   <trkpt lat="47.3852340" lon="-122.0499250">
    <ele>135.8</ele>
    <time>2021-09-13T19:32:39Z</time>
   </trkpt>
   <trkpt lat="47.3852720" lon="-122.0499140">
    <ele>135.7</ele>
    <time>2021-09-13T19:32:40Z</time>
   </trkpt>
   <trkpt lat="47.3853130" lon="-122.0499230">
    <ele>135.6</ele>
    <time>2021-09-13T19:32:41Z</time>
   </trkpt>
   <trkpt lat="47.3853550" lon="-122.0499080">
    <ele>135.5</ele>
    <time>2021-09-13T19:32:42Z</time>
   </trkpt>
   <trkpt lat="47.3853940" lon="-122.0499050">
    <ele>135.5</ele>
    <time>2021-09-13T19:32:43Z</time>
   </trkpt>
   <trkpt lat="47.3854320" lon="-122.0498980">
    <ele>135.4</ele>
    <time>2021-09-13T19:32:44Z</time>
   </trkpt>
   <trkpt lat="47.3854690" lon="-122.0498980">
    <ele>135.4</ele>
    <time>2021-09-13T19:32:45Z</time>
   </trkpt>
   <trkpt lat="47.3855050" lon="-122.0498910">
    <ele>135.3</ele>
    <time>2021-09-13T19:32:46Z</time>
   </trkpt>
   <trkpt lat="47.3855480" lon="-122.0498940">
    <ele>135.3</ele>
    <time>2021-09-13T19:32:47Z</time>
   </trkpt>
   <trkpt lat="47.3855910" lon="-122.0498890">
    <ele>135.2</ele>
    <time>2021-09-13T19:32:48Z</time>
   </trkpt>
   <trkpt lat="47.3856290" lon="-122.0498710">
    <ele>135.2</ele>
    <time>2021-09-13T19:32:49Z</time>
   </trkpt>
   <trkpt lat="47.3856670" lon="-122.0498680">
    <ele>135.1</ele>
    <time>2021-09-13T19:32:50Z</time>
   </trkpt>
   <trkpt lat="47.3857030" lon="-122.0498760">
    <ele>135.1</ele>
    <time>2021-09-13T19:32:51Z</time>
   </trkpt>
   <trkpt lat="47.3857340" lon="-122.0498760">
    <ele>135.1</ele>
    <time>2021-09-13T19:32:52Z</time>
   </trkpt>
   <trkpt lat="47.3857760" lon="-122.0498650">
    <ele>135.0</ele>
    <time>2021-09-13T19:32:53Z</time>
   </trkpt>
   <trkpt lat="47.3858090" lon="-122.0498590">
    <ele>135.0</ele>
    <time>2021-09-13T19:32:54Z</time>
   </trkpt>
   <trkpt lat="47.3858380" lon="-122.0498530">
    <ele>134.9</ele>
    <time>2021-09-13T19:32:55Z</time>
   </trkpt>
   <trkpt lat="47.3858770" lon="-122.0498460">
    <ele>134.9</ele>
    <time>2021-09-13T19:32:56Z</time>
   </trkpt>
   <trkpt lat="47.3859080" lon="-122.0498270">
    <ele>134.8</ele>
    <time>2021-09-13T19:32:57Z</time>
   </trkpt>
   <trkpt lat="47.3859440" lon="-122.0498060">
    <ele>134.8</ele>
    <time>2021-09-13T19:32:58Z</time>
   </trkpt>
   <trkpt lat="47.3859790" lon="-122.0497900">
    <ele>134.7</ele>
    <time>2021-09-13T19:32:59Z</time>
   </trkpt>
   <trkpt lat="47.3860270" lon="-122.0497860">
    <ele>134.7</ele>
    <time>2021-09-13T19:33:00Z</time>
   </trkpt>
   <trkpt lat="47.3860640" lon="-122.0497710">
    <ele>134.6</ele>
    <time>2021-09-13T19:33:01Z</time>
   </trkpt>
   <trkpt lat="47.3861050" lon="-122.0497640">
    <ele>134.6</ele>
    <time>2021-09-13T19:33:02Z</time>
   </trkpt>
   <trkpt lat="47.3861420" lon="-122.0497410">
    <ele>134.6</ele>
    <time>2021-09-13T19:33:03Z</time>
   </trkpt>
   <trkpt lat="47.3861780" lon="-122.0497260">
    <ele>134.6</ele>
    <time>2021-09-13T19:33:04Z</time>
   </trkpt>
   <trkpt lat="47.3862240" lon="-122.0497200">
    <ele>134.6</ele>
    <time>2021-09-13T19:33:05Z</time>
   </trkpt>
   <trkpt lat="47.3862680" lon="-122.0497190">
    <ele>134.5</ele>
    <time>2021-09-13T19:33:06Z</time>
   </trkpt>
   <trkpt lat="47.3863170" lon="-122.0497090">
    <ele>134.5</ele>
    <time>2021-09-13T19:33:07Z</time>
   </trkpt>
   <trkpt lat="47.3863560" lon="-122.0496950">
    <ele>134.5</ele>
    <time>2021-09-13T19:33:08Z</time>
   </trkpt>
   <trkpt lat="47.3863980" lon="-122.0496840">
    <ele>134.5</ele>
    <time>2021-09-13T19:33:09Z</time>
   </trkpt>
   <trkpt lat="47.3864320" lon="-122.0496650">
    <ele>134.4</ele>
    <time>2021-09-13T19:33:10Z</time>
   </trkpt>
   <trkpt lat="47.3864680" lon="-122.0496530">
    <ele>134.4</ele>
    <time>2021-09-13T19:33:11Z</time>
   </trkpt>
   <trkpt lat="47.3865120" lon="-122.0496410">
    <ele>134.4</ele>
    <time>2021-09-13T19:33:12Z</time>
   </trkpt>
   <trkpt lat="47.3865560" lon="-122.0496370">
    <ele>134.4</ele>
    <time>2021-09-13T19:33:13Z</time>
   </trkpt>
   <trkpt lat="47.3865900" lon="-122.0496270">
    <ele>134.3</ele>
    <time>2021-09-13T19:33:14Z</time>
   </trkpt>
   <trkpt lat="47.3866180" lon="-122.0496140">
    <ele>134.3</ele>
    <time>2021-09-13T19:33:15Z</time>
   </trkpt>
   <trkpt lat="47.3866430" lon="-122.0495970">
    <ele>134.3</ele>
    <time>2021-09-13T19:33:16Z</time>
   </trkpt>
   <trkpt lat="47.3866800" lon="-122.0496060">
    <ele>134.3</ele>
    <time>2021-09-13T19:33:17Z</time>
   </trkpt>
   <trkpt lat="47.3867140" lon="-122.0495910">
    <ele>134.3</ele>
    <time>2021-09-13T19:33:18Z</time>
   </trkpt>
   <trkpt lat="47.3867520" lon="-122.0495530">
    <ele>134.2</ele>
    <time>2021-09-13T19:33:19Z</time>
   </trkpt>
   <trkpt lat="47.3867940" lon="-122.0495400">
    <ele>134.2</ele>
    <time>2021-09-13T19:33:20Z</time>
   </trkpt>
   <trkpt lat="47.3868200" lon="-122.0495090">
    <ele>134.2</ele>
    <time>2021-09-13T19:33:21Z</time>
   </trkpt>
   <trkpt lat="47.3868540" lon="-122.0494880">
    <ele>134.2</ele>
    <time>2021-09-13T19:33:22Z</time>
   </trkpt>
   <trkpt lat="47.3868890" lon="-122.0494630">
    <ele>134.1</ele>
    <time>2021-09-13T19:33:23Z</time>
   </trkpt>
   <trkpt lat="47.3869220" lon="-122.0494290">
    <ele>134.1</ele>
    <time>2021-09-13T19:33:24Z</time>
   </trkpt>
   <trkpt lat="47.3869640" lon="-122.0494170">
    <ele>134.0</ele>
    <time>2021-09-13T19:33:25Z</time>
   </trkpt>
   <trkpt lat="47.3870000" lon="-122.0493850">
    <ele>134.0</ele>
    <time>2021-09-13T19:33:26Z</time>
   </trkpt>
   <trkpt lat="47.3870440" lon="-122.0493610">
    <ele>133.9</ele>
    <time>2021-09-13T19:33:27Z</time>
   </trkpt>
   <trkpt lat="47.3870750" lon="-122.0493330">
    <ele>133.9</ele>
    <time>2021-09-13T19:33:28Z</time>
   </trkpt>
   <trkpt lat="47.3871130" lon="-122.0493060">
    <ele>133.8</ele>
    <time>2021-09-13T19:33:29Z</time>
   </trkpt>
   <trkpt lat="47.3871520" lon="-122.0492930">
    <ele>133.7</ele>
    <time>2021-09-13T19:33:30Z</time>
   </trkpt>
   <trkpt lat="47.3871800" lon="-122.0492570">
    <ele>133.7</ele>
    <time>2021-09-13T19:33:31Z</time>
   </trkpt>
   <trkpt lat="47.3872160" lon="-122.0492270">
    <ele>133.6</ele>
    <time>2021-09-13T19:33:32Z</time>
   </trkpt>
   <trkpt lat="47.3872550" lon="-122.0492060">
    <ele>133.5</ele>
    <time>2021-09-13T19:33:33Z</time>
   </trkpt>
   <trkpt lat="47.3872840" lon="-122.0491830">
    <ele>133.5</ele>
    <time>2021-09-13T19:33:34Z</time>
   </trkpt>
   <trkpt lat="47.3873250" lon="-122.0491620">
    <ele>133.4</ele>
    <time>2021-09-13T19:33:35Z</time>
   </trkpt>
   <trkpt lat="47.3873580" lon="-122.0491370">
    <ele>133.3</ele>
    <time>2021-09-13T19:33:36Z</time>
   </trkpt>
   <trkpt lat="47.3873920" lon="-122.0491200">
    <ele>133.3</ele>
    <time>2021-09-13T19:33:37Z</time>
   </trkpt>
   <trkpt lat="47.3874190" lon="-122.0490940">
    <ele>133.2</ele>
    <time>2021-09-13T19:33:38Z</time>
   </trkpt>
   <trkpt lat="47.3874530" lon="-122.0490640">
    <ele>133.1</ele>
    <time>2021-09-13T19:33:39Z</time>
   </trkpt>
   <trkpt lat="47.3874850" lon="-122.0490510">
    <ele>133.1</ele>
    <time>2021-09-13T19:33:40Z</time>
   </trkpt>
   <trkpt lat="47.3875040" lon="-122.0490020">
    <ele>133.0</ele>
    <time>2021-09-13T19:33:41Z</time>
   </trkpt>
   <trkpt lat="47.3875410" lon="-122.0489830">
    <ele>132.9</ele>
    <time>2021-09-13T19:33:42Z</time>
   </trkpt>
   <trkpt lat="47.3875760" lon="-122.0489460">
    <ele>132.8</ele>
    <time>2021-09-13T19:33:43Z</time>
   </trkpt>
   <trkpt lat="47.3876030" lon="-122.0489110">
    <ele>132.8</ele>
    <time>2021-09-13T19:33:44Z</time>
   </trkpt>
   <trkpt lat="47.3876380" lon="-122.0488850">
    <ele>132.7</ele>
    <time>2021-09-13T19:33:45Z</time>
   </trkpt>
   <trkpt lat="47.3876620" lon="-122.0488540">
    <ele>132.6</ele>
    <time>2021-09-13T19:33:46Z</time>
   </trkpt>
   <trkpt lat="47.3876980" lon="-122.0488510">
    <ele>132.5</ele>
    <time>2021-09-13T19:33:47Z</time>
   </trkpt>
   <trkpt lat="47.3877300" lon="-122.0488080">
    <ele>132.4</ele>
    <time>2021-09-13T19:33:48Z</time>
   </trkpt>
   <trkpt lat="47.3877600" lon="-122.0487720">
    <ele>132.4</ele>
    <time>2021-09-13T19:33:49Z</time>
   </trkpt>
   <trkpt lat="47.3877950" lon="-122.0487380">
    <ele>132.3</ele>
    <time>2021-09-13T19:33:50Z</time>
   </trkpt>
   <trkpt lat="47.3878160" lon="-122.0486900">
    <ele>132.2</ele>
    <time>2021-09-13T19:33:51Z</time>
   </trkpt>
   <trkpt lat="47.3878530" lon="-122.0486610">
    <ele>132.1</ele>
    <time>2021-09-13T19:33:52Z</time>
   </trkpt>
   <trkpt lat="47.3878840" lon="-122.0486230">
    <ele>132.0</ele>
    <time>2021-09-13T19:33:53Z</time>
   </trkpt>
   <trkpt lat="47.3879110" lon="-122.0486050">
    <ele>132.0</ele>
    <time>2021-09-13T19:33:54Z</time>
   </trkpt>
   <trkpt lat="47.3879400" lon="-122.0485770">
    <ele>131.9</ele>
    <time>2021-09-13T19:33:55Z</time>
   </trkpt>
   <trkpt lat="47.3879710" lon="-122.0485440">
    <ele>131.8</ele>
    <time>2021-09-13T19:33:56Z</time>
   </trkpt>
   <trkpt lat="47.3879980" lon="-122.0485190">
    <ele>131.8</ele>
    <time>2021-09-13T19:33:58Z</time>
   </trkpt>
   <trkpt lat="47.3880260" lon="-122.0484930">
    <ele>131.7</ele>
    <time>2021-09-13T19:33:59Z</time>
   </trkpt>
   <trkpt lat="47.3880520" lon="-122.0484640">
    <ele>131.7</ele>
    <time>2021-09-13T19:34:00Z</time>
   </trkpt>
   <trkpt lat="47.3880860" lon="-122.0484430">
    <ele>131.6</ele>
    <time>2021-09-13T19:34:01Z</time>
   </trkpt>
   <trkpt lat="47.3881070" lon="-122.0484080">
    <ele>131.6</ele>
    <time>2021-09-13T19:34:02Z</time>
   </trkpt>
   <trkpt lat="47.3881270" lon="-122.0483770">
    <ele>131.5</ele>
    <time>2021-09-13T19:34:03Z</time>
   </trkpt>
   <trkpt lat="47.3881540" lon="-122.0483540">
    <ele>131.5</ele>
    <time>2021-09-13T19:34:04Z</time>
   </trkpt>
   <trkpt lat="47.3881850" lon="-122.0483240">
    <ele>131.4</ele>
    <time>2021-09-13T19:34:05Z</time>
   </trkpt>
   <trkpt lat="47.3882120" lon="-122.0482920">
    <ele>131.3</ele>
    <time>2021-09-13T19:34:06Z</time>
   </trkpt>
   <trkpt lat="47.3882430" lon="-122.0482620">
    <ele>131.3</ele>
    <time>2021-09-13T19:34:07Z</time>
   </trkpt>
   <trkpt lat="47.3882640" lon="-122.0482280">
    <ele>131.2</ele>
    <time>2021-09-13T19:34:08Z</time>
   </trkpt>
   <trkpt lat="47.3882920" lon="-122.0482030">
    <ele>131.2</ele>
    <time>2021-09-13T19:34:09Z</time>
   </trkpt>
   <trkpt lat="47.3883210" lon="-122.0481730">
    <ele>131.1</ele>
    <time>2021-09-13T19:34:10Z</time>
   </trkpt>
   <trkpt lat="47.3883540" lon="-122.0481520">
    <ele>131.0</ele>
    <time>2021-09-13T19:34:11Z</time>
   </trkpt>
   <trkpt lat="47.3883750" lon="-122.0481090">
    <ele>131.0</ele>
    <time>2021-09-13T19:34:12Z</time>
   </trkpt>
   <trkpt lat="47.3884060" lon="-122.0480830">
    <ele>130.9</ele>
    <time>2021-09-13T19:34:13Z</time>
   </trkpt>
   <trkpt lat="47.3884320" lon="-122.0480190">
    <ele>130.8</ele>
    <time>2021-09-13T19:34:14Z</time>
   </trkpt>
   <trkpt lat="47.3884540" lon="-122.0479920">
    <ele>130.8</ele>
    <time>2021-09-13T19:34:15Z</time>
   </trkpt>
   <trkpt lat="47.3884810" lon="-122.0479550">
    <ele>130.7</ele>
    <time>2021-09-13T19:34:16Z</time>
   </trkpt>
   <trkpt lat="47.3885280" lon="-122.0478920">
    <ele>130.6</ele>
    <time>2021-09-13T19:34:17Z</time>
   </trkpt>
   <trkpt lat="47.3885510" lon="-122.0478520">
    <ele>130.6</ele>
    <time>2021-09-13T19:34:18Z</time>
   </trkpt>
   <trkpt lat="47.3885700" lon="-122.0478070">
    <ele>130.5</ele>
    <time>2021-09-13T19:34:19Z</time>
   </trkpt>
   <trkpt lat="47.3886110" lon="-122.0477720">
    <ele>130.4</ele>
    <time>2021-09-13T19:34:20Z</time>
   </trkpt>
   <trkpt lat="47.3886520" lon="-122.0477320">
    <ele>130.4</ele>
    <time>2021-09-13T19:34:21Z</time>
   </trkpt>
   <trkpt lat="47.3886820" lon="-122.0477080">
    <ele>130.3</ele>
    <time>2021-09-13T19:34:22Z</time>
   </trkpt>
   <trkpt lat="47.3887200" lon="-122.0477050">
    <ele>130.2</ele>
    <time>2021-09-13T19:34:23Z</time>
   </trkpt>
   <trkpt lat="47.3887490" lon="-122.0476740">
    <ele>130.2</ele>
    <time>2021-09-13T19:34:24Z</time>
   </trkpt>
   <trkpt lat="47.3887740" lon="-122.0476420">
    <ele>130.1</ele>
    <time>2021-09-13T19:34:25Z</time>
   </trkpt>
   <trkpt lat="47.3888110" lon="-122.0476190">
    <ele>130.1</ele>
    <time>2021-09-13T19:34:26Z</time>
   </trkpt>
   <trkpt lat="47.3888370" lon="-122.0475900">
    <ele>130.0</ele>
    <time>2021-09-13T19:34:27Z</time>
   </trkpt>
   <trkpt lat="47.3888570" lon="-122.0475470">
    <ele>130.0</ele>
    <time>2021-09-13T19:34:28Z</time>
   </trkpt>
   <trkpt lat="47.3888930" lon="-122.0475050">
    <ele>129.9</ele>
    <time>2021-09-13T19:34:29Z</time>
   </trkpt>
   <trkpt lat="47.3889110" lon="-122.0474530">
    <ele>129.9</ele>
    <time>2021-09-13T19:34:30Z</time>
   </trkpt>
   <trkpt lat="47.3889410" lon="-122.0474250">
    <ele>129.8</ele>
    <time>2021-09-13T19:34:31Z</time>
   </trkpt>
   <trkpt lat="47.3889670" lon="-122.0473970">
    <ele>129.8</ele>
    <time>2021-09-13T19:34:32Z</time>
   </trkpt>
   <trkpt lat="47.3889940" lon="-122.0473650">
    <ele>129.8</ele>
    <time>2021-09-13T19:34:33Z</time>
   </trkpt>
   <trkpt lat="47.3890210" lon="-122.0473370">
    <ele>129.8</ele>
    <time>2021-09-13T19:34:34Z</time>
   </trkpt>
   <trkpt lat="47.3890450" lon="-122.0473080">
    <ele>129.7</ele>
    <time>2021-09-13T19:34:35Z</time>
   </trkpt>
   <trkpt lat="47.3890810" lon="-122.0472710">
    <ele>129.7</ele>
    <time>2021-09-13T19:34:36Z</time>
   </trkpt>
   <trkpt lat="47.3891040" lon="-122.0472390">
    <ele>129.7</ele>
    <time>2021-09-13T19:34:37Z</time>
   </trkpt>
   <trkpt lat="47.3891350" lon="-122.0472050">
    <ele>129.7</ele>
    <time>2021-09-13T19:34:38Z</time>
   </trkpt>
   <trkpt lat="47.3891680" lon="-122.0471730">
    <ele>129.7</ele>
    <time>2021-09-13T19:34:39Z</time>
   </trkpt>
   <trkpt lat="47.3891990" lon="-122.0471350">
    <ele>129.7</ele>
    <time>2021-09-13T19:34:40Z</time>
   </trkpt>
   <trkpt lat="47.3892250" lon="-122.0470950">
    <ele>129.7</ele>
    <time>2021-09-13T19:34:41Z</time>
   </trkpt>
   <trkpt lat="47.3892470" lon="-122.0470550">
    <ele>129.7</ele>
    <time>2021-09-13T19:34:42Z</time>
   </trkpt>
   <trkpt lat="47.3892800" lon="-122.0470300">
    <ele>129.7</ele>
    <time>2021-09-13T19:34:43Z</time>
   </trkpt>
   <trkpt lat="47.3893220" lon="-122.0470080">
    <ele>129.7</ele>
    <time>2021-09-13T19:34:44Z</time>
   </trkpt>
   <trkpt lat="47.3893580" lon="-122.0469770">
    <ele>129.7</ele>
    <time>2021-09-13T19:34:45Z</time>
   </trkpt>
   <trkpt lat="47.3893890" lon="-122.0469500">
    <ele>129.6</ele>
    <time>2021-09-13T19:34:46Z</time>
   </trkpt>
   <trkpt lat="47.3894130" lon="-122.0469220">
    <ele>129.6</ele>
    <time>2021-09-13T19:34:47Z</time>
   </trkpt>
   <trkpt lat="47.3894450" lon="-122.0468960">
    <ele>129.5</ele>
    <time>2021-09-13T19:34:48Z</time>
   </trkpt>
   <trkpt lat="47.3894820" lon="-122.0468720">
    <ele>129.5</ele>
    <time>2021-09-13T19:34:49Z</time>
   </trkpt>
   <trkpt lat="47.3895100" lon="-122.0468400">
    <ele>129.4</ele>
    <time>2021-09-13T19:34:50Z</time>
   </trkpt>
   <trkpt lat="47.3895400" lon="-122.0468060">
    <ele>129.4</ele>
    <time>2021-09-13T19:34:51Z</time>
   </trkpt>
   <trkpt lat="47.3895540" lon="-122.0467680">
    <ele>129.4</ele>
    <time>2021-09-13T19:34:52Z</time>
   </trkpt>
   <trkpt lat="47.3895810" lon="-122.0467300">
    <ele>129.3</ele>
    <time>2021-09-13T19:34:53Z</time>
   </trkpt>
   <trkpt lat="47.3896170" lon="-122.0467080">
    <ele>129.3</ele>
    <time>2021-09-13T19:34:54Z</time>
   </trkpt>
   <trkpt lat="47.3896430" lon="-122.0466610">
    <ele>129.3</ele>
    <time>2021-09-13T19:34:55Z</time>
   </trkpt>
   <trkpt lat="47.3896820" lon="-122.0466390">
    <ele>129.2</ele>
    <time>2021-09-13T19:34:56Z</time>
   </trkpt>
   <trkpt lat="47.3897080" lon="-122.0465950">
    <ele>129.2</ele>
    <time>2021-09-13T19:34:57Z</time>
   </trkpt>
   <trkpt lat="47.3897350" lon="-122.0465600">
    <ele>129.1</ele>
    <time>2021-09-13T19:34:58Z</time>
   </trkpt>
   <trkpt lat="47.3897660" lon="-122.0465280">
    <ele>129.1</ele>
    <time>2021-09-13T19:34:59Z</time>
   </trkpt>
   <trkpt lat="47.3897810" lon="-122.0464940">
    <ele>129.1</ele>
    <time>2021-09-13T19:35:00Z</time>
   </trkpt>
   <trkpt lat="47.3898120" lon="-122.0464710">
    <ele>129.0</ele>
    <time>2021-09-13T19:35:01Z</time>
   </trkpt>
   <trkpt lat="47.3898370" lon="-122.0464390">
    <ele>129.0</ele>
    <time>2021-09-13T19:35:02Z</time>
   </trkpt>
   <trkpt lat="47.3898630" lon="-122.0464110">
    <ele>128.9</ele>
    <time>2021-09-13T19:35:03Z</time>
   </trkpt>
   <trkpt lat="47.3899020" lon="-122.0463910">
    <ele>128.9</ele>
    <time>2021-09-13T19:35:04Z</time>
   </trkpt>
   <trkpt lat="47.3899290" lon="-122.0463560">
    <ele>128.8</ele>
    <time>2021-09-13T19:35:05Z</time>
   </trkpt>
   <trkpt lat="47.3899680" lon="-122.0463330">
    <ele>128.7</ele>
    <time>2021-09-13T19:35:06Z</time>
   </trkpt>
   <trkpt lat="47.3899930" lon="-122.0463090">
    <ele>128.7</ele>
    <time>2021-09-13T19:35:07Z</time>
   </trkpt>
   <trkpt lat="47.3900170" lon="-122.0462850">
    <ele>128.6</ele>
    <time>2021-09-13T19:35:08Z</time>
   </trkpt>
   <trkpt lat="47.3900470" lon="-122.0462500">
    <ele>128.6</ele>
    <time>2021-09-13T19:35:09Z</time>
   </trkpt>
   <trkpt lat="47.3900720" lon="-122.0462060">
    <ele>128.5</ele>
    <time>2021-09-13T19:35:10Z</time>
   </trkpt>
   <trkpt lat="47.3901110" lon="-122.0461810">
    <ele>128.5</ele>
    <time>2021-09-13T19:35:11Z</time>
   </trkpt>
   <trkpt lat="47.3901320" lon="-122.0461360">
    <ele>128.4</ele>
    <time>2021-09-13T19:35:12Z</time>
   </trkpt>
   <trkpt lat="47.3901680" lon="-122.0460970">
    <ele>128.3</ele>
    <time>2021-09-13T19:35:13Z</time>
   </trkpt>
   <trkpt lat="47.3902010" lon="-122.0460680">
    <ele>128.3</ele>
    <time>2021-09-13T19:35:14Z</time>
   </trkpt>
   <trkpt lat="47.3902300" lon="-122.0460400">
    <ele>128.2</ele>
    <time>2021-09-13T19:35:15Z</time>
   </trkpt>
   <trkpt lat="47.3902640" lon="-122.0460020">
    <ele>128.2</ele>
    <time>2021-09-13T19:35:16Z</time>
   </trkpt>
   <trkpt lat="47.3902930" lon="-122.0459760">
    <ele>128.1</ele>
    <time>2021-09-13T19:35:17Z</time>
   </trkpt>
   <trkpt lat="47.3903180" lon="-122.0459490">
    <ele>128.1</ele>
    <time>2021-09-13T19:35:18Z</time>
   </trkpt>
   <trkpt lat="47.3903500" lon="-122.0459190">
    <ele>128.0</ele>
    <time>2021-09-13T19:35:19Z</time>
   </trkpt>
   <trkpt lat="47.3903720" lon="-122.0458790">
    <ele>127.9</ele>
    <time>2021-09-13T19:35:20Z</time>
   </trkpt>
   <trkpt lat="47.3904100" lon="-122.0458640">
    <ele>127.9</ele>
    <time>2021-09-13T19:35:21Z</time>
   </trkpt>
   <trkpt lat="47.3904390" lon="-122.0458480">
    <ele>127.8</ele>
    <time>2021-09-13T19:35:22Z</time>
   </trkpt>
   <trkpt lat="47.3904640" lon="-122.0458310">
    <ele>127.8</ele>
    <time>2021-09-13T19:35:23Z</time>
   </trkpt>
   <trkpt lat="47.3904930" lon="-122.0458140">
    <ele>127.7</ele>
    <time>2021-09-13T19:35:24Z</time>
   </trkpt>
   <trkpt lat="47.3905290" lon="-122.0457960">
    <ele>127.7</ele>
    <time>2021-09-13T19:35:25Z</time>
   </trkpt>
   <trkpt lat="47.3905550" lon="-122.0457700">
    <ele>127.7</ele>
    <time>2021-09-13T19:35:26Z</time>
   </trkpt>
   <trkpt lat="47.3905910" lon="-122.0457400">
    <ele>127.6</ele>
    <time>2021-09-13T19:35:27Z</time>
   </trkpt>
   <trkpt lat="47.3906030" lon="-122.0457290">
    <ele>127.6</ele>
    <time>2021-09-13T19:35:28Z</time>
   </trkpt>
   <trkpt lat="47.3906350" lon="-122.0457060">
    <ele>127.6</ele>
    <time>2021-09-13T19:35:29Z</time>
   </trkpt>
   <trkpt lat="47.3906680" lon="-122.0456830">
    <ele>127.5</ele>
    <time>2021-09-13T19:35:30Z</time>
   </trkpt>
   <trkpt lat="47.3906920" lon="-122.0456400">
    <ele>127.5</ele>
    <time>2021-09-13T19:35:31Z</time>
   </trkpt>
   <trkpt lat="47.3907220" lon="-122.0456040">
    <ele>127.4</ele>
    <time>2021-09-13T19:35:32Z</time>
   </trkpt>
   <trkpt lat="47.3907520" lon="-122.0455640">
    <ele>127.4</ele>
    <time>2021-09-13T19:35:33Z</time>
   </trkpt>
   <trkpt lat="47.3907850" lon="-122.0455490">
    <ele>127.4</ele>
    <time>2021-09-13T19:35:34Z</time>
   </trkpt>
   <trkpt lat="47.3908080" lon="-122.0455020">
    <ele>127.4</ele>
    <time>2021-09-13T19:35:35Z</time>
   </trkpt>
   <trkpt lat="47.3908260" lon="-122.0454090">
    <ele>127.3</ele>
    <time>2021-09-13T19:35:36Z</time>
   </trkpt>
   <trkpt lat="47.3909090" lon="-122.0453840">
    <ele>127.2</ele>
    <time>2021-09-13T19:35:37Z</time>
   </trkpt>
   <trkpt lat="47.3909430" lon="-122.0453620">
    <ele>127.2</ele>
    <time>2021-09-13T19:35:38Z</time>
   </trkpt>
   <trkpt lat="47.3909820" lon="-122.0453410">
    <ele>127.2</ele>
    <time>2021-09-13T19:35:39Z</time>
   </trkpt>
   <trkpt lat="47.3910210" lon="-122.0453120">
    <ele>127.1</ele>
    <time>2021-09-13T19:35:40Z</time>
   </trkpt>
   <trkpt lat="47.3910360" lon="-122.0452990">
    <ele>127.1</ele>
    <time>2021-09-13T19:35:41Z</time>
   </trkpt>
   <trkpt lat="47.3910670" lon="-122.0452900">
    <ele>127.1</ele>
    <time>2021-09-13T19:35:42Z</time>
   </trkpt>
   <trkpt lat="47.3910940" lon="-122.0452660">
    <ele>127.0</ele>
    <time>2021-09-13T19:35:43Z</time>
   </trkpt>
   <trkpt lat="47.3911260" lon="-122.0452560">
    <ele>127.0</ele>
    <time>2021-09-13T19:35:44Z</time>
   </trkpt>
   <trkpt lat="47.3911540" lon="-122.0452420">
    <ele>127.0</ele>
    <time>2021-09-13T19:35:45Z</time>
   </trkpt>
   <trkpt lat="47.3911760" lon="-122.0452170">
    <ele>127.0</ele>
    <time>2021-09-13T19:35:46Z</time>
   </trkpt>
   <trkpt lat="47.3912100" lon="-122.0452120">
    <ele>126.9</ele>
    <time>2021-09-13T19:35:47Z</time>
   </trkpt>
   <trkpt lat="47.3912350" lon="-122.0451930">
    <ele>126.9</ele>
    <time>2021-09-13T19:35:48Z</time>
   </trkpt>
   <trkpt lat="47.3912620" lon="-122.0451670">
    <ele>126.9</ele>
    <time>2021-09-13T19:35:49Z</time>
   </trkpt>
   <trkpt lat="47.3912840" lon="-122.0451380">
    <ele>126.9</ele>
    <time>2021-09-13T19:35:50Z</time>
   </trkpt>
   <trkpt lat="47.3913140" lon="-122.0451170">
    <ele>126.8</ele>
    <time>2021-09-13T19:35:51Z</time>
   </trkpt>
   <trkpt lat="47.3913430" lon="-122.0450940">
    <ele>126.8</ele>
    <time>2021-09-13T19:35:52Z</time>
   </trkpt>
   <trkpt lat="47.3913670" lon="-122.0450620">
    <ele>126.8</ele>
    <time>2021-09-13T19:35:53Z</time>
   </trkpt>
   <trkpt lat="47.3914050" lon="-122.0450270">
    <ele>126.7</ele>
    <time>2021-09-13T19:35:54Z</time>
   </trkpt>
   <trkpt lat="47.3914350" lon="-122.0450060">
    <ele>126.7</ele>
    <time>2021-09-13T19:35:55Z</time>
   </trkpt>
   <trkpt lat="47.3914690" lon="-122.0449720">
    <ele>126.7</ele>
    <time>2021-09-13T19:35:56Z</time>
   </trkpt>
   <trkpt lat="47.3914980" lon="-122.0449480">
    <ele>126.6</ele>
    <time>2021-09-13T19:35:57Z</time>
   </trkpt>
   <trkpt lat="47.3915300" lon="-122.0449220">
    <ele>126.6</ele>
    <time>2021-09-13T19:35:58Z</time>
   </trkpt>
   <trkpt lat="47.3915600" lon="-122.0449010">
    <ele>126.6</ele>
    <time>2021-09-13T19:35:59Z</time>
   </trkpt>
   <trkpt lat="47.3915880" lon="-122.0448820">
    <ele>126.5</ele>
    <time>2021-09-13T19:36:00Z</time>
   </trkpt>
   <trkpt lat="47.3916110" lon="-122.0448560">
    <ele>126.5</ele>
    <time>2021-09-13T19:36:01Z</time>
   </trkpt>
   <trkpt lat="47.3916500" lon="-122.0448450">
    <ele>126.5</ele>
    <time>2021-09-13T19:36:02Z</time>
   </trkpt>
   <trkpt lat="47.3916760" lon="-122.0448110">
    <ele>126.5</ele>
    <time>2021-09-13T19:36:03Z</time>
   </trkpt>
   <trkpt lat="47.3917180" lon="-122.0447800">
    <ele>126.4</ele>
    <time>2021-09-13T19:36:04Z</time>
   </trkpt>
   <trkpt lat="47.3917470" lon="-122.0447600">
    <ele>126.4</ele>
    <time>2021-09-13T19:36:05Z</time>
   </trkpt>
   <trkpt lat="47.3917800" lon="-122.0447330">
    <ele>126.4</ele>
    <time>2021-09-13T19:36:06Z</time>
   </trkpt>
   <trkpt lat="47.3918160" lon="-122.0447080">
    <ele>126.3</ele>
    <time>2021-09-13T19:36:07Z</time>
   </trkpt>
   <trkpt lat="47.3918430" lon="-122.0446830">
    <ele>126.3</ele>
    <time>2021-09-13T19:36:08Z</time>
   </trkpt>
   <trkpt lat="47.3918820" lon="-122.0446660">
    <ele>126.3</ele>
    <time>2021-09-13T19:36:09Z</time>
   </trkpt>
   <trkpt lat="47.3919210" lon="-122.0446490">
    <ele>126.3</ele>
    <time>2021-09-13T19:36:10Z</time>
   </trkpt>
   <trkpt lat="47.3919940" lon="-122.0445890">
    <ele>126.2</ele>
    <time>2021-09-13T19:36:12Z</time>
   </trkpt>
   <trkpt lat="47.3920280" lon="-122.0445660">
    <ele>126.2</ele>
    <time>2021-09-13T19:36:13Z</time>
   </trkpt>
   <trkpt lat="47.3920630" lon="-122.0445390">
    <ele>126.2</ele>
    <time>2021-09-13T19:36:14Z</time>
   </trkpt>
   <trkpt lat="47.3920920" lon="-122.0445200">
    <ele>126.2</ele>
    <time>2021-09-13T19:36:15Z</time>
   </trkpt>
   <trkpt lat="47.3921280" lon="-122.0444950">
    <ele>126.1</ele>
    <time>2021-09-13T19:36:16Z</time>
   </trkpt>
   <trkpt lat="47.3921610" lon="-122.0445000">
    <ele>126.1</ele>
    <time>2021-09-13T19:36:17Z</time>
   </trkpt>
   <trkpt lat="47.3921890" lon="-122.0444800">
    <ele>126.1</ele>
    <time>2021-09-13T19:36:18Z</time>
   </trkpt>
   <trkpt lat="47.3922230" lon="-122.0444660">
    <ele>126.0</ele>
    <time>2021-09-13T19:36:19Z</time>
   </trkpt>
   <trkpt lat="47.3922580" lon="-122.0444580">
    <ele>126.0</ele>
    <time>2021-09-13T19:36:20Z</time>
   </trkpt>
   <trkpt lat="47.3922880" lon="-122.0444270">
    <ele>125.9</ele>
    <time>2021-09-13T19:36:21Z</time>
   </trkpt>
   <trkpt lat="47.3923130" lon="-122.0444110">
    <ele>125.9</ele>
    <time>2021-09-13T19:36:22Z</time>
   </trkpt>
   <trkpt lat="47.3923520" lon="-122.0443710">
    <ele>125.8</ele>
    <time>2021-09-13T19:36:23Z</time>
   </trkpt>
   <trkpt lat="47.3923860" lon="-122.0443390">
    <ele>125.7</ele>
    <time>2021-09-13T19:36:24Z</time>
   </trkpt>
   <trkpt lat="47.3924270" lon="-122.0443290">
    <ele>125.7</ele>
    <time>2021-09-13T19:36:25Z</time>
   </trkpt>
   <trkpt lat="47.3924610" lon="-122.0443160">
    <ele>125.7</ele>
    <time>2021-09-13T19:36:26Z</time>
   </trkpt>
   <trkpt lat="47.3924940" lon="-122.0442990">
    <ele>125.6</ele>
    <time>2021-09-13T19:36:27Z</time>
   </trkpt>
   <trkpt lat="47.3925210" lon="-122.0442650">
    <ele>125.5</ele>
    <time>2021-09-13T19:36:28Z</time>
   </trkpt>
   <trkpt lat="47.3925540" lon="-122.0442410">
    <ele>125.5</ele>
    <time>2021-09-13T19:36:29Z</time>
   </trkpt>
   <trkpt lat="47.3925900" lon="-122.0442390">
    <ele>125.4</ele>
    <time>2021-09-13T19:36:30Z</time>
   </trkpt>
   <trkpt lat="47.3926230" lon="-122.0441990">
    <ele>125.3</ele>
    <time>2021-09-13T19:36:31Z</time>
   </trkpt>
   <trkpt lat="47.3926620" lon="-122.0441930">
    <ele>125.3</ele>
    <time>2021-09-13T19:36:32Z</time>
   </trkpt>
   <trkpt lat="47.3927020" lon="-122.0441800">
    <ele>125.2</ele>
    <time>2021-09-13T19:36:33Z</time>
   </trkpt>
   <trkpt lat="47.3927180" lon="-122.0441800">
    <ele>125.2</ele>
    <time>2021-09-13T19:36:34Z</time>
   </trkpt>
   <trkpt lat="47.3927490" lon="-122.0441550">
    <ele>125.1</ele>
    <time>2021-09-13T19:36:35Z</time>
   </trkpt>
   <trkpt lat="47.3927840" lon="-122.0441120">
    <ele>125.0</ele>
    <time>2021-09-13T19:36:36Z</time>
   </trkpt>
   <trkpt lat="47.3928150" lon="-122.0440960">
    <ele>124.9</ele>
    <time>2021-09-13T19:36:37Z</time>
   </trkpt>
   <trkpt lat="47.3928460" lon="-122.0440700">
    <ele>124.9</ele>
    <time>2021-09-13T19:36:38Z</time>
   </trkpt>
   <trkpt lat="47.3928760" lon="-122.0440560">
    <ele>124.8</ele>
    <time>2021-09-13T19:36:39Z</time>
   </trkpt>
   <trkpt lat="47.3929090" lon="-122.0440490">
    <ele>124.8</ele>
    <time>2021-09-13T19:36:40Z</time>
   </trkpt>
   <trkpt lat="47.3929460" lon="-122.0440240">
    <ele>124.7</ele>
    <time>2021-09-13T19:36:41Z</time>
   </trkpt>
   <trkpt lat="47.3929790" lon="-122.0440140">
    <ele>124.7</ele>
    <time>2021-09-13T19:36:42Z</time>
   </trkpt>
   <trkpt lat="47.3930120" lon="-122.0439970">
    <ele>124.6</ele>
    <time>2021-09-13T19:36:43Z</time>
   </trkpt>
   <trkpt lat="47.3930420" lon="-122.0439820">
    <ele>124.6</ele>
    <time>2021-09-13T19:36:44Z</time>
   </trkpt>
   <trkpt lat="47.3930750" lon="-122.0439680">
    <ele>124.5</ele>
    <time>2021-09-13T19:36:45Z</time>
   </trkpt>
   <trkpt lat="47.3931050" lon="-122.0439490">
    <ele>124.5</ele>
    <time>2021-09-13T19:36:46Z</time>
   </trkpt>
   <trkpt lat="47.3931370" lon="-122.0439400">
    <ele>124.5</ele>
    <time>2021-09-13T19:36:47Z</time>
   </trkpt>
   <trkpt lat="47.3931700" lon="-122.0439200">
    <ele>124.4</ele>
    <time>2021-09-13T19:36:48Z</time>
   </trkpt>
   <trkpt lat="47.3931990" lon="-122.0439090">
    <ele>124.4</ele>
    <time>2021-09-13T19:36:49Z</time>
   </trkpt>
   <trkpt lat="47.3932300" lon="-122.0438930">
    <ele>124.4</ele>
    <time>2021-09-13T19:36:50Z</time>
   </trkpt>
   <trkpt lat="47.3932650" lon="-122.0438790">
    <ele>124.4</ele>
    <time>2021-09-13T19:36:51Z</time>
   </trkpt>
   <trkpt lat="47.3932990" lon="-122.0438690">
    <ele>124.3</ele>
    <time>2021-09-13T19:36:52Z</time>
   </trkpt>
   <trkpt lat="47.3933430" lon="-122.0438420">
    <ele>124.3</ele>
    <time>2021-09-13T19:36:53Z</time>
   </trkpt>
   <trkpt lat="47.3933710" lon="-122.0438370">
    <ele>124.2</ele>
    <time>2021-09-13T19:36:54Z</time>
   </trkpt>
   <trkpt lat="47.3934020" lon="-122.0438090">
    <ele>124.2</ele>
    <time>2021-09-13T19:36:55Z</time>
   </trkpt>
   <trkpt lat="47.3934380" lon="-122.0438020">
    <ele>124.2</ele>
    <time>2021-09-13T19:36:56Z</time>
   </trkpt>
   <trkpt lat="47.3934680" lon="-122.0437800">
    <ele>124.2</ele>
    <time>2021-09-13T19:36:57Z</time>
   </trkpt>
   <trkpt lat="47.3935000" lon="-122.0437660">
    <ele>124.1</ele>
    <time>2021-09-13T19:36:58Z</time>
   </trkpt>
   <trkpt lat="47.3935360" lon="-122.0437640">
    <ele>124.1</ele>
    <time>2021-09-13T19:36:59Z</time>
   </trkpt>
   <trkpt lat="47.3935610" lon="-122.0437450">
    <ele>124.1</ele>
    <time>2021-09-13T19:37:00Z</time>
   </trkpt>
   <trkpt lat="47.3935930" lon="-122.0437380">
    <ele>124.0</ele>
    <time>2021-09-13T19:37:01Z</time>
   </trkpt>
   <trkpt lat="47.3936240" lon="-122.0437210">
    <ele>124.0</ele>
    <time>2021-09-13T19:37:02Z</time>
   </trkpt>
   <trkpt lat="47.3936540" lon="-122.0437180">
    <ele>124.0</ele>
    <time>2021-09-13T19:37:03Z</time>
   </trkpt>
   <trkpt lat="47.3936860" lon="-122.0436920">
    <ele>123.9</ele>
    <time>2021-09-13T19:37:04Z</time>
   </trkpt>
   <trkpt lat="47.3937150" lon="-122.0436760">
    <ele>123.9</ele>
    <time>2021-09-13T19:37:05Z</time>
   </trkpt>
   <trkpt lat="47.3937510" lon="-122.0436900">
    <ele>123.8</ele>
    <time>2021-09-13T19:37:06Z</time>
   </trkpt>
   <trkpt lat="47.3937860" lon="-122.0436850">
    <ele>123.7</ele>
    <time>2021-09-13T19:37:07Z</time>
   </trkpt>
   <trkpt lat="47.3938220" lon="-122.0436820">
    <ele>123.7</ele>
    <time>2021-09-13T19:37:08Z</time>
   </trkpt>
   <trkpt lat="47.3938550" lon="-122.0436680">
    <ele>123.6</ele>
    <time>2021-09-13T19:37:09Z</time>
   </trkpt>
   <trkpt lat="47.3938900" lon="-122.0436620">
    <ele>123.6</ele>
    <time>2021-09-13T19:37:10Z</time>
   </trkpt>
   <trkpt lat="47.3939250" lon="-122.0436510">
    <ele>123.5</ele>
    <time>2021-09-13T19:37:11Z</time>
   </trkpt>
   <trkpt lat="47.3939600" lon="-122.0436340">
    <ele>123.5</ele>
    <time>2021-09-13T19:37:12Z</time>
   </trkpt>
   <trkpt lat="47.3939870" lon="-122.0436220">
    <ele>123.5</ele>
    <time>2021-09-13T19:37:13Z</time>
   </trkpt>
   <trkpt lat="47.3940180" lon="-122.0436170">
    <ele>123.4</ele>
    <time>2021-09-13T19:37:14Z</time>
   </trkpt>
   <trkpt lat="47.3940500" lon="-122.0436040">
    <ele>123.4</ele>
    <time>2021-09-13T19:37:15Z</time>
   </trkpt>
   <trkpt lat="47.3940850" lon="-122.0436030">
    <ele>123.3</ele>
    <time>2021-09-13T19:37:16Z</time>
   </trkpt>
   <trkpt lat="47.3941190" lon="-122.0436020">
    <ele>123.3</ele>
    <time>2021-09-13T19:37:17Z</time>
   </trkpt>
   <trkpt lat="47.3941500" lon="-122.0435900">
    <ele>123.2</ele>
    <time>2021-09-13T19:37:18Z</time>
   </trkpt>
   <trkpt lat="47.3941860" lon="-122.0435760">
    <ele>123.2</ele>
    <time>2021-09-13T19:37:19Z</time>
   </trkpt>
   <trkpt lat="47.3942180" lon="-122.0435670">
    <ele>123.1</ele>
    <time>2021-09-13T19:37:20Z</time>
   </trkpt>
   <trkpt lat="47.3942460" lon="-122.0435620">
    <ele>123.1</ele>
    <time>2021-09-13T19:37:21Z</time>
   </trkpt>
   <trkpt lat="47.3942710" lon="-122.0435340">
    <ele>123.0</ele>
    <time>2021-09-13T19:37:22Z</time>
   </trkpt>
   <trkpt lat="47.3943020" lon="-122.0435310">
    <ele>123.0</ele>
    <time>2021-09-13T19:37:23Z</time>
   </trkpt>
   <trkpt lat="47.3943370" lon="-122.0435190">
    <ele>122.9</ele>
    <time>2021-09-13T19:37:24Z</time>
   </trkpt>
   <trkpt lat="47.3943730" lon="-122.0435170">
    <ele>122.8</ele>
    <time>2021-09-13T19:37:25Z</time>
   </trkpt>
   <trkpt lat="47.3944030" lon="-122.0435340">
    <ele>122.7</ele>
    <time>2021-09-13T19:37:26Z</time>
   </trkpt>
   <trkpt lat="47.3944370" lon="-122.0435420">
    <ele>122.6</ele>
    <time>2021-09-13T19:37:27Z</time>
   </trkpt>
   <trkpt lat="47.3944690" lon="-122.0435500">
    <ele>122.6</ele>
    <time>2021-09-13T19:37:28Z</time>
   </trkpt>
   <trkpt lat="47.3945030" lon="-122.0435520">
    <ele>122.6</ele>
    <time>2021-09-13T19:37:29Z</time>
   </trkpt>
   <trkpt lat="47.3945360" lon="-122.0435400">
    <ele>122.6</ele>
    <time>2021-09-13T19:37:30Z</time>
   </trkpt>
   <trkpt lat="47.3945680" lon="-122.0435360">
    <ele>122.5</ele>
    <time>2021-09-13T19:37:31Z</time>
   </trkpt>
   <trkpt lat="47.3946050" lon="-122.0435180">
    <ele>122.5</ele>
    <time>2021-09-13T19:37:32Z</time>
   </trkpt>
   <trkpt lat="47.3946370" lon="-122.0434940">
    <ele>122.5</ele>
    <time>2021-09-13T19:37:33Z</time>
   </trkpt>
   <trkpt lat="47.3946720" lon="-122.0434890">
    <ele>122.5</ele>
    <time>2021-09-13T19:37:34Z</time>
   </trkpt>
   <trkpt lat="47.3947030" lon="-122.0434720">
    <ele>122.5</ele>
    <time>2021-09-13T19:37:35Z</time>
   </trkpt>
   <trkpt lat="47.3947300" lon="-122.0434630">
    <ele>122.5</ele>
    <time>2021-09-13T19:37:36Z</time>
   </trkpt>
   <trkpt lat="47.3947400" lon="-122.0434580">
    <ele>122.4</ele>
    <time>2021-09-13T19:37:37Z</time>
   </trkpt>
   <trkpt lat="47.3947590" lon="-122.0434580">
    <ele>122.5</ele>
    <time>2021-09-13T19:37:38Z</time>
   </trkpt>
   <trkpt lat="47.3947740" lon="-122.0434460">
    <ele>122.5</ele>
    <time>2021-09-13T19:37:39Z</time>
   </trkpt>
   <trkpt lat="47.3947720" lon="-122.0435030">
    <ele>122.5</ele>
    <time>2021-09-13T19:37:40Z</time>
   </trkpt>
   <trkpt lat="47.3947790" lon="-122.0435300">
    <ele>122.5</ele>
    <time>2021-09-13T19:37:41Z</time>
   </trkpt>
   <trkpt lat="47.3947510" lon="-122.0435180">
    <ele>122.5</ele>
    <time>2021-09-13T19:37:42Z</time>
   </trkpt>
   <trkpt lat="47.3947350" lon="-122.0435070">
    <ele>122.5</ele>
    <time>2021-09-13T19:39:40Z</time>
   </trkpt>
   <trkpt lat="47.3947200" lon="-122.0434950">
    <ele>122.5</ele>
    <time>2021-09-13T19:39:41Z</time>
   </trkpt>
   <trkpt lat="47.3947040" lon="-122.0434840">
    <ele>122.5</ele>
    <time>2021-09-13T19:39:42Z</time>
   </trkpt>
   <trkpt lat="47.3946890" lon="-122.0434730">
    <ele>122.5</ele>
    <time>2021-09-13T19:39:43Z</time>
   </trkpt>
   <trkpt lat="47.3946730" lon="-122.0434620">
    <ele>122.5</ele>
    <time>2021-09-13T19:39:44Z</time>
   </trkpt>
   <trkpt lat="47.3946250" lon="-122.0434190">
    <ele>122.5</ele>
    <time>2021-09-13T19:39:53Z</time>
   </trkpt>
   <trkpt lat="47.3946080" lon="-122.0434170">
    <ele>122.5</ele>
    <time>2021-09-13T19:39:54Z</time>
   </trkpt>
   <trkpt lat="47.3945910" lon="-122.0434160">
    <ele>122.5</ele>
    <time>2021-09-13T19:39:55Z</time>
   </trkpt>
   <trkpt lat="47.3945740" lon="-122.0434150">
    <ele>122.5</ele>
    <time>2021-09-13T19:39:56Z</time>
   </trkpt>
   <trkpt lat="47.3945410" lon="-122.0434120">
    <ele>122.5</ele>
    <time>2021-09-13T19:39:57Z</time>
   </trkpt>
   <trkpt lat="47.3944900" lon="-122.0433950">
    <ele>122.6</ele>
    <time>2021-09-13T19:39:58Z</time>
   </trkpt>
   <trkpt lat="47.3944320" lon="-122.0434010">
    <ele>122.6</ele>
    <time>2021-09-13T19:39:59Z</time>
   </trkpt>
   <trkpt lat="47.3943760" lon="-122.0434360">
    <ele>122.7</ele>
    <time>2021-09-13T19:40:00Z</time>
   </trkpt>
   <trkpt lat="47.3943210" lon="-122.0434670">
    <ele>122.9</ele>
    <time>2021-09-13T19:40:01Z</time>
   </trkpt>
   <trkpt lat="47.3942740" lon="-122.0435080">
    <ele>123.0</ele>
    <time>2021-09-13T19:40:02Z</time>
   </trkpt>
   <trkpt lat="47.3942360" lon="-122.0435380">
    <ele>123.1</ele>
    <time>2021-09-13T19:40:03Z</time>
   </trkpt>
   <trkpt lat="47.3941990" lon="-122.0435600">
    <ele>123.2</ele>
    <time>2021-09-13T19:40:04Z</time>
   </trkpt>
   <trkpt lat="47.3941520" lon="-122.0435810">
    <ele>123.2</ele>
    <time>2021-09-13T19:40:05Z</time>
   </trkpt>
   <trkpt lat="47.3941120" lon="-122.0436060">
    <ele>123.3</ele>
    <time>2021-09-13T19:40:06Z</time>
   </trkpt>
   <trkpt lat="47.3940670" lon="-122.0436410">
    <ele>123.4</ele>
    <time>2021-09-13T19:40:07Z</time>
   </trkpt>
   <trkpt lat="47.3940340" lon="-122.0436500">
    <ele>123.4</ele>
    <time>2021-09-13T19:40:08Z</time>
   </trkpt>
   <trkpt lat="47.3939910" lon="-122.0436520">
    <ele>123.5</ele>
    <time>2021-09-13T19:40:09Z</time>
   </trkpt>
   <trkpt lat="47.3939520" lon="-122.0436730">
    <ele>123.5</ele>
    <time>2021-09-13T19:40:10Z</time>
   </trkpt>
   <trkpt lat="47.3939360" lon="-122.0436760">
    <ele>123.5</ele>
    <time>2021-09-13T19:40:11Z</time>
   </trkpt>
   <trkpt lat="47.3939050" lon="-122.0436820">
    <ele>123.6</ele>
    <time>2021-09-13T19:40:12Z</time>
   </trkpt>
   <trkpt lat="47.3938670" lon="-122.0436710">
    <ele>123.6</ele>
    <time>2021-09-13T19:40:13Z</time>
   </trkpt>
   <trkpt lat="47.3938240" lon="-122.0436910">
    <ele>123.7</ele>
    <time>2021-09-13T19:40:14Z</time>
   </trkpt>
   <trkpt lat="47.3937920" lon="-122.0437100">
    <ele>123.8</ele>
    <time>2021-09-13T19:40:15Z</time>
   </trkpt>
   <trkpt lat="47.3937560" lon="-122.0437170">
    <ele>123.8</ele>
    <time>2021-09-13T19:40:16Z</time>
   </trkpt>
   <trkpt lat="47.3937170" lon="-122.0437410">
    <ele>123.9</ele>
    <time>2021-09-13T19:40:17Z</time>
   </trkpt>
   <trkpt lat="47.3936850" lon="-122.0437550">
    <ele>123.9</ele>
    <time>2021-09-13T19:40:18Z</time>
   </trkpt>
   <trkpt lat="47.3936450" lon="-122.0437530">
    <ele>124.0</ele>
    <time>2021-09-13T19:40:19Z</time>
   </trkpt>
   <trkpt lat="47.3936150" lon="-122.0437900">
    <ele>124.0</ele>
    <time>2021-09-13T19:40:20Z</time>
   </trkpt>
   <trkpt lat="47.3935870" lon="-122.0438060">
    <ele>124.1</ele>
    <time>2021-09-13T19:40:21Z</time>
   </trkpt>
   <trkpt lat="47.3935480" lon="-122.0438420">
    <ele>124.1</ele>
    <time>2021-09-13T19:40:22Z</time>
   </trkpt>
   <trkpt lat="47.3935170" lon="-122.0438710">
    <ele>124.1</ele>
    <time>2021-09-13T19:40:23Z</time>
   </trkpt>
   <trkpt lat="47.3934900" lon="-122.0438890">
    <ele>124.2</ele>
    <time>2021-09-13T19:40:24Z</time>
   </trkpt>
   <trkpt lat="47.3934560" lon="-122.0439020">
    <ele>124.2</ele>
    <time>2021-09-13T19:40:25Z</time>
   </trkpt>
   <trkpt lat="47.3934230" lon="-122.0439130">
    <ele>124.2</ele>
    <time>2021-09-13T19:40:26Z</time>
   </trkpt>
   <trkpt lat="47.3933950" lon="-122.0439270">
    <ele>124.3</ele>
    <time>2021-09-13T19:40:27Z</time>
   </trkpt>
   <trkpt lat="47.3933550" lon="-122.0439480">
    <ele>124.3</ele>
    <time>2021-09-13T19:40:28Z</time>
   </trkpt>
   <trkpt lat="47.3933230" lon="-122.0439730">
    <ele>124.3</ele>
    <time>2021-09-13T19:40:29Z</time>
   </trkpt>
   <trkpt lat="47.3932950" lon="-122.0439760">
    <ele>124.3</ele>
    <time>2021-09-13T19:40:30Z</time>
   </trkpt>
   <trkpt lat="47.3932610" lon="-122.0439730">
    <ele>124.4</ele>
    <time>2021-09-13T19:40:31Z</time>
   </trkpt>
   <trkpt lat="47.3932350" lon="-122.0439980">
    <ele>124.4</ele>
    <time>2021-09-13T19:40:32Z</time>
   </trkpt>
   <trkpt lat="47.3931950" lon="-122.0440180">
    <ele>124.4</ele>
    <time>2021-09-13T19:40:33Z</time>
   </trkpt>
   <trkpt lat="47.3931650" lon="-122.0440360">
    <ele>124.5</ele>
    <time>2021-09-13T19:40:34Z</time>
   </trkpt>
   <trkpt lat="47.3931290" lon="-122.0440540">
    <ele>124.5</ele>
    <time>2021-09-13T19:40:35Z</time>
   </trkpt>
   <trkpt lat="47.3930920" lon="-122.0440720">
    <ele>124.6</ele>
    <time>2021-09-13T19:40:36Z</time>
   </trkpt>
   <trkpt lat="47.3930650" lon="-122.0440940">
    <ele>124.6</ele>
    <time>2021-09-13T19:40:37Z</time>
   </trkpt>
   <trkpt lat="47.3930190" lon="-122.0441030">
    <ele>124.6</ele>
    <time>2021-09-13T19:40:38Z</time>
   </trkpt>
   <trkpt lat="47.3929920" lon="-122.0441180">
    <ele>124.7</ele>
    <time>2021-09-13T19:40:39Z</time>
   </trkpt>
   <trkpt lat="47.3929540" lon="-122.0441260">
    <ele>124.7</ele>
    <time>2021-09-13T19:40:40Z</time>
   </trkpt>
   <trkpt lat="47.3929280" lon="-122.0441410">
    <ele>124.8</ele>
    <time>2021-09-13T19:40:41Z</time>
   </trkpt>
   <trkpt lat="47.3929000" lon="-122.0441630">
    <ele>124.8</ele>
    <time>2021-09-13T19:40:42Z</time>
   </trkpt>
   <trkpt lat="47.3928720" lon="-122.0441740">
    <ele>124.9</ele>
    <time>2021-09-13T19:40:43Z</time>
   </trkpt>
   <trkpt lat="47.3928410" lon="-122.0441810">
    <ele>124.9</ele>
    <time>2021-09-13T19:40:44Z</time>
   </trkpt>
   <trkpt lat="47.3928100" lon="-122.0441900">
    <ele>125.0</ele>
    <time>2021-09-13T19:40:45Z</time>
   </trkpt>
   <trkpt lat="47.3927770" lon="-122.0442100">
    <ele>125.1</ele>
    <time>2021-09-13T19:40:46Z</time>
   </trkpt>
   <trkpt lat="47.3927430" lon="-122.0442140">
    <ele>125.1</ele>
    <time>2021-09-13T19:40:47Z</time>
   </trkpt>
   <trkpt lat="47.3927120" lon="-122.0442320">
    <ele>125.2</ele>
    <time>2021-09-13T19:40:48Z</time>
   </trkpt>
   <trkpt lat="47.3926830" lon="-122.0442610">
    <ele>125.3</ele>
    <time>2021-09-13T19:40:49Z</time>
   </trkpt>
   <trkpt lat="47.3926170" lon="-122.0443000">
    <ele>125.4</ele>
    <time>2021-09-13T19:40:50Z</time>
   </trkpt>
   <trkpt lat="47.3925820" lon="-122.0442990">
    <ele>125.5</ele>
    <time>2021-09-13T19:40:51Z</time>
   </trkpt>
   <trkpt lat="47.3925510" lon="-122.0443230">
    <ele>125.5</ele>
    <time>2021-09-13T19:40:52Z</time>
   </trkpt>
   <trkpt lat="47.3925080" lon="-122.0443520">
    <ele>125.6</ele>
    <time>2021-09-13T19:40:53Z</time>
   </trkpt>
   <trkpt lat="47.3924720" lon="-122.0443790">
    <ele>125.7</ele>
    <time>2021-09-13T19:40:54Z</time>
   </trkpt>
   <trkpt lat="47.3924580" lon="-122.0443900">
    <ele>125.7</ele>
    <time>2021-09-13T19:40:55Z</time>
   </trkpt>
   <trkpt lat="47.3924310" lon="-122.0443980">
    <ele>125.7</ele>
    <time>2021-09-13T19:40:56Z</time>
   </trkpt>
   <trkpt lat="47.3923980" lon="-122.0444210">
    <ele>125.8</ele>
    <time>2021-09-13T19:40:57Z</time>
   </trkpt>
   <trkpt lat="47.3923650" lon="-122.0444330">
    <ele>125.8</ele>
    <time>2021-09-13T19:40:58Z</time>
   </trkpt>
   <trkpt lat="47.3923370" lon="-122.0444500">
    <ele>125.9</ele>
    <time>2021-09-13T19:40:59Z</time>
   </trkpt>
   <trkpt lat="47.3923150" lon="-122.0444750">
    <ele>125.9</ele>
    <time>2021-09-13T19:41:00Z</time>
   </trkpt>
   <trkpt lat="47.3922830" lon="-122.0444780">
    <ele>125.9</ele>
    <time>2021-09-13T19:41:01Z</time>
   </trkpt>
   <trkpt lat="47.3922560" lon="-122.0445060">
    <ele>126.0</ele>
    <time>2021-09-13T19:41:02Z</time>
   </trkpt>
   <trkpt lat="47.3922240" lon="-122.0445200">
    <ele>126.0</ele>
    <time>2021-09-13T19:41:03Z</time>
   </trkpt>
   <trkpt lat="47.3921960" lon="-122.0445480">
    <ele>126.1</ele>
    <time>2021-09-13T19:41:04Z</time>
   </trkpt>
   <trkpt lat="47.3921600" lon="-122.0445630">
    <ele>126.1</ele>
    <time>2021-09-13T19:41:05Z</time>
   </trkpt>
   <trkpt lat="47.3921320" lon="-122.0445830">
    <ele>126.2</ele>
    <time>2021-09-13T19:41:06Z</time>
   </trkpt>
   <trkpt lat="47.3921020" lon="-122.0445960">
    <ele>126.2</ele>
    <time>2021-09-13T19:41:07Z</time>
   </trkpt>
   <trkpt lat="47.3920690" lon="-122.0445970">
    <ele>126.2</ele>
    <time>2021-09-13T19:41:08Z</time>
   </trkpt>
   <trkpt lat="47.3920350" lon="-122.0446320">
    <ele>126.2</ele>
    <time>2021-09-13T19:41:09Z</time>
   </trkpt>
   <trkpt lat="47.3920010" lon="-122.0446380">
    <ele>126.3</ele>
    <time>2021-09-13T19:41:10Z</time>
   </trkpt>
   <trkpt lat="47.3919700" lon="-122.0446780">
    <ele>126.3</ele>
    <time>2021-09-13T19:41:11Z</time>
   </trkpt>
   <trkpt lat="47.3919430" lon="-122.0447040">
    <ele>126.3</ele>
    <time>2021-09-13T19:41:12Z</time>
   </trkpt>
   <trkpt lat="47.3919130" lon="-122.0447180">
    <ele>126.3</ele>
    <time>2021-09-13T19:41:13Z</time>
   </trkpt>
   <trkpt lat="47.3918910" lon="-122.0447460">
    <ele>126.3</ele>
    <time>2021-09-13T19:41:14Z</time>
   </trkpt>
   <trkpt lat="47.3918610" lon="-122.0447560">
    <ele>126.3</ele>
    <time>2021-09-13T19:41:15Z</time>
   </trkpt>
   <trkpt lat="47.3918360" lon="-122.0447850">
    <ele>126.4</ele>
    <time>2021-09-13T19:41:16Z</time>
   </trkpt>
   <trkpt lat="47.3918100" lon="-122.0448120">
    <ele>126.4</ele>
    <time>2021-09-13T19:41:17Z</time>
   </trkpt>
   <trkpt lat="47.3917750" lon="-122.0448150">
    <ele>126.4</ele>
    <time>2021-09-13T19:41:18Z</time>
   </trkpt>
   <trkpt lat="47.3917470" lon="-122.0448360">
    <ele>126.4</ele>
    <time>2021-09-13T19:41:19Z</time>
   </trkpt>
   <trkpt lat="47.3917190" lon="-122.0448760">
    <ele>126.5</ele>
    <time>2021-09-13T19:41:20Z</time>
   </trkpt>
   <trkpt lat="47.3916880" lon="-122.0449130">
    <ele>126.5</ele>
    <time>2021-09-13T19:41:21Z</time>
   </trkpt>
   <trkpt lat="47.3916540" lon="-122.0449210">
    <ele>126.5</ele>
    <time>2021-09-13T19:41:23Z</time>
   </trkpt>
   <trkpt lat="47.3916210" lon="-122.0449340">
    <ele>126.5</ele>
    <time>2021-09-13T19:41:24Z</time>
   </trkpt>
   <trkpt lat="47.3915940" lon="-122.0449470">
    <ele>126.6</ele>
    <time>2021-09-13T19:41:25Z</time>
   </trkpt>
   <trkpt lat="47.3915650" lon="-122.0449760">
    <ele>126.6</ele>
    <time>2021-09-13T19:41:26Z</time>
   </trkpt>
   <trkpt lat="47.3915370" lon="-122.0449990">
    <ele>126.6</ele>
    <time>2021-09-13T19:41:27Z</time>
   </trkpt>
   <trkpt lat="47.3915010" lon="-122.0450250">
    <ele>126.7</ele>
    <time>2021-09-13T19:41:28Z</time>
   </trkpt>
   <trkpt lat="47.3914700" lon="-122.0450570">
    <ele>126.7</ele>
    <time>2021-09-13T19:41:29Z</time>
   </trkpt>
   <trkpt lat="47.3914430" lon="-122.0450770">
    <ele>126.7</ele>
    <time>2021-09-13T19:41:30Z</time>
   </trkpt>
   <trkpt lat="47.3914060" lon="-122.0450920">
    <ele>126.7</ele>
    <time>2021-09-13T19:41:31Z</time>
   </trkpt>
   <trkpt lat="47.3913780" lon="-122.0451180">
    <ele>126.8</ele>
    <time>2021-09-13T19:41:32Z</time>
   </trkpt>
   <trkpt lat="47.3913420" lon="-122.0451340">
    <ele>126.8</ele>
    <time>2021-09-13T19:41:33Z</time>
   </trkpt>
   <trkpt lat="47.3913200" lon="-122.0451800">
    <ele>126.8</ele>
    <time>2021-09-13T19:41:34Z</time>
   </trkpt>
   <trkpt lat="47.3912910" lon="-122.0452090">
    <ele>126.9</ele>
    <time>2021-09-13T19:41:35Z</time>
   </trkpt>
   <trkpt lat="47.3912640" lon="-122.0452300">
    <ele>126.9</ele>
    <time>2021-09-13T19:41:36Z</time>
   </trkpt>
   <trkpt lat="47.3912380" lon="-122.0452540">
    <ele>126.9</ele>
    <time>2021-09-13T19:41:37Z</time>
   </trkpt>
   <trkpt lat="47.3912010" lon="-122.0452660">
    <ele>126.9</ele>
    <time>2021-09-13T19:41:38Z</time>
   </trkpt>
   <trkpt lat="47.3911710" lon="-122.0452880">
    <ele>127.0</ele>
    <time>2021-09-13T19:41:39Z</time>
   </trkpt>
   <trkpt lat="47.3911380" lon="-122.0452950">
    <ele>127.0</ele>
    <time>2021-09-13T19:41:40Z</time>
   </trkpt>
   <trkpt lat="47.3911010" lon="-122.0453070">
    <ele>127.0</ele>
    <time>2021-09-13T19:41:41Z</time>
   </trkpt>
   <trkpt lat="47.3910620" lon="-122.0453260">
    <ele>127.1</ele>
    <time>2021-09-13T19:41:42Z</time>
   </trkpt>
   <trkpt lat="47.3910270" lon="-122.0453530">
    <ele>127.1</ele>
    <time>2021-09-13T19:41:43Z</time>
   </trkpt>
   <trkpt lat="47.3909980" lon="-122.0453960">
    <ele>127.2</ele>
    <time>2021-09-13T19:41:44Z</time>
   </trkpt>
   <trkpt lat="47.3909650" lon="-122.0453980">
    <ele>127.2</ele>
    <time>2021-09-13T19:41:45Z</time>
   </trkpt>
   <trkpt lat="47.3909360" lon="-122.0454310">
    <ele>127.2</ele>
    <time>2021-09-13T19:41:46Z</time>
   </trkpt>
   <trkpt lat="47.3909060" lon="-122.0454600">
    <ele>127.3</ele>
    <time>2021-09-13T19:41:47Z</time>
   </trkpt>
   <trkpt lat="47.3908820" lon="-122.0454870">
    <ele>127.3</ele>
    <time>2021-09-13T19:41:48Z</time>
   </trkpt>
   <trkpt lat="47.3908610" lon="-122.0455370">
    <ele>127.3</ele>
    <time>2021-09-13T19:41:49Z</time>
   </trkpt>
   <trkpt lat="47.3908540" lon="-122.0455610">
    <ele>127.3</ele>
    <time>2021-09-13T19:41:50Z</time>
   </trkpt>
   <trkpt lat="47.3908390" lon="-122.0455950">
    <ele>127.4</ele>
    <time>2021-09-13T19:41:51Z</time>
   </trkpt>
   <trkpt lat="47.3908250" lon="-122.0456360">
    <ele>127.4</ele>
    <time>2021-09-13T19:41:52Z</time>
   </trkpt>
   <trkpt lat="47.3908110" lon="-122.0456730">
    <ele>127.4</ele>
    <time>2021-09-13T19:41:53Z</time>
   </trkpt>
   <trkpt lat="47.3908080" lon="-122.0457220">
    <ele>127.4</ele>
    <time>2021-09-13T19:41:54Z</time>
   </trkpt>
   <trkpt lat="47.3908010" lon="-122.0457660">
    <ele>127.5</ele>
    <time>2021-09-13T19:41:55Z</time>
   </trkpt>
   <trkpt lat="47.3908070" lon="-122.0458170">
    <ele>127.5</ele>
    <time>2021-09-13T19:41:56Z</time>
   </trkpt>
   <trkpt lat="47.3907810" lon="-122.0458460">
    <ele>127.5</ele>
    <time>2021-09-13T19:41:57Z</time>
   </trkpt>
   <trkpt lat="47.3907640" lon="-122.0458970">
    <ele>127.5</ele>
    <time>2021-09-13T19:41:58Z</time>
   </trkpt>
   <trkpt lat="47.3907480" lon="-122.0459340">
    <ele>127.6</ele>
    <time>2021-09-13T19:41:59Z</time>
   </trkpt>
   <trkpt lat="47.3907200" lon="-122.0459680">
    <ele>127.6</ele>
    <time>2021-09-13T19:42:00Z</time>
   </trkpt>
   <trkpt lat="47.3906380" lon="-122.0459690">
    <ele>127.7</ele>
    <time>2021-09-13T19:42:01Z</time>
   </trkpt>
   <trkpt lat="47.3905640" lon="-122.0459550">
    <ele>127.7</ele>
    <time>2021-09-13T19:42:02Z</time>
   </trkpt>
   <trkpt lat="47.3905000" lon="-122.0459550">
    <ele>127.8</ele>
    <time>2021-09-13T19:42:03Z</time>
   </trkpt>
   <trkpt lat="47.3904590" lon="-122.0459720">
    <ele>127.9</ele>
    <time>2021-09-13T19:42:04Z</time>
   </trkpt>
   <trkpt lat="47.3904160" lon="-122.0460020">
    <ele>128.0</ele>
    <time>2021-09-13T19:42:05Z</time>
   </trkpt>
   <trkpt lat="47.3903850" lon="-122.0460370">
    <ele>128.0</ele>
    <time>2021-09-13T19:42:06Z</time>
   </trkpt>
   <trkpt lat="47.3903350" lon="-122.0460500">
    <ele>128.1</ele>
    <time>2021-09-13T19:42:07Z</time>
   </trkpt>
   <trkpt lat="47.3903050" lon="-122.0460760">
    <ele>128.1</ele>
    <time>2021-09-13T19:42:08Z</time>
   </trkpt>
   <trkpt lat="47.3902680" lon="-122.0460870">
    <ele>128.2</ele>
    <time>2021-09-13T19:42:09Z</time>
   </trkpt>
   <trkpt lat="47.3902430" lon="-122.0461360">
    <ele>128.3</ele>
    <time>2021-09-13T19:42:10Z</time>
   </trkpt>
   <trkpt lat="47.3902160" lon="-122.0461500">
    <ele>128.3</ele>
    <time>2021-09-13T19:42:11Z</time>
   </trkpt>
   <trkpt lat="47.3901860" lon="-122.0461820">
    <ele>128.4</ele>
    <time>2021-09-13T19:42:12Z</time>
   </trkpt>
   <trkpt lat="47.3901580" lon="-122.0462180">
    <ele>128.4</ele>
    <time>2021-09-13T19:42:13Z</time>
   </trkpt>
   <trkpt lat="47.3901260" lon="-122.0462360">
    <ele>128.5</ele>
    <time>2021-09-13T19:42:14Z</time>
   </trkpt>
   <trkpt lat="47.3901040" lon="-122.0462790">
    <ele>128.5</ele>
    <time>2021-09-13T19:42:15Z</time>
   </trkpt>
   <trkpt lat="47.3900750" lon="-122.0463030">
    <ele>128.6</ele>
    <time>2021-09-13T19:42:16Z</time>
   </trkpt>
   <trkpt lat="47.3900490" lon="-122.0463250">
    <ele>128.6</ele>
    <time>2021-09-13T19:42:17Z</time>
   </trkpt>
   <trkpt lat="47.3900270" lon="-122.0463550">
    <ele>128.7</ele>
    <time>2021-09-13T19:42:18Z</time>
   </trkpt>
   <trkpt lat="47.3899950" lon="-122.0463940">
    <ele>128.8</ele>
    <time>2021-09-13T19:42:19Z</time>
   </trkpt>
   <trkpt lat="47.3899840" lon="-122.0464090">
    <ele>128.8</ele>
    <time>2021-09-13T19:42:20Z</time>
   </trkpt>
   <trkpt lat="47.3899490" lon="-122.0464310">
    <ele>128.8</ele>
    <time>2021-09-13T19:42:21Z</time>
   </trkpt>
   <trkpt lat="47.3899140" lon="-122.0464480">
    <ele>128.9</ele>
    <time>2021-09-13T19:42:22Z</time>
   </trkpt>
   <trkpt lat="47.3898960" lon="-122.0464890">
    <ele>128.9</ele>
    <time>2021-09-13T19:42:23Z</time>
   </trkpt>
   <trkpt lat="47.3898700" lon="-122.0465150">
    <ele>129.0</ele>
    <time>2021-09-13T19:42:24Z</time>
   </trkpt>
   <trkpt lat="47.3898420" lon="-122.0465410">
    <ele>129.0</ele>
    <time>2021-09-13T19:42:25Z</time>
   </trkpt>
   <trkpt lat="47.3898110" lon="-122.0465690">
    <ele>129.1</ele>
    <time>2021-09-13T19:42:26Z</time>
   </trkpt>
   <trkpt lat="47.3897920" lon="-122.0465970">
    <ele>129.1</ele>
    <time>2021-09-13T19:42:27Z</time>
   </trkpt>
   <trkpt lat="47.3897590" lon="-122.0466190">
    <ele>129.1</ele>
    <time>2021-09-13T19:42:28Z</time>
   </trkpt>
   <trkpt lat="47.3897170" lon="-122.0466880">
    <ele>129.2</ele>
    <time>2021-09-13T19:42:29Z</time>
   </trkpt>
   <trkpt lat="47.3896860" lon="-122.0467110">
    <ele>129.2</ele>
    <time>2021-09-13T19:42:30Z</time>
   </trkpt>
   <trkpt lat="47.3896620" lon="-122.0467490">
    <ele>129.3</ele>
    <time>2021-09-13T19:42:31Z</time>
   </trkpt>
   <trkpt lat="47.3896360" lon="-122.0467780">
    <ele>129.3</ele>
    <time>2021-09-13T19:42:32Z</time>
   </trkpt>
   <trkpt lat="47.3896140" lon="-122.0468030">
    <ele>129.3</ele>
    <time>2021-09-13T19:42:33Z</time>
   </trkpt>
   <trkpt lat="47.3895870" lon="-122.0468310">
    <ele>129.4</ele>
    <time>2021-09-13T19:42:34Z</time>
   </trkpt>
   <trkpt lat="47.3895610" lon="-122.0468660">
    <ele>129.4</ele>
    <time>2021-09-13T19:42:35Z</time>
   </trkpt>
   <trkpt lat="47.3895400" lon="-122.0468940">
    <ele>129.4</ele>
    <time>2021-09-13T19:42:36Z</time>
   </trkpt>
   <trkpt lat="47.3895070" lon="-122.0469300">
    <ele>129.5</ele>
    <time>2021-09-13T19:42:37Z</time>
   </trkpt>
   <trkpt lat="47.3894940" lon="-122.0469450">
    <ele>129.5</ele>
    <time>2021-09-13T19:42:38Z</time>
   </trkpt>
   <trkpt lat="47.3894650" lon="-122.0469720">
    <ele>129.6</ele>
    <time>2021-09-13T19:42:39Z</time>
   </trkpt>
   <trkpt lat="47.3894390" lon="-122.0469890">
    <ele>129.6</ele>
    <time>2021-09-13T19:42:40Z</time>
   </trkpt>
   <trkpt lat="47.3894140" lon="-122.0470270">
    <ele>129.6</ele>
    <time>2021-09-13T19:42:41Z</time>
   </trkpt>
   <trkpt lat="47.3893890" lon="-122.0470450">
    <ele>129.7</ele>
    <time>2021-09-13T19:42:42Z</time>
   </trkpt>
   <trkpt lat="47.3893620" lon="-122.0470770">
    <ele>129.7</ele>
    <time>2021-09-13T19:42:43Z</time>
   </trkpt>
   <trkpt lat="47.3893350" lon="-122.0471030">
    <ele>129.7</ele>
    <time>2021-09-13T19:42:44Z</time>
   </trkpt>
   <trkpt lat="47.3893070" lon="-122.0471230">
    <ele>129.7</ele>
    <time>2021-09-13T19:42:45Z</time>
   </trkpt>
   <trkpt lat="47.3892860" lon="-122.0471730">
    <ele>129.7</ele>
    <time>2021-09-13T19:42:46Z</time>
   </trkpt>
   <trkpt lat="47.3892640" lon="-122.0471980">
    <ele>129.7</ele>
    <time>2021-09-13T19:42:47Z</time>
   </trkpt>
   <trkpt lat="47.3892300" lon="-122.0472070">
    <ele>129.7</ele>
    <time>2021-09-13T19:42:48Z</time>
   </trkpt>
   <trkpt lat="47.3892070" lon="-122.0472370">
    <ele>129.7</ele>
    <time>2021-09-13T19:42:49Z</time>
   </trkpt>
   <trkpt lat="47.3891830" lon="-122.0472700">
    <ele>129.7</ele>
    <time>2021-09-13T19:42:50Z</time>
   </trkpt>
   <trkpt lat="47.3891510" lon="-122.0472990">
    <ele>129.7</ele>
    <time>2021-09-13T19:42:51Z</time>
   </trkpt>
   <trkpt lat="47.3891200" lon="-122.0473470">
    <ele>129.7</ele>
    <time>2021-09-13T19:42:52Z</time>
   </trkpt>
   <trkpt lat="47.3891090" lon="-122.0473700">
    <ele>129.7</ele>
    <time>2021-09-13T19:42:53Z</time>
   </trkpt>
   <trkpt lat="47.3890840" lon="-122.0473980">
    <ele>129.7</ele>
    <time>2021-09-13T19:42:54Z</time>
   </trkpt>
   <trkpt lat="47.3890510" lon="-122.0474360">
    <ele>129.8</ele>
    <time>2021-09-13T19:42:55Z</time>
   </trkpt>
   <trkpt lat="47.3890210" lon="-122.0474710">
    <ele>129.8</ele>
    <time>2021-09-13T19:42:56Z</time>
   </trkpt>
   <trkpt lat="47.3889890" lon="-122.0474950">
    <ele>129.8</ele>
    <time>2021-09-13T19:42:57Z</time>
   </trkpt>
   <trkpt lat="47.3889690" lon="-122.0475330">
    <ele>129.8</ele>
    <time>2021-09-13T19:42:58Z</time>
   </trkpt>
   <trkpt lat="47.3889360" lon="-122.0475610">
    <ele>129.9</ele>
    <time>2021-09-13T19:42:59Z</time>
   </trkpt>
   <trkpt lat="47.3888960" lon="-122.0475980">
    <ele>129.9</ele>
    <time>2021-09-13T19:43:00Z</time>
   </trkpt>
   <trkpt lat="47.3888670" lon="-122.0476270">
    <ele>130.0</ele>
    <time>2021-09-13T19:43:01Z</time>
   </trkpt>
   <trkpt lat="47.3888420" lon="-122.0476560">
    <ele>130.0</ele>
    <time>2021-09-13T19:43:02Z</time>
   </trkpt>
   <trkpt lat="47.3888130" lon="-122.0476930">
    <ele>130.1</ele>
    <time>2021-09-13T19:43:03Z</time>
   </trkpt>
   <trkpt lat="47.3887860" lon="-122.0477200">
    <ele>130.2</ele>
    <time>2021-09-13T19:43:04Z</time>
   </trkpt>
   <trkpt lat="47.3887590" lon="-122.0477620">
    <ele>130.2</ele>
    <time>2021-09-13T19:43:05Z</time>
   </trkpt>
   <trkpt lat="47.3887240" lon="-122.0477920">
    <ele>130.3</ele>
    <time>2021-09-13T19:43:06Z</time>
   </trkpt>
   <trkpt lat="47.3887100" lon="-122.0478000">
    <ele>130.3</ele>
    <time>2021-09-13T19:43:07Z</time>
   </trkpt>
   <trkpt lat="47.3886810" lon="-122.0478350">
    <ele>130.4</ele>
    <time>2021-09-13T19:43:08Z</time>
   </trkpt>
   <trkpt lat="47.3886450" lon="-122.0478780">
    <ele>130.4</ele>
    <time>2021-09-13T19:43:09Z</time>
   </trkpt>
   <trkpt lat="47.3886290" lon="-122.0479010">
    <ele>130.5</ele>
    <time>2021-09-13T19:43:10Z</time>
   </trkpt>
   <trkpt lat="47.3885980" lon="-122.0479130">
    <ele>130.5</ele>
    <time>2021-09-13T19:43:11Z</time>
   </trkpt>
   <trkpt lat="47.3885670" lon="-122.0479370">
    <ele>130.6</ele>
    <time>2021-09-13T19:43:12Z</time>
   </trkpt>
   <trkpt lat="47.3885430" lon="-122.0479720">
    <ele>130.6</ele>
    <time>2021-09-13T19:43:13Z</time>
   </trkpt>
   <trkpt lat="47.3885140" lon="-122.0480050">
    <ele>130.7</ele>
    <time>2021-09-13T19:43:14Z</time>
   </trkpt>
   <trkpt lat="47.3884900" lon="-122.0480440">
    <ele>130.7</ele>
    <time>2021-09-13T19:43:15Z</time>
   </trkpt>
   <trkpt lat="47.3884620" lon="-122.0480600">
    <ele>130.8</ele>
    <time>2021-09-13T19:43:16Z</time>
   </trkpt>
   <trkpt lat="47.3884290" lon="-122.0480930">
    <ele>130.9</ele>
    <time>2021-09-13T19:43:17Z</time>
   </trkpt>
   <trkpt lat="47.3884020" lon="-122.0481220">
    <ele>130.9</ele>
    <time>2021-09-13T19:43:18Z</time>
   </trkpt>
   <trkpt lat="47.3883770" lon="-122.0481640">
    <ele>131.0</ele>
    <time>2021-09-13T19:43:19Z</time>
   </trkpt>
   <trkpt lat="47.3883450" lon="-122.0481990">
    <ele>131.0</ele>
    <time>2021-09-13T19:43:20Z</time>
   </trkpt>
   <trkpt lat="47.3883110" lon="-122.0482260">
    <ele>131.1</ele>
    <time>2021-09-13T19:43:21Z</time>
   </trkpt>
   <trkpt lat="47.3882790" lon="-122.0482660">
    <ele>131.2</ele>
    <time>2021-09-13T19:43:22Z</time>
   </trkpt>
   <trkpt lat="47.3882600" lon="-122.0483040">
    <ele>131.3</ele>
    <time>2021-09-13T19:43:23Z</time>
   </trkpt>
   <trkpt lat="47.3882340" lon="-122.0483300">
    <ele>131.3</ele>
    <time>2021-09-13T19:43:24Z</time>
   </trkpt>
   <trkpt lat="47.3882060" lon="-122.0483740">
    <ele>131.4</ele>
    <time>2021-09-13T19:43:25Z</time>
   </trkpt>
   <trkpt lat="47.3881790" lon="-122.0484040">
    <ele>131.5</ele>
    <time>2021-09-13T19:43:26Z</time>
   </trkpt>
   <trkpt lat="47.3881590" lon="-122.0484310">
    <ele>131.5</ele>
    <time>2021-09-13T19:43:27Z</time>
   </trkpt>
   <trkpt lat="47.3881430" lon="-122.0484380">
    <ele>131.5</ele>
    <time>2021-09-13T19:43:29Z</time>
   </trkpt>
   <trkpt lat="47.3881240" lon="-122.0484700">
    <ele>131.6</ele>
    <time>2021-09-13T19:43:30Z</time>
   </trkpt>
   <trkpt lat="47.3881190" lon="-122.0484790">
    <ele>131.6</ele>
    <time>2021-09-13T19:43:31Z</time>
   </trkpt>
   <trkpt lat="47.3881160" lon="-122.0485070">
    <ele>131.6</ele>
    <time>2021-09-13T19:44:01Z</time>
   </trkpt>
   <trkpt lat="47.3880870" lon="-122.0485490">
    <ele>131.7</ele>
    <time>2021-09-13T19:44:02Z</time>
   </trkpt>
   <trkpt lat="47.3880590" lon="-122.0485730">
    <ele>131.7</ele>
    <time>2021-09-13T19:44:03Z</time>
   </trkpt>
   <trkpt lat="47.3880290" lon="-122.0485980">
    <ele>131.8</ele>
    <time>2021-09-13T19:44:04Z</time>
   </trkpt>
   <trkpt lat="47.3879970" lon="-122.0485980">
    <ele>131.8</ele>
    <time>2021-09-13T19:44:05Z</time>
   </trkpt>
   <trkpt lat="47.3879720" lon="-122.0486280">
    <ele>131.9</ele>
    <time>2021-09-13T19:44:06Z</time>
   </trkpt>
   <trkpt lat="47.3879500" lon="-122.0486590">
    <ele>131.9</ele>
    <time>2021-09-13T19:44:07Z</time>
   </trkpt>
   <trkpt lat="47.3879250" lon="-122.0486930">
    <ele>132.0</ele>
    <time>2021-09-13T19:44:08Z</time>
   </trkpt>
   <trkpt lat="47.3879060" lon="-122.0487240">
    <ele>132.0</ele>
    <time>2021-09-13T19:44:09Z</time>
   </trkpt>
   <trkpt lat="47.3878820" lon="-122.0487590">
    <ele>132.1</ele>
    <time>2021-09-13T19:44:10Z</time>
   </trkpt>
   <trkpt lat="47.3878440" lon="-122.0487850">
    <ele>132.2</ele>
    <time>2021-09-13T19:44:11Z</time>
   </trkpt>
   <trkpt lat="47.3878290" lon="-122.0488030">
    <ele>132.3</ele>
    <time>2021-09-13T19:44:12Z</time>
   </trkpt>
   <trkpt lat="47.3877950" lon="-122.0488430">
    <ele>132.4</ele>
    <time>2021-09-13T19:44:13Z</time>
   </trkpt>
   <trkpt lat="47.3877700" lon="-122.0488690">
    <ele>132.4</ele>
    <time>2021-09-13T19:44:14Z</time>
   </trkpt>
   <trkpt lat="47.3877430" lon="-122.0489060">
    <ele>132.5</ele>
    <time>2021-09-13T19:44:15Z</time>
   </trkpt>
   <trkpt lat="47.3877150" lon="-122.0489230">
    <ele>132.6</ele>
    <time>2021-09-13T19:44:16Z</time>
   </trkpt>
   <trkpt lat="47.3876670" lon="-122.0489760">
    <ele>132.7</ele>
    <time>2021-09-13T19:44:17Z</time>
   </trkpt>
   <trkpt lat="47.3876370" lon="-122.0489980">
    <ele>132.8</ele>
    <time>2021-09-13T19:44:18Z</time>
   </trkpt>
   <trkpt lat="47.3876100" lon="-122.0490240">
    <ele>132.8</ele>
    <time>2021-09-13T19:44:19Z</time>
   </trkpt>
   <trkpt lat="47.3875790" lon="-122.0490480">
    <ele>132.9</ele>
    <time>2021-09-13T19:44:20Z</time>
   </trkpt>
   <trkpt lat="47.3875460" lon="-122.0490750">
    <ele>133.0</ele>
    <time>2021-09-13T19:44:21Z</time>
   </trkpt>
   <trkpt lat="47.3875220" lon="-122.0490930">
    <ele>133.0</ele>
    <time>2021-09-13T19:44:22Z</time>
   </trkpt>
   <trkpt lat="47.3874870" lon="-122.0491180">
    <ele>133.1</ele>
    <time>2021-09-13T19:44:23Z</time>
   </trkpt>
   <trkpt lat="47.3874630" lon="-122.0491380">
    <ele>133.2</ele>
    <time>2021-09-13T19:44:24Z</time>
   </trkpt>
   <trkpt lat="47.3874270" lon="-122.0491670">
    <ele>133.2</ele>
    <time>2021-09-13T19:44:25Z</time>
   </trkpt>
   <trkpt lat="47.3873870" lon="-122.0492030">
    <ele>133.3</ele>
    <time>2021-09-13T19:44:26Z</time>
   </trkpt>
   <trkpt lat="47.3873520" lon="-122.0492290">
    <ele>133.4</ele>
    <time>2021-09-13T19:44:27Z</time>
   </trkpt>
   <trkpt lat="47.3873380" lon="-122.0492360">
    <ele>133.4</ele>
    <time>2021-09-13T19:44:28Z</time>
   </trkpt>
   <trkpt lat="47.3873070" lon="-122.0492650">
    <ele>133.5</ele>
    <time>2021-09-13T19:44:29Z</time>
   </trkpt>
   <trkpt lat="47.3872900" lon="-122.0492820">
    <ele>133.5</ele>
    <time>2021-09-13T19:44:30Z</time>
   </trkpt>
   <trkpt lat="47.3872610" lon="-122.0493280">
    <ele>133.6</ele>
    <time>2021-09-13T19:44:31Z</time>
   </trkpt>
   <trkpt lat="47.3872330" lon="-122.0493420">
    <ele>133.6</ele>
    <time>2021-09-13T19:44:32Z</time>
   </trkpt>
   <trkpt lat="47.3872060" lon="-122.0493550">
    <ele>133.7</ele>
    <time>2021-09-13T19:44:33Z</time>
   </trkpt>
   <trkpt lat="47.3871750" lon="-122.0493690">
    <ele>133.7</ele>
    <time>2021-09-13T19:44:34Z</time>
   </trkpt>
   <trkpt lat="47.3871440" lon="-122.0493870">
    <ele>133.8</ele>
    <time>2021-09-13T19:44:35Z</time>
   </trkpt>
   <trkpt lat="47.3871080" lon="-122.0494140">
    <ele>133.8</ele>
    <time>2021-09-13T19:44:36Z</time>
   </trkpt>
   <trkpt lat="47.3870910" lon="-122.0494200">
    <ele>133.9</ele>
    <time>2021-09-13T19:44:37Z</time>
   </trkpt>
   <trkpt lat="47.3870640" lon="-122.0494390">
    <ele>133.9</ele>
    <time>2021-09-13T19:44:38Z</time>
   </trkpt>
   <trkpt lat="47.3870300" lon="-122.0494590">
    <ele>134.0</ele>
    <time>2021-09-13T19:44:39Z</time>
   </trkpt>
   <trkpt lat="47.3870010" lon="-122.0494780">
    <ele>134.0</ele>
    <time>2021-09-13T19:44:40Z</time>
   </trkpt>
   <trkpt lat="47.3869710" lon="-122.0495140">
    <ele>134.1</ele>
    <time>2021-09-13T19:44:41Z</time>
   </trkpt>
   <trkpt lat="47.3869290" lon="-122.0495320">
    <ele>134.1</ele>
    <time>2021-09-13T19:44:42Z</time>
   </trkpt>
   <trkpt lat="47.3868920" lon="-122.0495500">
    <ele>134.1</ele>
    <time>2021-09-13T19:44:43Z</time>
   </trkpt>
   <trkpt lat="47.3868560" lon="-122.0495590">
    <ele>134.2</ele>
    <time>2021-09-13T19:44:44Z</time>
   </trkpt>
   <trkpt lat="47.3868270" lon="-122.0495730">
    <ele>134.2</ele>
    <time>2021-09-13T19:44:45Z</time>
   </trkpt>
   <trkpt lat="47.3867970" lon="-122.0495930">
    <ele>134.2</ele>
    <time>2021-09-13T19:44:46Z</time>
   </trkpt>
   <trkpt lat="47.3867630" lon="-122.0496120">
    <ele>134.2</ele>
    <time>2021-09-13T19:44:47Z</time>
   </trkpt>
   <trkpt lat="47.3867330" lon="-122.0496350">
    <ele>134.3</ele>
    <time>2021-09-13T19:44:48Z</time>
   </trkpt>
   <trkpt lat="47.3866910" lon="-122.0496410">
    <ele>134.3</ele>
    <time>2021-09-13T19:44:49Z</time>
   </trkpt>
   <trkpt lat="47.3866550" lon="-122.0496480">
    <ele>134.3</ele>
    <time>2021-09-13T19:44:50Z</time>
   </trkpt>
   <trkpt lat="47.3866160" lon="-122.0496590">
    <ele>134.3</ele>
    <time>2021-09-13T19:44:51Z</time>
   </trkpt>
   <trkpt lat="47.3865750" lon="-122.0496740">
    <ele>134.4</ele>
    <time>2021-09-13T19:44:52Z</time>
   </trkpt>
   <trkpt lat="47.3865440" lon="-122.0497010">
    <ele>134.4</ele>
    <time>2021-09-13T19:44:53Z</time>
   </trkpt>
   <trkpt lat="47.3865110" lon="-122.0497240">
    <ele>134.4</ele>
    <time>2021-09-13T19:44:54Z</time>
   </trkpt>
   <trkpt lat="47.3864770" lon="-122.0497560">
    <ele>134.4</ele>
    <time>2021-09-13T19:44:55Z</time>
   </trkpt>
   <trkpt lat="47.3864340" lon="-122.0497540">
    <ele>134.5</ele>
    <time>2021-09-13T19:44:56Z</time>
   </trkpt>
   <trkpt lat="47.3864050" lon="-122.0497630">
    <ele>134.5</ele>
    <time>2021-09-13T19:44:57Z</time>
   </trkpt>
   <trkpt lat="47.3863620" lon="-122.0497830">
    <ele>134.5</ele>
    <time>2021-09-13T19:44:58Z</time>
   </trkpt>
   <trkpt lat="47.3863270" lon="-122.0497920">
    <ele>134.5</ele>
    <time>2021-09-13T19:44:59Z</time>
   </trkpt>
   <trkpt lat="47.3862990" lon="-122.0498080">
    <ele>134.5</ele>
    <time>2021-09-13T19:45:00Z</time>
   </trkpt>
   <trkpt lat="47.3862630" lon="-122.0498120">
    <ele>134.5</ele>
    <time>2021-09-13T19:45:01Z</time>
   </trkpt>
   <trkpt lat="47.3862280" lon="-122.0498390">
    <ele>134.6</ele>
    <time>2021-09-13T19:45:02Z</time>
   </trkpt>
   <trkpt lat="47.3861860" lon="-122.0498360">
    <ele>134.6</ele>
    <time>2021-09-13T19:45:03Z</time>
   </trkpt>
   <trkpt lat="47.3861500" lon="-122.0498480">
    <ele>134.6</ele>
    <time>2021-09-13T19:45:04Z</time>
   </trkpt>
   <trkpt lat="47.3861200" lon="-122.0498660">
    <ele>134.6</ele>
    <time>2021-09-13T19:45:05Z</time>
   </trkpt>
   <trkpt lat="47.3860800" lon="-122.0498800">
    <ele>134.7</ele>
    <time>2021-09-13T19:45:06Z</time>
   </trkpt>
   <trkpt lat="47.3860440" lon="-122.0498870">
    <ele>134.7</ele>
    <time>2021-09-13T19:45:07Z</time>
   </trkpt>
   <trkpt lat="47.3860060" lon="-122.0498830">
    <ele>134.7</ele>
    <time>2021-09-13T19:45:08Z</time>
   </trkpt>
   <trkpt lat="47.3859650" lon="-122.0498920">
    <ele>134.8</ele>
    <time>2021-09-13T19:45:09Z</time>
   </trkpt>
   <trkpt lat="47.3859440" lon="-122.0498890">
    <ele>134.8</ele>
    <time>2021-09-13T19:45:10Z</time>
   </trkpt>
   <trkpt lat="47.3859120" lon="-122.0499180">
    <ele>134.8</ele>
    <time>2021-09-13T19:45:11Z</time>
   </trkpt>
   <trkpt lat="47.3858760" lon="-122.0499360">
    <ele>134.9</ele>
    <time>2021-09-13T19:45:12Z</time>
   </trkpt>
   <trkpt lat="47.3858390" lon="-122.0499330">
    <ele>134.9</ele>
    <time>2021-09-13T19:45:13Z</time>
   </trkpt>
   <trkpt lat="47.3858030" lon="-122.0499490">
    <ele>135.0</ele>
    <time>2021-09-13T19:45:14Z</time>
   </trkpt>
   <trkpt lat="47.3857710" lon="-122.0499350">
    <ele>135.0</ele>
    <time>2021-09-13T19:45:15Z</time>
   </trkpt>
   <trkpt lat="47.3857350" lon="-122.0499290">
    <ele>135.1</ele>
    <time>2021-09-13T19:45:16Z</time>
   </trkpt>
   <trkpt lat="47.3856940" lon="-122.0499330">
    <ele>135.1</ele>
    <time>2021-09-13T19:45:17Z</time>
   </trkpt>
   <trkpt lat="47.3856670" lon="-122.0499490">
    <ele>135.2</ele>
    <time>2021-09-13T19:45:18Z</time>
   </trkpt>
   <trkpt lat="47.3856310" lon="-122.0499550">
    <ele>135.2</ele>
    <time>2021-09-13T19:45:19Z</time>
   </trkpt>
   <trkpt lat="47.3855990" lon="-122.0499400">
    <ele>135.2</ele>
    <time>2021-09-13T19:45:20Z</time>
   </trkpt>
   <trkpt lat="47.3855620" lon="-122.0499550">
    <ele>135.3</ele>
    <time>2021-09-13T19:45:21Z</time>
   </trkpt>
   <trkpt lat="47.3855310" lon="-122.0499510">
    <ele>135.3</ele>
    <time>2021-09-13T19:45:22Z</time>
   </trkpt>
   <trkpt lat="47.3855020" lon="-122.0499710">
    <ele>135.4</ele>
    <time>2021-09-13T19:45:23Z</time>
   </trkpt>
   <trkpt lat="47.3854590" lon="-122.0499660">
    <ele>135.4</ele>
    <time>2021-09-13T19:45:24Z</time>
   </trkpt>
   <trkpt lat="47.3854260" lon="-122.0499680">
    <ele>135.5</ele>
    <time>2021-09-13T19:45:25Z</time>
   </trkpt>
   <trkpt lat="47.3853800" lon="-122.0499750">
    <ele>135.5</ele>
    <time>2021-09-13T19:45:26Z</time>
   </trkpt>
   <trkpt lat="47.3853480" lon="-122.0499760">
    <ele>135.6</ele>
    <time>2021-09-13T19:45:27Z</time>
   </trkpt>
   <trkpt lat="47.3853150" lon="-122.0499790">
    <ele>135.6</ele>
    <time>2021-09-13T19:45:28Z</time>
   </trkpt>
   <trkpt lat="47.3852860" lon="-122.0499690">
    <ele>135.7</ele>
    <time>2021-09-13T19:45:29Z</time>
   </trkpt>
   <trkpt lat="47.3852520" lon="-122.0499560">
    <ele>135.7</ele>
    <time>2021-09-13T19:45:30Z</time>
   </trkpt>
   <trkpt lat="47.3852180" lon="-122.0499520">
    <ele>135.8</ele>
    <time>2021-09-13T19:45:31Z</time>
   </trkpt>
   <trkpt lat="47.3851750" lon="-122.0499560">
    <ele>135.9</ele>
    <time>2021-09-13T19:45:32Z</time>
   </trkpt>
   <trkpt lat="47.3851600" lon="-122.0499560">
    <ele>135.9</ele>
    <time>2021-09-13T19:45:33Z</time>
   </trkpt>
   <trkpt lat="47.3851280" lon="-122.0499400">
    <ele>136.0</ele>
    <time>2021-09-13T19:45:34Z</time>
   </trkpt>
   <trkpt lat="47.3850940" lon="-122.0499490">
    <ele>136.0</ele>
    <time>2021-09-13T19:45:35Z</time>
   </trkpt>
   <trkpt lat="47.3850610" lon="-122.0499340">
    <ele>136.1</ele>
    <time>2021-09-13T19:45:36Z</time>
   </trkpt>
   <trkpt lat="47.3850330" lon="-122.0499390">
    <ele>136.1</ele>
    <time>2021-09-13T19:45:37Z</time>
   </trkpt>
   <trkpt lat="47.3850010" lon="-122.0499410">
    <ele>136.2</ele>
    <time>2021-09-13T19:45:38Z</time>
   </trkpt>
   <trkpt lat="47.3849740" lon="-122.0499370">
    <ele>136.3</ele>
    <time>2021-09-13T19:45:39Z</time>
   </trkpt>
   <trkpt lat="47.3849390" lon="-122.0499450">
    <ele>136.3</ele>
    <time>2021-09-13T19:45:40Z</time>
   </trkpt>
   <trkpt lat="47.3849100" lon="-122.0499290">
    <ele>136.4</ele>
    <time>2021-09-13T19:45:41Z</time>
   </trkpt>
   <trkpt lat="47.3848800" lon="-122.0499370">
    <ele>136.4</ele>
    <time>2021-09-13T19:45:42Z</time>
   </trkpt>
   <trkpt lat="47.3848450" lon="-122.0499200">
    <ele>136.5</ele>
    <time>2021-09-13T19:45:43Z</time>
   </trkpt>
   <trkpt lat="47.3848100" lon="-122.0499280">
    <ele>136.6</ele>
    <time>2021-09-13T19:45:44Z</time>
   </trkpt>
   <trkpt lat="47.3847720" lon="-122.0499210">
    <ele>136.7</ele>
    <time>2021-09-13T19:45:45Z</time>
   </trkpt>
   <trkpt lat="47.3847430" lon="-122.0499090">
    <ele>136.7</ele>
    <time>2021-09-13T19:45:46Z</time>
   </trkpt>
   <trkpt lat="47.3847050" lon="-122.0499080">
    <ele>136.8</ele>
    <time>2021-09-13T19:45:47Z</time>
   </trkpt>
   <trkpt lat="47.3846710" lon="-122.0499010">
    <ele>136.8</ele>
    <time>2021-09-13T19:45:48Z</time>
   </trkpt>
   <trkpt lat="47.3846420" lon="-122.0498960">
    <ele>136.9</ele>
    <time>2021-09-13T19:45:49Z</time>
   </trkpt>
   <trkpt lat="47.3846050" lon="-122.0498780">
    <ele>136.9</ele>
    <time>2021-09-13T19:45:50Z</time>
   </trkpt>
   <trkpt lat="47.3845740" lon="-122.0498850">
    <ele>137.0</ele>
    <time>2021-09-13T19:45:51Z</time>
   </trkpt>
   <trkpt lat="47.3845340" lon="-122.0498870">
    <ele>137.0</ele>
    <time>2021-09-13T19:45:52Z</time>
   </trkpt>
   <trkpt lat="47.3844960" lon="-122.0498740">
    <ele>137.1</ele>
    <time>2021-09-13T19:45:53Z</time>
   </trkpt>
   <trkpt lat="47.3844630" lon="-122.0498780">
    <ele>137.1</ele>
    <time>2021-09-13T19:45:54Z</time>
   </trkpt>
   <trkpt lat="47.3844310" lon="-122.0498550">
    <ele>137.1</ele>
    <time>2021-09-13T19:45:55Z</time>
   </trkpt>
   <trkpt lat="47.3843990" lon="-122.0498560">
    <ele>137.2</ele>
    <time>2021-09-13T19:45:56Z</time>
   </trkpt>
   <trkpt lat="47.3843610" lon="-122.0498390">
    <ele>137.2</ele>
    <time>2021-09-13T19:45:57Z</time>
   </trkpt>
   <trkpt lat="47.3843290" lon="-122.0498270">
    <ele>137.3</ele>
    <time>2021-09-13T19:45:58Z</time>
   </trkpt>
   <trkpt lat="47.3842930" lon="-122.0498290">
    <ele>137.3</ele>
    <time>2021-09-13T19:45:59Z</time>
   </trkpt>
   <trkpt lat="47.3842660" lon="-122.0498080">
    <ele>137.3</ele>
    <time>2021-09-13T19:46:00Z</time>
   </trkpt>
   <trkpt lat="47.3842320" lon="-122.0498050">
    <ele>137.4</ele>
    <time>2021-09-13T19:46:01Z</time>
   </trkpt>
   <trkpt lat="47.3842240" lon="-122.0498070">
    <ele>137.4</ele>
    <time>2021-09-13T19:46:02Z</time>
   </trkpt>
  </trkseg>
 </trk>
</gpx>
