<?xml version="1.0" encoding="UTF-8"?>
<gpx creator="StravaGPX" version="1.1" xmlns="http://www.topografix.com/GPX/1/1" xmlns:xsi="http://www.w3.org/2001/XMLSchema-instance" xsi:schemaLocation="http://www.topografix.com/GPX/1/1 http://www.topografix.com/GPX/1/1/gpx.xsd">
 <metadata>
  <time>2022-01-27T23:03:18Z</time>
 </metadata>
 <trk>
  <name>Cooldown</name>
  <type>walking</type>
  <trkseg>
   <trkpt lat="47.4041000" lon="-122.0400590">
    <ele>103.6</ele>
    <time>2022-01-27T23:03:18Z</time>
   </trkpt>
   <trkpt lat="47.4041110" lon="-122.0400440">
    <ele>103.6</ele>
    <time>2022-01-27T23:03:19Z</time>
   </trkpt>
   <trkpt lat="47.4041190" lon="-122.0400270">
    <ele>103.5</ele>
    <time>2022-01-27T23:03:20Z</time>
   </trkpt>
   <trkpt lat="47.4041310" lon="-122.0400060">
    <ele>103.5</ele>
    <time>2022-01-27T23:03:21Z</time>
   </trkpt>
   <trkpt lat="47.4041350" lon="-122.0399940">
    <ele>103.5</ele>
    <time>2022-01-27T23:03:22Z</time>
   </trkpt>
   <trkpt lat="47.4041390" lon="-122.0399820">
    <ele>103.5</ele>
    <time>2022-01-27T23:03:23Z</time>
   </trkpt>
   <trkpt lat="47.4041480" lon="-122.0399690">
    <ele>103.5</ele>
    <time>2022-01-27T23:03:24Z</time>
   </trkpt>
   <trkpt lat="47.4041570" lon="-122.0399560">
    <ele>103.5</ele>
    <time>2022-01-27T23:03:25Z</time>
   </trkpt>
   <trkpt lat="47.4041640" lon="-122.0399510">
    <ele>103.5</ele>
    <time>2022-01-27T23:03:26Z</time>
   </trkpt>
   <trkpt lat="47.4041720" lon="-122.0399370">
    <ele>103.5</ele>
    <time>2022-01-27T23:03:27Z</time>
   </trkpt>
   <trkpt lat="47.4041820" lon="-122.0399230">
    <ele>103.5</ele>
    <time>2022-01-27T23:03:28Z</time>
   </trkpt>
   <trkpt lat="47.4041870" lon="-122.0399170">
    <ele>103.4</ele>
    <time>2022-01-27T23:03:29Z</time>
   </trkpt>
   <trkpt lat="47.4041990" lon="-122.0398960">
    <ele>103.4</ele>
    <time>2022-01-27T23:03:30Z</time>
   </trkpt>
   <trkpt lat="47.4042070" lon="-122.0398870">
    <ele>103.4</ele>
    <time>2022-01-27T23:03:31Z</time>
   </trkpt>
   <trkpt lat="47.4042140" lon="-122.0398780">
    <ele>103.4</ele>
    <time>2022-01-27T23:03:32Z</time>
   </trkpt>
   <trkpt lat="47.4042230" lon="-122.0398640">
    <ele>103.4</ele>
    <time>2022-01-27T23:03:33Z</time>
   </trkpt>
   <trkpt lat="47.4042350" lon="-122.0398490">
    <ele>103.4</ele>
    <time>2022-01-27T23:03:34Z</time>
   </trkpt>
   <trkpt lat="47.4042520" lon="-122.0398280">
    <ele>103.4</ele>
    <time>2022-01-27T23:03:35Z</time>
   </trkpt>
   <trkpt lat="47.4042580" lon="-122.0398190">
    <ele>103.4</ele>
    <time>2022-01-27T23:03:36Z</time>
   </trkpt>
   <trkpt lat="47.4042650" lon="-122.0398090">
    <ele>103.3</ele>
    <time>2022-01-27T23:03:37Z</time>
   </trkpt>
   <trkpt lat="47.4042700" lon="-122.0398000">
    <ele>103.3</ele>
    <time>2022-01-27T23:03:38Z</time>
   </trkpt>
   <trkpt lat="47.4042790" lon="-122.0397900">
    <ele>103.3</ele>
    <time>2022-01-27T23:03:39Z</time>
   </trkpt>
   <trkpt lat="47.4042880" lon="-122.0397740">
    <ele>103.3</ele>
    <time>2022-01-27T23:03:40Z</time>
   </trkpt>
   <trkpt lat="47.4043040" lon="-122.0397520">
    <ele>103.3</ele>
    <time>2022-01-27T23:03:41Z</time>
   </trkpt>
   <trkpt lat="47.4043110" lon="-122.0397430">
    <ele>103.3</ele>
    <time>2022-01-27T23:03:42Z</time>
   </trkpt>
   <trkpt lat="47.4043170" lon="-122.0397350">
    <ele>103.3</ele>
    <time>2022-01-27T23:03:43Z</time>
   </trkpt>
   <trkpt lat="47.4043310" lon="-122.0397120">
    <ele>103.3</ele>
    <time>2022-01-27T23:03:44Z</time>
   </trkpt>
   <trkpt lat="47.4043380" lon="-122.0397000">
    <ele>103.2</ele>
    <time>2022-01-27T23:03:45Z</time>
   </trkpt>
   <trkpt lat="47.4043450" lon="-122.0396890">
    <ele>103.2</ele>
    <time>2022-01-27T23:03:46Z</time>
   </trkpt>
   <trkpt lat="47.4043610" lon="-122.0396680">
    <ele>103.2</ele>
    <time>2022-01-27T23:03:47Z</time>
   </trkpt>
   <trkpt lat="47.4043670" lon="-122.0396590">
    <ele>103.2</ele>
    <time>2022-01-27T23:03:48Z</time>
   </trkpt>
   <trkpt lat="47.4043730" lon="-122.0396510">
    <ele>103.2</ele>
    <time>2022-01-27T23:03:49Z</time>
   </trkpt>
   <trkpt lat="47.4043880" lon="-122.0396280">
    <ele>103.2</ele>
    <time>2022-01-27T23:03:50Z</time>
   </trkpt>
   <trkpt lat="47.4043930" lon="-122.0396200">
    <ele>103.2</ele>
    <time>2022-01-27T23:03:51Z</time>
   </trkpt>
   <trkpt lat="47.4043990" lon="-122.0396120">
    <ele>103.2</ele>
    <time>2022-01-27T23:03:52Z</time>
   </trkpt>
   <trkpt lat="47.4044110" lon="-122.0395940">
    <ele>103.2</ele>
    <time>2022-01-27T23:03:53Z</time>
   </trkpt>
   <trkpt lat="47.4044160" lon="-122.0395850">
    <ele>103.1</ele>
    <time>2022-01-27T23:03:54Z</time>
   </trkpt>
   <trkpt lat="47.4044220" lon="-122.0395770">
    <ele>103.1</ele>
    <time>2022-01-27T23:03:55Z</time>
   </trkpt>
   <trkpt lat="47.4044270" lon="-122.0395680">
    <ele>103.1</ele>
    <time>2022-01-27T23:03:56Z</time>
   </trkpt>
   <trkpt lat="47.4044350" lon="-122.0395560">
    <ele>103.1</ele>
    <time>2022-01-27T23:03:57Z</time>
   </trkpt>
   <trkpt lat="47.4044470" lon="-122.0395390">
    <ele>103.1</ele>
    <time>2022-01-27T23:03:58Z</time>
   </trkpt>
   <trkpt lat="47.4044530" lon="-122.0395280">
    <ele>103.1</ele>
    <time>2022-01-27T23:03:59Z</time>
   </trkpt>
   <trkpt lat="47.4044640" lon="-122.0395160">
    <ele>103.1</ele>
    <time>2022-01-27T23:04:00Z</time>
   </trkpt>
   <trkpt lat="47.4044730" lon="-122.0395050">
    <ele>103.1</ele>
    <time>2022-01-27T23:04:01Z</time>
   </trkpt>
   <trkpt lat="47.4044850" lon="-122.0394860">
    <ele>103.1</ele>
    <time>2022-01-27T23:04:02Z</time>
   </trkpt>
   <trkpt lat="47.4044900" lon="-122.0394780">
    <ele>103.1</ele>
    <time>2022-01-27T23:04:03Z</time>
   </trkpt>
   <trkpt lat="47.4044950" lon="-122.0394700">
    <ele>103.1</ele>
    <time>2022-01-27T23:04:04Z</time>
   </trkpt>
   <trkpt lat="47.4045000" lon="-122.0394620">
    <ele>103.1</ele>
    <time>2022-01-27T23:04:05Z</time>
   </trkpt>
   <trkpt lat="47.4045080" lon="-122.0394520">
    <ele>103.0</ele>
    <time>2022-01-27T23:04:06Z</time>
   </trkpt>
   <trkpt lat="47.4045150" lon="-122.0394400">
    <ele>103.0</ele>
    <time>2022-01-27T23:04:07Z</time>
   </trkpt>
   <trkpt lat="47.4045200" lon="-122.0394320">
    <ele>103.0</ele>
    <time>2022-01-27T23:04:08Z</time>
   </trkpt>
   <trkpt lat="47.4045260" lon="-122.0394230">
    <ele>103.0</ele>
    <time>2022-01-27T23:04:09Z</time>
   </trkpt>
   <trkpt lat="47.4045340" lon="-122.0394110">
    <ele>103.0</ele>
    <time>2022-01-27T23:04:10Z</time>
   </trkpt>
   <trkpt lat="47.4045420" lon="-122.0393980">
    <ele>103.0</ele>
    <time>2022-01-27T23:04:11Z</time>
   </trkpt>
   <trkpt lat="47.4045550" lon="-122.0393830">
    <ele>103.0</ele>
    <time>2022-01-27T23:04:12Z</time>
   </trkpt>
   <trkpt lat="47.4045640" lon="-122.0393680">
    <ele>103.0</ele>
    <time>2022-01-27T23:04:13Z</time>
   </trkpt>
   <trkpt lat="47.4045690" lon="-122.0393580">
    <ele>103.0</ele>
    <time>2022-01-27T23:04:14Z</time>
   </trkpt>
   <trkpt lat="47.4045750" lon="-122.0393490">
    <ele>103.0</ele>
    <time>2022-01-27T23:04:15Z</time>
   </trkpt>
   <trkpt lat="47.4045830" lon="-122.0393370">
    <ele>103.0</ele>
    <time>2022-01-27T23:04:16Z</time>
   </trkpt>
   <trkpt lat="47.4045970" lon="-122.0393160">
    <ele>102.9</ele>
    <time>2022-01-27T23:04:17Z</time>
   </trkpt>
   <trkpt lat="47.4046050" lon="-122.0393080">
    <ele>102.9</ele>
    <time>2022-01-27T23:04:18Z</time>
   </trkpt>
   <trkpt lat="47.4046120" lon="-122.0393000">
    <ele>102.9</ele>
    <time>2022-01-27T23:04:19Z</time>
   </trkpt>
   <trkpt lat="47.4046200" lon="-122.0392920">
    <ele>102.9</ele>
    <time>2022-01-27T23:04:20Z</time>
   </trkpt>
   <trkpt lat="47.4046260" lon="-122.0392840">
    <ele>102.9</ele>
    <time>2022-01-27T23:04:21Z</time>
   </trkpt>
   <trkpt lat="47.4046370" lon="-122.0392740">
    <ele>102.9</ele>
    <time>2022-01-27T23:04:22Z</time>
   </trkpt>
   <trkpt lat="47.4046430" lon="-122.0392660">
    <ele>102.9</ele>
    <time>2022-01-27T23:04:23Z</time>
   </trkpt>
   <trkpt lat="47.4046430" lon="-122.0392550">
    <ele>102.9</ele>
    <time>2022-01-27T23:04:24Z</time>
   </trkpt>
   <trkpt lat="47.4046550" lon="-122.0392420">
    <ele>102.9</ele>
    <time>2022-01-27T23:04:25Z</time>
   </trkpt>
   <trkpt lat="47.4046740" lon="-122.0392240">
    <ele>102.9</ele>
    <time>2022-01-27T23:04:26Z</time>
   </trkpt>
   <trkpt lat="47.4046810" lon="-122.0392200">
    <ele>102.9</ele>
    <time>2022-01-27T23:04:27Z</time>
   </trkpt>
   <trkpt lat="47.4046880" lon="-122.0392150">
    <ele>102.9</ele>
    <time>2022-01-27T23:04:28Z</time>
   </trkpt>
   <trkpt lat="47.4047000" lon="-122.0392010">
    <ele>102.8</ele>
    <time>2022-01-27T23:04:29Z</time>
   </trkpt>
   <trkpt lat="47.4047060" lon="-122.0391930">
    <ele>102.8</ele>
    <time>2022-01-27T23:04:30Z</time>
   </trkpt>
   <trkpt lat="47.4047120" lon="-122.0391850">
    <ele>102.8</ele>
    <time>2022-01-27T23:04:31Z</time>
   </trkpt>
   <trkpt lat="47.4047180" lon="-122.0391770">
    <ele>102.8</ele>
    <time>2022-01-27T23:04:32Z</time>
   </trkpt>
   <trkpt lat="47.4047180" lon="-122.0391590">
    <ele>102.8</ele>
    <time>2022-01-27T23:04:33Z</time>
   </trkpt>
   <trkpt lat="47.4047220" lon="-122.0391480">
    <ele>102.8</ele>
    <time>2022-01-27T23:04:34Z</time>
   </trkpt>
   <trkpt lat="47.4047300" lon="-122.0391330">
    <ele>102.8</ele>
    <time>2022-01-27T23:04:35Z</time>
   </trkpt>
   <trkpt lat="47.4047350" lon="-122.0391220">
    <ele>102.8</ele>
    <time>2022-01-27T23:04:36Z</time>
   </trkpt>
   <trkpt lat="47.4047460" lon="-122.0391060">
    <ele>102.8</ele>
    <time>2022-01-27T23:04:37Z</time>
   </trkpt>
   <trkpt lat="47.4047540" lon="-122.0390990">
    <ele>102.8</ele>
    <time>2022-01-27T23:04:38Z</time>
   </trkpt>
   <trkpt lat="47.4047590" lon="-122.0390920">
    <ele>102.8</ele>
    <time>2022-01-27T23:04:39Z</time>
   </trkpt>
   <trkpt lat="47.4047600" lon="-122.0390860">
    <ele>102.8</ele>
    <time>2022-01-27T23:04:40Z</time>
   </trkpt>
   <trkpt lat="47.4047670" lon="-122.0390760">
    <ele>102.8</ele>
    <time>2022-01-27T23:04:41Z</time>
   </trkpt>
   <trkpt lat="47.4047740" lon="-122.0390660">
    <ele>102.8</ele>
    <time>2022-01-27T23:04:42Z</time>
   </trkpt>
   <trkpt lat="47.4047810" lon="-122.0390560">
    <ele>102.8</ele>
    <time>2022-01-27T23:04:43Z</time>
   </trkpt>
   <trkpt lat="47.4047970" lon="-122.0390370">
    <ele>102.8</ele>
    <time>2022-01-27T23:04:44Z</time>
   </trkpt>
   <trkpt lat="47.4048050" lon="-122.0390250">
    <ele>102.7</ele>
    <time>2022-01-27T23:04:45Z</time>
   </trkpt>
   <trkpt lat="47.4048110" lon="-122.0390110">
    <ele>102.7</ele>
    <time>2022-01-27T23:04:46Z</time>
   </trkpt>
   <trkpt lat="47.4048190" lon="-122.0390000">
    <ele>102.7</ele>
    <time>2022-01-27T23:04:47Z</time>
   </trkpt>
   <trkpt lat="47.4048330" lon="-122.0389850">
    <ele>102.7</ele>
    <time>2022-01-27T23:04:48Z</time>
   </trkpt>
   <trkpt lat="47.4048450" lon="-122.0389700">
    <ele>102.7</ele>
    <time>2022-01-27T23:04:49Z</time>
   </trkpt>
   <trkpt lat="47.4048540" lon="-122.0389590">
    <ele>102.7</ele>
    <time>2022-01-27T23:04:50Z</time>
   </trkpt>
   <trkpt lat="47.4048590" lon="-122.0389500">
    <ele>102.7</ele>
    <time>2022-01-27T23:04:51Z</time>
   </trkpt>
   <trkpt lat="47.4048690" lon="-122.0389370">
    <ele>102.7</ele>
    <time>2022-01-27T23:04:52Z</time>
   </trkpt>
   <trkpt lat="47.4048720" lon="-122.0389300">
    <ele>102.7</ele>
    <time>2022-01-27T23:04:53Z</time>
   </trkpt>
   <trkpt lat="47.4048780" lon="-122.0389230">
    <ele>102.7</ele>
    <time>2022-01-27T23:04:54Z</time>
   </trkpt>
   <trkpt lat="47.4048910" lon="-122.0389090">
    <ele>102.7</ele>
    <time>2022-01-27T23:04:55Z</time>
   </trkpt>
   <trkpt lat="47.4049060" lon="-122.0388880">
    <ele>102.7</ele>
    <time>2022-01-27T23:04:56Z</time>
   </trkpt>
   <trkpt lat="47.4049130" lon="-122.0388810">
    <ele>102.7</ele>
    <time>2022-01-27T23:04:57Z</time>
   </trkpt>
   <trkpt lat="47.4049200" lon="-122.0388730">
    <ele>102.7</ele>
    <time>2022-01-27T23:04:58Z</time>
   </trkpt>
   <trkpt lat="47.4049290" lon="-122.0388630">
    <ele>102.7</ele>
    <time>2022-01-27T23:04:59Z</time>
   </trkpt>
   <trkpt lat="47.4049360" lon="-122.0388500">
    <ele>102.7</ele>
    <time>2022-01-27T23:05:00Z</time>
   </trkpt>
   <trkpt lat="47.4049430" lon="-122.0388360">
    <ele>102.7</ele>
    <time>2022-01-27T23:05:01Z</time>
   </trkpt>
   <trkpt lat="47.4049480" lon="-122.0388290">
    <ele>102.7</ele>
    <time>2022-01-27T23:05:02Z</time>
   </trkpt>
   <trkpt lat="47.4049530" lon="-122.0388220">
    <ele>102.7</ele>
    <time>2022-01-27T23:05:03Z</time>
   </trkpt>
   <trkpt lat="47.4049540" lon="-122.0388230">
    <ele>102.7</ele>
    <time>2022-01-27T23:05:04Z</time>
   </trkpt>
   <trkpt lat="47.4049580" lon="-122.0388130">
    <ele>102.6</ele>
    <time>2022-01-27T23:05:05Z</time>
   </trkpt>
   <trkpt lat="47.4049660" lon="-122.0388010">
    <ele>102.6</ele>
    <time>2022-01-27T23:05:06Z</time>
   </trkpt>
   <trkpt lat="47.4049740" lon="-122.0387870">
    <ele>102.6</ele>
    <time>2022-01-27T23:05:07Z</time>
   </trkpt>
   <trkpt lat="47.4049810" lon="-122.0387780">
    <ele>102.6</ele>
    <time>2022-01-27T23:05:08Z</time>
   </trkpt>
   <trkpt lat="47.4049870" lon="-122.0387700">
    <ele>102.6</ele>
    <time>2022-01-27T23:05:09Z</time>
   </trkpt>
   <trkpt lat="47.4049940" lon="-122.0387610">
    <ele>102.6</ele>
    <time>2022-01-27T23:05:10Z</time>
   </trkpt>
   <trkpt lat="47.4050010" lon="-122.0387510">
    <ele>102.6</ele>
    <time>2022-01-27T23:05:11Z</time>
   </trkpt>
   <trkpt lat="47.4050100" lon="-122.0387410">
    <ele>102.6</ele>
    <time>2022-01-27T23:05:12Z</time>
   </trkpt>
   <trkpt lat="47.4050170" lon="-122.0387300">
    <ele>102.6</ele>
    <time>2022-01-27T23:05:13Z</time>
   </trkpt>
   <trkpt lat="47.4050260" lon="-122.0387160">
    <ele>102.6</ele>
    <time>2022-01-27T23:05:14Z</time>
   </trkpt>
   <trkpt lat="47.4050320" lon="-122.0387100">
    <ele>102.6</ele>
    <time>2022-01-27T23:05:15Z</time>
   </trkpt>
   <trkpt lat="47.4050420" lon="-122.0387010">
    <ele>102.6</ele>
    <time>2022-01-27T23:05:16Z</time>
   </trkpt>
   <trkpt lat="47.4050460" lon="-122.0386930">
    <ele>102.6</ele>
    <time>2022-01-27T23:05:17Z</time>
   </trkpt>
   <trkpt lat="47.4050550" lon="-122.0386820">
    <ele>102.6</ele>
    <time>2022-01-27T23:05:18Z</time>
   </trkpt>
   <trkpt lat="47.4050600" lon="-122.0386770">
    <ele>102.6</ele>
    <time>2022-01-27T23:05:19Z</time>
   </trkpt>
   <trkpt lat="47.4050650" lon="-122.0386710">
    <ele>102.6</ele>
    <time>2022-01-27T23:05:20Z</time>
   </trkpt>
   <trkpt lat="47.4050650" lon="-122.0386680">
    <ele>102.6</ele>
    <time>2022-01-27T23:05:21Z</time>
   </trkpt>
   <trkpt lat="47.4050640" lon="-122.0386710">
    <ele>102.6</ele>
    <time>2022-01-27T23:05:22Z</time>
   </trkpt>
   <trkpt lat="47.4050610" lon="-122.0386740">
    <ele>102.6</ele>
    <time>2022-01-27T23:05:24Z</time>
   </trkpt>
   <trkpt lat="47.4050600" lon="-122.0386750">
    <ele>102.6</ele>
    <time>2022-01-27T23:05:25Z</time>
   </trkpt>
   <trkpt lat="47.4050660" lon="-122.0386690">
    <ele>102.6</ele>
    <time>2022-01-27T23:05:26Z</time>
   </trkpt>
   <trkpt lat="47.4050740" lon="-122.0386600">
    <ele>102.6</ele>
    <time>2022-01-27T23:05:27Z</time>
   </trkpt>
   <trkpt lat="47.4050810" lon="-122.0386490">
    <ele>102.6</ele>
    <time>2022-01-27T23:05:28Z</time>
   </trkpt>
   <trkpt lat="47.4050920" lon="-122.0386410">
    <ele>102.6</ele>
    <time>2022-01-27T23:05:29Z</time>
   </trkpt>
   <trkpt lat="47.4051020" lon="-122.0386250">
    <ele>102.6</ele>
    <time>2022-01-27T23:05:30Z</time>
   </trkpt>
   <trkpt lat="47.4051050" lon="-122.0386210">
    <ele>102.6</ele>
    <time>2022-01-27T23:05:31Z</time>
   </trkpt>
   <trkpt lat="47.4051080" lon="-122.0386190">
    <ele>102.6</ele>
    <time>2022-01-27T23:05:32Z</time>
   </trkpt>
   <trkpt lat="47.4051140" lon="-122.0386150">
    <ele>102.6</ele>
    <time>2022-01-27T23:05:33Z</time>
   </trkpt>
   <trkpt lat="47.4051150" lon="-122.0386120">
    <ele>102.6</ele>
    <time>2022-01-27T23:05:34Z</time>
   </trkpt>
   <trkpt lat="47.4051200" lon="-122.0386040">
    <ele>102.6</ele>
    <time>2022-01-27T23:05:35Z</time>
   </trkpt>
   <trkpt lat="47.4051240" lon="-122.0385990">
    <ele>102.6</ele>
    <time>2022-01-27T23:05:36Z</time>
   </trkpt>
   <trkpt lat="47.4051280" lon="-122.0385940">
    <ele>102.6</ele>
    <time>2022-01-27T23:05:37Z</time>
   </trkpt>
   <trkpt lat="47.4051320" lon="-122.0385900">
    <ele>102.6</ele>
    <time>2022-01-27T23:05:38Z</time>
   </trkpt>
   <trkpt lat="47.4051370" lon="-122.0385840">
    <ele>102.6</ele>
    <time>2022-01-27T23:05:39Z</time>
   </trkpt>
   <trkpt lat="47.4051470" lon="-122.0385750">
    <ele>102.6</ele>
    <time>2022-01-27T23:05:40Z</time>
   </trkpt>
   <trkpt lat="47.4051490" lon="-122.0385740">
    <ele>102.6</ele>
    <time>2022-01-27T23:05:41Z</time>
   </trkpt>
   <trkpt lat="47.4051570" lon="-122.0385600">
    <ele>102.6</ele>
    <time>2022-01-27T23:05:42Z</time>
   </trkpt>
   <trkpt lat="47.4051640" lon="-122.0385550">
    <ele>102.6</ele>
    <time>2022-01-27T23:05:43Z</time>
   </trkpt>
   <trkpt lat="47.4051790" lon="-122.0385450">
    <ele>102.6</ele>
    <time>2022-01-27T23:05:44Z</time>
   </trkpt>
   <trkpt lat="47.4051840" lon="-122.0385410">
    <ele>102.6</ele>
    <time>2022-01-27T23:05:45Z</time>
   </trkpt>
   <trkpt lat="47.4051890" lon="-122.0385360">
    <ele>102.6</ele>
    <time>2022-01-27T23:05:46Z</time>
   </trkpt>
   <trkpt lat="47.4051940" lon="-122.0385320">
    <ele>102.6</ele>
    <time>2022-01-27T23:05:47Z</time>
   </trkpt>
   <trkpt lat="47.4052000" lon="-122.0385280">
    <ele>102.6</ele>
    <time>2022-01-27T23:05:48Z</time>
   </trkpt>
   <trkpt lat="47.4052060" lon="-122.0385270">
    <ele>102.6</ele>
    <time>2022-01-27T23:05:49Z</time>
   </trkpt>
   <trkpt lat="47.4052210" lon="-122.0385170">
    <ele>102.6</ele>
    <time>2022-01-27T23:05:50Z</time>
   </trkpt>
   <trkpt lat="47.4052310" lon="-122.0385110">
    <ele>102.6</ele>
    <time>2022-01-27T23:05:51Z</time>
   </trkpt>
   <trkpt lat="47.4052400" lon="-122.0385030">
    <ele>102.6</ele>
    <time>2022-01-27T23:05:52Z</time>
   </trkpt>
   <trkpt lat="47.4052450" lon="-122.0384940">
    <ele>102.6</ele>
    <time>2022-01-27T23:05:53Z</time>
   </trkpt>
   <trkpt lat="47.4052580" lon="-122.0384830">
    <ele>102.6</ele>
    <time>2022-01-27T23:05:54Z</time>
   </trkpt>
   <trkpt lat="47.4052670" lon="-122.0384790">
    <ele>102.6</ele>
    <time>2022-01-27T23:05:55Z</time>
   </trkpt>
   <trkpt lat="47.4052800" lon="-122.0384730">
    <ele>102.6</ele>
    <time>2022-01-27T23:05:56Z</time>
   </trkpt>
   <trkpt lat="47.4052830" lon="-122.0384720">
    <ele>102.6</ele>
    <time>2022-01-27T23:05:57Z</time>
   </trkpt>
   <trkpt lat="47.4052840" lon="-122.0384650">
    <ele>102.6</ele>
    <time>2022-01-27T23:05:58Z</time>
   </trkpt>
   <trkpt lat="47.4052950" lon="-122.0384590">
    <ele>102.6</ele>
    <time>2022-01-27T23:05:59Z</time>
   </trkpt>
   <trkpt lat="47.4053000" lon="-122.0384530">
    <ele>102.6</ele>
    <time>2022-01-27T23:06:00Z</time>
   </trkpt>
   <trkpt lat="47.4053120" lon="-122.0384460">
    <ele>102.6</ele>
    <time>2022-01-27T23:06:01Z</time>
   </trkpt>
   <trkpt lat="47.4053100" lon="-122.0384340">
    <ele>102.6</ele>
    <time>2022-01-27T23:06:02Z</time>
   </trkpt>
   <trkpt lat="47.4053110" lon="-122.0384270">
    <ele>102.6</ele>
    <time>2022-01-27T23:06:03Z</time>
   </trkpt>
   <trkpt lat="47.4053210" lon="-122.0384190">
    <ele>102.6</ele>
    <time>2022-01-27T23:06:04Z</time>
   </trkpt>
   <trkpt lat="47.4053290" lon="-122.0384140">
    <ele>102.6</ele>
    <time>2022-01-27T23:06:05Z</time>
   </trkpt>
   <trkpt lat="47.4053430" lon="-122.0384010">
    <ele>102.6</ele>
    <time>2022-01-27T23:06:06Z</time>
   </trkpt>
   <trkpt lat="47.4053490" lon="-122.0383960">
    <ele>102.6</ele>
    <time>2022-01-27T23:06:07Z</time>
   </trkpt>
   <trkpt lat="47.4053540" lon="-122.0383900">
    <ele>102.6</ele>
    <time>2022-01-27T23:06:08Z</time>
   </trkpt>
   <trkpt lat="47.4053600" lon="-122.0383850">
    <ele>102.6</ele>
    <time>2022-01-27T23:06:09Z</time>
   </trkpt>
   <trkpt lat="47.4053670" lon="-122.0383770">
    <ele>102.6</ele>
    <time>2022-01-27T23:06:10Z</time>
   </trkpt>
   <trkpt lat="47.4053730" lon="-122.0383710">
    <ele>102.6</ele>
    <time>2022-01-27T23:06:11Z</time>
   </trkpt>
   <trkpt lat="47.4053710" lon="-122.0383720">
    <ele>102.6</ele>
    <time>2022-01-27T23:06:12Z</time>
   </trkpt>
   <trkpt lat="47.4053770" lon="-122.0383660">
    <ele>102.6</ele>
    <time>2022-01-27T23:06:13Z</time>
   </trkpt>
   <trkpt lat="47.4053890" lon="-122.0383570">
    <ele>102.6</ele>
    <time>2022-01-27T23:06:14Z</time>
   </trkpt>
   <trkpt lat="47.4053970" lon="-122.0383480">
    <ele>102.5</ele>
    <time>2022-01-27T23:06:15Z</time>
   </trkpt>
   <trkpt lat="47.4054030" lon="-122.0383450">
    <ele>102.5</ele>
    <time>2022-01-27T23:06:16Z</time>
   </trkpt>
   <trkpt lat="47.4054170" lon="-122.0383340">
    <ele>102.5</ele>
    <time>2022-01-27T23:06:17Z</time>
   </trkpt>
   <trkpt lat="47.4054310" lon="-122.0383190">
    <ele>102.5</ele>
    <time>2022-01-27T23:06:18Z</time>
   </trkpt>
   <trkpt lat="47.4054360" lon="-122.0383140">
    <ele>102.5</ele>
    <time>2022-01-27T23:06:19Z</time>
   </trkpt>
   <trkpt lat="47.4054420" lon="-122.0383090">
    <ele>102.5</ele>
    <time>2022-01-27T23:06:20Z</time>
   </trkpt>
   <trkpt lat="47.4054470" lon="-122.0383050">
    <ele>102.5</ele>
    <time>2022-01-27T23:06:21Z</time>
   </trkpt>
   <trkpt lat="47.4054580" lon="-122.0382970">
    <ele>102.5</ele>
    <time>2022-01-27T23:06:22Z</time>
   </trkpt>
   <trkpt lat="47.4054640" lon="-122.0382920">
    <ele>102.5</ele>
    <time>2022-01-27T23:06:23Z</time>
   </trkpt>
   <trkpt lat="47.4054720" lon="-122.0382840">
    <ele>102.5</ele>
    <time>2022-01-27T23:06:24Z</time>
   </trkpt>
   <trkpt lat="47.4054840" lon="-122.0382740">
    <ele>102.5</ele>
    <time>2022-01-27T23:06:25Z</time>
   </trkpt>
   <trkpt lat="47.4054990" lon="-122.0382650">
    <ele>102.5</ele>
    <time>2022-01-27T23:06:26Z</time>
   </trkpt>
   <trkpt lat="47.4055210" lon="-122.0382430">
    <ele>102.5</ele>
    <time>2022-01-27T23:06:27Z</time>
   </trkpt>
   <trkpt lat="47.4055300" lon="-122.0382350">
    <ele>102.5</ele>
    <time>2022-01-27T23:06:28Z</time>
   </trkpt>
   <trkpt lat="47.4055430" lon="-122.0382230">
    <ele>102.5</ele>
    <time>2022-01-27T23:06:29Z</time>
   </trkpt>
   <trkpt lat="47.4055580" lon="-122.0382110">
    <ele>102.5</ele>
    <time>2022-01-27T23:06:30Z</time>
   </trkpt>
   <trkpt lat="47.4055750" lon="-122.0382000">
    <ele>102.5</ele>
    <time>2022-01-27T23:06:31Z</time>
   </trkpt>
   <trkpt lat="47.4055840" lon="-122.0381940">
    <ele>102.5</ele>
    <time>2022-01-27T23:06:32Z</time>
   </trkpt>
   <trkpt lat="47.4056030" lon="-122.0381800">
    <ele>102.4</ele>
    <time>2022-01-27T23:06:33Z</time>
   </trkpt>
   <trkpt lat="47.4056110" lon="-122.0381740">
    <ele>102.4</ele>
    <time>2022-01-27T23:06:34Z</time>
   </trkpt>
   <trkpt lat="47.4056190" lon="-122.0381690">
    <ele>102.4</ele>
    <time>2022-01-27T23:06:35Z</time>
   </trkpt>
   <trkpt lat="47.4056310" lon="-122.0381570">
    <ele>102.4</ele>
    <time>2022-01-27T23:06:36Z</time>
   </trkpt>
   <trkpt lat="47.4056420" lon="-122.0381470">
    <ele>102.4</ele>
    <time>2022-01-27T23:06:37Z</time>
   </trkpt>
   <trkpt lat="47.4056540" lon="-122.0381380">
    <ele>102.4</ele>
    <time>2022-01-27T23:06:38Z</time>
   </trkpt>
   <trkpt lat="47.4056700" lon="-122.0381310">
    <ele>102.4</ele>
    <time>2022-01-27T23:06:39Z</time>
   </trkpt>
   <trkpt lat="47.4056890" lon="-122.0381170">
    <ele>102.4</ele>
    <time>2022-01-27T23:06:40Z</time>
   </trkpt>
   <trkpt lat="47.4056970" lon="-122.0381130">
    <ele>102.4</ele>
    <time>2022-01-27T23:06:41Z</time>
   </trkpt>
   <trkpt lat="47.4057040" lon="-122.0381100">
    <ele>102.4</ele>
    <time>2022-01-27T23:06:42Z</time>
   </trkpt>
   <trkpt lat="47.4057120" lon="-122.0381070">
    <ele>102.4</ele>
    <time>2022-01-27T23:06:43Z</time>
   </trkpt>
   <trkpt lat="47.4057230" lon="-122.0381010">
    <ele>102.4</ele>
    <time>2022-01-27T23:06:44Z</time>
   </trkpt>
   <trkpt lat="47.4057320" lon="-122.0380980">
    <ele>102.4</ele>
    <time>2022-01-27T23:06:45Z</time>
   </trkpt>
   <trkpt lat="47.4057380" lon="-122.0380950">
    <ele>102.3</ele>
    <time>2022-01-27T23:06:46Z</time>
   </trkpt>
   <trkpt lat="47.4057390" lon="-122.0380840">
    <ele>102.3</ele>
    <time>2022-01-27T23:06:47Z</time>
   </trkpt>
   <trkpt lat="47.4057490" lon="-122.0380770">
    <ele>102.3</ele>
    <time>2022-01-27T23:06:48Z</time>
   </trkpt>
   <trkpt lat="47.4057610" lon="-122.0380690">
    <ele>102.3</ele>
    <time>2022-01-27T23:06:49Z</time>
   </trkpt>
   <trkpt lat="47.4057690" lon="-122.0380640">
    <ele>102.3</ele>
    <time>2022-01-27T23:06:50Z</time>
   </trkpt>
   <trkpt lat="47.4057800" lon="-122.0380560">
    <ele>102.3</ele>
    <time>2022-01-27T23:06:51Z</time>
   </trkpt>
   <trkpt lat="47.4057920" lon="-122.0380580">
    <ele>102.3</ele>
    <time>2022-01-27T23:06:52Z</time>
   </trkpt>
   <trkpt lat="47.4058050" lon="-122.0380510">
    <ele>102.3</ele>
    <time>2022-01-27T23:06:53Z</time>
   </trkpt>
   <trkpt lat="47.4058160" lon="-122.0380280">
    <ele>102.3</ele>
    <time>2022-01-27T23:06:54Z</time>
   </trkpt>
   <trkpt lat="47.4058270" lon="-122.0380280">
    <ele>102.3</ele>
    <time>2022-01-27T23:06:55Z</time>
   </trkpt>
   <trkpt lat="47.4058310" lon="-122.0380130">
    <ele>102.3</ele>
    <time>2022-01-27T23:06:56Z</time>
   </trkpt>
   <trkpt lat="47.4058290" lon="-122.0380100">
    <ele>102.3</ele>
    <time>2022-01-27T23:06:57Z</time>
   </trkpt>
   <trkpt lat="47.4058280" lon="-122.0380100">
    <ele>102.3</ele>
    <time>2022-01-27T23:06:58Z</time>
   </trkpt>
   <trkpt lat="47.4058400" lon="-122.0380020">
    <ele>102.3</ele>
    <time>2022-01-27T23:06:59Z</time>
   </trkpt>
   <trkpt lat="47.4058480" lon="-122.0379940">
    <ele>102.3</ele>
    <time>2022-01-27T23:07:00Z</time>
   </trkpt>
   <trkpt lat="47.4058580" lon="-122.0379850">
    <ele>102.3</ele>
    <time>2022-01-27T23:07:01Z</time>
   </trkpt>
   <trkpt lat="47.4058680" lon="-122.0379800">
    <ele>102.3</ele>
    <time>2022-01-27T23:07:02Z</time>
   </trkpt>
   <trkpt lat="47.4058770" lon="-122.0379760">
    <ele>102.3</ele>
    <time>2022-01-27T23:07:03Z</time>
   </trkpt>
   <trkpt lat="47.4058830" lon="-122.0379730">
    <ele>102.3</ele>
    <time>2022-01-27T23:07:04Z</time>
   </trkpt>
   <trkpt lat="47.4058950" lon="-122.0379640">
    <ele>102.3</ele>
    <time>2022-01-27T23:07:05Z</time>
   </trkpt>
   <trkpt lat="47.4059050" lon="-122.0379570">
    <ele>102.3</ele>
    <time>2022-01-27T23:07:06Z</time>
   </trkpt>
   <trkpt lat="47.4059180" lon="-122.0379460">
    <ele>102.3</ele>
    <time>2022-01-27T23:07:07Z</time>
   </trkpt>
   <trkpt lat="47.4059230" lon="-122.0379420">
    <ele>102.3</ele>
    <time>2022-01-27T23:07:08Z</time>
   </trkpt>
   <trkpt lat="47.4059320" lon="-122.0379370">
    <ele>102.3</ele>
    <time>2022-01-27T23:07:09Z</time>
   </trkpt>
   <trkpt lat="47.4059510" lon="-122.0379260">
    <ele>102.3</ele>
    <time>2022-01-27T23:07:10Z</time>
   </trkpt>
   <trkpt lat="47.4059650" lon="-122.0379160">
    <ele>102.2</ele>
    <time>2022-01-27T23:07:11Z</time>
   </trkpt>
   <trkpt lat="47.4059690" lon="-122.0379150">
    <ele>102.2</ele>
    <time>2022-01-27T23:07:12Z</time>
   </trkpt>
   <trkpt lat="47.4059780" lon="-122.0379090">
    <ele>102.2</ele>
    <time>2022-01-27T23:07:13Z</time>
   </trkpt>
   <trkpt lat="47.4059840" lon="-122.0379050">
    <ele>102.2</ele>
    <time>2022-01-27T23:07:14Z</time>
   </trkpt>
   <trkpt lat="47.4059940" lon="-122.0378990">
    <ele>102.2</ele>
    <time>2022-01-27T23:07:15Z</time>
   </trkpt>
   <trkpt lat="47.4060050" lon="-122.0378920">
    <ele>102.2</ele>
    <time>2022-01-27T23:07:16Z</time>
   </trkpt>
   <trkpt lat="47.4060170" lon="-122.0378830">
    <ele>102.2</ele>
    <time>2022-01-27T23:07:17Z</time>
   </trkpt>
   <trkpt lat="47.4060260" lon="-122.0378810">
    <ele>102.2</ele>
    <time>2022-01-27T23:07:18Z</time>
   </trkpt>
   <trkpt lat="47.4060340" lon="-122.0378710">
    <ele>102.2</ele>
    <time>2022-01-27T23:07:19Z</time>
   </trkpt>
   <trkpt lat="47.4060540" lon="-122.0378620">
    <ele>102.2</ele>
    <time>2022-01-27T23:07:20Z</time>
   </trkpt>
   <trkpt lat="47.4060620" lon="-122.0378590">
    <ele>102.2</ele>
    <time>2022-01-27T23:07:21Z</time>
   </trkpt>
   <trkpt lat="47.4060700" lon="-122.0378560">
    <ele>102.2</ele>
    <time>2022-01-27T23:07:22Z</time>
   </trkpt>
   <trkpt lat="47.4060790" lon="-122.0378500">
    <ele>102.2</ele>
    <time>2022-01-27T23:07:23Z</time>
   </trkpt>
   <trkpt lat="47.4060900" lon="-122.0378430">
    <ele>102.2</ele>
    <time>2022-01-27T23:07:24Z</time>
   </trkpt>
   <trkpt lat="47.4061000" lon="-122.0378380">
    <ele>102.2</ele>
    <time>2022-01-27T23:07:25Z</time>
   </trkpt>
   <trkpt lat="47.4061210" lon="-122.0378240">
    <ele>102.2</ele>
    <time>2022-01-27T23:07:26Z</time>
   </trkpt>
   <trkpt lat="47.4061290" lon="-122.0378180">
    <ele>102.2</ele>
    <time>2022-01-27T23:07:27Z</time>
   </trkpt>
   <trkpt lat="47.4061370" lon="-122.0378120">
    <ele>102.2</ele>
    <time>2022-01-27T23:07:28Z</time>
   </trkpt>
   <trkpt lat="47.4061610" lon="-122.0378050">
    <ele>102.2</ele>
    <time>2022-01-27T23:07:30Z</time>
   </trkpt>
   <trkpt lat="47.4061690" lon="-122.0378020">
    <ele>102.2</ele>
    <time>2022-01-27T23:07:31Z</time>
   </trkpt>
   <trkpt lat="47.4061780" lon="-122.0377990">
    <ele>102.2</ele>
    <time>2022-01-27T23:07:32Z</time>
   </trkpt>
   <trkpt lat="47.4061950" lon="-122.0377830">
    <ele>102.2</ele>
    <time>2022-01-27T23:07:33Z</time>
   </trkpt>
   <trkpt lat="47.4062050" lon="-122.0377730">
    <ele>102.2</ele>
    <time>2022-01-27T23:07:34Z</time>
   </trkpt>
   <trkpt lat="47.4062180" lon="-122.0377720">
    <ele>102.2</ele>
    <time>2022-01-27T23:07:35Z</time>
   </trkpt>
   <trkpt lat="47.4062280" lon="-122.0377660">
    <ele>102.2</ele>
    <time>2022-01-27T23:07:36Z</time>
   </trkpt>
   <trkpt lat="47.4062390" lon="-122.0377600">
    <ele>102.2</ele>
    <time>2022-01-27T23:07:37Z</time>
   </trkpt>
   <trkpt lat="47.4062450" lon="-122.0377560">
    <ele>102.2</ele>
    <time>2022-01-27T23:07:38Z</time>
   </trkpt>
   <trkpt lat="47.4062590" lon="-122.0377480">
    <ele>102.2</ele>
    <time>2022-01-27T23:07:39Z</time>
   </trkpt>
   <trkpt lat="47.4062650" lon="-122.0377490">
    <ele>102.2</ele>
    <time>2022-01-27T23:07:40Z</time>
   </trkpt>
   <trkpt lat="47.4062800" lon="-122.0377400">
    <ele>102.2</ele>
    <time>2022-01-27T23:07:41Z</time>
   </trkpt>
   <trkpt lat="47.4062910" lon="-122.0377350">
    <ele>102.2</ele>
    <time>2022-01-27T23:07:42Z</time>
   </trkpt>
   <trkpt lat="47.4063170" lon="-122.0377230">
    <ele>102.2</ele>
    <time>2022-01-27T23:07:43Z</time>
   </trkpt>
   <trkpt lat="47.4063280" lon="-122.0377180">
    <ele>102.1</ele>
    <time>2022-01-27T23:07:44Z</time>
   </trkpt>
   <trkpt lat="47.4063560" lon="-122.0377050">
    <ele>102.1</ele>
    <time>2022-01-27T23:07:45Z</time>
   </trkpt>
   <trkpt lat="47.4063650" lon="-122.0377010">
    <ele>102.1</ele>
    <time>2022-01-27T23:07:46Z</time>
   </trkpt>
   <trkpt lat="47.4063870" lon="-122.0376880">
    <ele>102.1</ele>
    <time>2022-01-27T23:07:47Z</time>
   </trkpt>
   <trkpt lat="47.4063950" lon="-122.0376810">
    <ele>102.1</ele>
    <time>2022-01-27T23:07:48Z</time>
   </trkpt>
   <trkpt lat="47.4064020" lon="-122.0376740">
    <ele>102.1</ele>
    <time>2022-01-27T23:07:49Z</time>
   </trkpt>
   <trkpt lat="47.4064160" lon="-122.0376670">
    <ele>102.1</ele>
    <time>2022-01-27T23:07:50Z</time>
   </trkpt>
   <trkpt lat="47.4064310" lon="-122.0376600">
    <ele>102.1</ele>
    <time>2022-01-27T23:07:51Z</time>
   </trkpt>
   <trkpt lat="47.4064520" lon="-122.0376480">
    <ele>102.1</ele>
    <time>2022-01-27T23:07:52Z</time>
   </trkpt>
   <trkpt lat="47.4064600" lon="-122.0376460">
    <ele>102.1</ele>
    <time>2022-01-27T23:07:53Z</time>
   </trkpt>
   <trkpt lat="47.4064670" lon="-122.0376440">
    <ele>102.1</ele>
    <time>2022-01-27T23:07:54Z</time>
   </trkpt>
   <trkpt lat="47.4064800" lon="-122.0376410">
    <ele>102.1</ele>
    <time>2022-01-27T23:07:55Z</time>
   </trkpt>
   <trkpt lat="47.4064860" lon="-122.0376500">
    <ele>102.1</ele>
    <time>2022-01-27T23:07:56Z</time>
   </trkpt>
   <trkpt lat="47.4064940" lon="-122.0376500">
    <ele>102.1</ele>
    <time>2022-01-27T23:07:57Z</time>
   </trkpt>
   <trkpt lat="47.4065090" lon="-122.0376460">
    <ele>102.1</ele>
    <time>2022-01-27T23:07:58Z</time>
   </trkpt>
   <trkpt lat="47.4065300" lon="-122.0376450">
    <ele>102.1</ele>
    <time>2022-01-27T23:07:59Z</time>
   </trkpt>
   <trkpt lat="47.4065430" lon="-122.0376400">
    <ele>102.1</ele>
    <time>2022-01-27T23:08:00Z</time>
   </trkpt>
   <trkpt lat="47.4065600" lon="-122.0376350">
    <ele>102.1</ele>
    <time>2022-01-27T23:08:01Z</time>
   </trkpt>
   <trkpt lat="47.4065690" lon="-122.0376310">
    <ele>102.1</ele>
    <time>2022-01-27T23:08:02Z</time>
   </trkpt>
   <trkpt lat="47.4065890" lon="-122.0376250">
    <ele>102.1</ele>
    <time>2022-01-27T23:08:03Z</time>
   </trkpt>
   <trkpt lat="47.4066090" lon="-122.0376170">
    <ele>102.1</ele>
    <time>2022-01-27T23:08:04Z</time>
   </trkpt>
   <trkpt lat="47.4066180" lon="-122.0376130">
    <ele>102.1</ele>
    <time>2022-01-27T23:08:05Z</time>
   </trkpt>
   <trkpt lat="47.4066270" lon="-122.0376100">
    <ele>102.1</ele>
    <time>2022-01-27T23:08:06Z</time>
   </trkpt>
   <trkpt lat="47.4066420" lon="-122.0376100">
    <ele>102.1</ele>
    <time>2022-01-27T23:08:07Z</time>
   </trkpt>
   <trkpt lat="47.4066510" lon="-122.0376090">
    <ele>102.1</ele>
    <time>2022-01-27T23:08:08Z</time>
   </trkpt>
   <trkpt lat="47.4066550" lon="-122.0376070">
    <ele>102.1</ele>
    <time>2022-01-27T23:08:09Z</time>
   </trkpt>
   <trkpt lat="47.4066620" lon="-122.0376040">
    <ele>102.1</ele>
    <time>2022-01-27T23:08:10Z</time>
   </trkpt>
   <trkpt lat="47.4066740" lon="-122.0376010">
    <ele>102.1</ele>
    <time>2022-01-27T23:08:11Z</time>
   </trkpt>
   <trkpt lat="47.4066890" lon="-122.0375970">
    <ele>102.1</ele>
    <time>2022-01-27T23:08:12Z</time>
   </trkpt>
   <trkpt lat="47.4067100" lon="-122.0375910">
    <ele>102.1</ele>
    <time>2022-01-27T23:08:13Z</time>
   </trkpt>
   <trkpt lat="47.4067190" lon="-122.0375890">
    <ele>102.1</ele>
    <time>2022-01-27T23:08:14Z</time>
   </trkpt>
   <trkpt lat="47.4067270" lon="-122.0375870">
    <ele>102.1</ele>
    <time>2022-01-27T23:08:15Z</time>
   </trkpt>
   <trkpt lat="47.4067380" lon="-122.0375860">
    <ele>102.1</ele>
    <time>2022-01-27T23:08:16Z</time>
   </trkpt>
   <trkpt lat="47.4067450" lon="-122.0375840">
    <ele>102.1</ele>
    <time>2022-01-27T23:08:17Z</time>
   </trkpt>
   <trkpt lat="47.4067580" lon="-122.0375840">
    <ele>102.1</ele>
    <time>2022-01-27T23:08:18Z</time>
   </trkpt>
   <trkpt lat="47.4067650" lon="-122.0375790">
    <ele>102.1</ele>
    <time>2022-01-27T23:08:19Z</time>
   </trkpt>
   <trkpt lat="47.4067680" lon="-122.0375790">
    <ele>102.1</ele>
    <time>2022-01-27T23:08:20Z</time>
   </trkpt>
   <trkpt lat="47.4067850" lon="-122.0375770">
    <ele>102.1</ele>
    <time>2022-01-27T23:08:21Z</time>
   </trkpt>
   <trkpt lat="47.4067920" lon="-122.0375640">
    <ele>102.1</ele>
    <time>2022-01-27T23:08:22Z</time>
   </trkpt>
   <trkpt lat="47.4067950" lon="-122.0375600">
    <ele>102.1</ele>
    <time>2022-01-27T23:08:23Z</time>
   </trkpt>
   <trkpt lat="47.4067990" lon="-122.0375550">
    <ele>102.1</ele>
    <time>2022-01-27T23:08:24Z</time>
   </trkpt>
   <trkpt lat="47.4068020" lon="-122.0375510">
    <ele>102.1</ele>
    <time>2022-01-27T23:08:25Z</time>
   </trkpt>
   <trkpt lat="47.4068060" lon="-122.0375460">
    <ele>102.1</ele>
    <time>2022-01-27T23:08:26Z</time>
   </trkpt>
   <trkpt lat="47.4068100" lon="-122.0375420">
    <ele>102.1</ele>
    <time>2022-01-27T23:08:27Z</time>
   </trkpt>
   <trkpt lat="47.4068130" lon="-122.0375370">
    <ele>102.1</ele>
    <time>2022-01-27T23:08:28Z</time>
   </trkpt>
   <trkpt lat="47.4068320" lon="-122.0375530">
    <ele>102.1</ele>
    <time>2022-01-27T23:08:29Z</time>
   </trkpt>
   <trkpt lat="47.4068370" lon="-122.0375630">
    <ele>102.1</ele>
    <time>2022-01-27T23:08:30Z</time>
   </trkpt>
   <trkpt lat="47.4068420" lon="-122.0375720">
    <ele>102.1</ele>
    <time>2022-01-27T23:08:31Z</time>
   </trkpt>
   <trkpt lat="47.4068600" lon="-122.0375740">
    <ele>102.1</ele>
    <time>2022-01-27T23:08:32Z</time>
   </trkpt>
   <trkpt lat="47.4068700" lon="-122.0375780">
    <ele>102.1</ele>
    <time>2022-01-27T23:08:33Z</time>
   </trkpt>
   <trkpt lat="47.4068840" lon="-122.0375790">
    <ele>102.1</ele>
    <time>2022-01-27T23:08:34Z</time>
   </trkpt>
   <trkpt lat="47.4068970" lon="-122.0375820">
    <ele>102.1</ele>
    <time>2022-01-27T23:08:35Z</time>
   </trkpt>
   <trkpt lat="47.4069170" lon="-122.0375910">
    <ele>102.1</ele>
    <time>2022-01-27T23:08:36Z</time>
   </trkpt>
   <trkpt lat="47.4069250" lon="-122.0375940">
    <ele>102.1</ele>
    <time>2022-01-27T23:08:37Z</time>
   </trkpt>
   <trkpt lat="47.4069330" lon="-122.0375970">
    <ele>102.1</ele>
    <time>2022-01-27T23:08:38Z</time>
   </trkpt>
   <trkpt lat="47.4069540" lon="-122.0376040">
    <ele>102.1</ele>
    <time>2022-01-27T23:08:39Z</time>
   </trkpt>
   <trkpt lat="47.4069620" lon="-122.0376070">
    <ele>102.1</ele>
    <time>2022-01-27T23:08:40Z</time>
   </trkpt>
   <trkpt lat="47.4069690" lon="-122.0376100">
    <ele>102.1</ele>
    <time>2022-01-27T23:08:41Z</time>
   </trkpt>
   <trkpt lat="47.4070180" lon="-122.0376370">
    <ele>102.1</ele>
    <time>2022-01-27T23:08:45Z</time>
   </trkpt>
   <trkpt lat="47.4070380" lon="-122.0376540">
    <ele>102.1</ele>
    <time>2022-01-27T23:08:46Z</time>
   </trkpt>
   <trkpt lat="47.4070580" lon="-122.0376710">
    <ele>102.1</ele>
    <time>2022-01-27T23:08:47Z</time>
   </trkpt>
   <trkpt lat="47.4071870" lon="-122.0377990">
    <ele>101.9</ele>
    <time>2022-01-27T23:08:48Z</time>
   </trkpt>
   <trkpt lat="47.4073900" lon="-122.0379960">
    <ele>101.5</ele>
    <time>2022-01-27T23:08:49Z</time>
   </trkpt>
   <trkpt lat="47.4075210" lon="-122.0381050">
    <ele>101.4</ele>
    <time>2022-01-27T23:08:50Z</time>
   </trkpt>
   <trkpt lat="47.4074420" lon="-122.0381060">
    <ele>101.3</ele>
    <time>2022-01-27T23:08:51Z</time>
   </trkpt>
   <trkpt lat="47.4075150" lon="-122.0379350">
    <ele>101.2</ele>
    <time>2022-01-27T23:08:52Z</time>
   </trkpt>
   <trkpt lat="47.4075550" lon="-122.0377550">
    <ele>101.2</ele>
    <time>2022-01-27T23:08:53Z</time>
   </trkpt>
   <trkpt lat="47.4075790" lon="-122.0374170">
    <ele>101.1</ele>
    <time>2022-01-27T23:08:54Z</time>
   </trkpt>
   <trkpt lat="47.4075590" lon="-122.0374200">
    <ele>101.0</ele>
    <time>2022-01-27T23:08:55Z</time>
   </trkpt>
   <trkpt lat="47.4075110" lon="-122.0374330">
    <ele>101.0</ele>
    <time>2022-01-27T23:08:56Z</time>
   </trkpt>
   <trkpt lat="47.4074870" lon="-122.0374460">
    <ele>101.0</ele>
    <time>2022-01-27T23:08:57Z</time>
   </trkpt>
   <trkpt lat="47.4074760" lon="-122.0374480">
    <ele>101.0</ele>
    <time>2022-01-27T23:08:58Z</time>
   </trkpt>
   <trkpt lat="47.4074390" lon="-122.0374780">
    <ele>101.0</ele>
    <time>2022-01-27T23:08:59Z</time>
   </trkpt>
   <trkpt lat="47.4074320" lon="-122.0374900">
    <ele>101.0</ele>
    <time>2022-01-27T23:09:00Z</time>
   </trkpt>
   <trkpt lat="47.4074220" lon="-122.0375100">
    <ele>101.0</ele>
    <time>2022-01-27T23:09:01Z</time>
   </trkpt>
   <trkpt lat="47.4074220" lon="-122.0375130">
    <ele>101.0</ele>
    <time>2022-01-27T23:09:02Z</time>
   </trkpt>
   <trkpt lat="47.4074380" lon="-122.0375120">
    <ele>101.0</ele>
    <time>2022-01-27T23:09:03Z</time>
   </trkpt>
   <trkpt lat="47.4074480" lon="-122.0375100">
    <ele>101.0</ele>
    <time>2022-01-27T23:09:04Z</time>
   </trkpt>
   <trkpt lat="47.4074570" lon="-122.0375010">
    <ele>101.0</ele>
    <time>2022-01-27T23:09:05Z</time>
   </trkpt>
   <trkpt lat="47.4074750" lon="-122.0374930">
    <ele>101.0</ele>
    <time>2022-01-27T23:09:06Z</time>
   </trkpt>
   <trkpt lat="47.4074810" lon="-122.0374900">
    <ele>101.0</ele>
    <time>2022-01-27T23:09:07Z</time>
   </trkpt>
   <trkpt lat="47.4074860" lon="-122.0374880">
    <ele>101.0</ele>
    <time>2022-01-27T23:09:08Z</time>
   </trkpt>
   <trkpt lat="47.4074920" lon="-122.0374850">
    <ele>101.0</ele>
    <time>2022-01-27T23:09:09Z</time>
   </trkpt>
   <trkpt lat="47.4075130" lon="-122.0374940">
    <ele>100.9</ele>
    <time>2022-01-27T23:09:10Z</time>
   </trkpt>
   <trkpt lat="47.4075220" lon="-122.0374970">
    <ele>100.9</ele>
    <time>2022-01-27T23:09:11Z</time>
   </trkpt>
   <trkpt lat="47.4075310" lon="-122.0375000">
    <ele>100.9</ele>
    <time>2022-01-27T23:09:12Z</time>
   </trkpt>
   <trkpt lat="47.4075380" lon="-122.0375020">
    <ele>100.9</ele>
    <time>2022-01-27T23:09:13Z</time>
   </trkpt>
   <trkpt lat="47.4075460" lon="-122.0375050">
    <ele>100.9</ele>
    <time>2022-01-27T23:09:14Z</time>
   </trkpt>
   <trkpt lat="47.4075600" lon="-122.0375090">
    <ele>100.9</ele>
    <time>2022-01-27T23:09:15Z</time>
   </trkpt>
   <trkpt lat="47.4075820" lon="-122.0375150">
    <ele>100.9</ele>
    <time>2022-01-27T23:09:16Z</time>
   </trkpt>
   <trkpt lat="47.4075920" lon="-122.0375170">
    <ele>100.9</ele>
    <time>2022-01-27T23:09:17Z</time>
   </trkpt>
   <trkpt lat="47.4076020" lon="-122.0375180">
    <ele>100.9</ele>
    <time>2022-01-27T23:09:18Z</time>
   </trkpt>
   <trkpt lat="47.4076200" lon="-122.0375190">
    <ele>100.9</ele>
    <time>2022-01-27T23:09:19Z</time>
   </trkpt>
   <trkpt lat="47.4076300" lon="-122.0375190">
    <ele>100.9</ele>
    <time>2022-01-27T23:09:20Z</time>
   </trkpt>
   <trkpt lat="47.4076390" lon="-122.0375190">
    <ele>100.9</ele>
    <time>2022-01-27T23:09:21Z</time>
   </trkpt>
   <trkpt lat="47.4076610" lon="-122.0375220">
    <ele>100.9</ele>
    <time>2022-01-27T23:09:22Z</time>
   </trkpt>
   <trkpt lat="47.4076690" lon="-122.0375250">
    <ele>100.9</ele>
    <time>2022-01-27T23:09:23Z</time>
   </trkpt>
   <trkpt lat="47.4076780" lon="-122.0375280">
    <ele>100.9</ele>
    <time>2022-01-27T23:09:24Z</time>
   </trkpt>
   <trkpt lat="47.4076910" lon="-122.0375340">
    <ele>100.9</ele>
    <time>2022-01-27T23:09:25Z</time>
   </trkpt>
   <trkpt lat="47.4077060" lon="-122.0375380">
    <ele>100.9</ele>
    <time>2022-01-27T23:09:26Z</time>
   </trkpt>
   <trkpt lat="47.4077270" lon="-122.0375360">
    <ele>100.9</ele>
    <time>2022-01-27T23:09:27Z</time>
   </trkpt>
   <trkpt lat="47.4077360" lon="-122.0375370">
    <ele>100.9</ele>
    <time>2022-01-27T23:09:28Z</time>
   </trkpt>
   <trkpt lat="47.4077450" lon="-122.0375370">
    <ele>100.8</ele>
    <time>2022-01-27T23:09:29Z</time>
   </trkpt>
   <trkpt lat="47.4077670" lon="-122.0375370">
    <ele>100.8</ele>
    <time>2022-01-27T23:09:30Z</time>
   </trkpt>
   <trkpt lat="47.4077750" lon="-122.0375370">
    <ele>100.8</ele>
    <time>2022-01-27T23:09:31Z</time>
   </trkpt>
   <trkpt lat="47.4077830" lon="-122.0375370">
    <ele>100.8</ele>
    <time>2022-01-27T23:09:32Z</time>
   </trkpt>
   <trkpt lat="47.4077990" lon="-122.0375380">
    <ele>100.8</ele>
    <time>2022-01-27T23:09:33Z</time>
   </trkpt>
   <trkpt lat="47.4078100" lon="-122.0375360">
    <ele>100.8</ele>
    <time>2022-01-27T23:09:34Z</time>
   </trkpt>
   <trkpt lat="47.4078230" lon="-122.0375370">
    <ele>100.8</ele>
    <time>2022-01-27T23:09:36Z</time>
   </trkpt>
   <trkpt lat="47.4078400" lon="-122.0375360">
    <ele>100.8</ele>
    <time>2022-01-27T23:09:37Z</time>
   </trkpt>
   <trkpt lat="47.4078540" lon="-122.0375410">
    <ele>100.8</ele>
    <time>2022-01-27T23:09:38Z</time>
   </trkpt>
   <trkpt lat="47.4078730" lon="-122.0375390">
    <ele>100.8</ele>
    <time>2022-01-27T23:09:39Z</time>
   </trkpt>
   <trkpt lat="47.4078890" lon="-122.0375450">
    <ele>100.8</ele>
    <time>2022-01-27T23:09:40Z</time>
   </trkpt>
   <trkpt lat="47.4079050" lon="-122.0375530">
    <ele>100.8</ele>
    <time>2022-01-27T23:09:41Z</time>
   </trkpt>
   <trkpt lat="47.4079200" lon="-122.0375470">
    <ele>100.8</ele>
    <time>2022-01-27T23:09:42Z</time>
   </trkpt>
   <trkpt lat="47.4079330" lon="-122.0375490">
    <ele>100.8</ele>
    <time>2022-01-27T23:09:43Z</time>
   </trkpt>
   <trkpt lat="47.4079520" lon="-122.0375500">
    <ele>100.8</ele>
    <time>2022-01-27T23:09:44Z</time>
   </trkpt>
   <trkpt lat="47.4079660" lon="-122.0375530">
    <ele>100.8</ele>
    <time>2022-01-27T23:09:45Z</time>
   </trkpt>
   <trkpt lat="47.4079800" lon="-122.0375590">
    <ele>100.8</ele>
    <time>2022-01-27T23:09:46Z</time>
   </trkpt>
   <trkpt lat="47.4079930" lon="-122.0375670">
    <ele>100.8</ele>
    <time>2022-01-27T23:09:47Z</time>
   </trkpt>
   <trkpt lat="47.4080080" lon="-122.0375780">
    <ele>100.8</ele>
    <time>2022-01-27T23:09:48Z</time>
   </trkpt>
   <trkpt lat="47.4080240" lon="-122.0375800">
    <ele>100.8</ele>
    <time>2022-01-27T23:09:49Z</time>
   </trkpt>
   <trkpt lat="47.4080390" lon="-122.0375840">
    <ele>100.8</ele>
    <time>2022-01-27T23:09:50Z</time>
   </trkpt>
   <trkpt lat="47.4080530" lon="-122.0375890">
    <ele>100.8</ele>
    <time>2022-01-27T23:09:51Z</time>
   </trkpt>
   <trkpt lat="47.4080690" lon="-122.0375960">
    <ele>100.8</ele>
    <time>2022-01-27T23:09:52Z</time>
   </trkpt>
   <trkpt lat="47.4080840" lon="-122.0375980">
    <ele>100.8</ele>
    <time>2022-01-27T23:09:53Z</time>
   </trkpt>
   <trkpt lat="47.4081000" lon="-122.0376020">
    <ele>100.8</ele>
    <time>2022-01-27T23:09:54Z</time>
   </trkpt>
   <trkpt lat="47.4081130" lon="-122.0376050">
    <ele>100.8</ele>
    <time>2022-01-27T23:09:55Z</time>
   </trkpt>
   <trkpt lat="47.4081340" lon="-122.0376160">
    <ele>100.8</ele>
    <time>2022-01-27T23:09:56Z</time>
   </trkpt>
   <trkpt lat="47.4081420" lon="-122.0376220">
    <ele>100.8</ele>
    <time>2022-01-27T23:09:57Z</time>
   </trkpt>
   <trkpt lat="47.4081510" lon="-122.0376270">
    <ele>100.8</ele>
    <time>2022-01-27T23:09:58Z</time>
   </trkpt>
   <trkpt lat="47.4081610" lon="-122.0376330">
    <ele>100.8</ele>
    <time>2022-01-27T23:09:59Z</time>
   </trkpt>
   <trkpt lat="47.4081670" lon="-122.0376320">
    <ele>100.8</ele>
    <time>2022-01-27T23:10:00Z</time>
   </trkpt>
   <trkpt lat="47.4081800" lon="-122.0376350">
    <ele>100.8</ele>
    <time>2022-01-27T23:10:01Z</time>
   </trkpt>
   <trkpt lat="47.4081900" lon="-122.0376360">
    <ele>100.8</ele>
    <time>2022-01-27T23:10:02Z</time>
   </trkpt>
   <trkpt lat="47.4081980" lon="-122.0376340">
    <ele>100.8</ele>
    <time>2022-01-27T23:10:03Z</time>
   </trkpt>
   <trkpt lat="47.4082080" lon="-122.0376300">
    <ele>100.8</ele>
    <time>2022-01-27T23:10:04Z</time>
   </trkpt>
   <trkpt lat="47.4082150" lon="-122.0376300">
    <ele>100.8</ele>
    <time>2022-01-27T23:10:05Z</time>
   </trkpt>
   <trkpt lat="47.4082250" lon="-122.0376380">
    <ele>100.8</ele>
    <time>2022-01-27T23:10:06Z</time>
   </trkpt>
   <trkpt lat="47.4082390" lon="-122.0376380">
    <ele>100.8</ele>
    <time>2022-01-27T23:10:07Z</time>
   </trkpt>
   <trkpt lat="47.4082580" lon="-122.0376490">
    <ele>100.8</ele>
    <time>2022-01-27T23:10:08Z</time>
   </trkpt>
   <trkpt lat="47.4082670" lon="-122.0376520">
    <ele>100.8</ele>
    <time>2022-01-27T23:10:09Z</time>
   </trkpt>
   <trkpt lat="47.4082760" lon="-122.0376540">
    <ele>100.8</ele>
    <time>2022-01-27T23:10:10Z</time>
   </trkpt>
   <trkpt lat="47.4082870" lon="-122.0376610">
    <ele>100.8</ele>
    <time>2022-01-27T23:10:11Z</time>
   </trkpt>
   <trkpt lat="47.4083020" lon="-122.0376640">
    <ele>100.8</ele>
    <time>2022-01-27T23:10:12Z</time>
   </trkpt>
   <trkpt lat="47.4083080" lon="-122.0376670">
    <ele>100.8</ele>
    <time>2022-01-27T23:10:13Z</time>
   </trkpt>
   <trkpt lat="47.4083240" lon="-122.0376760">
    <ele>100.8</ele>
    <time>2022-01-27T23:10:14Z</time>
   </trkpt>
   <trkpt lat="47.4083400" lon="-122.0376780">
    <ele>100.8</ele>
    <time>2022-01-27T23:10:15Z</time>
   </trkpt>
   <trkpt lat="47.4083540" lon="-122.0376880">
    <ele>100.8</ele>
    <time>2022-01-27T23:10:16Z</time>
   </trkpt>
   <trkpt lat="47.4083670" lon="-122.0376930">
    <ele>100.8</ele>
    <time>2022-01-27T23:10:17Z</time>
   </trkpt>
   <trkpt lat="47.4083800" lon="-122.0377030">
    <ele>100.8</ele>
    <time>2022-01-27T23:10:18Z</time>
   </trkpt>
   <trkpt lat="47.4083930" lon="-122.0377100">
    <ele>100.7</ele>
    <time>2022-01-27T23:10:19Z</time>
   </trkpt>
   <trkpt lat="47.4084160" lon="-122.0377190">
    <ele>100.7</ele>
    <time>2022-01-27T23:10:20Z</time>
   </trkpt>
   <trkpt lat="47.4084240" lon="-122.0377230">
    <ele>100.7</ele>
    <time>2022-01-27T23:10:21Z</time>
   </trkpt>
   <trkpt lat="47.4084330" lon="-122.0377270">
    <ele>100.7</ele>
    <time>2022-01-27T23:10:22Z</time>
   </trkpt>
   <trkpt lat="47.4084610" lon="-122.0377330">
    <ele>100.7</ele>
    <time>2022-01-27T23:10:23Z</time>
   </trkpt>
   <trkpt lat="47.4084710" lon="-122.0377350">
    <ele>100.7</ele>
    <time>2022-01-27T23:10:24Z</time>
   </trkpt>
   <trkpt lat="47.4085000" lon="-122.0377460">
    <ele>100.6</ele>
    <time>2022-01-27T23:10:25Z</time>
   </trkpt>
   <trkpt lat="47.4085080" lon="-122.0377500">
    <ele>100.6</ele>
    <time>2022-01-27T23:10:26Z</time>
   </trkpt>
   <trkpt lat="47.4085240" lon="-122.0377540">
    <ele>100.6</ele>
    <time>2022-01-27T23:10:27Z</time>
   </trkpt>
   <trkpt lat="47.4085380" lon="-122.0377630">
    <ele>100.6</ele>
    <time>2022-01-27T23:10:28Z</time>
   </trkpt>
   <trkpt lat="47.4085540" lon="-122.0377650">
    <ele>100.6</ele>
    <time>2022-01-27T23:10:29Z</time>
   </trkpt>
   <trkpt lat="47.4085680" lon="-122.0377670">
    <ele>100.6</ele>
    <time>2022-01-27T23:10:30Z</time>
   </trkpt>
   <trkpt lat="47.4085820" lon="-122.0377720">
    <ele>100.5</ele>
    <time>2022-01-27T23:10:31Z</time>
   </trkpt>
   <trkpt lat="47.4085930" lon="-122.0377790">
    <ele>100.5</ele>
    <time>2022-01-27T23:10:32Z</time>
   </trkpt>
   <trkpt lat="47.4086000" lon="-122.0377860">
    <ele>100.5</ele>
    <time>2022-01-27T23:10:33Z</time>
   </trkpt>
   <trkpt lat="47.4086110" lon="-122.0377940">
    <ele>100.5</ele>
    <time>2022-01-27T23:10:34Z</time>
   </trkpt>
   <trkpt lat="47.4086270" lon="-122.0378010">
    <ele>100.5</ele>
    <time>2022-01-27T23:10:35Z</time>
   </trkpt>
   <trkpt lat="47.4086450" lon="-122.0378090">
    <ele>100.5</ele>
    <time>2022-01-27T23:10:36Z</time>
   </trkpt>
   <trkpt lat="47.4086560" lon="-122.0378200">
    <ele>100.5</ele>
    <time>2022-01-27T23:10:37Z</time>
   </trkpt>
   <trkpt lat="47.4086690" lon="-122.0378240">
    <ele>100.5</ele>
    <time>2022-01-27T23:10:38Z</time>
   </trkpt>
   <trkpt lat="47.4086840" lon="-122.0378280">
    <ele>100.4</ele>
    <time>2022-01-27T23:10:39Z</time>
   </trkpt>
   <trkpt lat="47.4086980" lon="-122.0378300">
    <ele>100.4</ele>
    <time>2022-01-27T23:10:40Z</time>
   </trkpt>
   <trkpt lat="47.4087130" lon="-122.0378370">
    <ele>100.4</ele>
    <time>2022-01-27T23:10:41Z</time>
   </trkpt>
   <trkpt lat="47.4087270" lon="-122.0378420">
    <ele>100.4</ele>
    <time>2022-01-27T23:10:42Z</time>
   </trkpt>
   <trkpt lat="47.4087410" lon="-122.0378470">
    <ele>100.4</ele>
    <time>2022-01-27T23:10:43Z</time>
   </trkpt>
   <trkpt lat="47.4087530" lon="-122.0378590">
    <ele>100.4</ele>
    <time>2022-01-27T23:10:44Z</time>
   </trkpt>
   <trkpt lat="47.4087660" lon="-122.0378640">
    <ele>100.3</ele>
    <time>2022-01-27T23:10:45Z</time>
   </trkpt>
   <trkpt lat="47.4087800" lon="-122.0378680">
    <ele>100.3</ele>
    <time>2022-01-27T23:10:46Z</time>
   </trkpt>
   <trkpt lat="47.4087970" lon="-122.0378760">
    <ele>100.3</ele>
    <time>2022-01-27T23:10:47Z</time>
   </trkpt>
   <trkpt lat="47.4088100" lon="-122.0378800">
    <ele>100.3</ele>
    <time>2022-01-27T23:10:48Z</time>
   </trkpt>
   <trkpt lat="47.4088230" lon="-122.0378880">
    <ele>100.3</ele>
    <time>2022-01-27T23:10:49Z</time>
   </trkpt>
   <trkpt lat="47.4088360" lon="-122.0378970">
    <ele>100.3</ele>
    <time>2022-01-27T23:10:50Z</time>
   </trkpt>
   <trkpt lat="47.4088490" lon="-122.0379060">
    <ele>100.3</ele>
    <time>2022-01-27T23:10:51Z</time>
   </trkpt>
   <trkpt lat="47.4088610" lon="-122.0379160">
    <ele>100.2</ele>
    <time>2022-01-27T23:10:52Z</time>
   </trkpt>
   <trkpt lat="47.4088760" lon="-122.0379250">
    <ele>100.2</ele>
    <time>2022-01-27T23:10:53Z</time>
   </trkpt>
   <trkpt lat="47.4088890" lon="-122.0379330">
    <ele>100.2</ele>
    <time>2022-01-27T23:10:54Z</time>
   </trkpt>
   <trkpt lat="47.4088970" lon="-122.0379420">
    <ele>100.2</ele>
    <time>2022-01-27T23:10:55Z</time>
   </trkpt>
   <trkpt lat="47.4089040" lon="-122.0379470">
    <ele>100.2</ele>
    <time>2022-01-27T23:10:56Z</time>
   </trkpt>
   <trkpt lat="47.4089140" lon="-122.0379570">
    <ele>100.2</ele>
    <time>2022-01-27T23:10:57Z</time>
   </trkpt>
   <trkpt lat="47.4089210" lon="-122.0379660">
    <ele>100.2</ele>
    <time>2022-01-27T23:10:58Z</time>
   </trkpt>
   <trkpt lat="47.4089300" lon="-122.0379710">
    <ele>100.2</ele>
    <time>2022-01-27T23:10:59Z</time>
   </trkpt>
   <trkpt lat="47.4089500" lon="-122.0379790">
    <ele>100.1</ele>
    <time>2022-01-27T23:11:00Z</time>
   </trkpt>
   <trkpt lat="47.4089580" lon="-122.0379820">
    <ele>100.1</ele>
    <time>2022-01-27T23:11:01Z</time>
   </trkpt>
   <trkpt lat="47.4089650" lon="-122.0379850">
    <ele>100.1</ele>
    <time>2022-01-27T23:11:02Z</time>
   </trkpt>
   <trkpt lat="47.4089750" lon="-122.0379920">
    <ele>100.1</ele>
    <time>2022-01-27T23:11:03Z</time>
   </trkpt>
   <trkpt lat="47.4089840" lon="-122.0380000">
    <ele>100.1</ele>
    <time>2022-01-27T23:11:04Z</time>
   </trkpt>
   <trkpt lat="47.4089930" lon="-122.0380040">
    <ele>100.1</ele>
    <time>2022-01-27T23:11:05Z</time>
   </trkpt>
   <trkpt lat="47.4090030" lon="-122.0380090">
    <ele>100.1</ele>
    <time>2022-01-27T23:11:06Z</time>
   </trkpt>
   <trkpt lat="47.4090150" lon="-122.0380120">
    <ele>100.1</ele>
    <time>2022-01-27T23:11:07Z</time>
   </trkpt>
   <trkpt lat="47.4090240" lon="-122.0380170">
    <ele>100.1</ele>
    <time>2022-01-27T23:11:08Z</time>
   </trkpt>
   <trkpt lat="47.4090380" lon="-122.0380270">
    <ele>100.1</ele>
    <time>2022-01-27T23:11:09Z</time>
   </trkpt>
   <trkpt lat="47.4090450" lon="-122.0380470">
    <ele>100.1</ele>
    <time>2022-01-27T23:11:10Z</time>
   </trkpt>
   <trkpt lat="47.4090700" lon="-122.0380650">
    <ele>100.1</ele>
    <time>2022-01-27T23:11:11Z</time>
   </trkpt>
   <trkpt lat="47.4090820" lon="-122.0380720">
    <ele>100.1</ele>
    <time>2022-01-27T23:11:12Z</time>
   </trkpt>
   <trkpt lat="47.4090970" lon="-122.0380730">
    <ele>100.1</ele>
    <time>2022-01-27T23:11:13Z</time>
   </trkpt>
   <trkpt lat="47.4091170" lon="-122.0380830">
    <ele>100.1</ele>
    <time>2022-01-27T23:11:14Z</time>
   </trkpt>
   <trkpt lat="47.4091240" lon="-122.0380870">
    <ele>100.1</ele>
    <time>2022-01-27T23:11:15Z</time>
   </trkpt>
   <trkpt lat="47.4091320" lon="-122.0380910">
    <ele>100.1</ele>
    <time>2022-01-27T23:11:16Z</time>
   </trkpt>
   <trkpt lat="47.4091480" lon="-122.0380980">
    <ele>100.1</ele>
    <time>2022-01-27T23:11:17Z</time>
   </trkpt>
   <trkpt lat="47.4091630" lon="-122.0381050">
    <ele>100.1</ele>
    <time>2022-01-27T23:11:18Z</time>
   </trkpt>
   <trkpt lat="47.4091760" lon="-122.0381110">
    <ele>100.1</ele>
    <time>2022-01-27T23:11:19Z</time>
   </trkpt>
   <trkpt lat="47.4091900" lon="-122.0381200">
    <ele>100.1</ele>
    <time>2022-01-27T23:11:20Z</time>
   </trkpt>
   <trkpt lat="47.4092010" lon="-122.0381270">
    <ele>100.0</ele>
    <time>2022-01-27T23:11:21Z</time>
   </trkpt>
   <trkpt lat="47.4092140" lon="-122.0381350">
    <ele>100.0</ele>
    <time>2022-01-27T23:11:22Z</time>
   </trkpt>
   <trkpt lat="47.4092230" lon="-122.0381420">
    <ele>100.0</ele>
    <time>2022-01-27T23:11:23Z</time>
   </trkpt>
   <trkpt lat="47.4092430" lon="-122.0381520">
    <ele>100.0</ele>
    <time>2022-01-27T23:11:24Z</time>
   </trkpt>
   <trkpt lat="47.4092550" lon="-122.0381570">
    <ele>100.0</ele>
    <time>2022-01-27T23:11:25Z</time>
   </trkpt>
   <trkpt lat="47.4092770" lon="-122.0381670">
    <ele>100.0</ele>
    <time>2022-01-27T23:11:26Z</time>
   </trkpt>
   <trkpt lat="47.4092850" lon="-122.0381720">
    <ele>100.0</ele>
    <time>2022-01-27T23:11:27Z</time>
   </trkpt>
   <trkpt lat="47.4092930" lon="-122.0381760">
    <ele>100.0</ele>
    <time>2022-01-27T23:11:28Z</time>
   </trkpt>
   <trkpt lat="47.4093060" lon="-122.0381850">
    <ele>100.0</ele>
    <time>2022-01-27T23:11:29Z</time>
   </trkpt>
   <trkpt lat="47.4093210" lon="-122.0381990">
    <ele>100.0</ele>
    <time>2022-01-27T23:11:30Z</time>
   </trkpt>
   <trkpt lat="47.4093330" lon="-122.0382150">
    <ele>100.0</ele>
    <time>2022-01-27T23:11:31Z</time>
   </trkpt>
   <trkpt lat="47.4093460" lon="-122.0382180">
    <ele>100.0</ele>
    <time>2022-01-27T23:11:32Z</time>
   </trkpt>
   <trkpt lat="47.4093560" lon="-122.0382200">
    <ele>100.0</ele>
    <time>2022-01-27T23:11:33Z</time>
   </trkpt>
   <trkpt lat="47.4093690" lon="-122.0382270">
    <ele>100.0</ele>
    <time>2022-01-27T23:11:34Z</time>
   </trkpt>
   <trkpt lat="47.4093770" lon="-122.0382320">
    <ele>100.0</ele>
    <time>2022-01-27T23:11:35Z</time>
   </trkpt>
   <trkpt lat="47.4093950" lon="-122.0382470">
    <ele>100.0</ele>
    <time>2022-01-27T23:11:36Z</time>
   </trkpt>
   <trkpt lat="47.4094020" lon="-122.0382550">
    <ele>100.0</ele>
    <time>2022-01-27T23:11:37Z</time>
   </trkpt>
   <trkpt lat="47.4094090" lon="-122.0382630">
    <ele>100.0</ele>
    <time>2022-01-27T23:11:38Z</time>
   </trkpt>
   <trkpt lat="47.4094240" lon="-122.0382750">
    <ele>100.0</ele>
    <time>2022-01-27T23:11:39Z</time>
   </trkpt>
   <trkpt lat="47.4094340" lon="-122.0382850">
    <ele>100.0</ele>
    <time>2022-01-27T23:11:40Z</time>
   </trkpt>
   <trkpt lat="47.4094460" lon="-122.0382980">
    <ele>100.0</ele>
    <time>2022-01-27T23:11:42Z</time>
   </trkpt>
   <trkpt lat="47.4094560" lon="-122.0383030">
    <ele>100.0</ele>
    <time>2022-01-27T23:11:43Z</time>
   </trkpt>
  </trkseg>
 </trk>
</gpx>
