<?xml version="1.0" encoding="UTF-8"?>
<gpx creator="StravaGPX" version="1.1" xmlns="http://www.topografix.com/GPX/1/1" xmlns:xsi="http://www.w3.org/2001/XMLSchema-instance" xsi:schemaLocation="http://www.topografix.com/GPX/1/1 http://www.topografix.com/GPX/1/1/gpx.xsd">
 <metadata>
  <time>2022-02-02T23:12:52Z</time>
 </metadata>
 <trk>
  <name>Cooldown</name>
  <type>walking</type>
  <trkseg>
   <trkpt lat="47.3815880" lon="-122.0469420">
    <ele>141.9</ele>
    <time>2022-02-02T23:12:52Z</time>
   </trkpt>
   <trkpt lat="47.3815580" lon="-122.0468990">
    <ele>141.9</ele>
    <time>2022-02-02T23:12:53Z</time>
   </trkpt>
   <trkpt lat="47.3815240" lon="-122.0468650">
    <ele>141.9</ele>
    <time>2022-02-02T23:12:54Z</time>
   </trkpt>
   <trkpt lat="47.3815080" lon="-122.0468510">
    <ele>141.9</ele>
    <time>2022-02-02T23:12:55Z</time>
   </trkpt>
   <trkpt lat="47.3815010" lon="-122.0468270">
    <ele>141.9</ele>
    <time>2022-02-02T23:12:56Z</time>
   </trkpt>
   <trkpt lat="47.3815010" lon="-122.0468070">
    <ele>141.8</ele>
    <time>2022-02-02T23:12:57Z</time>
   </trkpt>
   <trkpt lat="47.3815100" lon="-122.0468000">
    <ele>141.8</ele>
    <time>2022-02-02T23:12:58Z</time>
   </trkpt>
   <trkpt lat="47.3815010" lon="-122.0468010">
    <ele>141.8</ele>
    <time>2022-02-02T23:12:59Z</time>
   </trkpt>
   <trkpt lat="47.3814900" lon="-122.0467900">
    <ele>141.8</ele>
    <time>2022-02-02T23:13:00Z</time>
   </trkpt>
   <trkpt lat="47.3814860" lon="-122.0467830">
    <ele>141.8</ele>
    <time>2022-02-02T23:13:01Z</time>
   </trkpt>
   <trkpt lat="47.3814840" lon="-122.0467720">
    <ele>141.8</ele>
    <time>2022-02-02T23:13:02Z</time>
   </trkpt>
   <trkpt lat="47.3814850" lon="-122.0467770">
    <ele>141.8</ele>
    <time>2022-02-02T23:13:03Z</time>
   </trkpt>
   <trkpt lat="47.3814770" lon="-122.0467740">
    <ele>141.8</ele>
    <time>2022-02-02T23:13:04Z</time>
   </trkpt>
   <trkpt lat="47.3814830" lon="-122.0467960">
    <ele>141.8</ele>
    <time>2022-02-02T23:13:05Z</time>
   </trkpt>
   <trkpt lat="47.3814950" lon="-122.0468040">
    <ele>141.8</ele>
    <time>2022-02-02T23:13:06Z</time>
   </trkpt>
   <trkpt lat="47.3815070" lon="-122.0468260">
    <ele>141.8</ele>
    <time>2022-02-02T23:13:07Z</time>
   </trkpt>
   <trkpt lat="47.3815170" lon="-122.0468500">
    <ele>141.8</ele>
    <time>2022-02-02T23:13:08Z</time>
   </trkpt>
   <trkpt lat="47.3815230" lon="-122.0468720">
    <ele>141.8</ele>
    <time>2022-02-02T23:13:09Z</time>
   </trkpt>
   <trkpt lat="47.3815280" lon="-122.0469040">
    <ele>141.8</ele>
    <time>2022-02-02T23:13:10Z</time>
   </trkpt>
   <trkpt lat="47.3815310" lon="-122.0469160">
    <ele>141.8</ele>
    <time>2022-02-02T23:13:11Z</time>
   </trkpt>
   <trkpt lat="47.3815330" lon="-122.0469270">
    <ele>141.8</ele>
    <time>2022-02-02T23:13:12Z</time>
   </trkpt>
   <trkpt lat="47.3815380" lon="-122.0469610">
    <ele>141.8</ele>
    <time>2022-02-02T23:13:13Z</time>
   </trkpt>
   <trkpt lat="47.3815400" lon="-122.0469700">
    <ele>141.8</ele>
    <time>2022-02-02T23:13:14Z</time>
   </trkpt>
   <trkpt lat="47.3815420" lon="-122.0469800">
    <ele>141.8</ele>
    <time>2022-02-02T23:13:15Z</time>
   </trkpt>
   <trkpt lat="47.3815450" lon="-122.0469850">
    <ele>141.8</ele>
    <time>2022-02-02T23:13:16Z</time>
   </trkpt>
   <trkpt lat="47.3815560" lon="-122.0470030">
    <ele>141.8</ele>
    <time>2022-02-02T23:13:17Z</time>
   </trkpt>
   <trkpt lat="47.3815560" lon="-122.0470170">
    <ele>141.8</ele>
    <time>2022-02-02T23:13:18Z</time>
   </trkpt>
   <trkpt lat="47.3815560" lon="-122.0470280">
    <ele>141.8</ele>
    <time>2022-02-02T23:13:19Z</time>
   </trkpt>
   <trkpt lat="47.3815580" lon="-122.0470380">
    <ele>141.8</ele>
    <time>2022-02-02T23:13:20Z</time>
   </trkpt>
   <trkpt lat="47.3815570" lon="-122.0470520">
    <ele>141.8</ele>
    <time>2022-02-02T23:13:21Z</time>
   </trkpt>
   <trkpt lat="47.3815660" lon="-122.0470610">
    <ele>141.8</ele>
    <time>2022-02-02T23:13:22Z</time>
   </trkpt>
   <trkpt lat="47.3815800" lon="-122.0470860">
    <ele>141.8</ele>
    <time>2022-02-02T23:13:23Z</time>
   </trkpt>
   <trkpt lat="47.3815890" lon="-122.0470990">
    <ele>141.8</ele>
    <time>2022-02-02T23:13:24Z</time>
   </trkpt>
   <trkpt lat="47.3815960" lon="-122.0471170">
    <ele>141.8</ele>
    <time>2022-02-02T23:13:25Z</time>
   </trkpt>
   <trkpt lat="47.3816000" lon="-122.0471220">
    <ele>141.8</ele>
    <time>2022-02-02T23:13:26Z</time>
   </trkpt>
   <trkpt lat="47.3815970" lon="-122.0471290">
    <ele>141.8</ele>
    <time>2022-02-02T23:13:27Z</time>
   </trkpt>
   <trkpt lat="47.3815990" lon="-122.0471420">
    <ele>141.8</ele>
    <time>2022-02-02T23:13:28Z</time>
   </trkpt>
   <trkpt lat="47.3816070" lon="-122.0471590">
    <ele>141.8</ele>
    <time>2022-02-02T23:13:29Z</time>
   </trkpt>
   <trkpt lat="47.3816160" lon="-122.0471820">
    <ele>141.8</ele>
    <time>2022-02-02T23:13:30Z</time>
   </trkpt>
   <trkpt lat="47.3816220" lon="-122.0471920">
    <ele>141.8</ele>
    <time>2022-02-02T23:13:31Z</time>
   </trkpt>
   <trkpt lat="47.3816390" lon="-122.0472150">
    <ele>141.9</ele>
    <time>2022-02-02T23:13:32Z</time>
   </trkpt>
   <trkpt lat="47.3816410" lon="-122.0472310">
    <ele>142.0</ele>
    <time>2022-02-02T23:13:33Z</time>
   </trkpt>
   <trkpt lat="47.3816490" lon="-122.0472480">
    <ele>142.1</ele>
    <time>2022-02-02T23:13:34Z</time>
   </trkpt>
   <trkpt lat="47.3816460" lon="-122.0472630">
    <ele>142.2</ele>
    <time>2022-02-02T23:13:35Z</time>
   </trkpt>
   <trkpt lat="47.3816470" lon="-122.0472710">
    <ele>142.3</ele>
    <time>2022-02-02T23:13:36Z</time>
   </trkpt>
   <trkpt lat="47.3816310" lon="-122.0472680">
    <ele>142.4</ele>
    <time>2022-02-02T23:13:37Z</time>
   </trkpt>
   <trkpt lat="47.3816160" lon="-122.0472770">
    <ele>142.5</ele>
    <time>2022-02-02T23:13:38Z</time>
   </trkpt>
   <trkpt lat="47.3816090" lon="-122.0472730">
    <ele>142.6</ele>
    <time>2022-02-02T23:13:39Z</time>
   </trkpt>
   <trkpt lat="47.3815980" lon="-122.0472740">
    <ele>142.6</ele>
    <time>2022-02-02T23:13:40Z</time>
   </trkpt>
   <trkpt lat="47.3815860" lon="-122.0472700">
    <ele>142.7</ele>
    <time>2022-02-02T23:13:41Z</time>
   </trkpt>
   <trkpt lat="47.3815790" lon="-122.0472640">
    <ele>142.8</ele>
    <time>2022-02-02T23:13:42Z</time>
   </trkpt>
   <trkpt lat="47.3815680" lon="-122.0472690">
    <ele>142.9</ele>
    <time>2022-02-02T23:13:43Z</time>
   </trkpt>
   <trkpt lat="47.3815580" lon="-122.0472680">
    <ele>143.0</ele>
    <time>2022-02-02T23:13:44Z</time>
   </trkpt>
   <trkpt lat="47.3815590" lon="-122.0472570">
    <ele>143.0</ele>
    <time>2022-02-02T23:13:45Z</time>
   </trkpt>
   <trkpt lat="47.3815490" lon="-122.0472570">
    <ele>143.1</ele>
    <time>2022-02-02T23:13:46Z</time>
   </trkpt>
   <trkpt lat="47.3815440" lon="-122.0472510">
    <ele>143.2</ele>
    <time>2022-02-02T23:13:47Z</time>
   </trkpt>
   <trkpt lat="47.3815470" lon="-122.0472530">
    <ele>143.2</ele>
    <time>2022-02-02T23:13:48Z</time>
   </trkpt>
   <trkpt lat="47.3815370" lon="-122.0472440">
    <ele>143.3</ele>
    <time>2022-02-02T23:13:49Z</time>
   </trkpt>
   <trkpt lat="47.3815380" lon="-122.0472360">
    <ele>143.3</ele>
    <time>2022-02-02T23:13:50Z</time>
   </trkpt>
   <trkpt lat="47.3815410" lon="-122.0472270">
    <ele>143.4</ele>
    <time>2022-02-02T23:13:51Z</time>
   </trkpt>
   <trkpt lat="47.3815370" lon="-122.0472170">
    <ele>143.4</ele>
    <time>2022-02-02T23:13:52Z</time>
   </trkpt>
   <trkpt lat="47.3815310" lon="-122.0472030">
    <ele>143.5</ele>
    <time>2022-02-02T23:13:53Z</time>
   </trkpt>
   <trkpt lat="47.3815250" lon="-122.0471990">
    <ele>143.6</ele>
    <time>2022-02-02T23:13:54Z</time>
   </trkpt>
   <trkpt lat="47.3815220" lon="-122.0471960">
    <ele>143.6</ele>
    <time>2022-02-02T23:13:55Z</time>
   </trkpt>
   <trkpt lat="47.3815050" lon="-122.0472040">
    <ele>143.7</ele>
    <time>2022-02-02T23:13:56Z</time>
   </trkpt>
   <trkpt lat="47.3814990" lon="-122.0472050">
    <ele>143.8</ele>
    <time>2022-02-02T23:13:57Z</time>
   </trkpt>
   <trkpt lat="47.3814930" lon="-122.0472050">
    <ele>143.8</ele>
    <time>2022-02-02T23:13:58Z</time>
   </trkpt>
   <trkpt lat="47.3814880" lon="-122.0472060">
    <ele>143.9</ele>
    <time>2022-02-02T23:13:59Z</time>
   </trkpt>
   <trkpt lat="47.3814820" lon="-122.0472060">
    <ele>143.9</ele>
    <time>2022-02-02T23:14:00Z</time>
   </trkpt>
   <trkpt lat="47.3814720" lon="-122.0472010">
    <ele>144.0</ele>
    <time>2022-02-02T23:14:01Z</time>
   </trkpt>
   <trkpt lat="47.3814620" lon="-122.0472010">
    <ele>144.1</ele>
    <time>2022-02-02T23:14:02Z</time>
   </trkpt>
   <trkpt lat="47.3814520" lon="-122.0471920">
    <ele>144.2</ele>
    <time>2022-02-02T23:14:03Z</time>
   </trkpt>
   <trkpt lat="47.3814420" lon="-122.0471890">
    <ele>144.2</ele>
    <time>2022-02-02T23:14:04Z</time>
   </trkpt>
   <trkpt lat="47.3814300" lon="-122.0471830">
    <ele>144.3</ele>
    <time>2022-02-02T23:14:05Z</time>
   </trkpt>
   <trkpt lat="47.3814190" lon="-122.0471820">
    <ele>144.4</ele>
    <time>2022-02-02T23:14:06Z</time>
   </trkpt>
   <trkpt lat="47.3814060" lon="-122.0471950">
    <ele>144.7</ele>
    <time>2022-02-02T23:14:07Z</time>
   </trkpt>
   <trkpt lat="47.3814000" lon="-122.0472030">
    <ele>144.7</ele>
    <time>2022-02-02T23:14:08Z</time>
   </trkpt>
   <trkpt lat="47.3813940" lon="-122.0472110">
    <ele>144.7</ele>
    <time>2022-02-02T23:14:09Z</time>
   </trkpt>
   <trkpt lat="47.3813880" lon="-122.0472200">
    <ele>144.7</ele>
    <time>2022-02-02T23:14:10Z</time>
   </trkpt>
   <trkpt lat="47.3813840" lon="-122.0472340">
    <ele>144.7</ele>
    <time>2022-02-02T23:14:11Z</time>
   </trkpt>
   <trkpt lat="47.3813770" lon="-122.0472610">
    <ele>144.7</ele>
    <time>2022-02-02T23:14:12Z</time>
   </trkpt>
   <trkpt lat="47.3813750" lon="-122.0472860">
    <ele>144.7</ele>
    <time>2022-02-02T23:14:13Z</time>
   </trkpt>
   <trkpt lat="47.3813730" lon="-122.0473060">
    <ele>144.7</ele>
    <time>2022-02-02T23:14:14Z</time>
   </trkpt>
   <trkpt lat="47.3813610" lon="-122.0473200">
    <ele>144.7</ele>
    <time>2022-02-02T23:14:15Z</time>
   </trkpt>
   <trkpt lat="47.3813570" lon="-122.0473400">
    <ele>144.7</ele>
    <time>2022-02-02T23:14:16Z</time>
   </trkpt>
   <trkpt lat="47.3813550" lon="-122.0473530">
    <ele>144.6</ele>
    <time>2022-02-02T23:14:17Z</time>
   </trkpt>
   <trkpt lat="47.3813470" lon="-122.0473690">
    <ele>144.6</ele>
    <time>2022-02-02T23:14:18Z</time>
   </trkpt>
   <trkpt lat="47.3813400" lon="-122.0473790">
    <ele>144.5</ele>
    <time>2022-02-02T23:14:19Z</time>
   </trkpt>
   <trkpt lat="47.3813360" lon="-122.0473850">
    <ele>144.4</ele>
    <time>2022-02-02T23:14:20Z</time>
   </trkpt>
   <trkpt lat="47.3813330" lon="-122.0473950">
    <ele>144.4</ele>
    <time>2022-02-02T23:14:21Z</time>
   </trkpt>
   <trkpt lat="47.3813300" lon="-122.0473990">
    <ele>144.4</ele>
    <time>2022-02-02T23:14:22Z</time>
   </trkpt>
   <trkpt lat="47.3813120" lon="-122.0473960">
    <ele>144.3</ele>
    <time>2022-02-02T23:14:23Z</time>
   </trkpt>
   <trkpt lat="47.3812940" lon="-122.0473870">
    <ele>144.1</ele>
    <time>2022-02-02T23:14:24Z</time>
   </trkpt>
   <trkpt lat="47.3812780" lon="-122.0473940">
    <ele>144.0</ele>
    <time>2022-02-02T23:14:25Z</time>
   </trkpt>
   <trkpt lat="47.3812590" lon="-122.0473940">
    <ele>143.9</ele>
    <time>2022-02-02T23:14:26Z</time>
   </trkpt>
   <trkpt lat="47.3812460" lon="-122.0473970">
    <ele>143.8</ele>
    <time>2022-02-02T23:14:27Z</time>
   </trkpt>
   <trkpt lat="47.3812350" lon="-122.0474000">
    <ele>143.7</ele>
    <time>2022-02-02T23:14:28Z</time>
   </trkpt>
   <trkpt lat="47.3812270" lon="-122.0474000">
    <ele>143.7</ele>
    <time>2022-02-02T23:14:29Z</time>
   </trkpt>
   <trkpt lat="47.3812180" lon="-122.0473930">
    <ele>143.6</ele>
    <time>2022-02-02T23:14:30Z</time>
   </trkpt>
   <trkpt lat="47.3811980" lon="-122.0473880">
    <ele>143.5</ele>
    <time>2022-02-02T23:14:31Z</time>
   </trkpt>
   <trkpt lat="47.3811840" lon="-122.0473900">
    <ele>143.4</ele>
    <time>2022-02-02T23:14:32Z</time>
   </trkpt>
   <trkpt lat="47.3811610" lon="-122.0473850">
    <ele>143.2</ele>
    <time>2022-02-02T23:14:33Z</time>
   </trkpt>
   <trkpt lat="47.3811530" lon="-122.0473850">
    <ele>143.2</ele>
    <time>2022-02-02T23:14:34Z</time>
   </trkpt>
   <trkpt lat="47.3811440" lon="-122.0473850">
    <ele>143.1</ele>
    <time>2022-02-02T23:14:35Z</time>
   </trkpt>
   <trkpt lat="47.3811320" lon="-122.0473860">
    <ele>143.0</ele>
    <time>2022-02-02T23:14:36Z</time>
   </trkpt>
   <trkpt lat="47.3811180" lon="-122.0473920">
    <ele>142.9</ele>
    <time>2022-02-02T23:14:37Z</time>
   </trkpt>
   <trkpt lat="47.3811100" lon="-122.0473910">
    <ele>142.9</ele>
    <time>2022-02-02T23:14:38Z</time>
   </trkpt>
   <trkpt lat="47.3811060" lon="-122.0473910">
    <ele>142.8</ele>
    <time>2022-02-02T23:14:39Z</time>
   </trkpt>
   <trkpt lat="47.3810970" lon="-122.0473880">
    <ele>142.8</ele>
    <time>2022-02-02T23:14:40Z</time>
   </trkpt>
   <trkpt lat="47.3810920" lon="-122.0473790">
    <ele>142.7</ele>
    <time>2022-02-02T23:14:41Z</time>
   </trkpt>
   <trkpt lat="47.3810830" lon="-122.0473710">
    <ele>142.6</ele>
    <time>2022-02-02T23:14:42Z</time>
   </trkpt>
   <trkpt lat="47.3810700" lon="-122.0473620">
    <ele>142.5</ele>
    <time>2022-02-02T23:14:43Z</time>
   </trkpt>
   <trkpt lat="47.3810510" lon="-122.0473570">
    <ele>142.4</ele>
    <time>2022-02-02T23:14:44Z</time>
   </trkpt>
   <trkpt lat="47.3810400" lon="-122.0473540">
    <ele>142.3</ele>
    <time>2022-02-02T23:14:45Z</time>
   </trkpt>
   <trkpt lat="47.3810310" lon="-122.0473450">
    <ele>142.2</ele>
    <time>2022-02-02T23:14:46Z</time>
   </trkpt>
   <trkpt lat="47.3810220" lon="-122.0473360">
    <ele>142.2</ele>
    <time>2022-02-02T23:14:47Z</time>
   </trkpt>
   <trkpt lat="47.3810160" lon="-122.0473210">
    <ele>142.1</ele>
    <time>2022-02-02T23:14:48Z</time>
   </trkpt>
   <trkpt lat="47.3810090" lon="-122.0473100">
    <ele>142.1</ele>
    <time>2022-02-02T23:14:49Z</time>
   </trkpt>
   <trkpt lat="47.3810090" lon="-122.0473050">
    <ele>142.1</ele>
    <time>2022-02-02T23:14:50Z</time>
   </trkpt>
   <trkpt lat="47.3810140" lon="-122.0472960">
    <ele>142.1</ele>
    <time>2022-02-02T23:14:51Z</time>
   </trkpt>
   <trkpt lat="47.3810210" lon="-122.0472970">
    <ele>142.1</ele>
    <time>2022-02-02T23:14:52Z</time>
   </trkpt>
   <trkpt lat="47.3810300" lon="-122.0473060">
    <ele>142.1</ele>
    <time>2022-02-02T23:14:53Z</time>
   </trkpt>
   <trkpt lat="47.3810350" lon="-122.0473220">
    <ele>142.1</ele>
    <time>2022-02-02T23:14:54Z</time>
   </trkpt>
   <trkpt lat="47.3810370" lon="-122.0473250">
    <ele>142.1</ele>
    <time>2022-02-02T23:14:55Z</time>
   </trkpt>
   <trkpt lat="47.3810400" lon="-122.0473260">
    <ele>142.1</ele>
    <time>2022-02-02T23:14:56Z</time>
   </trkpt>
   <trkpt lat="47.3810400" lon="-122.0473330">
    <ele>142.1</ele>
    <time>2022-02-02T23:14:57Z</time>
   </trkpt>
   <trkpt lat="47.3810390" lon="-122.0473390">
    <ele>142.1</ele>
    <time>2022-02-02T23:14:58Z</time>
   </trkpt>
   <trkpt lat="47.3810410" lon="-122.0473450">
    <ele>142.1</ele>
    <time>2022-02-02T23:14:59Z</time>
   </trkpt>
   <trkpt lat="47.3810470" lon="-122.0473530">
    <ele>142.1</ele>
    <time>2022-02-02T23:15:00Z</time>
   </trkpt>
   <trkpt lat="47.3810490" lon="-122.0473670">
    <ele>142.1</ele>
    <time>2022-02-02T23:15:01Z</time>
   </trkpt>
   <trkpt lat="47.3810550" lon="-122.0473850">
    <ele>142.1</ele>
    <time>2022-02-02T23:15:02Z</time>
   </trkpt>
   <trkpt lat="47.3810590" lon="-122.0473990">
    <ele>142.1</ele>
    <time>2022-02-02T23:15:03Z</time>
   </trkpt>
   <trkpt lat="47.3810600" lon="-122.0474100">
    <ele>142.1</ele>
    <time>2022-02-02T23:15:04Z</time>
   </trkpt>
   <trkpt lat="47.3810640" lon="-122.0474180">
    <ele>142.1</ele>
    <time>2022-02-02T23:15:05Z</time>
   </trkpt>
   <trkpt lat="47.3810680" lon="-122.0474180">
    <ele>142.1</ele>
    <time>2022-02-02T23:15:06Z</time>
   </trkpt>
   <trkpt lat="47.3810720" lon="-122.0474080">
    <ele>142.1</ele>
    <time>2022-02-02T23:15:07Z</time>
   </trkpt>
   <trkpt lat="47.3810740" lon="-122.0474010">
    <ele>142.1</ele>
    <time>2022-02-02T23:15:08Z</time>
   </trkpt>
   <trkpt lat="47.3810780" lon="-122.0473970">
    <ele>142.1</ele>
    <time>2022-02-02T23:15:09Z</time>
   </trkpt>
   <trkpt lat="47.3810790" lon="-122.0473930">
    <ele>142.1</ele>
    <time>2022-02-02T23:15:10Z</time>
   </trkpt>
   <trkpt lat="47.3810810" lon="-122.0473860">
    <ele>142.1</ele>
    <time>2022-02-02T23:15:11Z</time>
   </trkpt>
   <trkpt lat="47.3810830" lon="-122.0473770">
    <ele>142.1</ele>
    <time>2022-02-02T23:15:12Z</time>
   </trkpt>
   <trkpt lat="47.3810870" lon="-122.0473670">
    <ele>142.1</ele>
    <time>2022-02-02T23:15:13Z</time>
   </trkpt>
   <trkpt lat="47.3810870" lon="-122.0473630">
    <ele>142.1</ele>
    <time>2022-02-02T23:15:14Z</time>
   </trkpt>
   <trkpt lat="47.3810940" lon="-122.0473620">
    <ele>142.1</ele>
    <time>2022-02-02T23:15:15Z</time>
   </trkpt>
   <trkpt lat="47.3811070" lon="-122.0473510">
    <ele>142.1</ele>
    <time>2022-02-02T23:15:16Z</time>
   </trkpt>
   <trkpt lat="47.3811140" lon="-122.0473350">
    <ele>142.1</ele>
    <time>2022-02-02T23:15:17Z</time>
   </trkpt>
   <trkpt lat="47.3811190" lon="-122.0473090">
    <ele>142.1</ele>
    <time>2022-02-02T23:15:18Z</time>
   </trkpt>
   <trkpt lat="47.3811260" lon="-122.0472970">
    <ele>142.1</ele>
    <time>2022-02-02T23:15:19Z</time>
   </trkpt>
   <trkpt lat="47.3811360" lon="-122.0472770">
    <ele>142.1</ele>
    <time>2022-02-02T23:15:20Z</time>
   </trkpt>
   <trkpt lat="47.3811570" lon="-122.0472450">
    <ele>142.3</ele>
    <time>2022-02-02T23:15:21Z</time>
   </trkpt>
   <trkpt lat="47.3811610" lon="-122.0472380">
    <ele>142.3</ele>
    <time>2022-02-02T23:15:22Z</time>
   </trkpt>
   <trkpt lat="47.3811650" lon="-122.0472310">
    <ele>142.4</ele>
    <time>2022-02-02T23:15:23Z</time>
   </trkpt>
   <trkpt lat="47.3811690" lon="-122.0472240">
    <ele>142.4</ele>
    <time>2022-02-02T23:15:24Z</time>
   </trkpt>
   <trkpt lat="47.3811810" lon="-122.0472190">
    <ele>142.5</ele>
    <time>2022-02-02T23:15:25Z</time>
   </trkpt>
   <trkpt lat="47.3811860" lon="-122.0472130">
    <ele>142.5</ele>
    <time>2022-02-02T23:15:26Z</time>
   </trkpt>
   <trkpt lat="47.3811910" lon="-122.0472080">
    <ele>142.6</ele>
    <time>2022-02-02T23:15:27Z</time>
   </trkpt>
   <trkpt lat="47.3811960" lon="-122.0472020">
    <ele>142.6</ele>
    <time>2022-02-02T23:15:28Z</time>
   </trkpt>
   <trkpt lat="47.3812000" lon="-122.0471970">
    <ele>142.6</ele>
    <time>2022-02-02T23:15:29Z</time>
   </trkpt>
   <trkpt lat="47.3812240" lon="-122.0471850">
    <ele>142.8</ele>
    <time>2022-02-02T23:15:30Z</time>
   </trkpt>
   <trkpt lat="47.3812300" lon="-122.0471820">
    <ele>142.9</ele>
    <time>2022-02-02T23:15:31Z</time>
   </trkpt>
   <trkpt lat="47.3812360" lon="-122.0471790">
    <ele>142.9</ele>
    <time>2022-02-02T23:15:32Z</time>
   </trkpt>
   <trkpt lat="47.3812440" lon="-122.0471730">
    <ele>143.0</ele>
    <time>2022-02-02T23:15:33Z</time>
   </trkpt>
   <trkpt lat="47.3812650" lon="-122.0471800">
    <ele>143.1</ele>
    <time>2022-02-02T23:15:34Z</time>
   </trkpt>
   <trkpt lat="47.3812780" lon="-122.0471680">
    <ele>143.2</ele>
    <time>2022-02-02T23:15:35Z</time>
   </trkpt>
   <trkpt lat="47.3812900" lon="-122.0471670">
    <ele>143.3</ele>
    <time>2022-02-02T23:15:36Z</time>
   </trkpt>
   <trkpt lat="47.3812980" lon="-122.0471640">
    <ele>143.4</ele>
    <time>2022-02-02T23:15:37Z</time>
   </trkpt>
   <trkpt lat="47.3813070" lon="-122.0471660">
    <ele>143.4</ele>
    <time>2022-02-02T23:15:38Z</time>
   </trkpt>
   <trkpt lat="47.3813160" lon="-122.0471660">
    <ele>143.5</ele>
    <time>2022-02-02T23:15:39Z</time>
   </trkpt>
   <trkpt lat="47.3813300" lon="-122.0471760">
    <ele>143.6</ele>
    <time>2022-02-02T23:15:40Z</time>
   </trkpt>
   <trkpt lat="47.3813460" lon="-122.0471870">
    <ele>143.7</ele>
    <time>2022-02-02T23:15:41Z</time>
   </trkpt>
   <trkpt lat="47.3813580" lon="-122.0472050">
    <ele>143.8</ele>
    <time>2022-02-02T23:15:42Z</time>
   </trkpt>
   <trkpt lat="47.3813660" lon="-122.0472170">
    <ele>143.9</ele>
    <time>2022-02-02T23:15:43Z</time>
   </trkpt>
   <trkpt lat="47.3813790" lon="-122.0472280">
    <ele>144.0</ele>
    <time>2022-02-02T23:15:44Z</time>
   </trkpt>
   <trkpt lat="47.3813870" lon="-122.0472310">
    <ele>144.1</ele>
    <time>2022-02-02T23:15:45Z</time>
   </trkpt>
   <trkpt lat="47.3813980" lon="-122.0472370">
    <ele>144.7</ele>
    <time>2022-02-02T23:15:46Z</time>
   </trkpt>
   <trkpt lat="47.3814080" lon="-122.0472460">
    <ele>144.7</ele>
    <time>2022-02-02T23:15:47Z</time>
   </trkpt>
   <trkpt lat="47.3814180" lon="-122.0472530">
    <ele>144.7</ele>
    <time>2022-02-02T23:15:48Z</time>
   </trkpt>
   <trkpt lat="47.3814280" lon="-122.0472580">
    <ele>144.6</ele>
    <time>2022-02-02T23:15:49Z</time>
   </trkpt>
   <trkpt lat="47.3814410" lon="-122.0472610">
    <ele>144.4</ele>
    <time>2022-02-02T23:15:50Z</time>
   </trkpt>
   <trkpt lat="47.3814460" lon="-122.0472550">
    <ele>144.3</ele>
    <time>2022-02-02T23:15:51Z</time>
   </trkpt>
   <trkpt lat="47.3814570" lon="-122.0472480">
    <ele>144.1</ele>
    <time>2022-02-02T23:15:52Z</time>
   </trkpt>
   <trkpt lat="47.3814680" lon="-122.0472380">
    <ele>143.9</ele>
    <time>2022-02-02T23:15:53Z</time>
   </trkpt>
   <trkpt lat="47.3814740" lon="-122.0472400">
    <ele>143.8</ele>
    <time>2022-02-02T23:15:54Z</time>
   </trkpt>
   <trkpt lat="47.3814730" lon="-122.0472390">
    <ele>143.8</ele>
    <time>2022-02-02T23:15:55Z</time>
   </trkpt>
   <trkpt lat="47.3814860" lon="-122.0472460">
    <ele>143.6</ele>
    <time>2022-02-02T23:15:56Z</time>
   </trkpt>
   <trkpt lat="47.3814950" lon="-122.0472430">
    <ele>143.4</ele>
    <time>2022-02-02T23:15:57Z</time>
   </trkpt>
   <trkpt lat="47.3814950" lon="-122.0472460">
    <ele>143.4</ele>
    <time>2022-02-02T23:15:58Z</time>
   </trkpt>
   <trkpt lat="47.3815080" lon="-122.0472420">
    <ele>143.2</ele>
    <time>2022-02-02T23:15:59Z</time>
   </trkpt>
   <trkpt lat="47.3815140" lon="-122.0472310">
    <ele>143.0</ele>
    <time>2022-02-02T23:16:00Z</time>
   </trkpt>
   <trkpt lat="47.3815190" lon="-122.0472180">
    <ele>142.9</ele>
    <time>2022-02-02T23:16:01Z</time>
   </trkpt>
   <trkpt lat="47.3815340" lon="-122.0472210">
    <ele>142.6</ele>
    <time>2022-02-02T23:16:02Z</time>
   </trkpt>
   <trkpt lat="47.3815440" lon="-122.0472220">
    <ele>142.5</ele>
    <time>2022-02-02T23:16:03Z</time>
   </trkpt>
   <trkpt lat="47.3815540" lon="-122.0472140">
    <ele>142.3</ele>
    <time>2022-02-02T23:16:04Z</time>
   </trkpt>
   <trkpt lat="47.3815610" lon="-122.0472070">
    <ele>142.2</ele>
    <time>2022-02-02T23:16:05Z</time>
   </trkpt>
   <trkpt lat="47.3815720" lon="-122.0472040">
    <ele>142.0</ele>
    <time>2022-02-02T23:16:06Z</time>
   </trkpt>
   <trkpt lat="47.3815810" lon="-122.0472040">
    <ele>141.9</ele>
    <time>2022-02-02T23:16:07Z</time>
   </trkpt>
   <trkpt lat="47.3815930" lon="-122.0472040">
    <ele>141.8</ele>
    <time>2022-02-02T23:16:08Z</time>
   </trkpt>
   <trkpt lat="47.3816030" lon="-122.0472010">
    <ele>141.8</ele>
    <time>2022-02-02T23:16:09Z</time>
   </trkpt>
   <trkpt lat="47.3816080" lon="-122.0471910">
    <ele>141.8</ele>
    <time>2022-02-02T23:16:10Z</time>
   </trkpt>
   <trkpt lat="47.3816060" lon="-122.0471790">
    <ele>141.8</ele>
    <time>2022-02-02T23:16:11Z</time>
   </trkpt>
   <trkpt lat="47.3816080" lon="-122.0471630">
    <ele>141.8</ele>
    <time>2022-02-02T23:16:12Z</time>
   </trkpt>
   <trkpt lat="47.3815980" lon="-122.0471590">
    <ele>141.8</ele>
    <time>2022-02-02T23:16:13Z</time>
   </trkpt>
   <trkpt lat="47.3815930" lon="-122.0471480">
    <ele>141.8</ele>
    <time>2022-02-02T23:16:14Z</time>
   </trkpt>
   <trkpt lat="47.3815870" lon="-122.0471400">
    <ele>141.8</ele>
    <time>2022-02-02T23:16:15Z</time>
   </trkpt>
   <trkpt lat="47.3815850" lon="-122.0471320">
    <ele>141.8</ele>
    <time>2022-02-02T23:16:16Z</time>
   </trkpt>
   <trkpt lat="47.3815810" lon="-122.0471130">
    <ele>141.8</ele>
    <time>2022-02-02T23:16:17Z</time>
   </trkpt>
   <trkpt lat="47.3815780" lon="-122.0471010">
    <ele>141.8</ele>
    <time>2022-02-02T23:16:18Z</time>
   </trkpt>
   <trkpt lat="47.3815720" lon="-122.0470870">
    <ele>141.8</ele>
    <time>2022-02-02T23:16:19Z</time>
   </trkpt>
   <trkpt lat="47.3815630" lon="-122.0470600">
    <ele>141.9</ele>
    <time>2022-02-02T23:16:20Z</time>
   </trkpt>
   <trkpt lat="47.3815590" lon="-122.0470500">
    <ele>141.9</ele>
    <time>2022-02-02T23:16:21Z</time>
   </trkpt>
   <trkpt lat="47.3815550" lon="-122.0470390">
    <ele>141.9</ele>
    <time>2022-02-02T23:16:22Z</time>
   </trkpt>
   <trkpt lat="47.3815540" lon="-122.0470200">
    <ele>141.9</ele>
    <time>2022-02-02T23:16:23Z</time>
   </trkpt>
   <trkpt lat="47.3815530" lon="-122.0469970">
    <ele>141.9</ele>
    <time>2022-02-02T23:16:24Z</time>
   </trkpt>
   <trkpt lat="47.3815430" lon="-122.0469800">
    <ele>141.9</ele>
    <time>2022-02-02T23:16:25Z</time>
   </trkpt>
   <trkpt lat="47.3815370" lon="-122.0469590">
    <ele>142.0</ele>
    <time>2022-02-02T23:16:26Z</time>
   </trkpt>
   <trkpt lat="47.3815260" lon="-122.0469310">
    <ele>142.0</ele>
    <time>2022-02-02T23:16:27Z</time>
   </trkpt>
   <trkpt lat="47.3815210" lon="-122.0469200">
    <ele>142.0</ele>
    <time>2022-02-02T23:16:28Z</time>
   </trkpt>
   <trkpt lat="47.3815160" lon="-122.0469090">
    <ele>142.0</ele>
    <time>2022-02-02T23:16:29Z</time>
   </trkpt>
   <trkpt lat="47.3815030" lon="-122.0468850">
    <ele>142.1</ele>
    <time>2022-02-02T23:16:30Z</time>
   </trkpt>
   <trkpt lat="47.3814950" lon="-122.0468750">
    <ele>142.1</ele>
    <time>2022-02-02T23:16:31Z</time>
   </trkpt>
   <trkpt lat="47.3814860" lon="-122.0468650">
    <ele>142.1</ele>
    <time>2022-02-02T23:16:32Z</time>
   </trkpt>
   <trkpt lat="47.3814760" lon="-122.0468380">
    <ele>142.1</ele>
    <time>2022-02-02T23:16:33Z</time>
   </trkpt>
   <trkpt lat="47.3814730" lon="-122.0468250">
    <ele>142.1</ele>
    <time>2022-02-02T23:16:34Z</time>
   </trkpt>
   <trkpt lat="47.3814690" lon="-122.0468130">
    <ele>142.1</ele>
    <time>2022-02-02T23:16:35Z</time>
   </trkpt>
   <trkpt lat="47.3814590" lon="-122.0467960">
    <ele>142.2</ele>
    <time>2022-02-02T23:16:36Z</time>
   </trkpt>
   <trkpt lat="47.3814580" lon="-122.0467810">
    <ele>142.2</ele>
    <time>2022-02-02T23:16:37Z</time>
   </trkpt>
   <trkpt lat="47.3814530" lon="-122.0467720">
    <ele>142.2</ele>
    <time>2022-02-02T23:16:38Z</time>
   </trkpt>
   <trkpt lat="47.3814510" lon="-122.0467640">
    <ele>142.2</ele>
    <time>2022-02-02T23:16:39Z</time>
   </trkpt>
   <trkpt lat="47.3814470" lon="-122.0467520">
    <ele>142.2</ele>
    <time>2022-02-02T23:16:40Z</time>
   </trkpt>
   <trkpt lat="47.3814350" lon="-122.0467310">
    <ele>142.2</ele>
    <time>2022-02-02T23:16:41Z</time>
   </trkpt>
   <trkpt lat="47.3814280" lon="-122.0467150">
    <ele>142.2</ele>
    <time>2022-02-02T23:16:42Z</time>
   </trkpt>
   <trkpt lat="47.3814210" lon="-122.0467020">
    <ele>142.3</ele>
    <time>2022-02-02T23:16:43Z</time>
   </trkpt>
   <trkpt lat="47.3814160" lon="-122.0466900">
    <ele>142.3</ele>
    <time>2022-02-02T23:16:44Z</time>
   </trkpt>
   <trkpt lat="47.3814100" lon="-122.0466750">
    <ele>142.3</ele>
    <time>2022-02-02T23:16:45Z</time>
   </trkpt>
   <trkpt lat="47.3814070" lon="-122.0466650">
    <ele>142.3</ele>
    <time>2022-02-02T23:16:46Z</time>
   </trkpt>
   <trkpt lat="47.3813970" lon="-122.0466470">
    <ele>142.3</ele>
    <time>2022-02-02T23:16:47Z</time>
   </trkpt>
   <trkpt lat="47.3813870" lon="-122.0466200">
    <ele>142.3</ele>
    <time>2022-02-02T23:16:48Z</time>
   </trkpt>
   <trkpt lat="47.3813830" lon="-122.0466100">
    <ele>142.3</ele>
    <time>2022-02-02T23:16:49Z</time>
   </trkpt>
   <trkpt lat="47.3813780" lon="-122.0465990">
    <ele>142.4</ele>
    <time>2022-02-02T23:16:50Z</time>
   </trkpt>
   <trkpt lat="47.3813650" lon="-122.0465840">
    <ele>142.4</ele>
    <time>2022-02-02T23:16:51Z</time>
   </trkpt>
   <trkpt lat="47.3813640" lon="-122.0465650">
    <ele>142.4</ele>
    <time>2022-02-02T23:16:52Z</time>
   </trkpt>
   <trkpt lat="47.3813570" lon="-122.0465440">
    <ele>142.4</ele>
    <time>2022-02-02T23:16:53Z</time>
   </trkpt>
   <trkpt lat="47.3813500" lon="-122.0465280">
    <ele>142.4</ele>
    <time>2022-02-02T23:16:54Z</time>
   </trkpt>
   <trkpt lat="47.3813440" lon="-122.0465110">
    <ele>142.4</ele>
    <time>2022-02-02T23:16:55Z</time>
   </trkpt>
   <trkpt lat="47.3813370" lon="-122.0464930">
    <ele>142.4</ele>
    <time>2022-02-02T23:16:56Z</time>
   </trkpt>
   <trkpt lat="47.3813250" lon="-122.0464710">
    <ele>142.5</ele>
    <time>2022-02-02T23:16:57Z</time>
   </trkpt>
   <trkpt lat="47.3813200" lon="-122.0464580">
    <ele>142.5</ele>
    <time>2022-02-02T23:16:58Z</time>
   </trkpt>
   <trkpt lat="47.3813140" lon="-122.0464420">
    <ele>142.5</ele>
    <time>2022-02-02T23:16:59Z</time>
   </trkpt>
   <trkpt lat="47.3813050" lon="-122.0464310">
    <ele>142.5</ele>
    <time>2022-02-02T23:17:00Z</time>
   </trkpt>
   <trkpt lat="47.3813000" lon="-122.0464170">
    <ele>142.5</ele>
    <time>2022-02-02T23:17:01Z</time>
   </trkpt>
   <trkpt lat="47.3812960" lon="-122.0464000">
    <ele>142.5</ele>
    <time>2022-02-02T23:17:02Z</time>
   </trkpt>
   <trkpt lat="47.3812840" lon="-122.0463810">
    <ele>142.5</ele>
    <time>2022-02-02T23:17:03Z</time>
   </trkpt>
   <trkpt lat="47.3812760" lon="-122.0463620">
    <ele>142.6</ele>
    <time>2022-02-02T23:17:04Z</time>
   </trkpt>
   <trkpt lat="47.3812700" lon="-122.0463430">
    <ele>142.6</ele>
    <time>2022-02-02T23:17:05Z</time>
   </trkpt>
   <trkpt lat="47.3812680" lon="-122.0463270">
    <ele>142.6</ele>
    <time>2022-02-02T23:17:06Z</time>
   </trkpt>
   <trkpt lat="47.3812660" lon="-122.0463130">
    <ele>142.6</ele>
    <time>2022-02-02T23:17:07Z</time>
   </trkpt>
   <trkpt lat="47.3812580" lon="-122.0462990">
    <ele>142.6</ele>
    <time>2022-02-02T23:17:08Z</time>
   </trkpt>
   <trkpt lat="47.3812570" lon="-122.0462880">
    <ele>142.6</ele>
    <time>2022-02-02T23:17:09Z</time>
   </trkpt>
   <trkpt lat="47.3812460" lon="-122.0462680">
    <ele>142.6</ele>
    <time>2022-02-02T23:17:10Z</time>
   </trkpt>
   <trkpt lat="47.3812440" lon="-122.0462510">
    <ele>142.6</ele>
    <time>2022-02-02T23:17:11Z</time>
   </trkpt>
   <trkpt lat="47.3812380" lon="-122.0462310">
    <ele>142.6</ele>
    <time>2022-02-02T23:17:12Z</time>
   </trkpt>
   <trkpt lat="47.3812330" lon="-122.0462120">
    <ele>142.6</ele>
    <time>2022-02-02T23:17:13Z</time>
   </trkpt>
   <trkpt lat="47.3812330" lon="-122.0462030">
    <ele>142.6</ele>
    <time>2022-02-02T23:17:14Z</time>
   </trkpt>
   <trkpt lat="47.3812270" lon="-122.0461940">
    <ele>142.7</ele>
    <time>2022-02-02T23:17:15Z</time>
   </trkpt>
   <trkpt lat="47.3812260" lon="-122.0461670">
    <ele>142.7</ele>
    <time>2022-02-02T23:17:16Z</time>
   </trkpt>
   <trkpt lat="47.3812220" lon="-122.0461330">
    <ele>142.7</ele>
    <time>2022-02-02T23:17:17Z</time>
   </trkpt>
   <trkpt lat="47.3812220" lon="-122.0461220">
    <ele>142.7</ele>
    <time>2022-02-02T23:17:18Z</time>
   </trkpt>
   <trkpt lat="47.3812220" lon="-122.0461110">
    <ele>142.7</ele>
    <time>2022-02-02T23:17:19Z</time>
   </trkpt>
   <trkpt lat="47.3812100" lon="-122.0460840">
    <ele>142.7</ele>
    <time>2022-02-02T23:17:20Z</time>
   </trkpt>
   <trkpt lat="47.3812040" lon="-122.0460740">
    <ele>142.7</ele>
    <time>2022-02-02T23:17:21Z</time>
   </trkpt>
   <trkpt lat="47.3812000" lon="-122.0460670">
    <ele>142.7</ele>
    <time>2022-02-02T23:17:22Z</time>
   </trkpt>
   <trkpt lat="47.3811970" lon="-122.0460520">
    <ele>142.7</ele>
    <time>2022-02-02T23:17:23Z</time>
   </trkpt>
   <trkpt lat="47.3811970" lon="-122.0460330">
    <ele>142.8</ele>
    <time>2022-02-02T23:17:24Z</time>
   </trkpt>
   <trkpt lat="47.3811920" lon="-122.0460060">
    <ele>142.8</ele>
    <time>2022-02-02T23:17:25Z</time>
   </trkpt>
   <trkpt lat="47.3811880" lon="-122.0459920">
    <ele>142.8</ele>
    <time>2022-02-02T23:17:26Z</time>
   </trkpt>
   <trkpt lat="47.3811840" lon="-122.0459780">
    <ele>142.8</ele>
    <time>2022-02-02T23:17:27Z</time>
   </trkpt>
   <trkpt lat="47.3811750" lon="-122.0459560">
    <ele>142.8</ele>
    <time>2022-02-02T23:17:28Z</time>
   </trkpt>
   <trkpt lat="47.3811700" lon="-122.0459320">
    <ele>142.8</ele>
    <time>2022-02-02T23:17:29Z</time>
   </trkpt>
   <trkpt lat="47.3811640" lon="-122.0459000">
    <ele>142.9</ele>
    <time>2022-02-02T23:17:30Z</time>
   </trkpt>
   <trkpt lat="47.3811620" lon="-122.0458870">
    <ele>142.9</ele>
    <time>2022-02-02T23:17:31Z</time>
   </trkpt>
   <trkpt lat="47.3811590" lon="-122.0458740">
    <ele>142.9</ele>
    <time>2022-02-02T23:17:32Z</time>
   </trkpt>
   <trkpt lat="47.3811450" lon="-122.0458520">
    <ele>142.9</ele>
    <time>2022-02-02T23:17:33Z</time>
   </trkpt>
   <trkpt lat="47.3811400" lon="-122.0458400">
    <ele>142.9</ele>
    <time>2022-02-02T23:17:34Z</time>
   </trkpt>
   <trkpt lat="47.3811350" lon="-122.0458290">
    <ele>142.9</ele>
    <time>2022-02-02T23:17:35Z</time>
   </trkpt>
   <trkpt lat="47.3811330" lon="-122.0458090">
    <ele>143.0</ele>
    <time>2022-02-02T23:17:36Z</time>
   </trkpt>
   <trkpt lat="47.3811270" lon="-122.0457860">
    <ele>143.0</ele>
    <time>2022-02-02T23:17:37Z</time>
   </trkpt>
   <trkpt lat="47.3811260" lon="-122.0457700">
    <ele>143.0</ele>
    <time>2022-02-02T23:17:38Z</time>
   </trkpt>
   <trkpt lat="47.3811220" lon="-122.0457530">
    <ele>143.0</ele>
    <time>2022-02-02T23:17:39Z</time>
   </trkpt>
   <trkpt lat="47.3811270" lon="-122.0457350">
    <ele>143.0</ele>
    <time>2022-02-02T23:17:40Z</time>
   </trkpt>
   <trkpt lat="47.3811210" lon="-122.0457130">
    <ele>143.1</ele>
    <time>2022-02-02T23:17:41Z</time>
   </trkpt>
   <trkpt lat="47.3811200" lon="-122.0457110">
    <ele>143.1</ele>
    <time>2022-02-02T23:17:42Z</time>
   </trkpt>
   <trkpt lat="47.3811230" lon="-122.0456920">
    <ele>143.1</ele>
    <time>2022-02-02T23:17:43Z</time>
   </trkpt>
   <trkpt lat="47.3811140" lon="-122.0456510">
    <ele>143.1</ele>
    <time>2022-02-02T23:17:44Z</time>
   </trkpt>
   <trkpt lat="47.3811120" lon="-122.0456380">
    <ele>143.2</ele>
    <time>2022-02-02T23:17:45Z</time>
   </trkpt>
   <trkpt lat="47.3811130" lon="-122.0456140">
    <ele>143.2</ele>
    <time>2022-02-02T23:17:46Z</time>
   </trkpt>
   <trkpt lat="47.3811090" lon="-122.0455970">
    <ele>143.2</ele>
    <time>2022-02-02T23:17:47Z</time>
   </trkpt>
   <trkpt lat="47.3811000" lon="-122.0455770">
    <ele>143.2</ele>
    <time>2022-02-02T23:17:48Z</time>
   </trkpt>
   <trkpt lat="47.3810950" lon="-122.0455590">
    <ele>143.2</ele>
    <time>2022-02-02T23:17:49Z</time>
   </trkpt>
   <trkpt lat="47.3810890" lon="-122.0455460">
    <ele>143.3</ele>
    <time>2022-02-02T23:17:50Z</time>
   </trkpt>
   <trkpt lat="47.3810830" lon="-122.0455350">
    <ele>143.3</ele>
    <time>2022-02-02T23:17:51Z</time>
   </trkpt>
   <trkpt lat="47.3810780" lon="-122.0455190">
    <ele>143.3</ele>
    <time>2022-02-02T23:17:52Z</time>
   </trkpt>
   <trkpt lat="47.3810730" lon="-122.0454900">
    <ele>143.3</ele>
    <time>2022-02-02T23:17:53Z</time>
   </trkpt>
   <trkpt lat="47.3810710" lon="-122.0454780">
    <ele>143.3</ele>
    <time>2022-02-02T23:17:54Z</time>
   </trkpt>
   <trkpt lat="47.3810700" lon="-122.0454660">
    <ele>143.3</ele>
    <time>2022-02-02T23:17:55Z</time>
   </trkpt>
   <trkpt lat="47.3810680" lon="-122.0454450">
    <ele>143.4</ele>
    <time>2022-02-02T23:17:56Z</time>
   </trkpt>
   <trkpt lat="47.3810720" lon="-122.0454230">
    <ele>143.4</ele>
    <time>2022-02-02T23:17:57Z</time>
   </trkpt>
   <trkpt lat="47.3810730" lon="-122.0453920">
    <ele>143.4</ele>
    <time>2022-02-02T23:17:58Z</time>
   </trkpt>
   <trkpt lat="47.3810700" lon="-122.0453810">
    <ele>143.4</ele>
    <time>2022-02-02T23:17:59Z</time>
   </trkpt>
   <trkpt lat="47.3810680" lon="-122.0453700">
    <ele>143.4</ele>
    <time>2022-02-02T23:18:00Z</time>
   </trkpt>
   <trkpt lat="47.3810690" lon="-122.0453480">
    <ele>143.4</ele>
    <time>2022-02-02T23:18:01Z</time>
   </trkpt>
   <trkpt lat="47.3810600" lon="-122.0453390">
    <ele>143.5</ele>
    <time>2022-02-02T23:18:02Z</time>
   </trkpt>
   <trkpt lat="47.3810540" lon="-122.0453210">
    <ele>143.5</ele>
    <time>2022-02-02T23:18:03Z</time>
   </trkpt>
   <trkpt lat="47.3810560" lon="-122.0452970">
    <ele>143.5</ele>
    <time>2022-02-02T23:18:04Z</time>
   </trkpt>
   <trkpt lat="47.3810540" lon="-122.0452740">
    <ele>143.5</ele>
    <time>2022-02-02T23:18:05Z</time>
   </trkpt>
   <trkpt lat="47.3810510" lon="-122.0452510">
    <ele>143.5</ele>
    <time>2022-02-02T23:18:06Z</time>
   </trkpt>
   <trkpt lat="47.3810470" lon="-122.0452310">
    <ele>143.5</ele>
    <time>2022-02-02T23:18:07Z</time>
   </trkpt>
   <trkpt lat="47.3810450" lon="-122.0452140">
    <ele>143.6</ele>
    <time>2022-02-02T23:18:08Z</time>
   </trkpt>
   <trkpt lat="47.3810400" lon="-122.0452020">
    <ele>143.6</ele>
    <time>2022-02-02T23:18:09Z</time>
   </trkpt>
   <trkpt lat="47.3810390" lon="-122.0451860">
    <ele>143.6</ele>
    <time>2022-02-02T23:18:10Z</time>
   </trkpt>
   <trkpt lat="47.3810300" lon="-122.0451670">
    <ele>143.6</ele>
    <time>2022-02-02T23:18:11Z</time>
   </trkpt>
   <trkpt lat="47.3810230" lon="-122.0451470">
    <ele>143.6</ele>
    <time>2022-02-02T23:18:12Z</time>
   </trkpt>
   <trkpt lat="47.3810110" lon="-122.0451230">
    <ele>143.6</ele>
    <time>2022-02-02T23:18:13Z</time>
   </trkpt>
   <trkpt lat="47.3810030" lon="-122.0451120">
    <ele>143.7</ele>
    <time>2022-02-02T23:18:14Z</time>
   </trkpt>
   <trkpt lat="47.3810020" lon="-122.0450830">
    <ele>143.7</ele>
    <time>2022-02-02T23:18:15Z</time>
   </trkpt>
   <trkpt lat="47.3810020" lon="-122.0450700">
    <ele>143.7</ele>
    <time>2022-02-02T23:18:16Z</time>
   </trkpt>
   <trkpt lat="47.3809980" lon="-122.0450420">
    <ele>143.7</ele>
    <time>2022-02-02T23:18:17Z</time>
   </trkpt>
   <trkpt lat="47.3809980" lon="-122.0450250">
    <ele>143.7</ele>
    <time>2022-02-02T23:18:18Z</time>
   </trkpt>
   <trkpt lat="47.3810010" lon="-122.0450060">
    <ele>143.7</ele>
    <time>2022-02-02T23:18:19Z</time>
   </trkpt>
   <trkpt lat="47.3809970" lon="-122.0449970">
    <ele>143.8</ele>
    <time>2022-02-02T23:18:20Z</time>
   </trkpt>
   <trkpt lat="47.3809950" lon="-122.0449830">
    <ele>143.8</ele>
    <time>2022-02-02T23:18:21Z</time>
   </trkpt>
   <trkpt lat="47.3809940" lon="-122.0449670">
    <ele>143.8</ele>
    <time>2022-02-02T23:18:22Z</time>
   </trkpt>
   <trkpt lat="47.3809920" lon="-122.0449500">
    <ele>143.8</ele>
    <time>2022-02-02T23:18:23Z</time>
   </trkpt>
   <trkpt lat="47.3809890" lon="-122.0449320">
    <ele>143.8</ele>
    <time>2022-02-02T23:18:24Z</time>
   </trkpt>
   <trkpt lat="47.3809880" lon="-122.0448920">
    <ele>143.8</ele>
    <time>2022-02-02T23:18:25Z</time>
   </trkpt>
   <trkpt lat="47.3809850" lon="-122.0448790">
    <ele>143.9</ele>
    <time>2022-02-02T23:18:26Z</time>
   </trkpt>
   <trkpt lat="47.3809790" lon="-122.0448630">
    <ele>143.9</ele>
    <time>2022-02-02T23:18:27Z</time>
   </trkpt>
   <trkpt lat="47.3809780" lon="-122.0448480">
    <ele>143.9</ele>
    <time>2022-02-02T23:18:28Z</time>
   </trkpt>
   <trkpt lat="47.3809750" lon="-122.0448310">
    <ele>143.9</ele>
    <time>2022-02-02T23:18:29Z</time>
   </trkpt>
   <trkpt lat="47.3809770" lon="-122.0448090">
    <ele>143.9</ele>
    <time>2022-02-02T23:18:30Z</time>
   </trkpt>
   <trkpt lat="47.3809720" lon="-122.0447950">
    <ele>143.9</ele>
    <time>2022-02-02T23:18:31Z</time>
   </trkpt>
   <trkpt lat="47.3809690" lon="-122.0447800">
    <ele>143.9</ele>
    <time>2022-02-02T23:18:32Z</time>
   </trkpt>
   <trkpt lat="47.3809660" lon="-122.0447540">
    <ele>144.0</ele>
    <time>2022-02-02T23:18:33Z</time>
   </trkpt>
   <trkpt lat="47.3809660" lon="-122.0447400">
    <ele>144.0</ele>
    <time>2022-02-02T23:18:34Z</time>
   </trkpt>
   <trkpt lat="47.3809660" lon="-122.0447260">
    <ele>144.0</ele>
    <time>2022-02-02T23:18:35Z</time>
   </trkpt>
   <trkpt lat="47.3809540" lon="-122.0446980">
    <ele>144.0</ele>
    <time>2022-02-02T23:18:36Z</time>
   </trkpt>
   <trkpt lat="47.3809570" lon="-122.0446770">
    <ele>144.0</ele>
    <time>2022-02-02T23:18:37Z</time>
   </trkpt>
   <trkpt lat="47.3809540" lon="-122.0446520">
    <ele>144.1</ele>
    <time>2022-02-02T23:18:38Z</time>
   </trkpt>
   <trkpt lat="47.3809520" lon="-122.0446360">
    <ele>144.1</ele>
    <time>2022-02-02T23:18:39Z</time>
   </trkpt>
   <trkpt lat="47.3809530" lon="-122.0446170">
    <ele>144.1</ele>
    <time>2022-02-02T23:18:40Z</time>
   </trkpt>
   <trkpt lat="47.3809510" lon="-122.0445870">
    <ele>144.1</ele>
    <time>2022-02-02T23:18:41Z</time>
   </trkpt>
   <trkpt lat="47.3809450" lon="-122.0445570">
    <ele>144.1</ele>
    <time>2022-02-02T23:18:42Z</time>
   </trkpt>
   <trkpt lat="47.3809440" lon="-122.0445390">
    <ele>144.2</ele>
    <time>2022-02-02T23:18:43Z</time>
   </trkpt>
   <trkpt lat="47.3809440" lon="-122.0445010">
    <ele>144.2</ele>
    <time>2022-02-02T23:18:44Z</time>
   </trkpt>
   <trkpt lat="47.3809440" lon="-122.0444830">
    <ele>144.2</ele>
    <time>2022-02-02T23:18:45Z</time>
   </trkpt>
   <trkpt lat="47.3809400" lon="-122.0444670">
    <ele>144.2</ele>
    <time>2022-02-02T23:18:46Z</time>
   </trkpt>
   <trkpt lat="47.3809430" lon="-122.0444410">
    <ele>144.2</ele>
    <time>2022-02-02T23:18:47Z</time>
   </trkpt>
   <trkpt lat="47.3809480" lon="-122.0444140">
    <ele>144.3</ele>
    <time>2022-02-02T23:18:48Z</time>
   </trkpt>
   <trkpt lat="47.3809480" lon="-122.0443940">
    <ele>144.3</ele>
    <time>2022-02-02T23:18:49Z</time>
   </trkpt>
   <trkpt lat="47.3809450" lon="-122.0443740">
    <ele>144.3</ele>
    <time>2022-02-02T23:18:50Z</time>
   </trkpt>
   <trkpt lat="47.3809400" lon="-122.0443540">
    <ele>144.3</ele>
    <time>2022-02-02T23:18:51Z</time>
   </trkpt>
   <trkpt lat="47.3809420" lon="-122.0443230">
    <ele>144.4</ele>
    <time>2022-02-02T23:18:52Z</time>
   </trkpt>
   <trkpt lat="47.3809420" lon="-122.0443110">
    <ele>144.4</ele>
    <time>2022-02-02T23:18:53Z</time>
   </trkpt>
   <trkpt lat="47.3809420" lon="-122.0443000">
    <ele>144.4</ele>
    <time>2022-02-02T23:18:54Z</time>
   </trkpt>
   <trkpt lat="47.3809450" lon="-122.0442820">
    <ele>144.4</ele>
    <time>2022-02-02T23:18:55Z</time>
   </trkpt>
   <trkpt lat="47.3809450" lon="-122.0442620">
    <ele>144.5</ele>
    <time>2022-02-02T23:18:56Z</time>
   </trkpt>
   <trkpt lat="47.3809470" lon="-122.0442510">
    <ele>144.5</ele>
    <time>2022-02-02T23:18:57Z</time>
   </trkpt>
   <trkpt lat="47.3809500" lon="-122.0442350">
    <ele>144.5</ele>
    <time>2022-02-02T23:18:58Z</time>
   </trkpt>
   <trkpt lat="47.3809520" lon="-122.0442250">
    <ele>144.5</ele>
    <time>2022-02-02T23:18:59Z</time>
   </trkpt>
   <trkpt lat="47.3809560" lon="-122.0442050">
    <ele>144.5</ele>
    <time>2022-02-02T23:19:00Z</time>
   </trkpt>
   <trkpt lat="47.3809560" lon="-122.0442000">
    <ele>144.5</ele>
    <time>2022-02-02T23:19:01Z</time>
   </trkpt>
   <trkpt lat="47.3809500" lon="-122.0441770">
    <ele>144.6</ele>
    <time>2022-02-02T23:19:02Z</time>
   </trkpt>
   <trkpt lat="47.3809480" lon="-122.0441550">
    <ele>144.6</ele>
    <time>2022-02-02T23:19:03Z</time>
   </trkpt>
   <trkpt lat="47.3809510" lon="-122.0441300">
    <ele>144.6</ele>
    <time>2022-02-02T23:19:04Z</time>
   </trkpt>
   <trkpt lat="47.3809540" lon="-122.0441090">
    <ele>144.6</ele>
    <time>2022-02-02T23:19:05Z</time>
   </trkpt>
   <trkpt lat="47.3809520" lon="-122.0440770">
    <ele>144.7</ele>
    <time>2022-02-02T23:19:06Z</time>
   </trkpt>
   <trkpt lat="47.3809490" lon="-122.0440650">
    <ele>144.7</ele>
    <time>2022-02-02T23:19:07Z</time>
   </trkpt>
   <trkpt lat="47.3809460" lon="-122.0440520">
    <ele>144.7</ele>
    <time>2022-02-02T23:19:08Z</time>
   </trkpt>
   <trkpt lat="47.3809460" lon="-122.0440380">
    <ele>144.7</ele>
    <time>2022-02-02T23:19:09Z</time>
   </trkpt>
   <trkpt lat="47.3809460" lon="-122.0440230">
    <ele>144.7</ele>
    <time>2022-02-02T23:19:10Z</time>
   </trkpt>
   <trkpt lat="47.3809470" lon="-122.0440060">
    <ele>144.7</ele>
    <time>2022-02-02T23:19:11Z</time>
   </trkpt>
   <trkpt lat="47.3809450" lon="-122.0439870">
    <ele>144.7</ele>
    <time>2022-02-02T23:19:12Z</time>
   </trkpt>
   <trkpt lat="47.3809420" lon="-122.0439640">
    <ele>144.8</ele>
    <time>2022-02-02T23:19:13Z</time>
   </trkpt>
   <trkpt lat="47.3809430" lon="-122.0439320">
    <ele>144.8</ele>
    <time>2022-02-02T23:19:14Z</time>
   </trkpt>
   <trkpt lat="47.3809440" lon="-122.0439180">
    <ele>144.8</ele>
    <time>2022-02-02T23:19:15Z</time>
   </trkpt>
   <trkpt lat="47.3809460" lon="-122.0439030">
    <ele>144.8</ele>
    <time>2022-02-02T23:19:16Z</time>
   </trkpt>
   <trkpt lat="47.3809480" lon="-122.0438890">
    <ele>144.8</ele>
    <time>2022-02-02T23:19:17Z</time>
   </trkpt>
   <trkpt lat="47.3809510" lon="-122.0438740">
    <ele>144.8</ele>
    <time>2022-02-02T23:19:18Z</time>
   </trkpt>
   <trkpt lat="47.3809550" lon="-122.0438590">
    <ele>144.9</ele>
    <time>2022-02-02T23:19:19Z</time>
   </trkpt>
   <trkpt lat="47.3809610" lon="-122.0438500">
    <ele>144.9</ele>
    <time>2022-02-02T23:19:20Z</time>
   </trkpt>
   <trkpt lat="47.3809600" lon="-122.0438340">
    <ele>144.9</ele>
    <time>2022-02-02T23:19:21Z</time>
   </trkpt>
   <trkpt lat="47.3809600" lon="-122.0438260">
    <ele>144.9</ele>
    <time>2022-02-02T23:19:22Z</time>
   </trkpt>
   <trkpt lat="47.3809540" lon="-122.0438140">
    <ele>144.9</ele>
    <time>2022-02-02T23:19:23Z</time>
   </trkpt>
   <trkpt lat="47.3809480" lon="-122.0437940">
    <ele>144.9</ele>
    <time>2022-02-02T23:19:24Z</time>
   </trkpt>
   <trkpt lat="47.3809440" lon="-122.0437740">
    <ele>144.9</ele>
    <time>2022-02-02T23:19:25Z</time>
   </trkpt>
   <trkpt lat="47.3809450" lon="-122.0437440">
    <ele>145.0</ele>
    <time>2022-02-02T23:19:26Z</time>
   </trkpt>
   <trkpt lat="47.3809440" lon="-122.0437290">
    <ele>145.0</ele>
    <time>2022-02-02T23:19:27Z</time>
   </trkpt>
   <trkpt lat="47.3809440" lon="-122.0437130">
    <ele>145.0</ele>
    <time>2022-02-02T23:19:28Z</time>
   </trkpt>
   <trkpt lat="47.3809440" lon="-122.0436860">
    <ele>145.0</ele>
    <time>2022-02-02T23:19:29Z</time>
   </trkpt>
   <trkpt lat="47.3809450" lon="-122.0436720">
    <ele>145.0</ele>
    <time>2022-02-02T23:19:30Z</time>
   </trkpt>
   <trkpt lat="47.3809450" lon="-122.0436570">
    <ele>145.0</ele>
    <time>2022-02-02T23:19:31Z</time>
   </trkpt>
   <trkpt lat="47.3809440" lon="-122.0436410">
    <ele>145.0</ele>
    <time>2022-02-02T23:19:32Z</time>
   </trkpt>
   <trkpt lat="47.3809430" lon="-122.0436310">
    <ele>145.1</ele>
    <time>2022-02-02T23:19:33Z</time>
   </trkpt>
   <trkpt lat="47.3809380" lon="-122.0436080">
    <ele>145.1</ele>
    <time>2022-02-02T23:19:34Z</time>
   </trkpt>
   <trkpt lat="47.3809370" lon="-122.0435860">
    <ele>145.1</ele>
    <time>2022-02-02T23:19:35Z</time>
   </trkpt>
   <trkpt lat="47.3809380" lon="-122.0435640">
    <ele>145.1</ele>
    <time>2022-02-02T23:19:36Z</time>
   </trkpt>
   <trkpt lat="47.3809420" lon="-122.0435340">
    <ele>145.1</ele>
    <time>2022-02-02T23:19:37Z</time>
   </trkpt>
   <trkpt lat="47.3809400" lon="-122.0435200">
    <ele>145.1</ele>
    <time>2022-02-02T23:19:38Z</time>
   </trkpt>
   <trkpt lat="47.3809390" lon="-122.0435060">
    <ele>145.2</ele>
    <time>2022-02-02T23:19:39Z</time>
   </trkpt>
   <trkpt lat="47.3809460" lon="-122.0434900">
    <ele>145.2</ele>
    <time>2022-02-02T23:19:40Z</time>
   </trkpt>
   <trkpt lat="47.3809440" lon="-122.0434630">
    <ele>145.2</ele>
    <time>2022-02-02T23:19:41Z</time>
   </trkpt>
   <trkpt lat="47.3809470" lon="-122.0434270">
    <ele>145.2</ele>
    <time>2022-02-02T23:19:42Z</time>
   </trkpt>
   <trkpt lat="47.3809480" lon="-122.0434140">
    <ele>145.2</ele>
    <time>2022-02-02T23:19:43Z</time>
   </trkpt>
   <trkpt lat="47.3809500" lon="-122.0434010">
    <ele>145.3</ele>
    <time>2022-02-02T23:19:44Z</time>
   </trkpt>
   <trkpt lat="47.3809480" lon="-122.0433680">
    <ele>145.3</ele>
    <time>2022-02-02T23:19:45Z</time>
   </trkpt>
   <trkpt lat="47.3809450" lon="-122.0433530">
    <ele>145.3</ele>
    <time>2022-02-02T23:19:46Z</time>
   </trkpt>
   <trkpt lat="47.3809420" lon="-122.0433380">
    <ele>145.3</ele>
    <time>2022-02-02T23:19:47Z</time>
   </trkpt>
   <trkpt lat="47.3809410" lon="-122.0433160">
    <ele>145.3</ele>
    <time>2022-02-02T23:19:48Z</time>
   </trkpt>
   <trkpt lat="47.3809350" lon="-122.0432890">
    <ele>145.4</ele>
    <time>2022-02-02T23:19:49Z</time>
   </trkpt>
   <trkpt lat="47.3809330" lon="-122.0432700">
    <ele>145.4</ele>
    <time>2022-02-02T23:19:50Z</time>
   </trkpt>
   <trkpt lat="47.3809330" lon="-122.0432360">
    <ele>145.4</ele>
    <time>2022-02-02T23:19:51Z</time>
   </trkpt>
   <trkpt lat="47.3809310" lon="-122.0432150">
    <ele>145.4</ele>
    <time>2022-02-02T23:19:52Z</time>
   </trkpt>
   <trkpt lat="47.3809280" lon="-122.0432030">
    <ele>145.4</ele>
    <time>2022-02-02T23:19:53Z</time>
   </trkpt>
   <trkpt lat="47.3809220" lon="-122.0431870">
    <ele>145.4</ele>
    <time>2022-02-02T23:19:54Z</time>
   </trkpt>
   <trkpt lat="47.3809170" lon="-122.0431550">
    <ele>145.5</ele>
    <time>2022-02-02T23:19:55Z</time>
   </trkpt>
   <trkpt lat="47.3809170" lon="-122.0431400">
    <ele>145.5</ele>
    <time>2022-02-02T23:19:56Z</time>
   </trkpt>
   <trkpt lat="47.3809160" lon="-122.0431240">
    <ele>145.5</ele>
    <time>2022-02-02T23:19:57Z</time>
   </trkpt>
   <trkpt lat="47.3809210" lon="-122.0431100">
    <ele>145.5</ele>
    <time>2022-02-02T23:19:58Z</time>
   </trkpt>
   <trkpt lat="47.3809220" lon="-122.0431010">
    <ele>145.5</ele>
    <time>2022-02-02T23:19:59Z</time>
   </trkpt>
   <trkpt lat="47.3809240" lon="-122.0430870">
    <ele>145.5</ele>
    <time>2022-02-02T23:20:00Z</time>
   </trkpt>
   <trkpt lat="47.3809350" lon="-122.0430630">
    <ele>145.5</ele>
    <time>2022-02-02T23:20:01Z</time>
   </trkpt>
   <trkpt lat="47.3809400" lon="-122.0430530">
    <ele>145.5</ele>
    <time>2022-02-02T23:20:02Z</time>
   </trkpt>
   <trkpt lat="47.3809450" lon="-122.0430330">
    <ele>145.5</ele>
    <time>2022-02-02T23:20:03Z</time>
   </trkpt>
   <trkpt lat="47.3809440" lon="-122.0430010">
    <ele>145.5</ele>
    <time>2022-02-02T23:20:04Z</time>
   </trkpt>
   <trkpt lat="47.3809440" lon="-122.0429760">
    <ele>145.5</ele>
    <time>2022-02-02T23:20:05Z</time>
   </trkpt>
   <trkpt lat="47.3809450" lon="-122.0429560">
    <ele>145.5</ele>
    <time>2022-02-02T23:20:06Z</time>
   </trkpt>
   <trkpt lat="47.3809460" lon="-122.0429330">
    <ele>145.5</ele>
    <time>2022-02-02T23:20:07Z</time>
   </trkpt>
   <trkpt lat="47.3809470" lon="-122.0429130">
    <ele>145.6</ele>
    <time>2022-02-02T23:20:08Z</time>
   </trkpt>
   <trkpt lat="47.3809450" lon="-122.0428970">
    <ele>145.6</ele>
    <time>2022-02-02T23:20:09Z</time>
   </trkpt>
   <trkpt lat="47.3809470" lon="-122.0428690">
    <ele>145.6</ele>
    <time>2022-02-02T23:20:10Z</time>
   </trkpt>
   <trkpt lat="47.3809410" lon="-122.0428340">
    <ele>145.6</ele>
    <time>2022-02-02T23:20:11Z</time>
   </trkpt>
   <trkpt lat="47.3809420" lon="-122.0428220">
    <ele>145.6</ele>
    <time>2022-02-02T23:20:12Z</time>
   </trkpt>
   <trkpt lat="47.3809430" lon="-122.0428100">
    <ele>145.6</ele>
    <time>2022-02-02T23:20:13Z</time>
   </trkpt>
   <trkpt lat="47.3809360" lon="-122.0427860">
    <ele>145.6</ele>
    <time>2022-02-02T23:20:14Z</time>
   </trkpt>
   <trkpt lat="47.3809370" lon="-122.0427600">
    <ele>145.6</ele>
    <time>2022-02-02T23:20:15Z</time>
   </trkpt>
   <trkpt lat="47.3809370" lon="-122.0427350">
    <ele>145.6</ele>
    <time>2022-02-02T23:20:16Z</time>
   </trkpt>
   <trkpt lat="47.3809400" lon="-122.0427150">
    <ele>145.6</ele>
    <time>2022-02-02T23:20:17Z</time>
   </trkpt>
   <trkpt lat="47.3809390" lon="-122.0426940">
    <ele>145.6</ele>
    <time>2022-02-02T23:20:18Z</time>
   </trkpt>
   <trkpt lat="47.3809410" lon="-122.0426710">
    <ele>145.7</ele>
    <time>2022-02-02T23:20:19Z</time>
   </trkpt>
   <trkpt lat="47.3809420" lon="-122.0426550">
    <ele>145.7</ele>
    <time>2022-02-02T23:20:20Z</time>
   </trkpt>
   <trkpt lat="47.3809460" lon="-122.0426290">
    <ele>145.7</ele>
    <time>2022-02-02T23:20:21Z</time>
   </trkpt>
   <trkpt lat="47.3809470" lon="-122.0426090">
    <ele>145.7</ele>
    <time>2022-02-02T23:20:22Z</time>
   </trkpt>
   <trkpt lat="47.3809490" lon="-122.0425860">
    <ele>145.7</ele>
    <time>2022-02-02T23:20:23Z</time>
   </trkpt>
   <trkpt lat="47.3809420" lon="-122.0425670">
    <ele>145.7</ele>
    <time>2022-02-02T23:20:24Z</time>
   </trkpt>
   <trkpt lat="47.3809350" lon="-122.0425550">
    <ele>145.7</ele>
    <time>2022-02-02T23:20:25Z</time>
   </trkpt>
   <trkpt lat="47.3809350" lon="-122.0425400">
    <ele>145.7</ele>
    <time>2022-02-02T23:20:26Z</time>
   </trkpt>
   <trkpt lat="47.3809300" lon="-122.0425290">
    <ele>145.7</ele>
    <time>2022-02-02T23:20:27Z</time>
   </trkpt>
   <trkpt lat="47.3809200" lon="-122.0425230">
    <ele>145.7</ele>
    <time>2022-02-02T23:20:28Z</time>
   </trkpt>
   <trkpt lat="47.3809120" lon="-122.0425060">
    <ele>145.7</ele>
    <time>2022-02-02T23:20:29Z</time>
   </trkpt>
   <trkpt lat="47.3808970" lon="-122.0424970">
    <ele>145.7</ele>
    <time>2022-02-02T23:20:30Z</time>
   </trkpt>
   <trkpt lat="47.3808810" lon="-122.0424910">
    <ele>145.6</ele>
    <time>2022-02-02T23:20:31Z</time>
   </trkpt>
   <trkpt lat="47.3808670" lon="-122.0424860">
    <ele>145.4</ele>
    <time>2022-02-02T23:20:32Z</time>
   </trkpt>
   <trkpt lat="47.3808590" lon="-122.0424820">
    <ele>145.4</ele>
    <time>2022-02-02T23:20:33Z</time>
   </trkpt>
   <trkpt lat="47.3808520" lon="-122.0424810">
    <ele>145.3</ele>
    <time>2022-02-02T23:20:34Z</time>
   </trkpt>
   <trkpt lat="47.3808380" lon="-122.0424770">
    <ele>145.2</ele>
    <time>2022-02-02T23:20:35Z</time>
   </trkpt>
   <trkpt lat="47.3808290" lon="-122.0424740">
    <ele>145.1</ele>
    <time>2022-02-02T23:20:36Z</time>
   </trkpt>
   <trkpt lat="47.3808190" lon="-122.0424710">
    <ele>145.0</ele>
    <time>2022-02-02T23:20:37Z</time>
   </trkpt>
   <trkpt lat="47.3808100" lon="-122.0424690">
    <ele>144.9</ele>
    <time>2022-02-02T23:20:38Z</time>
   </trkpt>
   <trkpt lat="47.3808030" lon="-122.0424650">
    <ele>144.8</ele>
    <time>2022-02-02T23:20:39Z</time>
   </trkpt>
   <trkpt lat="47.3807920" lon="-122.0424680">
    <ele>144.7</ele>
    <time>2022-02-02T23:20:40Z</time>
   </trkpt>
   <trkpt lat="47.3807750" lon="-122.0424680">
    <ele>144.5</ele>
    <time>2022-02-02T23:20:41Z</time>
   </trkpt>
   <trkpt lat="47.3807540" lon="-122.0424730">
    <ele>144.3</ele>
    <time>2022-02-02T23:20:42Z</time>
   </trkpt>
   <trkpt lat="47.3807430" lon="-122.0424760">
    <ele>144.2</ele>
    <time>2022-02-02T23:20:43Z</time>
   </trkpt>
   <trkpt lat="47.3807320" lon="-122.0424790">
    <ele>143.8</ele>
    <time>2022-02-02T23:20:44Z</time>
   </trkpt>
   <trkpt lat="47.3807130" lon="-122.0424930">
    <ele>143.8</ele>
    <time>2022-02-02T23:20:45Z</time>
   </trkpt>
   <trkpt lat="47.3807000" lon="-122.0425020">
    <ele>143.8</ele>
    <time>2022-02-02T23:20:46Z</time>
   </trkpt>
   <trkpt lat="47.3806860" lon="-122.0425220">
    <ele>143.8</ele>
    <time>2022-02-02T23:20:47Z</time>
   </trkpt>
   <trkpt lat="47.3806780" lon="-122.0425330">
    <ele>143.8</ele>
    <time>2022-02-02T23:20:48Z</time>
   </trkpt>
   <trkpt lat="47.3806710" lon="-122.0425450">
    <ele>143.8</ele>
    <time>2022-02-02T23:20:49Z</time>
   </trkpt>
   <trkpt lat="47.3806590" lon="-122.0425560">
    <ele>143.8</ele>
    <time>2022-02-02T23:20:50Z</time>
   </trkpt>
   <trkpt lat="47.3806520" lon="-122.0425710">
    <ele>143.8</ele>
    <time>2022-02-02T23:20:51Z</time>
   </trkpt>
   <trkpt lat="47.3806410" lon="-122.0425750">
    <ele>143.8</ele>
    <time>2022-02-02T23:20:52Z</time>
   </trkpt>
   <trkpt lat="47.3806370" lon="-122.0425830">
    <ele>143.8</ele>
    <time>2022-02-02T23:20:53Z</time>
   </trkpt>
   <trkpt lat="47.3806290" lon="-122.0425920">
    <ele>143.7</ele>
    <time>2022-02-02T23:20:54Z</time>
   </trkpt>
   <trkpt lat="47.3806230" lon="-122.0426030">
    <ele>143.7</ele>
    <time>2022-02-02T23:20:55Z</time>
   </trkpt>
   <trkpt lat="47.3806160" lon="-122.0426110">
    <ele>143.7</ele>
    <time>2022-02-02T23:20:56Z</time>
   </trkpt>
   <trkpt lat="47.3806010" lon="-122.0426230">
    <ele>143.7</ele>
    <time>2022-02-02T23:20:57Z</time>
   </trkpt>
   <trkpt lat="47.3805900" lon="-122.0426350">
    <ele>143.7</ele>
    <time>2022-02-02T23:20:58Z</time>
   </trkpt>
   <trkpt lat="47.3805750" lon="-122.0426520">
    <ele>143.7</ele>
    <time>2022-02-02T23:20:59Z</time>
   </trkpt>
   <trkpt lat="47.3805670" lon="-122.0426630">
    <ele>143.7</ele>
    <time>2022-02-02T23:21:00Z</time>
   </trkpt>
   <trkpt lat="47.3805630" lon="-122.0426600">
    <ele>143.6</ele>
    <time>2022-02-02T23:21:01Z</time>
   </trkpt>
   <trkpt lat="47.3805500" lon="-122.0426700">
    <ele>143.6</ele>
    <time>2022-02-02T23:21:02Z</time>
   </trkpt>
   <trkpt lat="47.3805410" lon="-122.0426750">
    <ele>143.6</ele>
    <time>2022-02-02T23:21:03Z</time>
   </trkpt>
   <trkpt lat="47.3805220" lon="-122.0426830">
    <ele>143.6</ele>
    <time>2022-02-02T23:21:04Z</time>
   </trkpt>
   <trkpt lat="47.3805130" lon="-122.0426860">
    <ele>143.6</ele>
    <time>2022-02-02T23:21:05Z</time>
   </trkpt>
   <trkpt lat="47.3805070" lon="-122.0426900">
    <ele>143.5</ele>
    <time>2022-02-02T23:21:06Z</time>
   </trkpt>
   <trkpt lat="47.3804960" lon="-122.0426820">
    <ele>143.5</ele>
    <time>2022-02-02T23:21:07Z</time>
   </trkpt>
   <trkpt lat="47.3804890" lon="-122.0426850">
    <ele>143.5</ele>
    <time>2022-02-02T23:21:08Z</time>
   </trkpt>
   <trkpt lat="47.3804820" lon="-122.0426880">
    <ele>143.5</ele>
    <time>2022-02-02T23:21:09Z</time>
   </trkpt>
   <trkpt lat="47.3804710" lon="-122.0426950">
    <ele>143.5</ele>
    <time>2022-02-02T23:21:10Z</time>
   </trkpt>
   <trkpt lat="47.3804620" lon="-122.0426940">
    <ele>143.5</ele>
    <time>2022-02-02T23:21:11Z</time>
   </trkpt>
   <trkpt lat="47.3804530" lon="-122.0426980">
    <ele>143.4</ele>
    <time>2022-02-02T23:21:12Z</time>
   </trkpt>
   <trkpt lat="47.3804400" lon="-122.0427000">
    <ele>143.4</ele>
    <time>2022-02-02T23:21:13Z</time>
   </trkpt>
   <trkpt lat="47.3804370" lon="-122.0426960">
    <ele>143.4</ele>
    <time>2022-02-02T23:21:14Z</time>
   </trkpt>
   <trkpt lat="47.3804190" lon="-122.0426910">
    <ele>143.4</ele>
    <time>2022-02-02T23:21:15Z</time>
   </trkpt>
   <trkpt lat="47.3804030" lon="-122.0426820">
    <ele>143.3</ele>
    <time>2022-02-02T23:21:16Z</time>
   </trkpt>
   <trkpt lat="47.3803930" lon="-122.0426750">
    <ele>143.3</ele>
    <time>2022-02-02T23:21:17Z</time>
   </trkpt>
   <trkpt lat="47.3803820" lon="-122.0426720">
    <ele>143.3</ele>
    <time>2022-02-02T23:21:18Z</time>
   </trkpt>
   <trkpt lat="47.3803730" lon="-122.0426670">
    <ele>143.3</ele>
    <time>2022-02-02T23:21:19Z</time>
   </trkpt>
   <trkpt lat="47.3803640" lon="-122.0426560">
    <ele>143.3</ele>
    <time>2022-02-02T23:21:20Z</time>
   </trkpt>
   <trkpt lat="47.3803410" lon="-122.0426420">
    <ele>143.2</ele>
    <time>2022-02-02T23:21:21Z</time>
   </trkpt>
   <trkpt lat="47.3803290" lon="-122.0426370">
    <ele>143.2</ele>
    <time>2022-02-02T23:21:22Z</time>
   </trkpt>
   <trkpt lat="47.3803150" lon="-122.0426440">
    <ele>143.2</ele>
    <time>2022-02-02T23:21:23Z</time>
   </trkpt>
   <trkpt lat="47.3803040" lon="-122.0426450">
    <ele>143.2</ele>
    <time>2022-02-02T23:21:24Z</time>
   </trkpt>
   <trkpt lat="47.3802950" lon="-122.0426460">
    <ele>143.2</ele>
    <time>2022-02-02T23:21:25Z</time>
   </trkpt>
   <trkpt lat="47.3802870" lon="-122.0426450">
    <ele>143.1</ele>
    <time>2022-02-02T23:21:26Z</time>
   </trkpt>
   <trkpt lat="47.3802760" lon="-122.0426470">
    <ele>143.1</ele>
    <time>2022-02-02T23:21:27Z</time>
   </trkpt>
   <trkpt lat="47.3802680" lon="-122.0426470">
    <ele>143.1</ele>
    <time>2022-02-02T23:21:28Z</time>
   </trkpt>
   <trkpt lat="47.3802600" lon="-122.0426460">
    <ele>143.1</ele>
    <time>2022-02-02T23:21:29Z</time>
   </trkpt>
   <trkpt lat="47.3802500" lon="-122.0426430">
    <ele>143.1</ele>
    <time>2022-02-02T23:21:30Z</time>
   </trkpt>
   <trkpt lat="47.3802400" lon="-122.0426420">
    <ele>143.1</ele>
    <time>2022-02-02T23:21:31Z</time>
   </trkpt>
   <trkpt lat="47.3802360" lon="-122.0426330">
    <ele>143.1</ele>
    <time>2022-02-02T23:21:32Z</time>
   </trkpt>
   <trkpt lat="47.3802250" lon="-122.0426220">
    <ele>143.1</ele>
    <time>2022-02-02T23:21:33Z</time>
   </trkpt>
   <trkpt lat="47.3802130" lon="-122.0426130">
    <ele>143.1</ele>
    <time>2022-02-02T23:21:34Z</time>
   </trkpt>
   <trkpt lat="47.3802070" lon="-122.0426050">
    <ele>143.0</ele>
    <time>2022-02-02T23:21:35Z</time>
   </trkpt>
   <trkpt lat="47.3802030" lon="-122.0425970">
    <ele>143.0</ele>
    <time>2022-02-02T23:21:36Z</time>
   </trkpt>
   <trkpt lat="47.3801990" lon="-122.0425900">
    <ele>143.0</ele>
    <time>2022-02-02T23:21:37Z</time>
   </trkpt>
   <trkpt lat="47.3801950" lon="-122.0425830">
    <ele>143.0</ele>
    <time>2022-02-02T23:21:38Z</time>
   </trkpt>
   <trkpt lat="47.3801910" lon="-122.0425760">
    <ele>143.0</ele>
    <time>2022-02-02T23:21:39Z</time>
   </trkpt>
   <trkpt lat="47.3801860" lon="-122.0425690">
    <ele>143.0</ele>
    <time>2022-02-02T23:21:40Z</time>
   </trkpt>
   <trkpt lat="47.3801820" lon="-122.0425540">
    <ele>143.0</ele>
    <time>2022-02-02T23:21:41Z</time>
   </trkpt>
   <trkpt lat="47.3801760" lon="-122.0425440">
    <ele>143.0</ele>
    <time>2022-02-02T23:21:42Z</time>
   </trkpt>
   <trkpt lat="47.3801700" lon="-122.0425340">
    <ele>143.0</ele>
    <time>2022-02-02T23:21:43Z</time>
   </trkpt>
   <trkpt lat="47.3801640" lon="-122.0425240">
    <ele>143.0</ele>
    <time>2022-02-02T23:21:44Z</time>
   </trkpt>
   <trkpt lat="47.3801430" lon="-122.0425040">
    <ele>142.9</ele>
    <time>2022-02-02T23:21:45Z</time>
   </trkpt>
   <trkpt lat="47.3801300" lon="-122.0424970">
    <ele>142.9</ele>
    <time>2022-02-02T23:21:46Z</time>
   </trkpt>
   <trkpt lat="47.3801160" lon="-122.0424890">
    <ele>142.9</ele>
    <time>2022-02-02T23:21:47Z</time>
   </trkpt>
   <trkpt lat="47.3800970" lon="-122.0424690">
    <ele>142.9</ele>
    <time>2022-02-02T23:21:48Z</time>
   </trkpt>
   <trkpt lat="47.3800870" lon="-122.0424600">
    <ele>142.9</ele>
    <time>2022-02-02T23:21:49Z</time>
   </trkpt>
   <trkpt lat="47.3800770" lon="-122.0424520">
    <ele>142.9</ele>
    <time>2022-02-02T23:21:50Z</time>
   </trkpt>
   <trkpt lat="47.3800460" lon="-122.0424340">
    <ele>142.9</ele>
    <time>2022-02-02T23:21:51Z</time>
   </trkpt>
   <trkpt lat="47.3800380" lon="-122.0424290">
    <ele>142.9</ele>
    <time>2022-02-02T23:21:52Z</time>
   </trkpt>
   <trkpt lat="47.3800060" lon="-122.0424220">
    <ele>142.8</ele>
    <time>2022-02-02T23:21:53Z</time>
   </trkpt>
   <trkpt lat="47.3800000" lon="-122.0424180">
    <ele>142.8</ele>
    <time>2022-02-02T23:21:54Z</time>
   </trkpt>
   <trkpt lat="47.3799900" lon="-122.0424010">
    <ele>142.8</ele>
    <time>2022-02-02T23:21:55Z</time>
   </trkpt>
   <trkpt lat="47.3799760" lon="-122.0423800">
    <ele>142.8</ele>
    <time>2022-02-02T23:21:56Z</time>
   </trkpt>
   <trkpt lat="47.3799670" lon="-122.0423620">
    <ele>142.8</ele>
    <time>2022-02-02T23:21:57Z</time>
   </trkpt>
   <trkpt lat="47.3799600" lon="-122.0423470">
    <ele>142.8</ele>
    <time>2022-02-02T23:21:58Z</time>
   </trkpt>
   <trkpt lat="47.3799540" lon="-122.0423380">
    <ele>142.8</ele>
    <time>2022-02-02T23:21:59Z</time>
   </trkpt>
   <trkpt lat="47.3799500" lon="-122.0423210">
    <ele>142.8</ele>
    <time>2022-02-02T23:22:00Z</time>
   </trkpt>
   <trkpt lat="47.3799430" lon="-122.0423110">
    <ele>142.8</ele>
    <time>2022-02-02T23:22:01Z</time>
   </trkpt>
   <trkpt lat="47.3799190" lon="-122.0422920">
    <ele>142.8</ele>
    <time>2022-02-02T23:22:02Z</time>
   </trkpt>
   <trkpt lat="47.3799100" lon="-122.0422830">
    <ele>142.7</ele>
    <time>2022-02-02T23:22:03Z</time>
   </trkpt>
   <trkpt lat="47.3799010" lon="-122.0422770">
    <ele>142.7</ele>
    <time>2022-02-02T23:22:04Z</time>
   </trkpt>
   <trkpt lat="47.3798930" lon="-122.0422660">
    <ele>142.7</ele>
    <time>2022-02-02T23:22:05Z</time>
   </trkpt>
   <trkpt lat="47.3798860" lon="-122.0422590">
    <ele>142.7</ele>
    <time>2022-02-02T23:22:06Z</time>
   </trkpt>
   <trkpt lat="47.3798770" lon="-122.0422420">
    <ele>142.7</ele>
    <time>2022-02-02T23:22:07Z</time>
   </trkpt>
   <trkpt lat="47.3798640" lon="-122.0422290">
    <ele>142.7</ele>
    <time>2022-02-02T23:22:08Z</time>
   </trkpt>
   <trkpt lat="47.3798490" lon="-122.0422190">
    <ele>142.7</ele>
    <time>2022-02-02T23:22:09Z</time>
   </trkpt>
   <trkpt lat="47.3798350" lon="-122.0422020">
    <ele>142.7</ele>
    <time>2022-02-02T23:22:10Z</time>
   </trkpt>
   <trkpt lat="47.3798290" lon="-122.0421890">
    <ele>142.7</ele>
    <time>2022-02-02T23:22:11Z</time>
   </trkpt>
   <trkpt lat="47.3798200" lon="-122.0421750">
    <ele>142.7</ele>
    <time>2022-02-02T23:22:12Z</time>
   </trkpt>
   <trkpt lat="47.3798100" lon="-122.0421630">
    <ele>142.7</ele>
    <time>2022-02-02T23:22:13Z</time>
   </trkpt>
   <trkpt lat="47.3798100" lon="-122.0421560">
    <ele>142.7</ele>
    <time>2022-02-02T23:22:14Z</time>
   </trkpt>
   <trkpt lat="47.3798060" lon="-122.0421370">
    <ele>142.7</ele>
    <time>2022-02-02T23:22:15Z</time>
   </trkpt>
   <trkpt lat="47.3797980" lon="-122.0421260">
    <ele>142.7</ele>
    <time>2022-02-02T23:22:16Z</time>
   </trkpt>
   <trkpt lat="47.3797900" lon="-122.0421120">
    <ele>142.6</ele>
    <time>2022-02-02T23:22:17Z</time>
   </trkpt>
   <trkpt lat="47.3797810" lon="-122.0421020">
    <ele>142.7</ele>
    <time>2022-02-02T23:22:18Z</time>
   </trkpt>
   <trkpt lat="47.3797740" lon="-122.0420900">
    <ele>142.7</ele>
    <time>2022-02-02T23:22:19Z</time>
   </trkpt>
   <trkpt lat="47.3797580" lon="-122.0420870">
    <ele>142.7</ele>
    <time>2022-02-02T23:22:20Z</time>
   </trkpt>
   <trkpt lat="47.3797480" lon="-122.0420830">
    <ele>142.7</ele>
    <time>2022-02-02T23:22:21Z</time>
   </trkpt>
   <trkpt lat="47.3797380" lon="-122.0420780">
    <ele>142.7</ele>
    <time>2022-02-02T23:22:22Z</time>
   </trkpt>
   <trkpt lat="47.3797230" lon="-122.0420640">
    <ele>142.7</ele>
    <time>2022-02-02T23:22:23Z</time>
   </trkpt>
   <trkpt lat="47.3797080" lon="-122.0420520">
    <ele>142.7</ele>
    <time>2022-02-02T23:22:24Z</time>
   </trkpt>
   <trkpt lat="47.3796900" lon="-122.0420370">
    <ele>142.7</ele>
    <time>2022-02-02T23:22:25Z</time>
   </trkpt>
   <trkpt lat="47.3796820" lon="-122.0420290">
    <ele>142.7</ele>
    <time>2022-02-02T23:22:26Z</time>
   </trkpt>
   <trkpt lat="47.3796750" lon="-122.0420200">
    <ele>142.7</ele>
    <time>2022-02-02T23:22:27Z</time>
   </trkpt>
   <trkpt lat="47.3796690" lon="-122.0419930">
    <ele>142.8</ele>
    <time>2022-02-02T23:22:28Z</time>
   </trkpt>
   <trkpt lat="47.3796670" lon="-122.0419830">
    <ele>142.8</ele>
    <time>2022-02-02T23:22:29Z</time>
   </trkpt>
   <trkpt lat="47.3796650" lon="-122.0419730">
    <ele>142.8</ele>
    <time>2022-02-02T23:22:30Z</time>
   </trkpt>
   <trkpt lat="47.3796630" lon="-122.0419620">
    <ele>142.8</ele>
    <time>2022-02-02T23:22:31Z</time>
   </trkpt>
   <trkpt lat="47.3796650" lon="-122.0419350">
    <ele>142.8</ele>
    <time>2022-02-02T23:22:32Z</time>
   </trkpt>
   <trkpt lat="47.3796660" lon="-122.0419220">
    <ele>142.8</ele>
    <time>2022-02-02T23:22:33Z</time>
   </trkpt>
   <trkpt lat="47.3796670" lon="-122.0419090">
    <ele>142.8</ele>
    <time>2022-02-02T23:22:34Z</time>
   </trkpt>
   <trkpt lat="47.3796640" lon="-122.0418840">
    <ele>142.8</ele>
    <time>2022-02-02T23:22:35Z</time>
   </trkpt>
   <trkpt lat="47.3796650" lon="-122.0418610">
    <ele>142.8</ele>
    <time>2022-02-02T23:22:36Z</time>
   </trkpt>
   <trkpt lat="47.3796730" lon="-122.0418350">
    <ele>142.8</ele>
    <time>2022-02-02T23:22:37Z</time>
   </trkpt>
   <trkpt lat="47.3796690" lon="-122.0418180">
    <ele>142.8</ele>
    <time>2022-02-02T23:22:38Z</time>
   </trkpt>
   <trkpt lat="47.3796670" lon="-122.0417830">
    <ele>142.8</ele>
    <time>2022-02-02T23:22:39Z</time>
   </trkpt>
   <trkpt lat="47.3796670" lon="-122.0417720">
    <ele>142.8</ele>
    <time>2022-02-02T23:22:40Z</time>
   </trkpt>
   <trkpt lat="47.3796670" lon="-122.0417600">
    <ele>142.8</ele>
    <time>2022-02-02T23:22:41Z</time>
   </trkpt>
   <trkpt lat="47.3796620" lon="-122.0417470">
    <ele>142.8</ele>
    <time>2022-02-02T23:22:42Z</time>
   </trkpt>
   <trkpt lat="47.3796580" lon="-122.0417200">
    <ele>142.8</ele>
    <time>2022-02-02T23:22:43Z</time>
   </trkpt>
   <trkpt lat="47.3796530" lon="-122.0417050">
    <ele>142.8</ele>
    <time>2022-02-02T23:22:44Z</time>
   </trkpt>
   <trkpt lat="47.3796590" lon="-122.0416960">
    <ele>142.8</ele>
    <time>2022-02-02T23:22:45Z</time>
   </trkpt>
   <trkpt lat="47.3796610" lon="-122.0416710">
    <ele>142.8</ele>
    <time>2022-02-02T23:22:46Z</time>
   </trkpt>
   <trkpt lat="47.3796570" lon="-122.0416460">
    <ele>142.8</ele>
    <time>2022-02-02T23:22:47Z</time>
   </trkpt>
   <trkpt lat="47.3796590" lon="-122.0416250">
    <ele>142.8</ele>
    <time>2022-02-02T23:22:48Z</time>
   </trkpt>
   <trkpt lat="47.3796620" lon="-122.0415930">
    <ele>142.7</ele>
    <time>2022-02-02T23:22:49Z</time>
   </trkpt>
   <trkpt lat="47.3796610" lon="-122.0415820">
    <ele>142.8</ele>
    <time>2022-02-02T23:22:50Z</time>
   </trkpt>
   <trkpt lat="47.3796600" lon="-122.0415710">
    <ele>142.8</ele>
    <time>2022-02-02T23:22:51Z</time>
   </trkpt>
   <trkpt lat="47.3796530" lon="-122.0415600">
    <ele>142.8</ele>
    <time>2022-02-02T23:22:52Z</time>
   </trkpt>
   <trkpt lat="47.3796480" lon="-122.0415480">
    <ele>142.8</ele>
    <time>2022-02-02T23:22:53Z</time>
   </trkpt>
   <trkpt lat="47.3796450" lon="-122.0415310">
    <ele>142.8</ele>
    <time>2022-02-02T23:22:54Z</time>
   </trkpt>
   <trkpt lat="47.3796410" lon="-122.0414880">
    <ele>142.8</ele>
    <time>2022-02-02T23:22:55Z</time>
   </trkpt>
   <trkpt lat="47.3796390" lon="-122.0414750">
    <ele>142.8</ele>
    <time>2022-02-02T23:22:56Z</time>
   </trkpt>
   <trkpt lat="47.3796320" lon="-122.0414420">
    <ele>142.8</ele>
    <time>2022-02-02T23:22:57Z</time>
   </trkpt>
   <trkpt lat="47.3796300" lon="-122.0414260">
    <ele>142.8</ele>
    <time>2022-02-02T23:22:58Z</time>
   </trkpt>
   <trkpt lat="47.3796280" lon="-122.0414100">
    <ele>142.8</ele>
    <time>2022-02-02T23:22:59Z</time>
   </trkpt>
   <trkpt lat="47.3796230" lon="-122.0414000">
    <ele>142.8</ele>
    <time>2022-02-02T23:23:00Z</time>
   </trkpt>
   <trkpt lat="47.3796220" lon="-122.0413830">
    <ele>142.8</ele>
    <time>2022-02-02T23:23:01Z</time>
   </trkpt>
   <trkpt lat="47.3796190" lon="-122.0413610">
    <ele>142.8</ele>
    <time>2022-02-02T23:23:02Z</time>
   </trkpt>
   <trkpt lat="47.3796190" lon="-122.0413360">
    <ele>142.8</ele>
    <time>2022-02-02T23:23:03Z</time>
   </trkpt>
   <trkpt lat="47.3796200" lon="-122.0413180">
    <ele>142.8</ele>
    <time>2022-02-02T23:23:04Z</time>
   </trkpt>
   <trkpt lat="47.3796160" lon="-122.0413110">
    <ele>142.8</ele>
    <time>2022-02-02T23:23:05Z</time>
   </trkpt>
   <trkpt lat="47.3796110" lon="-122.0413000">
    <ele>142.8</ele>
    <time>2022-02-02T23:23:06Z</time>
   </trkpt>
   <trkpt lat="47.3796090" lon="-122.0412910">
    <ele>142.8</ele>
    <time>2022-02-02T23:23:07Z</time>
   </trkpt>
   <trkpt lat="47.3796090" lon="-122.0412780">
    <ele>142.8</ele>
    <time>2022-02-02T23:23:08Z</time>
   </trkpt>
   <trkpt lat="47.3796110" lon="-122.0412600">
    <ele>142.8</ele>
    <time>2022-02-02T23:23:09Z</time>
   </trkpt>
   <trkpt lat="47.3796070" lon="-122.0412470">
    <ele>142.8</ele>
    <time>2022-02-02T23:23:10Z</time>
   </trkpt>
   <trkpt lat="47.3796120" lon="-122.0412290">
    <ele>142.8</ele>
    <time>2022-02-02T23:23:11Z</time>
   </trkpt>
   <trkpt lat="47.3796070" lon="-122.0412120">
    <ele>142.9</ele>
    <time>2022-02-02T23:23:12Z</time>
   </trkpt>
   <trkpt lat="47.3796060" lon="-122.0411890">
    <ele>142.9</ele>
    <time>2022-02-02T23:23:13Z</time>
   </trkpt>
   <trkpt lat="47.3796110" lon="-122.0411710">
    <ele>142.9</ele>
    <time>2022-02-02T23:23:14Z</time>
   </trkpt>
   <trkpt lat="47.3796170" lon="-122.0411480">
    <ele>142.9</ele>
    <time>2022-02-02T23:23:15Z</time>
   </trkpt>
   <trkpt lat="47.3796130" lon="-122.0411240">
    <ele>142.9</ele>
    <time>2022-02-02T23:23:16Z</time>
   </trkpt>
   <trkpt lat="47.3796150" lon="-122.0411040">
    <ele>142.9</ele>
    <time>2022-02-02T23:23:17Z</time>
   </trkpt>
   <trkpt lat="47.3796140" lon="-122.0410900">
    <ele>142.9</ele>
    <time>2022-02-02T23:23:18Z</time>
   </trkpt>
   <trkpt lat="47.3796150" lon="-122.0410590">
    <ele>142.9</ele>
    <time>2022-02-02T23:23:19Z</time>
   </trkpt>
   <trkpt lat="47.3796110" lon="-122.0410370">
    <ele>142.9</ele>
    <time>2022-02-02T23:23:20Z</time>
   </trkpt>
   <trkpt lat="47.3796110" lon="-122.0410140">
    <ele>142.9</ele>
    <time>2022-02-02T23:23:21Z</time>
   </trkpt>
   <trkpt lat="47.3796120" lon="-122.0409880">
    <ele>143.0</ele>
    <time>2022-02-02T23:23:22Z</time>
   </trkpt>
   <trkpt lat="47.3796130" lon="-122.0409740">
    <ele>143.0</ele>
    <time>2022-02-02T23:23:23Z</time>
   </trkpt>
   <trkpt lat="47.3796140" lon="-122.0409610">
    <ele>143.0</ele>
    <time>2022-02-02T23:23:24Z</time>
   </trkpt>
   <trkpt lat="47.3796190" lon="-122.0409420">
    <ele>143.0</ele>
    <time>2022-02-02T23:23:25Z</time>
   </trkpt>
   <trkpt lat="47.3796270" lon="-122.0409290">
    <ele>143.0</ele>
    <time>2022-02-02T23:23:26Z</time>
   </trkpt>
   <trkpt lat="47.3796300" lon="-122.0409140">
    <ele>143.0</ele>
    <time>2022-02-02T23:23:27Z</time>
   </trkpt>
   <trkpt lat="47.3796310" lon="-122.0409000">
    <ele>143.0</ele>
    <time>2022-02-02T23:23:28Z</time>
   </trkpt>
   <trkpt lat="47.3796360" lon="-122.0408810">
    <ele>143.0</ele>
    <time>2022-02-02T23:23:29Z</time>
   </trkpt>
   <trkpt lat="47.3796420" lon="-122.0408640">
    <ele>143.0</ele>
    <time>2022-02-02T23:23:30Z</time>
   </trkpt>
   <trkpt lat="47.3796430" lon="-122.0408530">
    <ele>143.0</ele>
    <time>2022-02-02T23:23:31Z</time>
   </trkpt>
   <trkpt lat="47.3796490" lon="-122.0408430">
    <ele>143.0</ele>
    <time>2022-02-02T23:23:32Z</time>
   </trkpt>
   <trkpt lat="47.3796500" lon="-122.0408250">
    <ele>143.0</ele>
    <time>2022-02-02T23:23:33Z</time>
   </trkpt>
   <trkpt lat="47.3796470" lon="-122.0408070">
    <ele>143.0</ele>
    <time>2022-02-02T23:23:34Z</time>
   </trkpt>
   <trkpt lat="47.3796430" lon="-122.0407960">
    <ele>143.0</ele>
    <time>2022-02-02T23:23:35Z</time>
   </trkpt>
   <trkpt lat="47.3796440" lon="-122.0407870">
    <ele>143.0</ele>
    <time>2022-02-02T23:23:36Z</time>
   </trkpt>
   <trkpt lat="47.3796410" lon="-122.0407740">
    <ele>143.1</ele>
    <time>2022-02-02T23:23:37Z</time>
   </trkpt>
   <trkpt lat="47.3796440" lon="-122.0407480">
    <ele>143.1</ele>
    <time>2022-02-02T23:23:38Z</time>
   </trkpt>
   <trkpt lat="47.3796460" lon="-122.0407330">
    <ele>143.1</ele>
    <time>2022-02-02T23:23:39Z</time>
   </trkpt>
   <trkpt lat="47.3796500" lon="-122.0407150">
    <ele>143.1</ele>
    <time>2022-02-02T23:23:40Z</time>
   </trkpt>
   <trkpt lat="47.3796490" lon="-122.0407050">
    <ele>143.1</ele>
    <time>2022-02-02T23:23:41Z</time>
   </trkpt>
   <trkpt lat="47.3796490" lon="-122.0406890">
    <ele>143.1</ele>
    <time>2022-02-02T23:23:42Z</time>
   </trkpt>
   <trkpt lat="47.3796520" lon="-122.0406720">
    <ele>143.1</ele>
    <time>2022-02-02T23:23:43Z</time>
   </trkpt>
   <trkpt lat="47.3796550" lon="-122.0406470">
    <ele>143.1</ele>
    <time>2022-02-02T23:23:44Z</time>
   </trkpt>
   <trkpt lat="47.3796610" lon="-122.0406170">
    <ele>143.1</ele>
    <time>2022-02-02T23:23:45Z</time>
   </trkpt>
   <trkpt lat="47.3796640" lon="-122.0405970">
    <ele>143.1</ele>
    <time>2022-02-02T23:23:46Z</time>
   </trkpt>
   <trkpt lat="47.3796740" lon="-122.0405720">
    <ele>143.1</ele>
    <time>2022-02-02T23:23:47Z</time>
   </trkpt>
   <trkpt lat="47.3796830" lon="-122.0405540">
    <ele>143.2</ele>
    <time>2022-02-02T23:23:48Z</time>
   </trkpt>
   <trkpt lat="47.3796830" lon="-122.0405270">
    <ele>143.2</ele>
    <time>2022-02-02T23:23:49Z</time>
   </trkpt>
   <trkpt lat="47.3796840" lon="-122.0405140">
    <ele>143.2</ele>
    <time>2022-02-02T23:23:50Z</time>
   </trkpt>
   <trkpt lat="47.3796840" lon="-122.0405000">
    <ele>143.2</ele>
    <time>2022-02-02T23:23:51Z</time>
   </trkpt>
   <trkpt lat="47.3796860" lon="-122.0404810">
    <ele>143.2</ele>
    <time>2022-02-02T23:23:52Z</time>
   </trkpt>
   <trkpt lat="47.3796810" lon="-122.0404580">
    <ele>143.2</ele>
    <time>2022-02-02T23:23:53Z</time>
   </trkpt>
   <trkpt lat="47.3796890" lon="-122.0404300">
    <ele>143.2</ele>
    <time>2022-02-02T23:23:54Z</time>
   </trkpt>
   <trkpt lat="47.3796900" lon="-122.0404150">
    <ele>143.2</ele>
    <time>2022-02-02T23:23:55Z</time>
   </trkpt>
   <trkpt lat="47.3796920" lon="-122.0404000">
    <ele>143.2</ele>
    <time>2022-02-02T23:23:56Z</time>
   </trkpt>
   <trkpt lat="47.3796980" lon="-122.0403860">
    <ele>143.2</ele>
    <time>2022-02-02T23:23:57Z</time>
   </trkpt>
   <trkpt lat="47.3797000" lon="-122.0403700">
    <ele>143.2</ele>
    <time>2022-02-02T23:23:58Z</time>
   </trkpt>
   <trkpt lat="47.3796940" lon="-122.0403550">
    <ele>143.2</ele>
    <time>2022-02-02T23:23:59Z</time>
   </trkpt>
   <trkpt lat="47.3796890" lon="-122.0403300">
    <ele>143.2</ele>
    <time>2022-02-02T23:24:00Z</time>
   </trkpt>
   <trkpt lat="47.3796890" lon="-122.0403090">
    <ele>143.2</ele>
    <time>2022-02-02T23:24:01Z</time>
   </trkpt>
   <trkpt lat="47.3796860" lon="-122.0402940">
    <ele>143.2</ele>
    <time>2022-02-02T23:24:02Z</time>
   </trkpt>
   <trkpt lat="47.3796730" lon="-122.0402800">
    <ele>143.2</ele>
    <time>2022-02-02T23:24:03Z</time>
   </trkpt>
   <trkpt lat="47.3796700" lon="-122.0402760">
    <ele>143.2</ele>
    <time>2022-02-02T23:24:04Z</time>
   </trkpt>
   <trkpt lat="47.3796690" lon="-122.0402470">
    <ele>143.2</ele>
    <time>2022-02-02T23:24:05Z</time>
   </trkpt>
   <trkpt lat="47.3796680" lon="-122.0402320">
    <ele>143.2</ele>
    <time>2022-02-02T23:24:06Z</time>
   </trkpt>
   <trkpt lat="47.3796680" lon="-122.0402160">
    <ele>143.2</ele>
    <time>2022-02-02T23:24:07Z</time>
   </trkpt>
   <trkpt lat="47.3796620" lon="-122.0401940">
    <ele>143.2</ele>
    <time>2022-02-02T23:24:08Z</time>
   </trkpt>
   <trkpt lat="47.3796620" lon="-122.0401750">
    <ele>143.2</ele>
    <time>2022-02-02T23:24:09Z</time>
   </trkpt>
   <trkpt lat="47.3796570" lon="-122.0401540">
    <ele>143.2</ele>
    <time>2022-02-02T23:24:10Z</time>
   </trkpt>
   <trkpt lat="47.3796570" lon="-122.0401290">
    <ele>143.2</ele>
    <time>2022-02-02T23:24:11Z</time>
   </trkpt>
   <trkpt lat="47.3796510" lon="-122.0400950">
    <ele>143.2</ele>
    <time>2022-02-02T23:24:12Z</time>
   </trkpt>
   <trkpt lat="47.3796510" lon="-122.0400850">
    <ele>143.2</ele>
    <time>2022-02-02T23:24:13Z</time>
   </trkpt>
   <trkpt lat="47.3796510" lon="-122.0400740">
    <ele>143.2</ele>
    <time>2022-02-02T23:24:14Z</time>
   </trkpt>
   <trkpt lat="47.3796430" lon="-122.0400570">
    <ele>143.1</ele>
    <time>2022-02-02T23:24:15Z</time>
   </trkpt>
   <trkpt lat="47.3796420" lon="-122.0400400">
    <ele>143.1</ele>
    <time>2022-02-02T23:24:16Z</time>
   </trkpt>
   <trkpt lat="47.3796360" lon="-122.0400290">
    <ele>143.1</ele>
    <time>2022-02-02T23:24:17Z</time>
   </trkpt>
   <trkpt lat="47.3796250" lon="-122.0400210">
    <ele>143.1</ele>
    <time>2022-02-02T23:24:18Z</time>
   </trkpt>
   <trkpt lat="47.3796140" lon="-122.0400060">
    <ele>143.2</ele>
    <time>2022-02-02T23:24:19Z</time>
   </trkpt>
   <trkpt lat="47.3796030" lon="-122.0399940">
    <ele>143.2</ele>
    <time>2022-02-02T23:24:20Z</time>
   </trkpt>
   <trkpt lat="47.3795930" lon="-122.0399780">
    <ele>143.2</ele>
    <time>2022-02-02T23:24:21Z</time>
   </trkpt>
   <trkpt lat="47.3795690" lon="-122.0399540">
    <ele>143.2</ele>
    <time>2022-02-02T23:24:22Z</time>
   </trkpt>
   <trkpt lat="47.3795640" lon="-122.0399450">
    <ele>143.2</ele>
    <time>2022-02-02T23:24:23Z</time>
   </trkpt>
   <trkpt lat="47.3795510" lon="-122.0399290">
    <ele>143.2</ele>
    <time>2022-02-02T23:24:24Z</time>
   </trkpt>
   <trkpt lat="47.3795440" lon="-122.0399080">
    <ele>143.2</ele>
    <time>2022-02-02T23:24:25Z</time>
   </trkpt>
   <trkpt lat="47.3795330" lon="-122.0398750">
    <ele>143.2</ele>
    <time>2022-02-02T23:24:26Z</time>
   </trkpt>
   <trkpt lat="47.3795320" lon="-122.0398660">
    <ele>143.2</ele>
    <time>2022-02-02T23:24:27Z</time>
   </trkpt>
   <trkpt lat="47.3795310" lon="-122.0398560">
    <ele>143.2</ele>
    <time>2022-02-02T23:24:28Z</time>
   </trkpt>
   <trkpt lat="47.3795310" lon="-122.0398430">
    <ele>143.2</ele>
    <time>2022-02-02T23:24:29Z</time>
   </trkpt>
   <trkpt lat="47.3795320" lon="-122.0398240">
    <ele>143.3</ele>
    <time>2022-02-02T23:24:30Z</time>
   </trkpt>
   <trkpt lat="47.3795310" lon="-122.0398100">
    <ele>143.0</ele>
    <time>2022-02-02T23:24:31Z</time>
   </trkpt>
   <trkpt lat="47.3795270" lon="-122.0398000">
    <ele>143.0</ele>
    <time>2022-02-02T23:24:32Z</time>
   </trkpt>
   <trkpt lat="47.3795270" lon="-122.0397900">
    <ele>143.0</ele>
    <time>2022-02-02T23:24:33Z</time>
   </trkpt>
   <trkpt lat="47.3795270" lon="-122.0397640">
    <ele>143.0</ele>
    <time>2022-02-02T23:24:34Z</time>
   </trkpt>
   <trkpt lat="47.3795350" lon="-122.0397390">
    <ele>142.9</ele>
    <time>2022-02-02T23:24:35Z</time>
   </trkpt>
   <trkpt lat="47.3795350" lon="-122.0397130">
    <ele>142.9</ele>
    <time>2022-02-02T23:24:36Z</time>
   </trkpt>
   <trkpt lat="47.3795320" lon="-122.0396980">
    <ele>142.9</ele>
    <time>2022-02-02T23:24:37Z</time>
   </trkpt>
   <trkpt lat="47.3795320" lon="-122.0396830">
    <ele>142.9</ele>
    <time>2022-02-02T23:24:38Z</time>
   </trkpt>
   <trkpt lat="47.3795180" lon="-122.0396690">
    <ele>142.8</ele>
    <time>2022-02-02T23:24:39Z</time>
   </trkpt>
   <trkpt lat="47.3795070" lon="-122.0396570">
    <ele>142.8</ele>
    <time>2022-02-02T23:24:40Z</time>
   </trkpt>
   <trkpt lat="47.3795030" lon="-122.0396330">
    <ele>142.8</ele>
    <time>2022-02-02T23:24:41Z</time>
   </trkpt>
   <trkpt lat="47.3794930" lon="-122.0396150">
    <ele>142.8</ele>
    <time>2022-02-02T23:24:42Z</time>
   </trkpt>
   <trkpt lat="47.3794910" lon="-122.0396020">
    <ele>142.8</ele>
    <time>2022-02-02T23:24:43Z</time>
   </trkpt>
   <trkpt lat="47.3794960" lon="-122.0395870">
    <ele>142.8</ele>
    <time>2022-02-02T23:24:44Z</time>
   </trkpt>
   <trkpt lat="47.3795010" lon="-122.0395580">
    <ele>142.8</ele>
    <time>2022-02-02T23:24:45Z</time>
   </trkpt>
   <trkpt lat="47.3795040" lon="-122.0395440">
    <ele>142.8</ele>
    <time>2022-02-02T23:24:46Z</time>
   </trkpt>
   <trkpt lat="47.3795070" lon="-122.0395310">
    <ele>142.8</ele>
    <time>2022-02-02T23:24:47Z</time>
   </trkpt>
   <trkpt lat="47.3795170" lon="-122.0395110">
    <ele>142.8</ele>
    <time>2022-02-02T23:24:48Z</time>
   </trkpt>
   <trkpt lat="47.3795200" lon="-122.0394940">
    <ele>142.8</ele>
    <time>2022-02-02T23:24:49Z</time>
   </trkpt>
   <trkpt lat="47.3795290" lon="-122.0394700">
    <ele>142.8</ele>
    <time>2022-02-02T23:24:50Z</time>
   </trkpt>
   <trkpt lat="47.3795350" lon="-122.0394520">
    <ele>142.8</ele>
    <time>2022-02-02T23:24:51Z</time>
   </trkpt>
   <trkpt lat="47.3795340" lon="-122.0394400">
    <ele>142.8</ele>
    <time>2022-02-02T23:24:52Z</time>
   </trkpt>
   <trkpt lat="47.3795290" lon="-122.0394220">
    <ele>142.8</ele>
    <time>2022-02-02T23:24:53Z</time>
   </trkpt>
   <trkpt lat="47.3795290" lon="-122.0394010">
    <ele>142.8</ele>
    <time>2022-02-02T23:24:54Z</time>
   </trkpt>
   <trkpt lat="47.3795320" lon="-122.0393750">
    <ele>142.8</ele>
    <time>2022-02-02T23:24:55Z</time>
   </trkpt>
   <trkpt lat="47.3795270" lon="-122.0393590">
    <ele>142.9</ele>
    <time>2022-02-02T23:24:56Z</time>
   </trkpt>
   <trkpt lat="47.3795200" lon="-122.0393400">
    <ele>142.9</ele>
    <time>2022-02-02T23:24:57Z</time>
   </trkpt>
   <trkpt lat="47.3795130" lon="-122.0393130">
    <ele>142.9</ele>
    <time>2022-02-02T23:24:58Z</time>
   </trkpt>
   <trkpt lat="47.3795030" lon="-122.0392870">
    <ele>142.9</ele>
    <time>2022-02-02T23:24:59Z</time>
   </trkpt>
   <trkpt lat="47.3794890" lon="-122.0392810">
    <ele>142.9</ele>
    <time>2022-02-02T23:25:00Z</time>
   </trkpt>
   <trkpt lat="47.3794740" lon="-122.0392700">
    <ele>142.9</ele>
    <time>2022-02-02T23:25:01Z</time>
   </trkpt>
   <trkpt lat="47.3794590" lon="-122.0392510">
    <ele>142.9</ele>
    <time>2022-02-02T23:25:02Z</time>
   </trkpt>
   <trkpt lat="47.3794450" lon="-122.0392360">
    <ele>142.9</ele>
    <time>2022-02-02T23:25:03Z</time>
   </trkpt>
   <trkpt lat="47.3794320" lon="-122.0392250">
    <ele>142.9</ele>
    <time>2022-02-02T23:25:04Z</time>
   </trkpt>
   <trkpt lat="47.3794140" lon="-122.0392250">
    <ele>142.9</ele>
    <time>2022-02-02T23:25:05Z</time>
   </trkpt>
   <trkpt lat="47.3794050" lon="-122.0392160">
    <ele>142.9</ele>
    <time>2022-02-02T23:25:06Z</time>
   </trkpt>
   <trkpt lat="47.3793930" lon="-122.0392050">
    <ele>143.0</ele>
    <time>2022-02-02T23:25:07Z</time>
   </trkpt>
   <trkpt lat="47.3793810" lon="-122.0391890">
    <ele>143.0</ele>
    <time>2022-02-02T23:25:08Z</time>
   </trkpt>
   <trkpt lat="47.3793810" lon="-122.0391740">
    <ele>143.1</ele>
    <time>2022-02-02T23:25:09Z</time>
   </trkpt>
   <trkpt lat="47.3793810" lon="-122.0391550">
    <ele>143.1</ele>
    <time>2022-02-02T23:25:10Z</time>
   </trkpt>
   <trkpt lat="47.3793820" lon="-122.0391410">
    <ele>143.1</ele>
    <time>2022-02-02T23:25:11Z</time>
   </trkpt>
   <trkpt lat="47.3793760" lon="-122.0391250">
    <ele>143.1</ele>
    <time>2022-02-02T23:25:12Z</time>
   </trkpt>
   <trkpt lat="47.3793680" lon="-122.0391150">
    <ele>143.2</ele>
    <time>2022-02-02T23:25:13Z</time>
   </trkpt>
   <trkpt lat="47.3793530" lon="-122.0391120">
    <ele>143.2</ele>
    <time>2022-02-02T23:25:14Z</time>
   </trkpt>
   <trkpt lat="47.3793410" lon="-122.0391110">
    <ele>143.3</ele>
    <time>2022-02-02T23:25:15Z</time>
   </trkpt>
   <trkpt lat="47.3793320" lon="-122.0391160">
    <ele>143.3</ele>
    <time>2022-02-02T23:25:16Z</time>
   </trkpt>
   <trkpt lat="47.3793200" lon="-122.0391200">
    <ele>143.3</ele>
    <time>2022-02-02T23:25:17Z</time>
   </trkpt>
   <trkpt lat="47.3793120" lon="-122.0391360">
    <ele>143.3</ele>
    <time>2022-02-02T23:25:18Z</time>
   </trkpt>
   <trkpt lat="47.3793000" lon="-122.0391350">
    <ele>143.3</ele>
    <time>2022-02-02T23:25:19Z</time>
   </trkpt>
   <trkpt lat="47.3792960" lon="-122.0391380">
    <ele>143.3</ele>
    <time>2022-02-02T23:25:20Z</time>
   </trkpt>
   <trkpt lat="47.3792910" lon="-122.0391460">
    <ele>143.3</ele>
    <time>2022-02-02T23:25:21Z</time>
   </trkpt>
   <trkpt lat="47.3792850" lon="-122.0391510">
    <ele>143.3</ele>
    <time>2022-02-02T23:25:22Z</time>
   </trkpt>
   <trkpt lat="47.3792750" lon="-122.0391490">
    <ele>143.3</ele>
    <time>2022-02-02T23:25:23Z</time>
   </trkpt>
   <trkpt lat="47.3792640" lon="-122.0391490">
    <ele>143.3</ele>
    <time>2022-02-02T23:25:24Z</time>
   </trkpt>
   <trkpt lat="47.3792500" lon="-122.0391500">
    <ele>143.3</ele>
    <time>2022-02-02T23:25:25Z</time>
   </trkpt>
   <trkpt lat="47.3792340" lon="-122.0391610">
    <ele>143.3</ele>
    <time>2022-02-02T23:25:26Z</time>
   </trkpt>
   <trkpt lat="47.3792180" lon="-122.0391680">
    <ele>143.3</ele>
    <time>2022-02-02T23:25:27Z</time>
   </trkpt>
  </trkseg>
 </trk>
</gpx>
