<?xml version="1.0" encoding="UTF-8"?>
<gpx creator="StravaGPX" version="1.1" xmlns="http://www.topografix.com/GPX/1/1" xmlns:xsi="http://www.w3.org/2001/XMLSchema-instance" xsi:schemaLocation="http://www.topografix.com/GPX/1/1 http://www.topografix.com/GPX/1/1/gpx.xsd">
 <metadata>
  <time>2022-06-10T01:51:41Z</time>
 </metadata>
 <trk>
  <name>Cool down </name>
  <type>walking</type>
  <trkseg>
   <trkpt lat="39.6863890" lon="-104.9676340">
    <ele>1625.2</ele>
    <time>2022-06-10T01:51:41Z</time>
   </trkpt>
   <trkpt lat="39.6863810" lon="-104.9676200">
    <ele>1625.2</ele>
    <time>2022-06-10T01:51:42Z</time>
   </trkpt>
   <trkpt lat="39.6863720" lon="-104.9676020">
    <ele>1625.2</ele>
    <time>2022-06-10T01:51:43Z</time>
   </trkpt>
   <trkpt lat="39.6863660" lon="-104.9675890">
    <ele>1625.2</ele>
    <time>2022-06-10T01:51:44Z</time>
   </trkpt>
   <trkpt lat="39.6863590" lon="-104.9675760">
    <ele>1625.3</ele>
    <time>2022-06-10T01:51:45Z</time>
   </trkpt>
   <trkpt lat="39.6863550" lon="-104.9675630">
    <ele>1625.3</ele>
    <time>2022-06-10T01:51:46Z</time>
   </trkpt>
   <trkpt lat="39.6863480" lon="-104.9675490">
    <ele>1625.3</ele>
    <time>2022-06-10T01:51:47Z</time>
   </trkpt>
   <trkpt lat="39.6863460" lon="-104.9675390">
    <ele>1625.3</ele>
    <time>2022-06-10T01:51:48Z</time>
   </trkpt>
   <trkpt lat="39.6863340" lon="-104.9675190">
    <ele>1625.3</ele>
    <time>2022-06-10T01:51:49Z</time>
   </trkpt>
   <trkpt lat="39.6863220" lon="-104.9674990">
    <ele>1625.3</ele>
    <time>2022-06-10T01:51:50Z</time>
   </trkpt>
   <trkpt lat="39.6863170" lon="-104.9674900">
    <ele>1625.3</ele>
    <time>2022-06-10T01:51:51Z</time>
   </trkpt>
   <trkpt lat="39.6863110" lon="-104.9674810">
    <ele>1625.3</ele>
    <time>2022-06-10T01:51:52Z</time>
   </trkpt>
   <trkpt lat="39.6863040" lon="-104.9674670">
    <ele>1625.4</ele>
    <time>2022-06-10T01:51:53Z</time>
   </trkpt>
   <trkpt lat="39.6862950" lon="-104.9674530">
    <ele>1625.4</ele>
    <time>2022-06-10T01:51:54Z</time>
   </trkpt>
   <trkpt lat="39.6862800" lon="-104.9674330">
    <ele>1625.4</ele>
    <time>2022-06-10T01:51:55Z</time>
   </trkpt>
   <trkpt lat="39.6862750" lon="-104.9674240">
    <ele>1625.4</ele>
    <time>2022-06-10T01:51:56Z</time>
   </trkpt>
   <trkpt lat="39.6862710" lon="-104.9674140">
    <ele>1625.4</ele>
    <time>2022-06-10T01:51:57Z</time>
   </trkpt>
   <trkpt lat="39.6862600" lon="-104.9673900">
    <ele>1625.4</ele>
    <time>2022-06-10T01:51:58Z</time>
   </trkpt>
   <trkpt lat="39.6862560" lon="-104.9673800">
    <ele>1625.4</ele>
    <time>2022-06-10T01:51:59Z</time>
   </trkpt>
   <trkpt lat="39.6862510" lon="-104.9673710">
    <ele>1625.4</ele>
    <time>2022-06-10T01:52:00Z</time>
   </trkpt>
   <trkpt lat="39.6862440" lon="-104.9673570">
    <ele>1625.4</ele>
    <time>2022-06-10T01:52:01Z</time>
   </trkpt>
   <trkpt lat="39.6862400" lon="-104.9673450">
    <ele>1625.4</ele>
    <time>2022-06-10T01:52:02Z</time>
   </trkpt>
   <trkpt lat="39.6862350" lon="-104.9673340">
    <ele>1625.4</ele>
    <time>2022-06-10T01:52:03Z</time>
   </trkpt>
   <trkpt lat="39.6862280" lon="-104.9673240">
    <ele>1625.4</ele>
    <time>2022-06-10T01:52:04Z</time>
   </trkpt>
   <trkpt lat="39.6862210" lon="-104.9673080">
    <ele>1625.5</ele>
    <time>2022-06-10T01:52:05Z</time>
   </trkpt>
   <trkpt lat="39.6862150" lon="-104.9672950">
    <ele>1625.5</ele>
    <time>2022-06-10T01:52:06Z</time>
   </trkpt>
   <trkpt lat="39.6862080" lon="-104.9672880">
    <ele>1625.5</ele>
    <time>2022-06-10T01:52:07Z</time>
   </trkpt>
   <trkpt lat="39.6862000" lon="-104.9672760">
    <ele>1625.5</ele>
    <time>2022-06-10T01:52:08Z</time>
   </trkpt>
   <trkpt lat="39.6861920" lon="-104.9672600">
    <ele>1625.5</ele>
    <time>2022-06-10T01:52:09Z</time>
   </trkpt>
   <trkpt lat="39.6861800" lon="-104.9672390">
    <ele>1625.5</ele>
    <time>2022-06-10T01:52:10Z</time>
   </trkpt>
   <trkpt lat="39.6861740" lon="-104.9672300">
    <ele>1625.5</ele>
    <time>2022-06-10T01:52:11Z</time>
   </trkpt>
   <trkpt lat="39.6861680" lon="-104.9672210">
    <ele>1625.5</ele>
    <time>2022-06-10T01:52:12Z</time>
   </trkpt>
   <trkpt lat="39.6861630" lon="-104.9672110">
    <ele>1625.5</ele>
    <time>2022-06-10T01:52:13Z</time>
   </trkpt>
   <trkpt lat="39.6861580" lon="-104.9671970">
    <ele>1625.5</ele>
    <time>2022-06-10T01:52:14Z</time>
   </trkpt>
   <trkpt lat="39.6861520" lon="-104.9671850">
    <ele>1625.5</ele>
    <time>2022-06-10T01:52:15Z</time>
   </trkpt>
   <trkpt lat="39.6861390" lon="-104.9671610">
    <ele>1625.5</ele>
    <time>2022-06-10T01:52:16Z</time>
   </trkpt>
   <trkpt lat="39.6861340" lon="-104.9671530">
    <ele>1625.5</ele>
    <time>2022-06-10T01:52:17Z</time>
   </trkpt>
   <trkpt lat="39.6861290" lon="-104.9671450">
    <ele>1625.5</ele>
    <time>2022-06-10T01:52:18Z</time>
   </trkpt>
   <trkpt lat="39.6861160" lon="-104.9671240">
    <ele>1625.5</ele>
    <time>2022-06-10T01:52:19Z</time>
   </trkpt>
   <trkpt lat="39.6861110" lon="-104.9671160">
    <ele>1625.5</ele>
    <time>2022-06-10T01:52:20Z</time>
   </trkpt>
   <trkpt lat="39.6861060" lon="-104.9671080">
    <ele>1625.5</ele>
    <time>2022-06-10T01:52:21Z</time>
   </trkpt>
   <trkpt lat="39.6860950" lon="-104.9670810">
    <ele>1625.5</ele>
    <time>2022-06-10T01:52:22Z</time>
   </trkpt>
   <trkpt lat="39.6860900" lon="-104.9670710">
    <ele>1625.5</ele>
    <time>2022-06-10T01:52:23Z</time>
   </trkpt>
   <trkpt lat="39.6860860" lon="-104.9670600">
    <ele>1625.5</ele>
    <time>2022-06-10T01:52:24Z</time>
   </trkpt>
   <trkpt lat="39.6860790" lon="-104.9670440">
    <ele>1625.5</ele>
    <time>2022-06-10T01:52:25Z</time>
   </trkpt>
   <trkpt lat="39.6860710" lon="-104.9670290">
    <ele>1625.5</ele>
    <time>2022-06-10T01:52:26Z</time>
   </trkpt>
   <trkpt lat="39.6860600" lon="-104.9670120">
    <ele>1625.4</ele>
    <time>2022-06-10T01:52:27Z</time>
   </trkpt>
   <trkpt lat="39.6860520" lon="-104.9669990">
    <ele>1625.4</ele>
    <time>2022-06-10T01:52:28Z</time>
   </trkpt>
   <trkpt lat="39.6860430" lon="-104.9669830">
    <ele>1625.4</ele>
    <time>2022-06-10T01:52:29Z</time>
   </trkpt>
   <trkpt lat="39.6860360" lon="-104.9669690">
    <ele>1625.4</ele>
    <time>2022-06-10T01:52:30Z</time>
   </trkpt>
   <trkpt lat="39.6860300" lon="-104.9669610">
    <ele>1625.4</ele>
    <time>2022-06-10T01:52:31Z</time>
   </trkpt>
   <trkpt lat="39.6860180" lon="-104.9669430">
    <ele>1625.4</ele>
    <time>2022-06-10T01:52:32Z</time>
   </trkpt>
   <trkpt lat="39.6860090" lon="-104.9669180">
    <ele>1625.4</ele>
    <time>2022-06-10T01:52:33Z</time>
   </trkpt>
   <trkpt lat="39.6860060" lon="-104.9669090">
    <ele>1625.4</ele>
    <time>2022-06-10T01:52:34Z</time>
   </trkpt>
   <trkpt lat="39.6860020" lon="-104.9669000">
    <ele>1625.4</ele>
    <time>2022-06-10T01:52:35Z</time>
   </trkpt>
   <trkpt lat="39.6859880" lon="-104.9668780">
    <ele>1625.4</ele>
    <time>2022-06-10T01:52:36Z</time>
   </trkpt>
   <trkpt lat="39.6859810" lon="-104.9668710">
    <ele>1625.4</ele>
    <time>2022-06-10T01:52:37Z</time>
   </trkpt>
   <trkpt lat="39.6859740" lon="-104.9668640">
    <ele>1625.4</ele>
    <time>2022-06-10T01:52:38Z</time>
   </trkpt>
   <trkpt lat="39.6859610" lon="-104.9668430">
    <ele>1625.4</ele>
    <time>2022-06-10T01:52:39Z</time>
   </trkpt>
   <trkpt lat="39.6859560" lon="-104.9668310">
    <ele>1625.4</ele>
    <time>2022-06-10T01:52:40Z</time>
   </trkpt>
   <trkpt lat="39.6859440" lon="-104.9668090">
    <ele>1625.4</ele>
    <time>2022-06-10T01:52:41Z</time>
   </trkpt>
   <trkpt lat="39.6859370" lon="-104.9668000">
    <ele>1625.4</ele>
    <time>2022-06-10T01:52:42Z</time>
   </trkpt>
   <trkpt lat="39.6859290" lon="-104.9667910">
    <ele>1625.4</ele>
    <time>2022-06-10T01:52:43Z</time>
   </trkpt>
   <trkpt lat="39.6859180" lon="-104.9667680">
    <ele>1625.4</ele>
    <time>2022-06-10T01:52:44Z</time>
   </trkpt>
   <trkpt lat="39.6859130" lon="-104.9667590">
    <ele>1625.4</ele>
    <time>2022-06-10T01:52:45Z</time>
   </trkpt>
   <trkpt lat="39.6859090" lon="-104.9667500">
    <ele>1625.4</ele>
    <time>2022-06-10T01:52:46Z</time>
   </trkpt>
   <trkpt lat="39.6858970" lon="-104.9667290">
    <ele>1625.4</ele>
    <time>2022-06-10T01:52:47Z</time>
   </trkpt>
   <trkpt lat="39.6858920" lon="-104.9667200">
    <ele>1625.4</ele>
    <time>2022-06-10T01:52:48Z</time>
   </trkpt>
   <trkpt lat="39.6858870" lon="-104.9667120">
    <ele>1625.4</ele>
    <time>2022-06-10T01:52:49Z</time>
   </trkpt>
   <trkpt lat="39.6858790" lon="-104.9666980">
    <ele>1625.3</ele>
    <time>2022-06-10T01:52:50Z</time>
   </trkpt>
   <trkpt lat="39.6858670" lon="-104.9666820">
    <ele>1625.3</ele>
    <time>2022-06-10T01:52:51Z</time>
   </trkpt>
   <trkpt lat="39.6858590" lon="-104.9666740">
    <ele>1625.3</ele>
    <time>2022-06-10T01:52:52Z</time>
   </trkpt>
   <trkpt lat="39.6858550" lon="-104.9666580">
    <ele>1625.3</ele>
    <time>2022-06-10T01:52:53Z</time>
   </trkpt>
   <trkpt lat="39.6858480" lon="-104.9666500">
    <ele>1625.3</ele>
    <time>2022-06-10T01:52:54Z</time>
   </trkpt>
   <trkpt lat="39.6858400" lon="-104.9666350">
    <ele>1625.3</ele>
    <time>2022-06-10T01:52:55Z</time>
   </trkpt>
   <trkpt lat="39.6858320" lon="-104.9666180">
    <ele>1625.3</ele>
    <time>2022-06-10T01:52:56Z</time>
   </trkpt>
   <trkpt lat="39.6858210" lon="-104.9665940">
    <ele>1625.3</ele>
    <time>2022-06-10T01:52:57Z</time>
   </trkpt>
   <trkpt lat="39.6858160" lon="-104.9665830">
    <ele>1625.3</ele>
    <time>2022-06-10T01:52:58Z</time>
   </trkpt>
   <trkpt lat="39.6858120" lon="-104.9665720">
    <ele>1625.3</ele>
    <time>2022-06-10T01:52:59Z</time>
   </trkpt>
   <trkpt lat="39.6858020" lon="-104.9665480">
    <ele>1625.2</ele>
    <time>2022-06-10T01:53:00Z</time>
   </trkpt>
   <trkpt lat="39.6857970" lon="-104.9665390">
    <ele>1625.2</ele>
    <time>2022-06-10T01:53:01Z</time>
   </trkpt>
   <trkpt lat="39.6857930" lon="-104.9665290">
    <ele>1625.2</ele>
    <time>2022-06-10T01:53:02Z</time>
   </trkpt>
   <trkpt lat="39.6857830" lon="-104.9665140">
    <ele>1625.2</ele>
    <time>2022-06-10T01:53:03Z</time>
   </trkpt>
   <trkpt lat="39.6857730" lon="-104.9665020">
    <ele>1625.2</ele>
    <time>2022-06-10T01:53:04Z</time>
   </trkpt>
   <trkpt lat="39.6857620" lon="-104.9664900">
    <ele>1625.2</ele>
    <time>2022-06-10T01:53:05Z</time>
   </trkpt>
   <trkpt lat="39.6857540" lon="-104.9664770">
    <ele>1625.2</ele>
    <time>2022-06-10T01:53:06Z</time>
   </trkpt>
   <trkpt lat="39.6857400" lon="-104.9664550">
    <ele>1625.1</ele>
    <time>2022-06-10T01:53:07Z</time>
   </trkpt>
   <trkpt lat="39.6857360" lon="-104.9664440">
    <ele>1625.1</ele>
    <time>2022-06-10T01:53:08Z</time>
   </trkpt>
   <trkpt lat="39.6857320" lon="-104.9664330">
    <ele>1625.1</ele>
    <time>2022-06-10T01:53:09Z</time>
   </trkpt>
   <trkpt lat="39.6857260" lon="-104.9664180">
    <ele>1625.1</ele>
    <time>2022-06-10T01:53:10Z</time>
   </trkpt>
   <trkpt lat="39.6857180" lon="-104.9664070">
    <ele>1625.1</ele>
    <time>2022-06-10T01:53:11Z</time>
   </trkpt>
   <trkpt lat="39.6857120" lon="-104.9663940">
    <ele>1625.1</ele>
    <time>2022-06-10T01:53:12Z</time>
   </trkpt>
   <trkpt lat="39.6857030" lon="-104.9663810">
    <ele>1625.1</ele>
    <time>2022-06-10T01:53:13Z</time>
   </trkpt>
   <trkpt lat="39.6856950" lon="-104.9663660">
    <ele>1625.1</ele>
    <time>2022-06-10T01:53:14Z</time>
   </trkpt>
   <trkpt lat="39.6856840" lon="-104.9663430">
    <ele>1625.1</ele>
    <time>2022-06-10T01:53:15Z</time>
   </trkpt>
   <trkpt lat="39.6856800" lon="-104.9663340">
    <ele>1625.1</ele>
    <time>2022-06-10T01:53:16Z</time>
   </trkpt>
   <trkpt lat="39.6856760" lon="-104.9663250">
    <ele>1625.1</ele>
    <time>2022-06-10T01:53:17Z</time>
   </trkpt>
   <trkpt lat="39.6856640" lon="-104.9663000">
    <ele>1625.0</ele>
    <time>2022-06-10T01:53:18Z</time>
   </trkpt>
   <trkpt lat="39.6856580" lon="-104.9662920">
    <ele>1625.0</ele>
    <time>2022-06-10T01:53:19Z</time>
   </trkpt>
   <trkpt lat="39.6856520" lon="-104.9662830">
    <ele>1625.0</ele>
    <time>2022-06-10T01:53:20Z</time>
   </trkpt>
   <trkpt lat="39.6856480" lon="-104.9662730">
    <ele>1625.0</ele>
    <time>2022-06-10T01:53:21Z</time>
   </trkpt>
   <trkpt lat="39.6856410" lon="-104.9662550">
    <ele>1625.0</ele>
    <time>2022-06-10T01:53:22Z</time>
   </trkpt>
   <trkpt lat="39.6856360" lon="-104.9662450">
    <ele>1625.0</ele>
    <time>2022-06-10T01:53:23Z</time>
   </trkpt>
   <trkpt lat="39.6856210" lon="-104.9662230">
    <ele>1625.0</ele>
    <time>2022-06-10T01:53:24Z</time>
   </trkpt>
   <trkpt lat="39.6856150" lon="-104.9662140">
    <ele>1625.0</ele>
    <time>2022-06-10T01:53:25Z</time>
   </trkpt>
   <trkpt lat="39.6856090" lon="-104.9662050">
    <ele>1625.0</ele>
    <time>2022-06-10T01:53:26Z</time>
   </trkpt>
   <trkpt lat="39.6856010" lon="-104.9661910">
    <ele>1625.0</ele>
    <time>2022-06-10T01:53:27Z</time>
   </trkpt>
   <trkpt lat="39.6855940" lon="-104.9661820">
    <ele>1625.0</ele>
    <time>2022-06-10T01:53:28Z</time>
   </trkpt>
   <trkpt lat="39.6855890" lon="-104.9661710">
    <ele>1625.0</ele>
    <time>2022-06-10T01:53:29Z</time>
   </trkpt>
   <trkpt lat="39.6855830" lon="-104.9661570">
    <ele>1625.0</ele>
    <time>2022-06-10T01:53:30Z</time>
   </trkpt>
   <trkpt lat="39.6855700" lon="-104.9661370">
    <ele>1625.0</ele>
    <time>2022-06-10T01:53:31Z</time>
   </trkpt>
   <trkpt lat="39.6855590" lon="-104.9661180">
    <ele>1625.0</ele>
    <time>2022-06-10T01:53:32Z</time>
   </trkpt>
   <trkpt lat="39.6855540" lon="-104.9661080">
    <ele>1625.0</ele>
    <time>2022-06-10T01:53:33Z</time>
   </trkpt>
   <trkpt lat="39.6855500" lon="-104.9660980">
    <ele>1625.0</ele>
    <time>2022-06-10T01:53:34Z</time>
   </trkpt>
   <trkpt lat="39.6855380" lon="-104.9660810">
    <ele>1625.0</ele>
    <time>2022-06-10T01:53:35Z</time>
   </trkpt>
   <trkpt lat="39.6855320" lon="-104.9660650">
    <ele>1625.0</ele>
    <time>2022-06-10T01:53:36Z</time>
   </trkpt>
   <trkpt lat="39.6855170" lon="-104.9660370">
    <ele>1624.9</ele>
    <time>2022-06-10T01:53:37Z</time>
   </trkpt>
   <trkpt lat="39.6855140" lon="-104.9660300">
    <ele>1624.9</ele>
    <time>2022-06-10T01:53:38Z</time>
   </trkpt>
   <trkpt lat="39.6855110" lon="-104.9660230">
    <ele>1624.9</ele>
    <time>2022-06-10T01:53:39Z</time>
   </trkpt>
   <trkpt lat="39.6855030" lon="-104.9660020">
    <ele>1624.9</ele>
    <time>2022-06-10T01:53:40Z</time>
   </trkpt>
   <trkpt lat="39.6854900" lon="-104.9659850">
    <ele>1624.9</ele>
    <time>2022-06-10T01:53:41Z</time>
   </trkpt>
   <trkpt lat="39.6854780" lon="-104.9659540">
    <ele>1624.9</ele>
    <time>2022-06-10T01:53:42Z</time>
   </trkpt>
   <trkpt lat="39.6854720" lon="-104.9659440">
    <ele>1624.9</ele>
    <time>2022-06-10T01:53:43Z</time>
   </trkpt>
   <trkpt lat="39.6854550" lon="-104.9659250">
    <ele>1624.9</ele>
    <time>2022-06-10T01:53:44Z</time>
   </trkpt>
   <trkpt lat="39.6854500" lon="-104.9659150">
    <ele>1624.9</ele>
    <time>2022-06-10T01:53:45Z</time>
   </trkpt>
   <trkpt lat="39.6854450" lon="-104.9659060">
    <ele>1624.9</ele>
    <time>2022-06-10T01:53:46Z</time>
   </trkpt>
   <trkpt lat="39.6854360" lon="-104.9658950">
    <ele>1624.9</ele>
    <time>2022-06-10T01:53:47Z</time>
   </trkpt>
   <trkpt lat="39.6854310" lon="-104.9658900">
    <ele>1624.9</ele>
    <time>2022-06-10T01:53:48Z</time>
   </trkpt>
   <trkpt lat="39.6854210" lon="-104.9658780">
    <ele>1624.9</ele>
    <time>2022-06-10T01:53:49Z</time>
   </trkpt>
   <trkpt lat="39.6854110" lon="-104.9658600">
    <ele>1624.9</ele>
    <time>2022-06-10T01:53:50Z</time>
   </trkpt>
   <trkpt lat="39.6854060" lon="-104.9658490">
    <ele>1624.9</ele>
    <time>2022-06-10T01:53:51Z</time>
   </trkpt>
   <trkpt lat="39.6853930" lon="-104.9658350">
    <ele>1624.9</ele>
    <time>2022-06-10T01:53:52Z</time>
   </trkpt>
   <trkpt lat="39.6853860" lon="-104.9658230">
    <ele>1624.9</ele>
    <time>2022-06-10T01:53:53Z</time>
   </trkpt>
   <trkpt lat="39.6853780" lon="-104.9658000">
    <ele>1624.9</ele>
    <time>2022-06-10T01:53:54Z</time>
   </trkpt>
   <trkpt lat="39.6853730" lon="-104.9657810">
    <ele>1624.9</ele>
    <time>2022-06-10T01:53:55Z</time>
   </trkpt>
   <trkpt lat="39.6853660" lon="-104.9657640">
    <ele>1624.9</ele>
    <time>2022-06-10T01:53:56Z</time>
   </trkpt>
   <trkpt lat="39.6853540" lon="-104.9657510">
    <ele>1624.9</ele>
    <time>2022-06-10T01:53:57Z</time>
   </trkpt>
   <trkpt lat="39.6853370" lon="-104.9657430">
    <ele>1624.9</ele>
    <time>2022-06-10T01:53:58Z</time>
   </trkpt>
   <trkpt lat="39.6853280" lon="-104.9657340">
    <ele>1624.9</ele>
    <time>2022-06-10T01:53:59Z</time>
   </trkpt>
   <trkpt lat="39.6853200" lon="-104.9657250">
    <ele>1624.9</ele>
    <time>2022-06-10T01:54:00Z</time>
   </trkpt>
   <trkpt lat="39.6853140" lon="-104.9657140">
    <ele>1624.9</ele>
    <time>2022-06-10T01:54:01Z</time>
   </trkpt>
   <trkpt lat="39.6853040" lon="-104.9656940">
    <ele>1624.9</ele>
    <time>2022-06-10T01:54:02Z</time>
   </trkpt>
   <trkpt lat="39.6852900" lon="-104.9656800">
    <ele>1625.0</ele>
    <time>2022-06-10T01:54:03Z</time>
   </trkpt>
   <trkpt lat="39.6852830" lon="-104.9656610">
    <ele>1625.0</ele>
    <time>2022-06-10T01:54:04Z</time>
   </trkpt>
   <trkpt lat="39.6852730" lon="-104.9656290">
    <ele>1625.0</ele>
    <time>2022-06-10T01:54:05Z</time>
   </trkpt>
   <trkpt lat="39.6852670" lon="-104.9656180">
    <ele>1625.0</ele>
    <time>2022-06-10T01:54:06Z</time>
   </trkpt>
   <trkpt lat="39.6852620" lon="-104.9656060">
    <ele>1625.0</ele>
    <time>2022-06-10T01:54:07Z</time>
   </trkpt>
   <trkpt lat="39.6852470" lon="-104.9655930">
    <ele>1625.0</ele>
    <time>2022-06-10T01:54:08Z</time>
   </trkpt>
   <trkpt lat="39.6852390" lon="-104.9655740">
    <ele>1625.0</ele>
    <time>2022-06-10T01:54:09Z</time>
   </trkpt>
   <trkpt lat="39.6852280" lon="-104.9655570">
    <ele>1625.1</ele>
    <time>2022-06-10T01:54:10Z</time>
   </trkpt>
   <trkpt lat="39.6852200" lon="-104.9655460">
    <ele>1625.1</ele>
    <time>2022-06-10T01:54:11Z</time>
   </trkpt>
   <trkpt lat="39.6852090" lon="-104.9655280">
    <ele>1625.1</ele>
    <time>2022-06-10T01:54:12Z</time>
   </trkpt>
   <trkpt lat="39.6852050" lon="-104.9655110">
    <ele>1625.1</ele>
    <time>2022-06-10T01:54:13Z</time>
   </trkpt>
   <trkpt lat="39.6851910" lon="-104.9654790">
    <ele>1625.1</ele>
    <time>2022-06-10T01:54:14Z</time>
   </trkpt>
   <trkpt lat="39.6851890" lon="-104.9654670">
    <ele>1625.1</ele>
    <time>2022-06-10T01:54:15Z</time>
   </trkpt>
   <trkpt lat="39.6851770" lon="-104.9654550">
    <ele>1625.1</ele>
    <time>2022-06-10T01:54:16Z</time>
   </trkpt>
   <trkpt lat="39.6851600" lon="-104.9654420">
    <ele>1625.1</ele>
    <time>2022-06-10T01:54:17Z</time>
   </trkpt>
   <trkpt lat="39.6851350" lon="-104.9654270">
    <ele>1625.2</ele>
    <time>2022-06-10T01:54:18Z</time>
   </trkpt>
   <trkpt lat="39.6851270" lon="-104.9654210">
    <ele>1625.2</ele>
    <time>2022-06-10T01:54:19Z</time>
   </trkpt>
   <trkpt lat="39.6851050" lon="-104.9653970">
    <ele>1625.2</ele>
    <time>2022-06-10T01:54:20Z</time>
   </trkpt>
   <trkpt lat="39.6850990" lon="-104.9653900">
    <ele>1625.2</ele>
    <time>2022-06-10T01:54:21Z</time>
   </trkpt>
   <trkpt lat="39.6850930" lon="-104.9653680">
    <ele>1625.2</ele>
    <time>2022-06-10T01:54:22Z</time>
   </trkpt>
   <trkpt lat="39.6850860" lon="-104.9653540">
    <ele>1625.2</ele>
    <time>2022-06-10T01:54:23Z</time>
   </trkpt>
   <trkpt lat="39.6850650" lon="-104.9653430">
    <ele>1625.2</ele>
    <time>2022-06-10T01:54:24Z</time>
   </trkpt>
   <trkpt lat="39.6850580" lon="-104.9653280">
    <ele>1625.2</ele>
    <time>2022-06-10T01:54:25Z</time>
   </trkpt>
   <trkpt lat="39.6850380" lon="-104.9653120">
    <ele>1625.2</ele>
    <time>2022-06-10T01:54:26Z</time>
   </trkpt>
   <trkpt lat="39.6850340" lon="-104.9653040">
    <ele>1625.2</ele>
    <time>2022-06-10T01:54:27Z</time>
   </trkpt>
   <trkpt lat="39.6850290" lon="-104.9652970">
    <ele>1625.2</ele>
    <time>2022-06-10T01:54:28Z</time>
   </trkpt>
   <trkpt lat="39.6850150" lon="-104.9652660">
    <ele>1625.2</ele>
    <time>2022-06-10T01:54:29Z</time>
   </trkpt>
   <trkpt lat="39.6850110" lon="-104.9652560">
    <ele>1625.2</ele>
    <time>2022-06-10T01:54:30Z</time>
   </trkpt>
   <trkpt lat="39.6850070" lon="-104.9652410">
    <ele>1625.2</ele>
    <time>2022-06-10T01:54:31Z</time>
   </trkpt>
   <trkpt lat="39.6850090" lon="-104.9652360">
    <ele>1625.2</ele>
    <time>2022-06-10T01:54:32Z</time>
   </trkpt>
   <trkpt lat="39.6850090" lon="-104.9652300">
    <ele>1625.2</ele>
    <time>2022-06-10T01:54:33Z</time>
   </trkpt>
   <trkpt lat="39.6850070" lon="-104.9652180">
    <ele>1625.2</ele>
    <time>2022-06-10T01:54:34Z</time>
   </trkpt>
   <trkpt lat="39.6849990" lon="-104.9651920">
    <ele>1625.3</ele>
    <time>2022-06-10T01:54:35Z</time>
   </trkpt>
   <trkpt lat="39.6850000" lon="-104.9651840">
    <ele>1625.3</ele>
    <time>2022-06-10T01:54:36Z</time>
   </trkpt>
   <trkpt lat="39.6850000" lon="-104.9651760">
    <ele>1625.3</ele>
    <time>2022-06-10T01:54:37Z</time>
   </trkpt>
   <trkpt lat="39.6850000" lon="-104.9651690">
    <ele>1625.3</ele>
    <time>2022-06-10T01:54:38Z</time>
   </trkpt>
   <trkpt lat="39.6850000" lon="-104.9651610">
    <ele>1625.3</ele>
    <time>2022-06-10T01:54:39Z</time>
   </trkpt>
   <trkpt lat="39.6849940" lon="-104.9651390">
    <ele>1625.3</ele>
    <time>2022-06-10T01:54:40Z</time>
   </trkpt>
   <trkpt lat="39.6849930" lon="-104.9651260">
    <ele>1625.3</ele>
    <time>2022-06-10T01:54:41Z</time>
   </trkpt>
   <trkpt lat="39.6849900" lon="-104.9651090">
    <ele>1625.3</ele>
    <time>2022-06-10T01:54:42Z</time>
   </trkpt>
   <trkpt lat="39.6849870" lon="-104.9650990">
    <ele>1625.3</ele>
    <time>2022-06-10T01:54:43Z</time>
   </trkpt>
   <trkpt lat="39.6849840" lon="-104.9650900">
    <ele>1625.3</ele>
    <time>2022-06-10T01:54:44Z</time>
   </trkpt>
   <trkpt lat="39.6849820" lon="-104.9650810">
    <ele>1625.3</ele>
    <time>2022-06-10T01:54:45Z</time>
   </trkpt>
   <trkpt lat="39.6849620" lon="-104.9650490">
    <ele>1625.3</ele>
    <time>2022-06-10T01:54:46Z</time>
   </trkpt>
   <trkpt lat="39.6849550" lon="-104.9650370">
    <ele>1625.3</ele>
    <time>2022-06-10T01:54:47Z</time>
   </trkpt>
   <trkpt lat="39.6849360" lon="-104.9650090">
    <ele>1625.3</ele>
    <time>2022-06-10T01:54:48Z</time>
   </trkpt>
   <trkpt lat="39.6849320" lon="-104.9649990">
    <ele>1625.3</ele>
    <time>2022-06-10T01:54:49Z</time>
   </trkpt>
   <trkpt lat="39.6849260" lon="-104.9649780">
    <ele>1625.3</ele>
    <time>2022-06-10T01:54:50Z</time>
   </trkpt>
   <trkpt lat="39.6849210" lon="-104.9649600">
    <ele>1625.3</ele>
    <time>2022-06-10T01:54:51Z</time>
   </trkpt>
   <trkpt lat="39.6849020" lon="-104.9649270">
    <ele>1625.3</ele>
    <time>2022-06-10T01:54:52Z</time>
   </trkpt>
   <trkpt lat="39.6848950" lon="-104.9649190">
    <ele>1625.3</ele>
    <time>2022-06-10T01:54:53Z</time>
   </trkpt>
   <trkpt lat="39.6848820" lon="-104.9648830">
    <ele>1625.4</ele>
    <time>2022-06-10T01:54:54Z</time>
   </trkpt>
   <trkpt lat="39.6848790" lon="-104.9648730">
    <ele>1625.4</ele>
    <time>2022-06-10T01:54:55Z</time>
   </trkpt>
   <trkpt lat="39.6848730" lon="-104.9648540">
    <ele>1625.4</ele>
    <time>2022-06-10T01:54:56Z</time>
   </trkpt>
   <trkpt lat="39.6848690" lon="-104.9648290">
    <ele>1625.4</ele>
    <time>2022-06-10T01:54:57Z</time>
   </trkpt>
   <trkpt lat="39.6848600" lon="-104.9648100">
    <ele>1625.4</ele>
    <time>2022-06-10T01:54:58Z</time>
   </trkpt>
   <trkpt lat="39.6848530" lon="-104.9647960">
    <ele>1625.4</ele>
    <time>2022-06-10T01:54:59Z</time>
   </trkpt>
   <trkpt lat="39.6848490" lon="-104.9647790">
    <ele>1625.4</ele>
    <time>2022-06-10T01:55:00Z</time>
   </trkpt>
   <trkpt lat="39.6848450" lon="-104.9647620">
    <ele>1625.4</ele>
    <time>2022-06-10T01:55:01Z</time>
   </trkpt>
   <trkpt lat="39.6848320" lon="-104.9647260">
    <ele>1625.5</ele>
    <time>2022-06-10T01:55:02Z</time>
   </trkpt>
   <trkpt lat="39.6848280" lon="-104.9647130">
    <ele>1625.5</ele>
    <time>2022-06-10T01:55:03Z</time>
   </trkpt>
   <trkpt lat="39.6848180" lon="-104.9646940">
    <ele>1625.5</ele>
    <time>2022-06-10T01:55:04Z</time>
   </trkpt>
   <trkpt lat="39.6848120" lon="-104.9646820">
    <ele>1625.5</ele>
    <time>2022-06-10T01:55:05Z</time>
   </trkpt>
   <trkpt lat="39.6848030" lon="-104.9646620">
    <ele>1625.5</ele>
    <time>2022-06-10T01:55:06Z</time>
   </trkpt>
   <trkpt lat="39.6847960" lon="-104.9646510">
    <ele>1625.5</ele>
    <time>2022-06-10T01:55:07Z</time>
   </trkpt>
   <trkpt lat="39.6847890" lon="-104.9646400">
    <ele>1625.5</ele>
    <time>2022-06-10T01:55:08Z</time>
   </trkpt>
   <trkpt lat="39.6847770" lon="-104.9646250">
    <ele>1625.5</ele>
    <time>2022-06-10T01:55:09Z</time>
   </trkpt>
   <trkpt lat="39.6847700" lon="-104.9646050">
    <ele>1625.6</ele>
    <time>2022-06-10T01:55:10Z</time>
   </trkpt>
   <trkpt lat="39.6847520" lon="-104.9645760">
    <ele>1625.6</ele>
    <time>2022-06-10T01:55:11Z</time>
   </trkpt>
   <trkpt lat="39.6847460" lon="-104.9645690">
    <ele>1625.6</ele>
    <time>2022-06-10T01:55:12Z</time>
   </trkpt>
   <trkpt lat="39.6847350" lon="-104.9645500">
    <ele>1625.6</ele>
    <time>2022-06-10T01:55:13Z</time>
   </trkpt>
   <trkpt lat="39.6847290" lon="-104.9645320">
    <ele>1625.7</ele>
    <time>2022-06-10T01:55:14Z</time>
   </trkpt>
   <trkpt lat="39.6847150" lon="-104.9645010">
    <ele>1625.7</ele>
    <time>2022-06-10T01:55:15Z</time>
   </trkpt>
   <trkpt lat="39.6847120" lon="-104.9644910">
    <ele>1625.7</ele>
    <time>2022-06-10T01:55:16Z</time>
   </trkpt>
   <trkpt lat="39.6846990" lon="-104.9644650">
    <ele>1625.8</ele>
    <time>2022-06-10T01:55:17Z</time>
   </trkpt>
   <trkpt lat="39.6846950" lon="-104.9644580">
    <ele>1625.8</ele>
    <time>2022-06-10T01:55:18Z</time>
   </trkpt>
   <trkpt lat="39.6846900" lon="-104.9644510">
    <ele>1625.8</ele>
    <time>2022-06-10T01:55:19Z</time>
   </trkpt>
   <trkpt lat="39.6846800" lon="-104.9644420">
    <ele>1625.8</ele>
    <time>2022-06-10T01:55:20Z</time>
   </trkpt>
   <trkpt lat="39.6846670" lon="-104.9644170">
    <ele>1625.8</ele>
    <time>2022-06-10T01:55:21Z</time>
   </trkpt>
   <trkpt lat="39.6846550" lon="-104.9644010">
    <ele>1625.9</ele>
    <time>2022-06-10T01:55:22Z</time>
   </trkpt>
   <trkpt lat="39.6846470" lon="-104.9643870">
    <ele>1625.9</ele>
    <time>2022-06-10T01:55:23Z</time>
   </trkpt>
   <trkpt lat="39.6846350" lon="-104.9643700">
    <ele>1625.9</ele>
    <time>2022-06-10T01:55:24Z</time>
   </trkpt>
   <trkpt lat="39.6846260" lon="-104.9643560">
    <ele>1625.9</ele>
    <time>2022-06-10T01:55:25Z</time>
   </trkpt>
   <trkpt lat="39.6846100" lon="-104.9643340">
    <ele>1626.0</ele>
    <time>2022-06-10T01:55:26Z</time>
   </trkpt>
   <trkpt lat="39.6846030" lon="-104.9643260">
    <ele>1626.0</ele>
    <time>2022-06-10T01:55:27Z</time>
   </trkpt>
   <trkpt lat="39.6845960" lon="-104.9643170">
    <ele>1626.0</ele>
    <time>2022-06-10T01:55:28Z</time>
   </trkpt>
   <trkpt lat="39.6845870" lon="-104.9643020">
    <ele>1626.0</ele>
    <time>2022-06-10T01:55:29Z</time>
   </trkpt>
   <trkpt lat="39.6845780" lon="-104.9642910">
    <ele>1626.0</ele>
    <time>2022-06-10T01:55:30Z</time>
   </trkpt>
   <trkpt lat="39.6845690" lon="-104.9642770">
    <ele>1626.1</ele>
    <time>2022-06-10T01:55:31Z</time>
   </trkpt>
   <trkpt lat="39.6845600" lon="-104.9642640">
    <ele>1626.1</ele>
    <time>2022-06-10T01:55:32Z</time>
   </trkpt>
   <trkpt lat="39.6845540" lon="-104.9642490">
    <ele>1626.1</ele>
    <time>2022-06-10T01:55:33Z</time>
   </trkpt>
   <trkpt lat="39.6845400" lon="-104.9642370">
    <ele>1626.1</ele>
    <time>2022-06-10T01:55:34Z</time>
   </trkpt>
   <trkpt lat="39.6845320" lon="-104.9642200">
    <ele>1626.1</ele>
    <time>2022-06-10T01:55:35Z</time>
   </trkpt>
   <trkpt lat="39.6845260" lon="-104.9642030">
    <ele>1626.2</ele>
    <time>2022-06-10T01:55:36Z</time>
   </trkpt>
   <trkpt lat="39.6845130" lon="-104.9641790">
    <ele>1626.2</ele>
    <time>2022-06-10T01:55:37Z</time>
   </trkpt>
   <trkpt lat="39.6845040" lon="-104.9641700">
    <ele>1626.2</ele>
    <time>2022-06-10T01:55:38Z</time>
   </trkpt>
   <trkpt lat="39.6844960" lon="-104.9641610">
    <ele>1626.2</ele>
    <time>2022-06-10T01:55:39Z</time>
   </trkpt>
   <trkpt lat="39.6844870" lon="-104.9641390">
    <ele>1626.2</ele>
    <time>2022-06-10T01:55:40Z</time>
   </trkpt>
   <trkpt lat="39.6844850" lon="-104.9641260">
    <ele>1626.3</ele>
    <time>2022-06-10T01:55:41Z</time>
   </trkpt>
   <trkpt lat="39.6844820" lon="-104.9641140">
    <ele>1626.3</ele>
    <time>2022-06-10T01:55:42Z</time>
   </trkpt>
   <trkpt lat="39.6844670" lon="-104.9640910">
    <ele>1626.3</ele>
    <time>2022-06-10T01:55:43Z</time>
   </trkpt>
   <trkpt lat="39.6844600" lon="-104.9640830">
    <ele>1626.3</ele>
    <time>2022-06-10T01:55:44Z</time>
   </trkpt>
   <trkpt lat="39.6844520" lon="-104.9640760">
    <ele>1626.3</ele>
    <time>2022-06-10T01:55:45Z</time>
   </trkpt>
   <trkpt lat="39.6844360" lon="-104.9640530">
    <ele>1626.3</ele>
    <time>2022-06-10T01:55:46Z</time>
   </trkpt>
   <trkpt lat="39.6844300" lon="-104.9640430">
    <ele>1626.3</ele>
    <time>2022-06-10T01:55:47Z</time>
   </trkpt>
   <trkpt lat="39.6844250" lon="-104.9640330">
    <ele>1626.4</ele>
    <time>2022-06-10T01:55:48Z</time>
   </trkpt>
   <trkpt lat="39.6844120" lon="-104.9640090">
    <ele>1626.4</ele>
    <time>2022-06-10T01:55:49Z</time>
   </trkpt>
   <trkpt lat="39.6844050" lon="-104.9640030">
    <ele>1626.4</ele>
    <time>2022-06-10T01:55:50Z</time>
   </trkpt>
   <trkpt lat="39.6843990" lon="-104.9639960">
    <ele>1626.4</ele>
    <time>2022-06-10T01:55:51Z</time>
   </trkpt>
   <trkpt lat="39.6843870" lon="-104.9639740">
    <ele>1626.4</ele>
    <time>2022-06-10T01:55:52Z</time>
   </trkpt>
   <trkpt lat="39.6843800" lon="-104.9639620">
    <ele>1626.4</ele>
    <time>2022-06-10T01:55:53Z</time>
   </trkpt>
   <trkpt lat="39.6843720" lon="-104.9639450">
    <ele>1626.4</ele>
    <time>2022-06-10T01:55:54Z</time>
   </trkpt>
   <trkpt lat="39.6843660" lon="-104.9639310">
    <ele>1626.4</ele>
    <time>2022-06-10T01:55:55Z</time>
   </trkpt>
   <trkpt lat="39.6843580" lon="-104.9639170">
    <ele>1626.4</ele>
    <time>2022-06-10T01:55:56Z</time>
   </trkpt>
   <trkpt lat="39.6843530" lon="-104.9639000">
    <ele>1626.5</ele>
    <time>2022-06-10T01:55:57Z</time>
   </trkpt>
   <trkpt lat="39.6843370" lon="-104.9638850">
    <ele>1626.5</ele>
    <time>2022-06-10T01:55:58Z</time>
   </trkpt>
   <trkpt lat="39.6843230" lon="-104.9638730">
    <ele>1626.5</ele>
    <time>2022-06-10T01:55:59Z</time>
   </trkpt>
   <trkpt lat="39.6843090" lon="-104.9638570">
    <ele>1626.5</ele>
    <time>2022-06-10T01:56:00Z</time>
   </trkpt>
   <trkpt lat="39.6843010" lon="-104.9638420">
    <ele>1626.5</ele>
    <time>2022-06-10T01:56:01Z</time>
   </trkpt>
   <trkpt lat="39.6843000" lon="-104.9638280">
    <ele>1626.5</ele>
    <time>2022-06-10T01:56:02Z</time>
   </trkpt>
   <trkpt lat="39.6842930" lon="-104.9638150">
    <ele>1626.5</ele>
    <time>2022-06-10T01:56:03Z</time>
   </trkpt>
   <trkpt lat="39.6842820" lon="-104.9638070">
    <ele>1626.5</ele>
    <time>2022-06-10T01:56:04Z</time>
   </trkpt>
   <trkpt lat="39.6842690" lon="-104.9637960">
    <ele>1626.6</ele>
    <time>2022-06-10T01:56:05Z</time>
   </trkpt>
   <trkpt lat="39.6842590" lon="-104.9637830">
    <ele>1626.6</ele>
    <time>2022-06-10T01:56:06Z</time>
   </trkpt>
   <trkpt lat="39.6842530" lon="-104.9637640">
    <ele>1626.6</ele>
    <time>2022-06-10T01:56:07Z</time>
   </trkpt>
   <trkpt lat="39.6842500" lon="-104.9637450">
    <ele>1626.6</ele>
    <time>2022-06-10T01:56:08Z</time>
   </trkpt>
   <trkpt lat="39.6842490" lon="-104.9637130">
    <ele>1626.6</ele>
    <time>2022-06-10T01:56:09Z</time>
   </trkpt>
   <trkpt lat="39.6842470" lon="-104.9637020">
    <ele>1626.6</ele>
    <time>2022-06-10T01:56:10Z</time>
   </trkpt>
   <trkpt lat="39.6842440" lon="-104.9636910">
    <ele>1626.6</ele>
    <time>2022-06-10T01:56:11Z</time>
   </trkpt>
   <trkpt lat="39.6842410" lon="-104.9636710">
    <ele>1626.6</ele>
    <time>2022-06-10T01:56:12Z</time>
   </trkpt>
   <trkpt lat="39.6842320" lon="-104.9636510">
    <ele>1626.6</ele>
    <time>2022-06-10T01:56:13Z</time>
   </trkpt>
   <trkpt lat="39.6842230" lon="-104.9636270">
    <ele>1626.6</ele>
    <time>2022-06-10T01:56:14Z</time>
   </trkpt>
   <trkpt lat="39.6842210" lon="-104.9636150">
    <ele>1626.6</ele>
    <time>2022-06-10T01:56:15Z</time>
   </trkpt>
   <trkpt lat="39.6842200" lon="-104.9636030">
    <ele>1626.6</ele>
    <time>2022-06-10T01:56:16Z</time>
   </trkpt>
   <trkpt lat="39.6842110" lon="-104.9635750">
    <ele>1626.6</ele>
    <time>2022-06-10T01:56:17Z</time>
   </trkpt>
   <trkpt lat="39.6842070" lon="-104.9635640">
    <ele>1626.6</ele>
    <time>2022-06-10T01:56:18Z</time>
   </trkpt>
   <trkpt lat="39.6842030" lon="-104.9635530">
    <ele>1626.6</ele>
    <time>2022-06-10T01:56:19Z</time>
   </trkpt>
   <trkpt lat="39.6841970" lon="-104.9635380">
    <ele>1626.6</ele>
    <time>2022-06-10T01:56:20Z</time>
   </trkpt>
   <trkpt lat="39.6841900" lon="-104.9635220">
    <ele>1626.6</ele>
    <time>2022-06-10T01:56:21Z</time>
   </trkpt>
   <trkpt lat="39.6841790" lon="-104.9635100">
    <ele>1626.6</ele>
    <time>2022-06-10T01:56:22Z</time>
   </trkpt>
   <trkpt lat="39.6841730" lon="-104.9634940">
    <ele>1626.6</ele>
    <time>2022-06-10T01:56:23Z</time>
   </trkpt>
   <trkpt lat="39.6841530" lon="-104.9634750">
    <ele>1626.6</ele>
    <time>2022-06-10T01:56:24Z</time>
   </trkpt>
   <trkpt lat="39.6841450" lon="-104.9634650">
    <ele>1626.6</ele>
    <time>2022-06-10T01:56:25Z</time>
   </trkpt>
   <trkpt lat="39.6841450" lon="-104.9634510">
    <ele>1626.6</ele>
    <time>2022-06-10T01:56:26Z</time>
   </trkpt>
   <trkpt lat="39.6841370" lon="-104.9634390">
    <ele>1626.6</ele>
    <time>2022-06-10T01:56:27Z</time>
   </trkpt>
   <trkpt lat="39.6841330" lon="-104.9634250">
    <ele>1626.6</ele>
    <time>2022-06-10T01:56:28Z</time>
   </trkpt>
   <trkpt lat="39.6841260" lon="-104.9634010">
    <ele>1626.6</ele>
    <time>2022-06-10T01:56:29Z</time>
   </trkpt>
   <trkpt lat="39.6841230" lon="-104.9633910">
    <ele>1626.6</ele>
    <time>2022-06-10T01:56:30Z</time>
   </trkpt>
   <trkpt lat="39.6841190" lon="-104.9633810">
    <ele>1626.6</ele>
    <time>2022-06-10T01:56:31Z</time>
   </trkpt>
   <trkpt lat="39.6841160" lon="-104.9633580">
    <ele>1626.6</ele>
    <time>2022-06-10T01:56:32Z</time>
   </trkpt>
   <trkpt lat="39.6841110" lon="-104.9633450">
    <ele>1626.6</ele>
    <time>2022-06-10T01:56:33Z</time>
   </trkpt>
   <trkpt lat="39.6840860" lon="-104.9633320">
    <ele>1626.6</ele>
    <time>2022-06-10T01:56:34Z</time>
   </trkpt>
   <trkpt lat="39.6840770" lon="-104.9633290">
    <ele>1626.6</ele>
    <time>2022-06-10T01:56:35Z</time>
   </trkpt>
   <trkpt lat="39.6840630" lon="-104.9633200">
    <ele>1626.6</ele>
    <time>2022-06-10T01:56:36Z</time>
   </trkpt>
   <trkpt lat="39.6840500" lon="-104.9633130">
    <ele>1626.6</ele>
    <time>2022-06-10T01:56:37Z</time>
   </trkpt>
   <trkpt lat="39.6840330" lon="-104.9632990">
    <ele>1626.5</ele>
    <time>2022-06-10T01:56:38Z</time>
   </trkpt>
   <trkpt lat="39.6840230" lon="-104.9632860">
    <ele>1626.5</ele>
    <time>2022-06-10T01:56:39Z</time>
   </trkpt>
   <trkpt lat="39.6840190" lon="-104.9632640">
    <ele>1626.6</ele>
    <time>2022-06-10T01:56:40Z</time>
   </trkpt>
   <trkpt lat="39.6840070" lon="-104.9632540">
    <ele>1626.6</ele>
    <time>2022-06-10T01:56:41Z</time>
   </trkpt>
   <trkpt lat="39.6839930" lon="-104.9632410">
    <ele>1626.6</ele>
    <time>2022-06-10T01:56:42Z</time>
   </trkpt>
   <trkpt lat="39.6839830" lon="-104.9632290">
    <ele>1626.6</ele>
    <time>2022-06-10T01:56:43Z</time>
   </trkpt>
   <trkpt lat="39.6839670" lon="-104.9632120">
    <ele>1626.6</ele>
    <time>2022-06-10T01:56:44Z</time>
   </trkpt>
   <trkpt lat="39.6839620" lon="-104.9632040">
    <ele>1626.6</ele>
    <time>2022-06-10T01:56:45Z</time>
   </trkpt>
   <trkpt lat="39.6839560" lon="-104.9631960">
    <ele>1626.6</ele>
    <time>2022-06-10T01:56:46Z</time>
   </trkpt>
   <trkpt lat="39.6839450" lon="-104.9631760">
    <ele>1626.6</ele>
    <time>2022-06-10T01:56:47Z</time>
   </trkpt>
   <trkpt lat="39.6839380" lon="-104.9631670">
    <ele>1626.6</ele>
    <time>2022-06-10T01:56:48Z</time>
   </trkpt>
   <trkpt lat="39.6839310" lon="-104.9631580">
    <ele>1626.6</ele>
    <time>2022-06-10T01:56:49Z</time>
   </trkpt>
   <trkpt lat="39.6839200" lon="-104.9631430">
    <ele>1626.7</ele>
    <time>2022-06-10T01:56:50Z</time>
   </trkpt>
   <trkpt lat="39.6839090" lon="-104.9631310">
    <ele>1626.8</ele>
    <time>2022-06-10T01:56:51Z</time>
   </trkpt>
   <trkpt lat="39.6838990" lon="-104.9631070">
    <ele>1626.8</ele>
    <time>2022-06-10T01:56:52Z</time>
   </trkpt>
   <trkpt lat="39.6838940" lon="-104.9630960">
    <ele>1626.8</ele>
    <time>2022-06-10T01:56:53Z</time>
   </trkpt>
   <trkpt lat="39.6838890" lon="-104.9630860">
    <ele>1626.8</ele>
    <time>2022-06-10T01:56:54Z</time>
   </trkpt>
   <trkpt lat="39.6838790" lon="-104.9630720">
    <ele>1626.9</ele>
    <time>2022-06-10T01:56:55Z</time>
   </trkpt>
   <trkpt lat="39.6838700" lon="-104.9630550">
    <ele>1626.9</ele>
    <time>2022-06-10T01:56:56Z</time>
   </trkpt>
   <trkpt lat="39.6838580" lon="-104.9630270">
    <ele>1627.0</ele>
    <time>2022-06-10T01:56:57Z</time>
   </trkpt>
   <trkpt lat="39.6838530" lon="-104.9630180">
    <ele>1627.0</ele>
    <time>2022-06-10T01:56:58Z</time>
   </trkpt>
   <trkpt lat="39.6838470" lon="-104.9630100">
    <ele>1627.0</ele>
    <time>2022-06-10T01:56:59Z</time>
   </trkpt>
   <trkpt lat="39.6838390" lon="-104.9629920">
    <ele>1627.0</ele>
    <time>2022-06-10T01:57:00Z</time>
   </trkpt>
   <trkpt lat="39.6838330" lon="-104.9629780">
    <ele>1627.0</ele>
    <time>2022-06-10T01:57:01Z</time>
   </trkpt>
   <trkpt lat="39.6838270" lon="-104.9629620">
    <ele>1627.1</ele>
    <time>2022-06-10T01:57:02Z</time>
   </trkpt>
   <trkpt lat="39.6838240" lon="-104.9629530">
    <ele>1627.1</ele>
    <time>2022-06-10T01:57:03Z</time>
   </trkpt>
   <trkpt lat="39.6838150" lon="-104.9629400">
    <ele>1627.1</ele>
    <time>2022-06-10T01:57:04Z</time>
   </trkpt>
   <trkpt lat="39.6838000" lon="-104.9629260">
    <ele>1627.1</ele>
    <time>2022-06-10T01:57:05Z</time>
   </trkpt>
   <trkpt lat="39.6837930" lon="-104.9629050">
    <ele>1627.2</ele>
    <time>2022-06-10T01:57:06Z</time>
   </trkpt>
   <trkpt lat="39.6837850" lon="-104.9628780">
    <ele>1627.2</ele>
    <time>2022-06-10T01:57:07Z</time>
   </trkpt>
   <trkpt lat="39.6837800" lon="-104.9628690">
    <ele>1627.2</ele>
    <time>2022-06-10T01:57:08Z</time>
   </trkpt>
   <trkpt lat="39.6837750" lon="-104.9628590">
    <ele>1627.2</ele>
    <time>2022-06-10T01:57:09Z</time>
   </trkpt>
   <trkpt lat="39.6837580" lon="-104.9628520">
    <ele>1627.3</ele>
    <time>2022-06-10T01:57:10Z</time>
   </trkpt>
   <trkpt lat="39.6837510" lon="-104.9628440">
    <ele>1627.3</ele>
    <time>2022-06-10T01:57:11Z</time>
   </trkpt>
   <trkpt lat="39.6837420" lon="-104.9628270">
    <ele>1627.3</ele>
    <time>2022-06-10T01:57:12Z</time>
   </trkpt>
   <trkpt lat="39.6837350" lon="-104.9628210">
    <ele>1627.3</ele>
    <time>2022-06-10T01:57:13Z</time>
   </trkpt>
   <trkpt lat="39.6837290" lon="-104.9628090">
    <ele>1627.4</ele>
    <time>2022-06-10T01:57:14Z</time>
   </trkpt>
   <trkpt lat="39.6837270" lon="-104.9627920">
    <ele>1627.4</ele>
    <time>2022-06-10T01:57:15Z</time>
   </trkpt>
   <trkpt lat="39.6837190" lon="-104.9627790">
    <ele>1627.4</ele>
    <time>2022-06-10T01:57:16Z</time>
   </trkpt>
   <trkpt lat="39.6837100" lon="-104.9627730">
    <ele>1627.4</ele>
    <time>2022-06-10T01:57:17Z</time>
   </trkpt>
   <trkpt lat="39.6836980" lon="-104.9627480">
    <ele>1627.4</ele>
    <time>2022-06-10T01:57:18Z</time>
   </trkpt>
   <trkpt lat="39.6836920" lon="-104.9627380">
    <ele>1627.5</ele>
    <time>2022-06-10T01:57:19Z</time>
   </trkpt>
   <trkpt lat="39.6836860" lon="-104.9627290">
    <ele>1627.5</ele>
    <time>2022-06-10T01:57:20Z</time>
   </trkpt>
   <trkpt lat="39.6836750" lon="-104.9627150">
    <ele>1627.5</ele>
    <time>2022-06-10T01:57:21Z</time>
   </trkpt>
   <trkpt lat="39.6836740" lon="-104.9626970">
    <ele>1627.5</ele>
    <time>2022-06-10T01:57:22Z</time>
   </trkpt>
   <trkpt lat="39.6836660" lon="-104.9626810">
    <ele>1627.5</ele>
    <time>2022-06-10T01:57:23Z</time>
   </trkpt>
   <trkpt lat="39.6836610" lon="-104.9626690">
    <ele>1627.6</ele>
    <time>2022-06-10T01:57:24Z</time>
   </trkpt>
   <trkpt lat="39.6836590" lon="-104.9626620">
    <ele>1627.6</ele>
    <time>2022-06-10T01:57:25Z</time>
   </trkpt>
   <trkpt lat="39.6836480" lon="-104.9626280">
    <ele>1627.6</ele>
    <time>2022-06-10T01:57:26Z</time>
   </trkpt>
   <trkpt lat="39.6836440" lon="-104.9626180">
    <ele>1627.6</ele>
    <time>2022-06-10T01:57:27Z</time>
   </trkpt>
   <trkpt lat="39.6836410" lon="-104.9626090">
    <ele>1627.6</ele>
    <time>2022-06-10T01:57:28Z</time>
   </trkpt>
   <trkpt lat="39.6836320" lon="-104.9625960">
    <ele>1627.6</ele>
    <time>2022-06-10T01:57:29Z</time>
   </trkpt>
   <trkpt lat="39.6836270" lon="-104.9625770">
    <ele>1627.7</ele>
    <time>2022-06-10T01:57:30Z</time>
   </trkpt>
   <trkpt lat="39.6836170" lon="-104.9625520">
    <ele>1627.7</ele>
    <time>2022-06-10T01:57:31Z</time>
   </trkpt>
   <trkpt lat="39.6836130" lon="-104.9625380">
    <ele>1627.7</ele>
    <time>2022-06-10T01:57:32Z</time>
   </trkpt>
   <trkpt lat="39.6836090" lon="-104.9625250">
    <ele>1627.7</ele>
    <time>2022-06-10T01:57:33Z</time>
   </trkpt>
   <trkpt lat="39.6836020" lon="-104.9625020">
    <ele>1627.7</ele>
    <time>2022-06-10T01:57:34Z</time>
   </trkpt>
   <trkpt lat="39.6836000" lon="-104.9624870">
    <ele>1627.8</ele>
    <time>2022-06-10T01:57:35Z</time>
   </trkpt>
   <trkpt lat="39.6835920" lon="-104.9624690">
    <ele>1627.8</ele>
    <time>2022-06-10T01:57:36Z</time>
   </trkpt>
   <trkpt lat="39.6835810" lon="-104.9624540">
    <ele>1627.8</ele>
    <time>2022-06-10T01:57:37Z</time>
   </trkpt>
   <trkpt lat="39.6835750" lon="-104.9624370">
    <ele>1627.8</ele>
    <time>2022-06-10T01:57:38Z</time>
   </trkpt>
   <trkpt lat="39.6835720" lon="-104.9624200">
    <ele>1627.8</ele>
    <time>2022-06-10T01:57:39Z</time>
   </trkpt>
   <trkpt lat="39.6835630" lon="-104.9623970">
    <ele>1627.9</ele>
    <time>2022-06-10T01:57:40Z</time>
   </trkpt>
   <trkpt lat="39.6835600" lon="-104.9623850">
    <ele>1627.9</ele>
    <time>2022-06-10T01:57:41Z</time>
   </trkpt>
   <trkpt lat="39.6835570" lon="-104.9623720">
    <ele>1627.9</ele>
    <time>2022-06-10T01:57:42Z</time>
   </trkpt>
   <trkpt lat="39.6835540" lon="-104.9623490">
    <ele>1627.9</ele>
    <time>2022-06-10T01:57:43Z</time>
   </trkpt>
   <trkpt lat="39.6835530" lon="-104.9623390">
    <ele>1627.9</ele>
    <time>2022-06-10T01:57:44Z</time>
   </trkpt>
   <trkpt lat="39.6835520" lon="-104.9623290">
    <ele>1627.9</ele>
    <time>2022-06-10T01:57:45Z</time>
   </trkpt>
   <trkpt lat="39.6835510" lon="-104.9623190">
    <ele>1627.9</ele>
    <time>2022-06-10T01:57:46Z</time>
   </trkpt>
   <trkpt lat="39.6835450" lon="-104.9623010">
    <ele>1628.0</ele>
    <time>2022-06-10T01:57:47Z</time>
   </trkpt>
   <trkpt lat="39.6835420" lon="-104.9622850">
    <ele>1628.0</ele>
    <time>2022-06-10T01:57:48Z</time>
   </trkpt>
   <trkpt lat="39.6835450" lon="-104.9622630">
    <ele>1628.0</ele>
    <time>2022-06-10T01:57:49Z</time>
   </trkpt>
   <trkpt lat="39.6835490" lon="-104.9622410">
    <ele>1628.0</ele>
    <time>2022-06-10T01:57:50Z</time>
   </trkpt>
   <trkpt lat="39.6835510" lon="-104.9622320">
    <ele>1628.0</ele>
    <time>2022-06-10T01:57:51Z</time>
   </trkpt>
   <trkpt lat="39.6835500" lon="-104.9622200">
    <ele>1628.1</ele>
    <time>2022-06-10T01:57:52Z</time>
   </trkpt>
   <trkpt lat="39.6835520" lon="-104.9622060">
    <ele>1628.1</ele>
    <time>2022-06-10T01:57:53Z</time>
   </trkpt>
   <trkpt lat="39.6835540" lon="-104.9621800">
    <ele>1628.1</ele>
    <time>2022-06-10T01:57:54Z</time>
   </trkpt>
   <trkpt lat="39.6835500" lon="-104.9621700">
    <ele>1628.1</ele>
    <time>2022-06-10T01:57:55Z</time>
   </trkpt>
   <trkpt lat="39.6835420" lon="-104.9621350">
    <ele>1628.1</ele>
    <time>2022-06-10T01:57:56Z</time>
   </trkpt>
   <trkpt lat="39.6835380" lon="-104.9621230">
    <ele>1628.2</ele>
    <time>2022-06-10T01:57:57Z</time>
   </trkpt>
   <trkpt lat="39.6835340" lon="-104.9620980">
    <ele>1628.2</ele>
    <time>2022-06-10T01:57:58Z</time>
   </trkpt>
   <trkpt lat="39.6835340" lon="-104.9620850">
    <ele>1628.2</ele>
    <time>2022-06-10T01:57:59Z</time>
   </trkpt>
   <trkpt lat="39.6835340" lon="-104.9620710">
    <ele>1628.2</ele>
    <time>2022-06-10T01:58:00Z</time>
   </trkpt>
   <trkpt lat="39.6835310" lon="-104.9620550">
    <ele>1628.2</ele>
    <time>2022-06-10T01:58:01Z</time>
   </trkpt>
   <trkpt lat="39.6835270" lon="-104.9620320">
    <ele>1628.3</ele>
    <time>2022-06-10T01:58:02Z</time>
   </trkpt>
   <trkpt lat="39.6835200" lon="-104.9620110">
    <ele>1628.3</ele>
    <time>2022-06-10T01:58:03Z</time>
   </trkpt>
   <trkpt lat="39.6835130" lon="-104.9619900">
    <ele>1628.3</ele>
    <time>2022-06-10T01:58:04Z</time>
   </trkpt>
   <trkpt lat="39.6835050" lon="-104.9619730">
    <ele>1628.4</ele>
    <time>2022-06-10T01:58:05Z</time>
   </trkpt>
   <trkpt lat="39.6834970" lon="-104.9619490">
    <ele>1628.4</ele>
    <time>2022-06-10T01:58:06Z</time>
   </trkpt>
   <trkpt lat="39.6834980" lon="-104.9619350">
    <ele>1628.4</ele>
    <time>2022-06-10T01:58:07Z</time>
   </trkpt>
   <trkpt lat="39.6835010" lon="-104.9619240">
    <ele>1628.4</ele>
    <time>2022-06-10T01:58:08Z</time>
   </trkpt>
   <trkpt lat="39.6834890" lon="-104.9619030">
    <ele>1628.5</ele>
    <time>2022-06-10T01:58:09Z</time>
   </trkpt>
   <trkpt lat="39.6834720" lon="-104.9618690">
    <ele>1628.6</ele>
    <time>2022-06-10T01:58:10Z</time>
   </trkpt>
   <trkpt lat="39.6834670" lon="-104.9618570">
    <ele>1628.6</ele>
    <time>2022-06-10T01:58:11Z</time>
   </trkpt>
   <trkpt lat="39.6834570" lon="-104.9618330">
    <ele>1628.6</ele>
    <time>2022-06-10T01:58:12Z</time>
   </trkpt>
   <trkpt lat="39.6834530" lon="-104.9618220">
    <ele>1628.6</ele>
    <time>2022-06-10T01:58:13Z</time>
   </trkpt>
   <trkpt lat="39.6834490" lon="-104.9618110">
    <ele>1628.7</ele>
    <time>2022-06-10T01:58:14Z</time>
   </trkpt>
   <trkpt lat="39.6834460" lon="-104.9618000">
    <ele>1628.7</ele>
    <time>2022-06-10T01:58:15Z</time>
   </trkpt>
   <trkpt lat="39.6834370" lon="-104.9617760">
    <ele>1628.7</ele>
    <time>2022-06-10T01:58:16Z</time>
   </trkpt>
   <trkpt lat="39.6834330" lon="-104.9617660">
    <ele>1628.7</ele>
    <time>2022-06-10T01:58:17Z</time>
   </trkpt>
   <trkpt lat="39.6834290" lon="-104.9617560">
    <ele>1628.8</ele>
    <time>2022-06-10T01:58:18Z</time>
   </trkpt>
   <trkpt lat="39.6834270" lon="-104.9617380">
    <ele>1628.8</ele>
    <time>2022-06-10T01:58:19Z</time>
   </trkpt>
   <trkpt lat="39.6834140" lon="-104.9617240">
    <ele>1628.8</ele>
    <time>2022-06-10T01:58:20Z</time>
   </trkpt>
   <trkpt lat="39.6834020" lon="-104.9616910">
    <ele>1628.9</ele>
    <time>2022-06-10T01:58:21Z</time>
   </trkpt>
   <trkpt lat="39.6833970" lon="-104.9616800">
    <ele>1628.9</ele>
    <time>2022-06-10T01:58:22Z</time>
   </trkpt>
   <trkpt lat="39.6833930" lon="-104.9616670">
    <ele>1628.9</ele>
    <time>2022-06-10T01:58:23Z</time>
   </trkpt>
   <trkpt lat="39.6833900" lon="-104.9616460">
    <ele>1628.9</ele>
    <time>2022-06-10T01:58:24Z</time>
   </trkpt>
   <trkpt lat="39.6833810" lon="-104.9616260">
    <ele>1629.0</ele>
    <time>2022-06-10T01:58:25Z</time>
   </trkpt>
   <trkpt lat="39.6833750" lon="-104.9616140">
    <ele>1629.0</ele>
    <time>2022-06-10T01:58:26Z</time>
   </trkpt>
   <trkpt lat="39.6833670" lon="-104.9615910">
    <ele>1629.0</ele>
    <time>2022-06-10T01:58:27Z</time>
   </trkpt>
   <trkpt lat="39.6833640" lon="-104.9615800">
    <ele>1629.0</ele>
    <time>2022-06-10T01:58:28Z</time>
   </trkpt>
   <trkpt lat="39.6833610" lon="-104.9615700">
    <ele>1629.0</ele>
    <time>2022-06-10T01:58:29Z</time>
   </trkpt>
   <trkpt lat="39.6833540" lon="-104.9615590">
    <ele>1629.1</ele>
    <time>2022-06-10T01:58:30Z</time>
   </trkpt>
   <trkpt lat="39.6833520" lon="-104.9615480">
    <ele>1629.1</ele>
    <time>2022-06-10T01:58:31Z</time>
   </trkpt>
   <trkpt lat="39.6833530" lon="-104.9615360">
    <ele>1629.1</ele>
    <time>2022-06-10T01:58:32Z</time>
   </trkpt>
   <trkpt lat="39.6833490" lon="-104.9615220">
    <ele>1629.1</ele>
    <time>2022-06-10T01:58:33Z</time>
   </trkpt>
   <trkpt lat="39.6833430" lon="-104.9615060">
    <ele>1629.1</ele>
    <time>2022-06-10T01:58:34Z</time>
   </trkpt>
   <trkpt lat="39.6833360" lon="-104.9614950">
    <ele>1629.1</ele>
    <time>2022-06-10T01:58:35Z</time>
   </trkpt>
   <trkpt lat="39.6833340" lon="-104.9614770">
    <ele>1629.2</ele>
    <time>2022-06-10T01:58:36Z</time>
   </trkpt>
   <trkpt lat="39.6833260" lon="-104.9614590">
    <ele>1629.2</ele>
    <time>2022-06-10T01:58:37Z</time>
   </trkpt>
   <trkpt lat="39.6833230" lon="-104.9614450">
    <ele>1629.2</ele>
    <time>2022-06-10T01:58:38Z</time>
   </trkpt>
   <trkpt lat="39.6833210" lon="-104.9614220">
    <ele>1629.2</ele>
    <time>2022-06-10T01:58:39Z</time>
   </trkpt>
   <trkpt lat="39.6833190" lon="-104.9613930">
    <ele>1629.3</ele>
    <time>2022-06-10T01:58:40Z</time>
   </trkpt>
   <trkpt lat="39.6833170" lon="-104.9613770">
    <ele>1629.3</ele>
    <time>2022-06-10T01:58:41Z</time>
   </trkpt>
   <trkpt lat="39.6833140" lon="-104.9613610">
    <ele>1629.3</ele>
    <time>2022-06-10T01:58:42Z</time>
   </trkpt>
   <trkpt lat="39.6833130" lon="-104.9613220">
    <ele>1629.4</ele>
    <time>2022-06-10T01:58:43Z</time>
   </trkpt>
   <trkpt lat="39.6833120" lon="-104.9613140">
    <ele>1629.4</ele>
    <time>2022-06-10T01:58:44Z</time>
   </trkpt>
   <trkpt lat="39.6833090" lon="-104.9612900">
    <ele>1629.4</ele>
    <time>2022-06-10T01:58:45Z</time>
   </trkpt>
   <trkpt lat="39.6833100" lon="-104.9612770">
    <ele>1629.4</ele>
    <time>2022-06-10T01:58:46Z</time>
   </trkpt>
   <trkpt lat="39.6833110" lon="-104.9612640">
    <ele>1629.5</ele>
    <time>2022-06-10T01:58:47Z</time>
   </trkpt>
   <trkpt lat="39.6833090" lon="-104.9612410">
    <ele>1629.5</ele>
    <time>2022-06-10T01:58:48Z</time>
   </trkpt>
   <trkpt lat="39.6833110" lon="-104.9612260">
    <ele>1629.5</ele>
    <time>2022-06-10T01:58:49Z</time>
   </trkpt>
   <trkpt lat="39.6833050" lon="-104.9612150">
    <ele>1629.5</ele>
    <time>2022-06-10T01:58:50Z</time>
   </trkpt>
   <trkpt lat="39.6833000" lon="-104.9612020">
    <ele>1629.5</ele>
    <time>2022-06-10T01:58:51Z</time>
   </trkpt>
   <trkpt lat="39.6832940" lon="-104.9611880">
    <ele>1629.6</ele>
    <time>2022-06-10T01:58:52Z</time>
   </trkpt>
   <trkpt lat="39.6832890" lon="-104.9611750">
    <ele>1629.6</ele>
    <time>2022-06-10T01:58:53Z</time>
   </trkpt>
   <trkpt lat="39.6832780" lon="-104.9611640">
    <ele>1629.6</ele>
    <time>2022-06-10T01:58:54Z</time>
   </trkpt>
   <trkpt lat="39.6832710" lon="-104.9611440">
    <ele>1629.6</ele>
    <time>2022-06-10T01:58:55Z</time>
   </trkpt>
   <trkpt lat="39.6832540" lon="-104.9611250">
    <ele>1629.6</ele>
    <time>2022-06-10T01:58:56Z</time>
   </trkpt>
   <trkpt lat="39.6832480" lon="-104.9611190">
    <ele>1629.7</ele>
    <time>2022-06-10T01:58:57Z</time>
   </trkpt>
   <trkpt lat="39.6832420" lon="-104.9611120">
    <ele>1629.7</ele>
    <time>2022-06-10T01:58:58Z</time>
   </trkpt>
   <trkpt lat="39.6832290" lon="-104.9610950">
    <ele>1629.7</ele>
    <time>2022-06-10T01:58:59Z</time>
   </trkpt>
   <trkpt lat="39.6832210" lon="-104.9610770">
    <ele>1629.7</ele>
    <time>2022-06-10T01:59:00Z</time>
   </trkpt>
   <trkpt lat="39.6832140" lon="-104.9610600">
    <ele>1629.7</ele>
    <time>2022-06-10T01:59:01Z</time>
   </trkpt>
   <trkpt lat="39.6832040" lon="-104.9610450">
    <ele>1629.7</ele>
    <time>2022-06-10T01:59:02Z</time>
   </trkpt>
   <trkpt lat="39.6831940" lon="-104.9610360">
    <ele>1629.8</ele>
    <time>2022-06-10T01:59:03Z</time>
   </trkpt>
   <trkpt lat="39.6831720" lon="-104.9610100">
    <ele>1629.8</ele>
    <time>2022-06-10T01:59:04Z</time>
   </trkpt>
   <trkpt lat="39.6831670" lon="-104.9609990">
    <ele>1629.8</ele>
    <time>2022-06-10T01:59:05Z</time>
   </trkpt>
   <trkpt lat="39.6831670" lon="-104.9609420">
    <ele>1629.9</ele>
    <time>2022-06-10T01:59:06Z</time>
   </trkpt>
   <trkpt lat="39.6831710" lon="-104.9609200">
    <ele>1629.9</ele>
    <time>2022-06-10T01:59:07Z</time>
   </trkpt>
   <trkpt lat="39.6831740" lon="-104.9608760">
    <ele>1629.9</ele>
    <time>2022-06-10T01:59:08Z</time>
   </trkpt>
   <trkpt lat="39.6831730" lon="-104.9608600">
    <ele>1630.0</ele>
    <time>2022-06-10T01:59:09Z</time>
   </trkpt>
   <trkpt lat="39.6831740" lon="-104.9608370">
    <ele>1630.0</ele>
    <time>2022-06-10T01:59:10Z</time>
   </trkpt>
   <trkpt lat="39.6831770" lon="-104.9608200">
    <ele>1630.0</ele>
    <time>2022-06-10T01:59:11Z</time>
   </trkpt>
   <trkpt lat="39.6831730" lon="-104.9608060">
    <ele>1630.0</ele>
    <time>2022-06-10T01:59:12Z</time>
   </trkpt>
   <trkpt lat="39.6831730" lon="-104.9607830">
    <ele>1630.1</ele>
    <time>2022-06-10T01:59:13Z</time>
   </trkpt>
   <trkpt lat="39.6831710" lon="-104.9607550">
    <ele>1630.1</ele>
    <time>2022-06-10T01:59:14Z</time>
   </trkpt>
   <trkpt lat="39.6831720" lon="-104.9607440">
    <ele>1630.1</ele>
    <time>2022-06-10T01:59:15Z</time>
   </trkpt>
   <trkpt lat="39.6831730" lon="-104.9607320">
    <ele>1630.1</ele>
    <time>2022-06-10T01:59:16Z</time>
   </trkpt>
   <trkpt lat="39.6831720" lon="-104.9607220">
    <ele>1630.1</ele>
    <time>2022-06-10T01:59:17Z</time>
   </trkpt>
   <trkpt lat="39.6831670" lon="-104.9607110">
    <ele>1630.1</ele>
    <time>2022-06-10T01:59:18Z</time>
   </trkpt>
   <trkpt lat="39.6831520" lon="-104.9607060">
    <ele>1630.2</ele>
    <time>2022-06-10T01:59:19Z</time>
   </trkpt>
   <trkpt lat="39.6831360" lon="-104.9606930">
    <ele>1630.2</ele>
    <time>2022-06-10T01:59:20Z</time>
   </trkpt>
   <trkpt lat="39.6831280" lon="-104.9606780">
    <ele>1630.2</ele>
    <time>2022-06-10T01:59:21Z</time>
   </trkpt>
   <trkpt lat="39.6831110" lon="-104.9606700">
    <ele>1630.2</ele>
    <time>2022-06-10T01:59:22Z</time>
   </trkpt>
   <trkpt lat="39.6831020" lon="-104.9606630">
    <ele>1630.2</ele>
    <time>2022-06-10T01:59:23Z</time>
   </trkpt>
   <trkpt lat="39.6830930" lon="-104.9606350">
    <ele>1630.3</ele>
    <time>2022-06-10T01:59:24Z</time>
   </trkpt>
   <trkpt lat="39.6830910" lon="-104.9606220">
    <ele>1630.3</ele>
    <time>2022-06-10T01:59:25Z</time>
   </trkpt>
   <trkpt lat="39.6830890" lon="-104.9606080">
    <ele>1630.3</ele>
    <time>2022-06-10T01:59:26Z</time>
   </trkpt>
   <trkpt lat="39.6830800" lon="-104.9605770">
    <ele>1630.3</ele>
    <time>2022-06-10T01:59:27Z</time>
   </trkpt>
   <trkpt lat="39.6830770" lon="-104.9605630">
    <ele>1630.3</ele>
    <time>2022-06-10T01:59:28Z</time>
   </trkpt>
   <trkpt lat="39.6830650" lon="-104.9605240">
    <ele>1630.4</ele>
    <time>2022-06-10T01:59:29Z</time>
   </trkpt>
   <trkpt lat="39.6830630" lon="-104.9605130">
    <ele>1630.4</ele>
    <time>2022-06-10T01:59:30Z</time>
   </trkpt>
   <trkpt lat="39.6830500" lon="-104.9605020">
    <ele>1630.4</ele>
    <time>2022-06-10T01:59:31Z</time>
   </trkpt>
   <trkpt lat="39.6830370" lon="-104.9605040">
    <ele>1630.4</ele>
    <time>2022-06-10T01:59:32Z</time>
   </trkpt>
   <trkpt lat="39.6830320" lon="-104.9604840">
    <ele>1630.5</ele>
    <time>2022-06-10T01:59:33Z</time>
   </trkpt>
   <trkpt lat="39.6830350" lon="-104.9604630">
    <ele>1630.5</ele>
    <time>2022-06-10T01:59:34Z</time>
   </trkpt>
   <trkpt lat="39.6830290" lon="-104.9604280">
    <ele>1630.5</ele>
    <time>2022-06-10T01:59:35Z</time>
   </trkpt>
   <trkpt lat="39.6830280" lon="-104.9604170">
    <ele>1630.5</ele>
    <time>2022-06-10T01:59:36Z</time>
   </trkpt>
   <trkpt lat="39.6830220" lon="-104.9603970">
    <ele>1630.6</ele>
    <time>2022-06-10T01:59:37Z</time>
   </trkpt>
   <trkpt lat="39.6830260" lon="-104.9603720">
    <ele>1630.6</ele>
    <time>2022-06-10T01:59:38Z</time>
   </trkpt>
   <trkpt lat="39.6830300" lon="-104.9603340">
    <ele>1630.7</ele>
    <time>2022-06-10T01:59:39Z</time>
   </trkpt>
   <trkpt lat="39.6830320" lon="-104.9603220">
    <ele>1630.7</ele>
    <time>2022-06-10T01:59:40Z</time>
   </trkpt>
   <trkpt lat="39.6830290" lon="-104.9603000">
    <ele>1630.7</ele>
    <time>2022-06-10T01:59:41Z</time>
   </trkpt>
   <trkpt lat="39.6830270" lon="-104.9602800">
    <ele>1630.7</ele>
    <time>2022-06-10T01:59:42Z</time>
   </trkpt>
   <trkpt lat="39.6830260" lon="-104.9602600">
    <ele>1630.8</ele>
    <time>2022-06-10T01:59:43Z</time>
   </trkpt>
   <trkpt lat="39.6830230" lon="-104.9602420">
    <ele>1630.8</ele>
    <time>2022-06-10T01:59:44Z</time>
   </trkpt>
   <trkpt lat="39.6830150" lon="-104.9602130">
    <ele>1630.8</ele>
    <time>2022-06-10T01:59:45Z</time>
   </trkpt>
   <trkpt lat="39.6830130" lon="-104.9602020">
    <ele>1630.8</ele>
    <time>2022-06-10T01:59:46Z</time>
   </trkpt>
   <trkpt lat="39.6830120" lon="-104.9601910">
    <ele>1630.9</ele>
    <time>2022-06-10T01:59:47Z</time>
   </trkpt>
   <trkpt lat="39.6830140" lon="-104.9601740">
    <ele>1630.9</ele>
    <time>2022-06-10T01:59:48Z</time>
   </trkpt>
   <trkpt lat="39.6830130" lon="-104.9601500">
    <ele>1630.9</ele>
    <time>2022-06-10T01:59:49Z</time>
   </trkpt>
   <trkpt lat="39.6830130" lon="-104.9601350">
    <ele>1630.9</ele>
    <time>2022-06-10T01:59:50Z</time>
   </trkpt>
   <trkpt lat="39.6830130" lon="-104.9601230">
    <ele>1631.0</ele>
    <time>2022-06-10T01:59:51Z</time>
   </trkpt>
   <trkpt lat="39.6830140" lon="-104.9601070">
    <ele>1631.0</ele>
    <time>2022-06-10T01:59:52Z</time>
   </trkpt>
   <trkpt lat="39.6830180" lon="-104.9600900">
    <ele>1631.0</ele>
    <time>2022-06-10T01:59:53Z</time>
   </trkpt>
   <trkpt lat="39.6830210" lon="-104.9600710">
    <ele>1631.0</ele>
    <time>2022-06-10T01:59:54Z</time>
   </trkpt>
   <trkpt lat="39.6830220" lon="-104.9600430">
    <ele>1631.1</ele>
    <time>2022-06-10T01:59:55Z</time>
   </trkpt>
   <trkpt lat="39.6830220" lon="-104.9600310">
    <ele>1631.1</ele>
    <time>2022-06-10T01:59:56Z</time>
   </trkpt>
   <trkpt lat="39.6830230" lon="-104.9600190">
    <ele>1631.1</ele>
    <time>2022-06-10T01:59:57Z</time>
   </trkpt>
   <trkpt lat="39.6830190" lon="-104.9599990">
    <ele>1631.2</ele>
    <time>2022-06-10T01:59:58Z</time>
   </trkpt>
   <trkpt lat="39.6830210" lon="-104.9599770">
    <ele>1631.2</ele>
    <time>2022-06-10T01:59:59Z</time>
   </trkpt>
   <trkpt lat="39.6830300" lon="-104.9599580">
    <ele>1631.2</ele>
    <time>2022-06-10T02:00:00Z</time>
   </trkpt>
   <trkpt lat="39.6830360" lon="-104.9599420">
    <ele>1631.2</ele>
    <time>2022-06-10T02:00:01Z</time>
   </trkpt>
   <trkpt lat="39.6830410" lon="-104.9599230">
    <ele>1631.3</ele>
    <time>2022-06-10T02:00:02Z</time>
   </trkpt>
   <trkpt lat="39.6830470" lon="-104.9599060">
    <ele>1631.3</ele>
    <time>2022-06-10T02:00:03Z</time>
   </trkpt>
   <trkpt lat="39.6830540" lon="-104.9598880">
    <ele>1631.3</ele>
    <time>2022-06-10T02:00:04Z</time>
   </trkpt>
   <trkpt lat="39.6830590" lon="-104.9598740">
    <ele>1631.3</ele>
    <time>2022-06-10T02:00:05Z</time>
   </trkpt>
   <trkpt lat="39.6830650" lon="-104.9598620">
    <ele>1631.3</ele>
    <time>2022-06-10T02:00:06Z</time>
   </trkpt>
   <trkpt lat="39.6830760" lon="-104.9598450">
    <ele>1631.3</ele>
    <time>2022-06-10T02:00:07Z</time>
   </trkpt>
   <trkpt lat="39.6830880" lon="-104.9598320">
    <ele>1631.4</ele>
    <time>2022-06-10T02:00:08Z</time>
   </trkpt>
   <trkpt lat="39.6830970" lon="-104.9598180">
    <ele>1631.4</ele>
    <time>2022-06-10T02:00:09Z</time>
   </trkpt>
   <trkpt lat="39.6830970" lon="-104.9598000">
    <ele>1631.4</ele>
    <time>2022-06-10T02:00:10Z</time>
   </trkpt>
   <trkpt lat="39.6830970" lon="-104.9597870">
    <ele>1631.4</ele>
    <time>2022-06-10T02:00:11Z</time>
   </trkpt>
   <trkpt lat="39.6830920" lon="-104.9597780">
    <ele>1631.4</ele>
    <time>2022-06-10T02:00:12Z</time>
   </trkpt>
   <trkpt lat="39.6830710" lon="-104.9597440">
    <ele>1631.5</ele>
    <time>2022-06-10T02:00:13Z</time>
   </trkpt>
   <trkpt lat="39.6830660" lon="-104.9597350">
    <ele>1631.5</ele>
    <time>2022-06-10T02:00:14Z</time>
   </trkpt>
   <trkpt lat="39.6830540" lon="-104.9597210">
    <ele>1631.6</ele>
    <time>2022-06-10T02:00:15Z</time>
   </trkpt>
   <trkpt lat="39.6830350" lon="-104.9597130">
    <ele>1631.6</ele>
    <time>2022-06-10T02:00:16Z</time>
   </trkpt>
   <trkpt lat="39.6830250" lon="-104.9596990">
    <ele>1631.6</ele>
    <time>2022-06-10T02:00:17Z</time>
   </trkpt>
   <trkpt lat="39.6830120" lon="-104.9596860">
    <ele>1631.7</ele>
    <time>2022-06-10T02:00:18Z</time>
   </trkpt>
   <trkpt lat="39.6829940" lon="-104.9596680">
    <ele>1631.7</ele>
    <time>2022-06-10T02:00:19Z</time>
   </trkpt>
   <trkpt lat="39.6829880" lon="-104.9596600">
    <ele>1631.8</ele>
    <time>2022-06-10T02:00:20Z</time>
   </trkpt>
   <trkpt lat="39.6829810" lon="-104.9596520">
    <ele>1631.8</ele>
    <time>2022-06-10T02:00:21Z</time>
   </trkpt>
   <trkpt lat="39.6829660" lon="-104.9596460">
    <ele>1631.8</ele>
    <time>2022-06-10T02:00:22Z</time>
   </trkpt>
   <trkpt lat="39.6829620" lon="-104.9596330">
    <ele>1631.8</ele>
    <time>2022-06-10T02:00:23Z</time>
   </trkpt>
   <trkpt lat="39.6829550" lon="-104.9596210">
    <ele>1631.9</ele>
    <time>2022-06-10T02:00:24Z</time>
   </trkpt>
   <trkpt lat="39.6829520" lon="-104.9596030">
    <ele>1631.9</ele>
    <time>2022-06-10T02:00:25Z</time>
   </trkpt>
   <trkpt lat="39.6829480" lon="-104.9596030">
    <ele>1631.9</ele>
    <time>2022-06-10T02:00:26Z</time>
   </trkpt>
   <trkpt lat="39.6829490" lon="-104.9596000">
    <ele>1631.9</ele>
    <time>2022-06-10T02:00:27Z</time>
   </trkpt>
   <trkpt lat="39.6829510" lon="-104.9595970">
    <ele>1631.9</ele>
    <time>2022-06-10T02:00:28Z</time>
   </trkpt>
   <trkpt lat="39.6829480" lon="-104.9595960">
    <ele>1631.9</ele>
    <time>2022-06-10T02:00:29Z</time>
   </trkpt>
   <trkpt lat="39.6829520" lon="-104.9595970">
    <ele>1631.9</ele>
    <time>2022-06-10T02:00:30Z</time>
   </trkpt>
   <trkpt lat="39.6829500" lon="-104.9595930">
    <ele>1631.9</ele>
    <time>2022-06-10T02:00:31Z</time>
   </trkpt>
   <trkpt lat="39.6829520" lon="-104.9595860">
    <ele>1631.9</ele>
    <time>2022-06-10T02:00:32Z</time>
   </trkpt>
   <trkpt lat="39.6829510" lon="-104.9595730">
    <ele>1631.9</ele>
    <time>2022-06-10T02:00:33Z</time>
   </trkpt>
   <trkpt lat="39.6829480" lon="-104.9595610">
    <ele>1631.9</ele>
    <time>2022-06-10T02:00:34Z</time>
   </trkpt>
   <trkpt lat="39.6829440" lon="-104.9595500">
    <ele>1631.9</ele>
    <time>2022-06-10T02:00:35Z</time>
   </trkpt>
   <trkpt lat="39.6829410" lon="-104.9595380">
    <ele>1631.9</ele>
    <time>2022-06-10T02:00:36Z</time>
   </trkpt>
   <trkpt lat="39.6829340" lon="-104.9594940">
    <ele>1632.0</ele>
    <time>2022-06-10T02:00:37Z</time>
   </trkpt>
   <trkpt lat="39.6829330" lon="-104.9594790">
    <ele>1632.0</ele>
    <time>2022-06-10T02:00:38Z</time>
   </trkpt>
   <trkpt lat="39.6829260" lon="-104.9594440">
    <ele>1632.1</ele>
    <time>2022-06-10T02:00:39Z</time>
   </trkpt>
   <trkpt lat="39.6829250" lon="-104.9594320">
    <ele>1632.1</ele>
    <time>2022-06-10T02:00:40Z</time>
   </trkpt>
   <trkpt lat="39.6829190" lon="-104.9594150">
    <ele>1632.1</ele>
    <time>2022-06-10T02:00:41Z</time>
   </trkpt>
   <trkpt lat="39.6829150" lon="-104.9593930">
    <ele>1632.1</ele>
    <time>2022-06-10T02:00:42Z</time>
   </trkpt>
   <trkpt lat="39.6829130" lon="-104.9593530">
    <ele>1632.2</ele>
    <time>2022-06-10T02:00:43Z</time>
   </trkpt>
   <trkpt lat="39.6829110" lon="-104.9593400">
    <ele>1632.2</ele>
    <time>2022-06-10T02:00:44Z</time>
   </trkpt>
   <trkpt lat="39.6829090" lon="-104.9592970">
    <ele>1632.3</ele>
    <time>2022-06-10T02:00:45Z</time>
   </trkpt>
   <trkpt lat="39.6829080" lon="-104.9592810">
    <ele>1632.3</ele>
    <time>2022-06-10T02:00:46Z</time>
   </trkpt>
   <trkpt lat="39.6829000" lon="-104.9592630">
    <ele>1632.3</ele>
    <time>2022-06-10T02:00:47Z</time>
   </trkpt>
   <trkpt lat="39.6828950" lon="-104.9592420">
    <ele>1632.4</ele>
    <time>2022-06-10T02:00:48Z</time>
   </trkpt>
   <trkpt lat="39.6828880" lon="-104.9592300">
    <ele>1632.4</ele>
    <time>2022-06-10T02:00:49Z</time>
   </trkpt>
   <trkpt lat="39.6828750" lon="-104.9592260">
    <ele>1632.6</ele>
    <time>2022-06-10T02:00:50Z</time>
   </trkpt>
   <trkpt lat="39.6828650" lon="-104.9592170">
    <ele>1632.6</ele>
    <time>2022-06-10T02:00:51Z</time>
   </trkpt>
   <trkpt lat="39.6828610" lon="-104.9591980">
    <ele>1632.6</ele>
    <time>2022-06-10T02:00:52Z</time>
   </trkpt>
   <trkpt lat="39.6828600" lon="-104.9591970">
    <ele>1632.6</ele>
    <time>2022-06-10T02:00:53Z</time>
   </trkpt>
   <trkpt lat="39.6828580" lon="-104.9591960">
    <ele>1632.6</ele>
    <time>2022-06-10T02:00:54Z</time>
   </trkpt>
   <trkpt lat="39.6828570" lon="-104.9591960">
    <ele>1632.6</ele>
    <time>2022-06-10T02:00:55Z</time>
   </trkpt>
   <trkpt lat="39.6828560" lon="-104.9591950">
    <ele>1632.6</ele>
    <time>2022-06-10T02:00:56Z</time>
   </trkpt>
   <trkpt lat="39.6828540" lon="-104.9591940">
    <ele>1632.6</ele>
    <time>2022-06-10T02:00:57Z</time>
   </trkpt>
   <trkpt lat="39.6828530" lon="-104.9591930">
    <ele>1632.6</ele>
    <time>2022-06-10T02:00:58Z</time>
   </trkpt>
   <trkpt lat="39.6828520" lon="-104.9591920">
    <ele>1632.6</ele>
    <time>2022-06-10T02:00:59Z</time>
   </trkpt>
   <trkpt lat="39.6828510" lon="-104.9591920">
    <ele>1632.6</ele>
    <time>2022-06-10T02:01:00Z</time>
   </trkpt>
   <trkpt lat="39.6828490" lon="-104.9591910">
    <ele>1632.6</ele>
    <time>2022-06-10T02:01:01Z</time>
   </trkpt>
   <trkpt lat="39.6828480" lon="-104.9591900">
    <ele>1632.6</ele>
    <time>2022-06-10T02:01:02Z</time>
   </trkpt>
   <trkpt lat="39.6828470" lon="-104.9591890">
    <ele>1632.6</ele>
    <time>2022-06-10T02:01:03Z</time>
   </trkpt>
   <trkpt lat="39.6828460" lon="-104.9591880">
    <ele>1632.6</ele>
    <time>2022-06-10T02:01:04Z</time>
   </trkpt>
   <trkpt lat="39.6828440" lon="-104.9591880">
    <ele>1632.6</ele>
    <time>2022-06-10T02:01:05Z</time>
   </trkpt>
   <trkpt lat="39.6828430" lon="-104.9591870">
    <ele>1632.6</ele>
    <time>2022-06-10T02:01:06Z</time>
   </trkpt>
   <trkpt lat="39.6828420" lon="-104.9591860">
    <ele>1632.6</ele>
    <time>2022-06-10T02:01:07Z</time>
   </trkpt>
   <trkpt lat="39.6828400" lon="-104.9591850">
    <ele>1632.6</ele>
    <time>2022-06-10T02:01:08Z</time>
   </trkpt>
   <trkpt lat="39.6828390" lon="-104.9591840">
    <ele>1632.6</ele>
    <time>2022-06-10T02:01:09Z</time>
   </trkpt>
   <trkpt lat="39.6828380" lon="-104.9591840">
    <ele>1632.6</ele>
    <time>2022-06-10T02:01:10Z</time>
   </trkpt>
   <trkpt lat="39.6828370" lon="-104.9591830">
    <ele>1632.6</ele>
    <time>2022-06-10T02:01:11Z</time>
   </trkpt>
   <trkpt lat="39.6828350" lon="-104.9591820">
    <ele>1632.6</ele>
    <time>2022-06-10T02:01:12Z</time>
   </trkpt>
   <trkpt lat="39.6828340" lon="-104.9591810">
    <ele>1632.6</ele>
    <time>2022-06-10T02:01:13Z</time>
   </trkpt>
   <trkpt lat="39.6828330" lon="-104.9591800">
    <ele>1632.6</ele>
    <time>2022-06-10T02:01:14Z</time>
   </trkpt>
   <trkpt lat="39.6828310" lon="-104.9591800">
    <ele>1632.6</ele>
    <time>2022-06-10T02:01:15Z</time>
   </trkpt>
   <trkpt lat="39.6828300" lon="-104.9591790">
    <ele>1632.6</ele>
    <time>2022-06-10T02:01:16Z</time>
   </trkpt>
   <trkpt lat="39.6828050" lon="-104.9591980">
    <ele>1632.7</ele>
    <time>2022-06-10T02:01:17Z</time>
   </trkpt>
   <trkpt lat="39.6827960" lon="-104.9592030">
    <ele>1632.7</ele>
    <time>2022-06-10T02:01:18Z</time>
   </trkpt>
   <trkpt lat="39.6827810" lon="-104.9592080">
    <ele>1632.7</ele>
    <time>2022-06-10T02:01:19Z</time>
   </trkpt>
   <trkpt lat="39.6827650" lon="-104.9592120">
    <ele>1632.6</ele>
    <time>2022-06-10T02:01:20Z</time>
   </trkpt>
   <trkpt lat="39.6827470" lon="-104.9592140">
    <ele>1632.6</ele>
    <time>2022-06-10T02:01:21Z</time>
   </trkpt>
   <trkpt lat="39.6827300" lon="-104.9592110">
    <ele>1632.5</ele>
    <time>2022-06-10T02:01:22Z</time>
   </trkpt>
   <trkpt lat="39.6827020" lon="-104.9592240">
    <ele>1632.5</ele>
    <time>2022-06-10T02:01:23Z</time>
   </trkpt>
   <trkpt lat="39.6826870" lon="-104.9592290">
    <ele>1632.4</ele>
    <time>2022-06-10T02:01:25Z</time>
   </trkpt>
   <trkpt lat="39.6826710" lon="-104.9592340">
    <ele>1632.4</ele>
    <time>2022-06-10T02:01:26Z</time>
   </trkpt>
   <trkpt lat="39.6826560" lon="-104.9592390">
    <ele>1632.4</ele>
    <time>2022-06-10T02:01:27Z</time>
   </trkpt>
   <trkpt lat="39.6826240" lon="-104.9592320">
    <ele>1632.4</ele>
    <time>2022-06-10T02:01:28Z</time>
   </trkpt>
   <trkpt lat="39.6825870" lon="-104.9592160">
    <ele>1632.4</ele>
    <time>2022-06-10T02:01:29Z</time>
   </trkpt>
   <trkpt lat="39.6825720" lon="-104.9592130">
    <ele>1632.4</ele>
    <time>2022-06-10T02:01:30Z</time>
   </trkpt>
   <trkpt lat="39.6825500" lon="-104.9591910">
    <ele>1632.4</ele>
    <time>2022-06-10T02:01:31Z</time>
   </trkpt>
   <trkpt lat="39.6825450" lon="-104.9591740">
    <ele>1632.4</ele>
    <time>2022-06-10T02:01:32Z</time>
   </trkpt>
   <trkpt lat="39.6825240" lon="-104.9591710">
    <ele>1632.4</ele>
    <time>2022-06-10T02:01:33Z</time>
   </trkpt>
   <trkpt lat="39.6825050" lon="-104.9591660">
    <ele>1632.5</ele>
    <time>2022-06-10T02:01:34Z</time>
   </trkpt>
   <trkpt lat="39.6824920" lon="-104.9591580">
    <ele>1632.5</ele>
    <time>2022-06-10T02:01:35Z</time>
   </trkpt>
   <trkpt lat="39.6824790" lon="-104.9591470">
    <ele>1632.5</ele>
    <time>2022-06-10T02:01:36Z</time>
   </trkpt>
   <trkpt lat="39.6824660" lon="-104.9591360">
    <ele>1632.5</ele>
    <time>2022-06-10T02:01:37Z</time>
   </trkpt>
   <trkpt lat="39.6824540" lon="-104.9591280">
    <ele>1632.5</ele>
    <time>2022-06-10T02:01:38Z</time>
   </trkpt>
   <trkpt lat="39.6824400" lon="-104.9591200">
    <ele>1632.5</ele>
    <time>2022-06-10T02:01:39Z</time>
   </trkpt>
   <trkpt lat="39.6824250" lon="-104.9591140">
    <ele>1632.5</ele>
    <time>2022-06-10T02:01:40Z</time>
   </trkpt>
   <trkpt lat="39.6824150" lon="-104.9591050">
    <ele>1632.5</ele>
    <time>2022-06-10T02:01:41Z</time>
   </trkpt>
   <trkpt lat="39.6824120" lon="-104.9590830">
    <ele>1632.5</ele>
    <time>2022-06-10T02:01:42Z</time>
   </trkpt>
   <trkpt lat="39.6824090" lon="-104.9590730">
    <ele>1632.5</ele>
    <time>2022-06-10T02:01:43Z</time>
   </trkpt>
   <trkpt lat="39.6824060" lon="-104.9590630">
    <ele>1632.5</ele>
    <time>2022-06-10T02:01:44Z</time>
   </trkpt>
   <trkpt lat="39.6824030" lon="-104.9590530">
    <ele>1632.5</ele>
    <time>2022-06-10T02:01:45Z</time>
   </trkpt>
   <trkpt lat="39.6824030" lon="-104.9590250">
    <ele>1632.5</ele>
    <time>2022-06-10T02:01:46Z</time>
   </trkpt>
   <trkpt lat="39.6824020" lon="-104.9590140">
    <ele>1632.5</ele>
    <time>2022-06-10T02:01:47Z</time>
   </trkpt>
   <trkpt lat="39.6824020" lon="-104.9590030">
    <ele>1632.5</ele>
    <time>2022-06-10T02:01:48Z</time>
   </trkpt>
   <trkpt lat="39.6824030" lon="-104.9589840">
    <ele>1632.5</ele>
    <time>2022-06-10T02:01:49Z</time>
   </trkpt>
   <trkpt lat="39.6824030" lon="-104.9589650">
    <ele>1632.5</ele>
    <time>2022-06-10T02:01:50Z</time>
   </trkpt>
   <trkpt lat="39.6823960" lon="-104.9589410">
    <ele>1632.5</ele>
    <time>2022-06-10T02:01:51Z</time>
   </trkpt>
   <trkpt lat="39.6823910" lon="-104.9589260">
    <ele>1632.5</ele>
    <time>2022-06-10T02:01:52Z</time>
   </trkpt>
   <trkpt lat="39.6823860" lon="-104.9589050">
    <ele>1632.5</ele>
    <time>2022-06-10T02:01:53Z</time>
   </trkpt>
   <trkpt lat="39.6823840" lon="-104.9588900">
    <ele>1632.5</ele>
    <time>2022-06-10T02:01:54Z</time>
   </trkpt>
   <trkpt lat="39.6823820" lon="-104.9588750">
    <ele>1632.5</ele>
    <time>2022-06-10T02:01:55Z</time>
   </trkpt>
   <trkpt lat="39.6823780" lon="-104.9588470">
    <ele>1632.5</ele>
    <time>2022-06-10T02:01:56Z</time>
   </trkpt>
   <trkpt lat="39.6823750" lon="-104.9588340">
    <ele>1632.5</ele>
    <time>2022-06-10T02:01:57Z</time>
   </trkpt>
   <trkpt lat="39.6823710" lon="-104.9588220">
    <ele>1632.5</ele>
    <time>2022-06-10T02:01:58Z</time>
   </trkpt>
   <trkpt lat="39.6823640" lon="-104.9587980">
    <ele>1632.5</ele>
    <time>2022-06-10T02:01:59Z</time>
   </trkpt>
   <trkpt lat="39.6823650" lon="-104.9587840">
    <ele>1632.5</ele>
    <time>2022-06-10T02:02:00Z</time>
   </trkpt>
   <trkpt lat="39.6823650" lon="-104.9587710">
    <ele>1632.5</ele>
    <time>2022-06-10T02:02:01Z</time>
   </trkpt>
   <trkpt lat="39.6823610" lon="-104.9587550">
    <ele>1632.5</ele>
    <time>2022-06-10T02:02:02Z</time>
   </trkpt>
   <trkpt lat="39.6823530" lon="-104.9587380">
    <ele>1632.5</ele>
    <time>2022-06-10T02:02:03Z</time>
   </trkpt>
   <trkpt lat="39.6823370" lon="-104.9587080">
    <ele>1632.5</ele>
    <time>2022-06-10T02:02:04Z</time>
   </trkpt>
   <trkpt lat="39.6823310" lon="-104.9586980">
    <ele>1632.5</ele>
    <time>2022-06-10T02:02:05Z</time>
   </trkpt>
   <trkpt lat="39.6823180" lon="-104.9586800">
    <ele>1632.5</ele>
    <time>2022-06-10T02:02:06Z</time>
   </trkpt>
   <trkpt lat="39.6823150" lon="-104.9586630">
    <ele>1632.5</ele>
    <time>2022-06-10T02:02:07Z</time>
   </trkpt>
   <trkpt lat="39.6823160" lon="-104.9586400">
    <ele>1632.5</ele>
    <time>2022-06-10T02:02:08Z</time>
   </trkpt>
   <trkpt lat="39.6823140" lon="-104.9586230">
    <ele>1632.5</ele>
    <time>2022-06-10T02:02:09Z</time>
   </trkpt>
  </trkseg>
 </trk>
</gpx>
