<?xml version="1.0" encoding="UTF-8"?>
<gpx creator="StravaGPX" version="1.1" xmlns="http://www.topografix.com/GPX/1/1" xmlns:xsi="http://www.w3.org/2001/XMLSchema-instance" xsi:schemaLocation="http://www.topografix.com/GPX/1/1 http://www.topografix.com/GPX/1/1/gpx.xsd">
 <metadata>
  <time>2022-09-08T12:37:58Z</time>
 </metadata>
 <trk>
  <name>Quick run before work</name>
  <type>running</type>
  <trkseg>
   <trkpt lat="39.6827230" lon="-104.9597630">
    <ele>1631.6</ele>
    <time>2022-09-08T12:37:58Z</time>
   </trkpt>
   <trkpt lat="39.6827230" lon="-104.9598010">
    <ele>1631.5</ele>
    <time>2022-09-08T12:37:59Z</time>
   </trkpt>
   <trkpt lat="39.6827270" lon="-104.9598170">
    <ele>1631.5</ele>
    <time>2022-09-08T12:38:00Z</time>
   </trkpt>
   <trkpt lat="39.6827180" lon="-104.9598650">
    <ele>1631.4</ele>
    <time>2022-09-08T12:38:01Z</time>
   </trkpt>
   <trkpt lat="39.6827100" lon="-104.9598900">
    <ele>1631.3</ele>
    <time>2022-09-08T12:38:02Z</time>
   </trkpt>
   <trkpt lat="39.6827320" lon="-104.9599340">
    <ele>1631.3</ele>
    <time>2022-09-08T12:38:03Z</time>
   </trkpt>
   <trkpt lat="39.6827370" lon="-104.9599520">
    <ele>1631.2</ele>
    <time>2022-09-08T12:38:04Z</time>
   </trkpt>
   <trkpt lat="39.6827370" lon="-104.9599900">
    <ele>1631.2</ele>
    <time>2022-09-08T12:38:05Z</time>
   </trkpt>
   <trkpt lat="39.6827310" lon="-104.9600250">
    <ele>1631.1</ele>
    <time>2022-09-08T12:38:06Z</time>
   </trkpt>
   <trkpt lat="39.6827440" lon="-104.9600590">
    <ele>1631.1</ele>
    <time>2022-09-08T12:38:07Z</time>
   </trkpt>
   <trkpt lat="39.6827410" lon="-104.9601020">
    <ele>1631.0</ele>
    <time>2022-09-08T12:38:08Z</time>
   </trkpt>
   <trkpt lat="39.6827410" lon="-104.9601160">
    <ele>1631.0</ele>
    <time>2022-09-08T12:38:09Z</time>
   </trkpt>
   <trkpt lat="39.6827440" lon="-104.9601600">
    <ele>1631.0</ele>
    <time>2022-09-08T12:38:10Z</time>
   </trkpt>
   <trkpt lat="39.6827400" lon="-104.9601750">
    <ele>1631.0</ele>
    <time>2022-09-08T12:38:11Z</time>
   </trkpt>
   <trkpt lat="39.6827420" lon="-104.9602240">
    <ele>1630.9</ele>
    <time>2022-09-08T12:38:12Z</time>
   </trkpt>
   <trkpt lat="39.6827550" lon="-104.9602840">
    <ele>1630.9</ele>
    <time>2022-09-08T12:38:13Z</time>
   </trkpt>
   <trkpt lat="39.6827650" lon="-104.9603560">
    <ele>1630.8</ele>
    <time>2022-09-08T12:38:14Z</time>
   </trkpt>
   <trkpt lat="39.6827820" lon="-104.9604080">
    <ele>1630.8</ele>
    <time>2022-09-08T12:38:15Z</time>
   </trkpt>
   <trkpt lat="39.6828080" lon="-104.9604500">
    <ele>1630.7</ele>
    <time>2022-09-08T12:38:16Z</time>
   </trkpt>
   <trkpt lat="39.6828170" lon="-104.9605070">
    <ele>1630.7</ele>
    <time>2022-09-08T12:38:17Z</time>
   </trkpt>
   <trkpt lat="39.6828340" lon="-104.9605570">
    <ele>1630.6</ele>
    <time>2022-09-08T12:38:18Z</time>
   </trkpt>
   <trkpt lat="39.6828440" lon="-104.9606120">
    <ele>1630.6</ele>
    <time>2022-09-08T12:38:19Z</time>
   </trkpt>
   <trkpt lat="39.6828550" lon="-104.9606750">
    <ele>1630.5</ele>
    <time>2022-09-08T12:38:20Z</time>
   </trkpt>
   <trkpt lat="39.6828730" lon="-104.9607220">
    <ele>1630.5</ele>
    <time>2022-09-08T12:38:21Z</time>
   </trkpt>
   <trkpt lat="39.6828900" lon="-104.9607770">
    <ele>1630.4</ele>
    <time>2022-09-08T12:38:22Z</time>
   </trkpt>
   <trkpt lat="39.6829010" lon="-104.9608380">
    <ele>1630.3</ele>
    <time>2022-09-08T12:38:23Z</time>
   </trkpt>
   <trkpt lat="39.6829180" lon="-104.9608830">
    <ele>1630.3</ele>
    <time>2022-09-08T12:38:24Z</time>
   </trkpt>
   <trkpt lat="39.6829310" lon="-104.9609310">
    <ele>1630.2</ele>
    <time>2022-09-08T12:38:25Z</time>
   </trkpt>
   <trkpt lat="39.6829520" lon="-104.9609920">
    <ele>1630.1</ele>
    <time>2022-09-08T12:38:26Z</time>
   </trkpt>
   <trkpt lat="39.6829650" lon="-104.9610360">
    <ele>1630.0</ele>
    <time>2022-09-08T12:38:27Z</time>
   </trkpt>
   <trkpt lat="39.6829740" lon="-104.9610790">
    <ele>1630.0</ele>
    <time>2022-09-08T12:38:28Z</time>
   </trkpt>
   <trkpt lat="39.6829870" lon="-104.9611410">
    <ele>1629.9</ele>
    <time>2022-09-08T12:38:29Z</time>
   </trkpt>
   <trkpt lat="39.6830060" lon="-104.9611770">
    <ele>1629.8</ele>
    <time>2022-09-08T12:38:30Z</time>
   </trkpt>
   <trkpt lat="39.6830270" lon="-104.9612250">
    <ele>1629.8</ele>
    <time>2022-09-08T12:38:31Z</time>
   </trkpt>
   <trkpt lat="39.6830520" lon="-104.9612800">
    <ele>1629.7</ele>
    <time>2022-09-08T12:38:32Z</time>
   </trkpt>
   <trkpt lat="39.6830720" lon="-104.9613130">
    <ele>1629.6</ele>
    <time>2022-09-08T12:38:33Z</time>
   </trkpt>
   <trkpt lat="39.6831000" lon="-104.9613590">
    <ele>1629.5</ele>
    <time>2022-09-08T12:38:34Z</time>
   </trkpt>
   <trkpt lat="39.6831230" lon="-104.9614040">
    <ele>1629.5</ele>
    <time>2022-09-08T12:38:35Z</time>
   </trkpt>
   <trkpt lat="39.6831350" lon="-104.9614520">
    <ele>1629.4</ele>
    <time>2022-09-08T12:38:36Z</time>
   </trkpt>
   <trkpt lat="39.6831460" lon="-104.9615180">
    <ele>1629.3</ele>
    <time>2022-09-08T12:38:37Z</time>
   </trkpt>
   <trkpt lat="39.6831570" lon="-104.9615600">
    <ele>1629.3</ele>
    <time>2022-09-08T12:38:38Z</time>
   </trkpt>
   <trkpt lat="39.6831680" lon="-104.9616100">
    <ele>1629.2</ele>
    <time>2022-09-08T12:38:39Z</time>
   </trkpt>
   <trkpt lat="39.6831820" lon="-104.9616600">
    <ele>1629.1</ele>
    <time>2022-09-08T12:38:40Z</time>
   </trkpt>
   <trkpt lat="39.6831880" lon="-104.9616990">
    <ele>1629.1</ele>
    <time>2022-09-08T12:38:41Z</time>
   </trkpt>
   <trkpt lat="39.6832010" lon="-104.9617520">
    <ele>1629.1</ele>
    <time>2022-09-08T12:38:42Z</time>
   </trkpt>
   <trkpt lat="39.6832040" lon="-104.9618100">
    <ele>1629.0</ele>
    <time>2022-09-08T12:38:43Z</time>
   </trkpt>
   <trkpt lat="39.6832120" lon="-104.9618480">
    <ele>1629.0</ele>
    <time>2022-09-08T12:38:44Z</time>
   </trkpt>
   <trkpt lat="39.6832300" lon="-104.9618910">
    <ele>1629.0</ele>
    <time>2022-09-08T12:38:45Z</time>
   </trkpt>
   <trkpt lat="39.6832340" lon="-104.9619500">
    <ele>1628.9</ele>
    <time>2022-09-08T12:38:46Z</time>
   </trkpt>
   <trkpt lat="39.6832430" lon="-104.9619830">
    <ele>1628.9</ele>
    <time>2022-09-08T12:38:47Z</time>
   </trkpt>
   <trkpt lat="39.6832500" lon="-104.9620300">
    <ele>1628.8</ele>
    <time>2022-09-08T12:38:48Z</time>
   </trkpt>
   <trkpt lat="39.6832540" lon="-104.9620940">
    <ele>1628.8</ele>
    <time>2022-09-08T12:38:49Z</time>
   </trkpt>
   <trkpt lat="39.6832680" lon="-104.9621330">
    <ele>1628.7</ele>
    <time>2022-09-08T12:38:50Z</time>
   </trkpt>
   <trkpt lat="39.6832840" lon="-104.9621800">
    <ele>1628.6</ele>
    <time>2022-09-08T12:38:51Z</time>
   </trkpt>
   <trkpt lat="39.6832940" lon="-104.9622220">
    <ele>1628.6</ele>
    <time>2022-09-08T12:38:52Z</time>
   </trkpt>
   <trkpt lat="39.6833110" lon="-104.9622550">
    <ele>1628.5</ele>
    <time>2022-09-08T12:38:53Z</time>
   </trkpt>
   <trkpt lat="39.6833310" lon="-104.9623020">
    <ele>1628.5</ele>
    <time>2022-09-08T12:38:54Z</time>
   </trkpt>
   <trkpt lat="39.6833390" lon="-104.9623460">
    <ele>1628.4</ele>
    <time>2022-09-08T12:38:55Z</time>
   </trkpt>
   <trkpt lat="39.6833530" lon="-104.9623850">
    <ele>1628.4</ele>
    <time>2022-09-08T12:38:56Z</time>
   </trkpt>
   <trkpt lat="39.6833640" lon="-104.9624290">
    <ele>1628.3</ele>
    <time>2022-09-08T12:38:57Z</time>
   </trkpt>
   <trkpt lat="39.6833790" lon="-104.9624690">
    <ele>1628.2</ele>
    <time>2022-09-08T12:38:58Z</time>
   </trkpt>
   <trkpt lat="39.6833920" lon="-104.9625090">
    <ele>1628.2</ele>
    <time>2022-09-08T12:38:59Z</time>
   </trkpt>
   <trkpt lat="39.6834030" lon="-104.9625650">
    <ele>1628.1</ele>
    <time>2022-09-08T12:39:00Z</time>
   </trkpt>
   <trkpt lat="39.6834180" lon="-104.9626010">
    <ele>1628.1</ele>
    <time>2022-09-08T12:39:01Z</time>
   </trkpt>
   <trkpt lat="39.6834270" lon="-104.9626350">
    <ele>1628.1</ele>
    <time>2022-09-08T12:39:02Z</time>
   </trkpt>
   <trkpt lat="39.6834370" lon="-104.9626780">
    <ele>1628.0</ele>
    <time>2022-09-08T12:39:03Z</time>
   </trkpt>
   <trkpt lat="39.6834470" lon="-104.9627150">
    <ele>1627.9</ele>
    <time>2022-09-08T12:39:04Z</time>
   </trkpt>
   <trkpt lat="39.6834660" lon="-104.9627460">
    <ele>1627.9</ele>
    <time>2022-09-08T12:39:05Z</time>
   </trkpt>
   <trkpt lat="39.6834870" lon="-104.9627940">
    <ele>1627.8</ele>
    <time>2022-09-08T12:39:06Z</time>
   </trkpt>
   <trkpt lat="39.6835060" lon="-104.9628270">
    <ele>1627.8</ele>
    <time>2022-09-08T12:39:07Z</time>
   </trkpt>
   <trkpt lat="39.6835260" lon="-104.9628610">
    <ele>1627.7</ele>
    <time>2022-09-08T12:39:08Z</time>
   </trkpt>
   <trkpt lat="39.6835440" lon="-104.9629170">
    <ele>1627.6</ele>
    <time>2022-09-08T12:39:09Z</time>
   </trkpt>
   <trkpt lat="39.6835620" lon="-104.9629550">
    <ele>1627.5</ele>
    <time>2022-09-08T12:39:10Z</time>
   </trkpt>
   <trkpt lat="39.6835670" lon="-104.9630070">
    <ele>1627.4</ele>
    <time>2022-09-08T12:39:11Z</time>
   </trkpt>
   <trkpt lat="39.6835810" lon="-104.9630480">
    <ele>1627.4</ele>
    <time>2022-09-08T12:39:12Z</time>
   </trkpt>
   <trkpt lat="39.6836030" lon="-104.9630780">
    <ele>1627.3</ele>
    <time>2022-09-08T12:39:13Z</time>
   </trkpt>
   <trkpt lat="39.6836190" lon="-104.9631250">
    <ele>1627.2</ele>
    <time>2022-09-08T12:39:14Z</time>
   </trkpt>
   <trkpt lat="39.6836310" lon="-104.9631680">
    <ele>1627.2</ele>
    <time>2022-09-08T12:39:15Z</time>
   </trkpt>
   <trkpt lat="39.6836470" lon="-104.9632080">
    <ele>1627.1</ele>
    <time>2022-09-08T12:39:16Z</time>
   </trkpt>
   <trkpt lat="39.6836620" lon="-104.9632650">
    <ele>1627.0</ele>
    <time>2022-09-08T12:39:17Z</time>
   </trkpt>
   <trkpt lat="39.6836840" lon="-104.9632930">
    <ele>1626.9</ele>
    <time>2022-09-08T12:39:18Z</time>
   </trkpt>
   <trkpt lat="39.6836880" lon="-104.9633300">
    <ele>1626.9</ele>
    <time>2022-09-08T12:39:19Z</time>
   </trkpt>
   <trkpt lat="39.6837030" lon="-104.9633730">
    <ele>1626.8</ele>
    <time>2022-09-08T12:39:20Z</time>
   </trkpt>
   <trkpt lat="39.6837260" lon="-104.9634180">
    <ele>1626.8</ele>
    <time>2022-09-08T12:39:21Z</time>
   </trkpt>
   <trkpt lat="39.6837420" lon="-104.9634680">
    <ele>1626.7</ele>
    <time>2022-09-08T12:39:22Z</time>
   </trkpt>
   <trkpt lat="39.6837610" lon="-104.9635030">
    <ele>1626.7</ele>
    <time>2022-09-08T12:39:23Z</time>
   </trkpt>
   <trkpt lat="39.6837840" lon="-104.9635410">
    <ele>1626.7</ele>
    <time>2022-09-08T12:39:24Z</time>
   </trkpt>
   <trkpt lat="39.6838030" lon="-104.9635790">
    <ele>1626.7</ele>
    <time>2022-09-08T12:39:25Z</time>
   </trkpt>
   <trkpt lat="39.6838230" lon="-104.9636190">
    <ele>1626.6</ele>
    <time>2022-09-08T12:39:26Z</time>
   </trkpt>
   <trkpt lat="39.6838470" lon="-104.9636550">
    <ele>1626.6</ele>
    <time>2022-09-08T12:39:27Z</time>
   </trkpt>
   <trkpt lat="39.6838760" lon="-104.9637000">
    <ele>1626.6</ele>
    <time>2022-09-08T12:39:28Z</time>
   </trkpt>
   <trkpt lat="39.6838980" lon="-104.9637400">
    <ele>1626.6</ele>
    <time>2022-09-08T12:39:29Z</time>
   </trkpt>
   <trkpt lat="39.6839220" lon="-104.9637840">
    <ele>1626.5</ele>
    <time>2022-09-08T12:39:30Z</time>
   </trkpt>
   <trkpt lat="39.6839470" lon="-104.9638200">
    <ele>1626.5</ele>
    <time>2022-09-08T12:39:31Z</time>
   </trkpt>
   <trkpt lat="39.6839690" lon="-104.9638490">
    <ele>1626.5</ele>
    <time>2022-09-08T12:39:32Z</time>
   </trkpt>
   <trkpt lat="39.6839930" lon="-104.9638870">
    <ele>1626.4</ele>
    <time>2022-09-08T12:39:33Z</time>
   </trkpt>
   <trkpt lat="39.6840110" lon="-104.9639300">
    <ele>1626.4</ele>
    <time>2022-09-08T12:39:34Z</time>
   </trkpt>
   <trkpt lat="39.6840360" lon="-104.9639660">
    <ele>1626.4</ele>
    <time>2022-09-08T12:39:35Z</time>
   </trkpt>
   <trkpt lat="39.6840570" lon="-104.9639950">
    <ele>1626.4</ele>
    <time>2022-09-08T12:39:36Z</time>
   </trkpt>
   <trkpt lat="39.6840770" lon="-104.9640310">
    <ele>1626.3</ele>
    <time>2022-09-08T12:39:37Z</time>
   </trkpt>
   <trkpt lat="39.6841000" lon="-104.9640720">
    <ele>1626.3</ele>
    <time>2022-09-08T12:39:38Z</time>
   </trkpt>
   <trkpt lat="39.6841190" lon="-104.9641140">
    <ele>1626.3</ele>
    <time>2022-09-08T12:39:39Z</time>
   </trkpt>
   <trkpt lat="39.6841430" lon="-104.9641530">
    <ele>1626.2</ele>
    <time>2022-09-08T12:39:40Z</time>
   </trkpt>
   <trkpt lat="39.6841630" lon="-104.9641850">
    <ele>1626.2</ele>
    <time>2022-09-08T12:39:41Z</time>
   </trkpt>
   <trkpt lat="39.6841810" lon="-104.9642130">
    <ele>1626.2</ele>
    <time>2022-09-08T12:39:42Z</time>
   </trkpt>
   <trkpt lat="39.6841900" lon="-104.9642510">
    <ele>1626.2</ele>
    <time>2022-09-08T12:39:43Z</time>
   </trkpt>
   <trkpt lat="39.6842110" lon="-104.9642750">
    <ele>1626.2</ele>
    <time>2022-09-08T12:39:44Z</time>
   </trkpt>
   <trkpt lat="39.6842250" lon="-104.9643180">
    <ele>1626.1</ele>
    <time>2022-09-08T12:39:45Z</time>
   </trkpt>
   <trkpt lat="39.6842490" lon="-104.9643740">
    <ele>1626.1</ele>
    <time>2022-09-08T12:39:46Z</time>
   </trkpt>
   <trkpt lat="39.6842660" lon="-104.9644140">
    <ele>1626.1</ele>
    <time>2022-09-08T12:39:47Z</time>
   </trkpt>
   <trkpt lat="39.6842820" lon="-104.9644530">
    <ele>1626.1</ele>
    <time>2022-09-08T12:39:48Z</time>
   </trkpt>
   <trkpt lat="39.6843050" lon="-104.9644880">
    <ele>1626.1</ele>
    <time>2022-09-08T12:39:49Z</time>
   </trkpt>
   <trkpt lat="39.6843200" lon="-104.9645320">
    <ele>1626.1</ele>
    <time>2022-09-08T12:39:50Z</time>
   </trkpt>
   <trkpt lat="39.6843460" lon="-104.9645600">
    <ele>1626.0</ele>
    <time>2022-09-08T12:39:51Z</time>
   </trkpt>
   <trkpt lat="39.6843690" lon="-104.9646030">
    <ele>1626.0</ele>
    <time>2022-09-08T12:39:52Z</time>
   </trkpt>
   <trkpt lat="39.6843900" lon="-104.9646350">
    <ele>1626.0</ele>
    <time>2022-09-08T12:39:53Z</time>
   </trkpt>
   <trkpt lat="39.6844110" lon="-104.9646770">
    <ele>1625.9</ele>
    <time>2022-09-08T12:39:54Z</time>
   </trkpt>
   <trkpt lat="39.6844290" lon="-104.9647200">
    <ele>1625.9</ele>
    <time>2022-09-08T12:39:55Z</time>
   </trkpt>
   <trkpt lat="39.6844530" lon="-104.9647550">
    <ele>1625.9</ele>
    <time>2022-09-08T12:39:56Z</time>
   </trkpt>
   <trkpt lat="39.6844710" lon="-104.9647860">
    <ele>1625.9</ele>
    <time>2022-09-08T12:39:57Z</time>
   </trkpt>
   <trkpt lat="39.6844960" lon="-104.9648140">
    <ele>1625.8</ele>
    <time>2022-09-08T12:39:58Z</time>
   </trkpt>
   <trkpt lat="39.6845160" lon="-104.9648410">
    <ele>1625.8</ele>
    <time>2022-09-08T12:39:59Z</time>
   </trkpt>
   <trkpt lat="39.6845310" lon="-104.9648810">
    <ele>1625.8</ele>
    <time>2022-09-08T12:40:00Z</time>
   </trkpt>
   <trkpt lat="39.6845420" lon="-104.9649180">
    <ele>1625.8</ele>
    <time>2022-09-08T12:40:01Z</time>
   </trkpt>
   <trkpt lat="39.6845550" lon="-104.9649510">
    <ele>1625.8</ele>
    <time>2022-09-08T12:40:02Z</time>
   </trkpt>
   <trkpt lat="39.6845780" lon="-104.9649820">
    <ele>1625.7</ele>
    <time>2022-09-08T12:40:03Z</time>
   </trkpt>
   <trkpt lat="39.6845860" lon="-104.9649900">
    <ele>1625.7</ele>
    <time>2022-09-08T12:40:04Z</time>
   </trkpt>
   <trkpt lat="39.6846060" lon="-104.9650440">
    <ele>1625.7</ele>
    <time>2022-09-08T12:40:05Z</time>
   </trkpt>
   <trkpt lat="39.6846170" lon="-104.9650830">
    <ele>1625.7</ele>
    <time>2022-09-08T12:40:06Z</time>
   </trkpt>
   <trkpt lat="39.6846420" lon="-104.9651290">
    <ele>1625.6</ele>
    <time>2022-09-08T12:40:07Z</time>
   </trkpt>
   <trkpt lat="39.6846650" lon="-104.9651740">
    <ele>1625.6</ele>
    <time>2022-09-08T12:40:08Z</time>
   </trkpt>
   <trkpt lat="39.6846880" lon="-104.9652130">
    <ele>1625.6</ele>
    <time>2022-09-08T12:40:09Z</time>
   </trkpt>
   <trkpt lat="39.6847110" lon="-104.9652470">
    <ele>1625.6</ele>
    <time>2022-09-08T12:40:10Z</time>
   </trkpt>
   <trkpt lat="39.6847320" lon="-104.9652810">
    <ele>1625.5</ele>
    <time>2022-09-08T12:40:11Z</time>
   </trkpt>
   <trkpt lat="39.6847500" lon="-104.9653160">
    <ele>1625.5</ele>
    <time>2022-09-08T12:40:12Z</time>
   </trkpt>
   <trkpt lat="39.6847660" lon="-104.9653660">
    <ele>1625.5</ele>
    <time>2022-09-08T12:40:13Z</time>
   </trkpt>
   <trkpt lat="39.6847720" lon="-104.9653870">
    <ele>1625.4</ele>
    <time>2022-09-08T12:40:14Z</time>
   </trkpt>
   <trkpt lat="39.6848030" lon="-104.9654140">
    <ele>1625.4</ele>
    <time>2022-09-08T12:40:15Z</time>
   </trkpt>
   <trkpt lat="39.6848280" lon="-104.9654520">
    <ele>1625.4</ele>
    <time>2022-09-08T12:40:16Z</time>
   </trkpt>
   <trkpt lat="39.6848500" lon="-104.9654810">
    <ele>1625.4</ele>
    <time>2022-09-08T12:40:17Z</time>
   </trkpt>
   <trkpt lat="39.6848760" lon="-104.9655210">
    <ele>1625.4</ele>
    <time>2022-09-08T12:40:18Z</time>
   </trkpt>
   <trkpt lat="39.6849080" lon="-104.9655500">
    <ele>1625.4</ele>
    <time>2022-09-08T12:40:19Z</time>
   </trkpt>
   <trkpt lat="39.6849290" lon="-104.9655840">
    <ele>1625.3</ele>
    <time>2022-09-08T12:40:20Z</time>
   </trkpt>
   <trkpt lat="39.6849500" lon="-104.9656310">
    <ele>1625.3</ele>
    <time>2022-09-08T12:40:21Z</time>
   </trkpt>
   <trkpt lat="39.6849760" lon="-104.9656740">
    <ele>1625.3</ele>
    <time>2022-09-08T12:40:22Z</time>
   </trkpt>
   <trkpt lat="39.6849960" lon="-104.9657120">
    <ele>1625.3</ele>
    <time>2022-09-08T12:40:23Z</time>
   </trkpt>
   <trkpt lat="39.6850240" lon="-104.9657390">
    <ele>1625.2</ele>
    <time>2022-09-08T12:40:24Z</time>
   </trkpt>
   <trkpt lat="39.6850570" lon="-104.9657680">
    <ele>1625.2</ele>
    <time>2022-09-08T12:40:25Z</time>
   </trkpt>
   <trkpt lat="39.6850940" lon="-104.9658040">
    <ele>1625.2</ele>
    <time>2022-09-08T12:40:26Z</time>
   </trkpt>
   <trkpt lat="39.6851230" lon="-104.9658390">
    <ele>1625.2</ele>
    <time>2022-09-08T12:40:27Z</time>
   </trkpt>
   <trkpt lat="39.6851470" lon="-104.9658780">
    <ele>1625.2</ele>
    <time>2022-09-08T12:40:28Z</time>
   </trkpt>
   <trkpt lat="39.6851740" lon="-104.9659050">
    <ele>1625.2</ele>
    <time>2022-09-08T12:40:29Z</time>
   </trkpt>
   <trkpt lat="39.6851920" lon="-104.9659360">
    <ele>1625.2</ele>
    <time>2022-09-08T12:40:30Z</time>
   </trkpt>
   <trkpt lat="39.6852140" lon="-104.9659640">
    <ele>1625.2</ele>
    <time>2022-09-08T12:40:31Z</time>
   </trkpt>
   <trkpt lat="39.6852290" lon="-104.9659960">
    <ele>1625.1</ele>
    <time>2022-09-08T12:40:32Z</time>
   </trkpt>
   <trkpt lat="39.6852440" lon="-104.9660390">
    <ele>1625.1</ele>
    <time>2022-09-08T12:40:33Z</time>
   </trkpt>
   <trkpt lat="39.6852650" lon="-104.9660750">
    <ele>1625.1</ele>
    <time>2022-09-08T12:40:34Z</time>
   </trkpt>
   <trkpt lat="39.6852830" lon="-104.9661160">
    <ele>1625.1</ele>
    <time>2022-09-08T12:40:35Z</time>
   </trkpt>
   <trkpt lat="39.6853010" lon="-104.9661500">
    <ele>1625.1</ele>
    <time>2022-09-08T12:40:36Z</time>
   </trkpt>
   <trkpt lat="39.6853120" lon="-104.9661930">
    <ele>1625.1</ele>
    <time>2022-09-08T12:40:37Z</time>
   </trkpt>
   <trkpt lat="39.6853270" lon="-104.9662300">
    <ele>1625.1</ele>
    <time>2022-09-08T12:40:38Z</time>
   </trkpt>
   <trkpt lat="39.6853520" lon="-104.9662650">
    <ele>1625.0</ele>
    <time>2022-09-08T12:40:39Z</time>
   </trkpt>
   <trkpt lat="39.6853600" lon="-104.9662780">
    <ele>1625.0</ele>
    <time>2022-09-08T12:40:40Z</time>
   </trkpt>
   <trkpt lat="39.6853800" lon="-104.9663060">
    <ele>1625.0</ele>
    <time>2022-09-08T12:40:41Z</time>
   </trkpt>
   <trkpt lat="39.6853990" lon="-104.9663410">
    <ele>1625.0</ele>
    <time>2022-09-08T12:40:42Z</time>
   </trkpt>
   <trkpt lat="39.6854230" lon="-104.9663750">
    <ele>1625.0</ele>
    <time>2022-09-08T12:40:43Z</time>
   </trkpt>
   <trkpt lat="39.6854400" lon="-104.9664060">
    <ele>1625.0</ele>
    <time>2022-09-08T12:40:44Z</time>
   </trkpt>
   <trkpt lat="39.6854620" lon="-104.9664300">
    <ele>1625.0</ele>
    <time>2022-09-08T12:40:45Z</time>
   </trkpt>
   <trkpt lat="39.6854820" lon="-104.9664540">
    <ele>1625.0</ele>
    <time>2022-09-08T12:40:46Z</time>
   </trkpt>
   <trkpt lat="39.6855060" lon="-104.9664890">
    <ele>1625.0</ele>
    <time>2022-09-08T12:40:47Z</time>
   </trkpt>
   <trkpt lat="39.6855130" lon="-104.9665030">
    <ele>1625.0</ele>
    <time>2022-09-08T12:40:48Z</time>
   </trkpt>
   <trkpt lat="39.6855220" lon="-104.9665590">
    <ele>1625.1</ele>
    <time>2022-09-08T12:40:49Z</time>
   </trkpt>
   <trkpt lat="39.6855280" lon="-104.9666010">
    <ele>1625.1</ele>
    <time>2022-09-08T12:40:50Z</time>
   </trkpt>
   <trkpt lat="39.6855430" lon="-104.9666350">
    <ele>1625.1</ele>
    <time>2022-09-08T12:40:51Z</time>
   </trkpt>
   <trkpt lat="39.6855660" lon="-104.9666700">
    <ele>1625.1</ele>
    <time>2022-09-08T12:40:52Z</time>
   </trkpt>
   <trkpt lat="39.6855870" lon="-104.9667060">
    <ele>1625.1</ele>
    <time>2022-09-08T12:40:53Z</time>
   </trkpt>
   <trkpt lat="39.6856060" lon="-104.9667390">
    <ele>1625.1</ele>
    <time>2022-09-08T12:40:54Z</time>
   </trkpt>
   <trkpt lat="39.6856180" lon="-104.9667750">
    <ele>1625.1</ele>
    <time>2022-09-08T12:40:55Z</time>
   </trkpt>
   <trkpt lat="39.6856260" lon="-104.9668160">
    <ele>1625.1</ele>
    <time>2022-09-08T12:40:56Z</time>
   </trkpt>
   <trkpt lat="39.6856410" lon="-104.9668550">
    <ele>1625.1</ele>
    <time>2022-09-08T12:40:57Z</time>
   </trkpt>
   <trkpt lat="39.6856470" lon="-104.9668910">
    <ele>1625.2</ele>
    <time>2022-09-08T12:40:58Z</time>
   </trkpt>
   <trkpt lat="39.6856490" lon="-104.9669360">
    <ele>1625.2</ele>
    <time>2022-09-08T12:40:59Z</time>
   </trkpt>
   <trkpt lat="39.6856710" lon="-104.9669800">
    <ele>1625.3</ele>
    <time>2022-09-08T12:41:00Z</time>
   </trkpt>
   <trkpt lat="39.6856830" lon="-104.9669940">
    <ele>1625.3</ele>
    <time>2022-09-08T12:41:01Z</time>
   </trkpt>
   <trkpt lat="39.6857030" lon="-104.9670230">
    <ele>1625.3</ele>
    <time>2022-09-08T12:41:02Z</time>
   </trkpt>
   <trkpt lat="39.6857160" lon="-104.9670750">
    <ele>1625.4</ele>
    <time>2022-09-08T12:41:03Z</time>
   </trkpt>
   <trkpt lat="39.6857200" lon="-104.9670930">
    <ele>1625.4</ele>
    <time>2022-09-08T12:41:04Z</time>
   </trkpt>
   <trkpt lat="39.6857200" lon="-104.9671330">
    <ele>1625.4</ele>
    <time>2022-09-08T12:41:05Z</time>
   </trkpt>
   <trkpt lat="39.6857100" lon="-104.9671750">
    <ele>1625.4</ele>
    <time>2022-09-08T12:41:06Z</time>
   </trkpt>
   <trkpt lat="39.6857040" lon="-104.9672210">
    <ele>1625.5</ele>
    <time>2022-09-08T12:41:07Z</time>
   </trkpt>
   <trkpt lat="39.6857080" lon="-104.9672580">
    <ele>1625.5</ele>
    <time>2022-09-08T12:41:08Z</time>
   </trkpt>
   <trkpt lat="39.6857060" lon="-104.9673030">
    <ele>1625.5</ele>
    <time>2022-09-08T12:41:09Z</time>
   </trkpt>
   <trkpt lat="39.6857110" lon="-104.9673510">
    <ele>1625.6</ele>
    <time>2022-09-08T12:41:10Z</time>
   </trkpt>
   <trkpt lat="39.6857140" lon="-104.9673650">
    <ele>1625.6</ele>
    <time>2022-09-08T12:41:11Z</time>
   </trkpt>
   <trkpt lat="39.6857060" lon="-104.9674010">
    <ele>1625.6</ele>
    <time>2022-09-08T12:41:12Z</time>
   </trkpt>
   <trkpt lat="39.6857090" lon="-104.9674360">
    <ele>1625.6</ele>
    <time>2022-09-08T12:41:13Z</time>
   </trkpt>
   <trkpt lat="39.6857090" lon="-104.9674810">
    <ele>1625.6</ele>
    <time>2022-09-08T12:41:14Z</time>
   </trkpt>
   <trkpt lat="39.6857230" lon="-104.9675240">
    <ele>1625.7</ele>
    <time>2022-09-08T12:41:15Z</time>
   </trkpt>
   <trkpt lat="39.6857330" lon="-104.9675720">
    <ele>1625.7</ele>
    <time>2022-09-08T12:41:16Z</time>
   </trkpt>
   <trkpt lat="39.6857460" lon="-104.9676110">
    <ele>1625.7</ele>
    <time>2022-09-08T12:41:17Z</time>
   </trkpt>
   <trkpt lat="39.6857510" lon="-104.9676460">
    <ele>1625.7</ele>
    <time>2022-09-08T12:41:18Z</time>
   </trkpt>
   <trkpt lat="39.6857480" lon="-104.9676870">
    <ele>1625.8</ele>
    <time>2022-09-08T12:41:19Z</time>
   </trkpt>
   <trkpt lat="39.6857470" lon="-104.9677440">
    <ele>1625.8</ele>
    <time>2022-09-08T12:41:20Z</time>
   </trkpt>
   <trkpt lat="39.6857470" lon="-104.9677670">
    <ele>1625.8</ele>
    <time>2022-09-08T12:41:21Z</time>
   </trkpt>
   <trkpt lat="39.6857460" lon="-104.9678060">
    <ele>1625.8</ele>
    <time>2022-09-08T12:41:22Z</time>
   </trkpt>
   <trkpt lat="39.6857440" lon="-104.9678550">
    <ele>1625.9</ele>
    <time>2022-09-08T12:41:23Z</time>
   </trkpt>
   <trkpt lat="39.6857440" lon="-104.9679040">
    <ele>1625.9</ele>
    <time>2022-09-08T12:41:24Z</time>
   </trkpt>
   <trkpt lat="39.6857510" lon="-104.9679410">
    <ele>1625.9</ele>
    <time>2022-09-08T12:41:25Z</time>
   </trkpt>
   <trkpt lat="39.6857460" lon="-104.9679780">
    <ele>1626.0</ele>
    <time>2022-09-08T12:41:26Z</time>
   </trkpt>
   <trkpt lat="39.6857400" lon="-104.9680270">
    <ele>1626.0</ele>
    <time>2022-09-08T12:41:27Z</time>
   </trkpt>
   <trkpt lat="39.6857330" lon="-104.9680730">
    <ele>1626.0</ele>
    <time>2022-09-08T12:41:28Z</time>
   </trkpt>
   <trkpt lat="39.6857400" lon="-104.9681210">
    <ele>1626.1</ele>
    <time>2022-09-08T12:41:29Z</time>
   </trkpt>
   <trkpt lat="39.6857420" lon="-104.9681700">
    <ele>1626.1</ele>
    <time>2022-09-08T12:41:30Z</time>
   </trkpt>
   <trkpt lat="39.6857440" lon="-104.9681850">
    <ele>1626.1</ele>
    <time>2022-09-08T12:41:31Z</time>
   </trkpt>
   <trkpt lat="39.6857520" lon="-104.9682260">
    <ele>1626.1</ele>
    <time>2022-09-08T12:41:32Z</time>
   </trkpt>
   <trkpt lat="39.6857580" lon="-104.9682670">
    <ele>1626.1</ele>
    <time>2022-09-08T12:41:33Z</time>
   </trkpt>
   <trkpt lat="39.6857500" lon="-104.9683130">
    <ele>1626.2</ele>
    <time>2022-09-08T12:41:34Z</time>
   </trkpt>
   <trkpt lat="39.6857500" lon="-104.9683530">
    <ele>1626.2</ele>
    <time>2022-09-08T12:41:35Z</time>
   </trkpt>
   <trkpt lat="39.6857410" lon="-104.9683920">
    <ele>1626.2</ele>
    <time>2022-09-08T12:41:36Z</time>
   </trkpt>
   <trkpt lat="39.6857380" lon="-104.9684350">
    <ele>1626.2</ele>
    <time>2022-09-08T12:41:37Z</time>
   </trkpt>
   <trkpt lat="39.6857430" lon="-104.9684860">
    <ele>1626.2</ele>
    <time>2022-09-08T12:41:38Z</time>
   </trkpt>
   <trkpt lat="39.6857430" lon="-104.9685230">
    <ele>1626.2</ele>
    <time>2022-09-08T12:41:39Z</time>
   </trkpt>
   <trkpt lat="39.6857250" lon="-104.9685650">
    <ele>1626.3</ele>
    <time>2022-09-08T12:41:40Z</time>
   </trkpt>
   <trkpt lat="39.6856840" lon="-104.9685820">
    <ele>1626.4</ele>
    <time>2022-09-08T12:41:41Z</time>
   </trkpt>
   <trkpt lat="39.6856470" lon="-104.9685900">
    <ele>1626.4</ele>
    <time>2022-09-08T12:41:42Z</time>
   </trkpt>
   <trkpt lat="39.6856140" lon="-104.9685990">
    <ele>1626.4</ele>
    <time>2022-09-08T12:41:43Z</time>
   </trkpt>
   <trkpt lat="39.6855760" lon="-104.9686020">
    <ele>1626.4</ele>
    <time>2022-09-08T12:41:44Z</time>
   </trkpt>
   <trkpt lat="39.6855430" lon="-104.9686140">
    <ele>1626.5</ele>
    <time>2022-09-08T12:41:45Z</time>
   </trkpt>
   <trkpt lat="39.6855080" lon="-104.9686290">
    <ele>1626.5</ele>
    <time>2022-09-08T12:41:46Z</time>
   </trkpt>
   <trkpt lat="39.6854670" lon="-104.9686350">
    <ele>1626.5</ele>
    <time>2022-09-08T12:41:47Z</time>
   </trkpt>
   <trkpt lat="39.6854320" lon="-104.9686240">
    <ele>1626.5</ele>
    <time>2022-09-08T12:41:48Z</time>
   </trkpt>
   <trkpt lat="39.6853990" lon="-104.9686420">
    <ele>1626.6</ele>
    <time>2022-09-08T12:41:49Z</time>
   </trkpt>
   <trkpt lat="39.6853700" lon="-104.9686510">
    <ele>1626.6</ele>
    <time>2022-09-08T12:41:50Z</time>
   </trkpt>
   <trkpt lat="39.6853400" lon="-104.9686530">
    <ele>1626.6</ele>
    <time>2022-09-08T12:41:51Z</time>
   </trkpt>
   <trkpt lat="39.6853100" lon="-104.9686420">
    <ele>1626.6</ele>
    <time>2022-09-08T12:41:52Z</time>
   </trkpt>
   <trkpt lat="39.6852760" lon="-104.9686470">
    <ele>1626.6</ele>
    <time>2022-09-08T12:41:53Z</time>
   </trkpt>
   <trkpt lat="39.6852390" lon="-104.9686490">
    <ele>1626.7</ele>
    <time>2022-09-08T12:41:54Z</time>
   </trkpt>
   <trkpt lat="39.6852050" lon="-104.9686470">
    <ele>1626.7</ele>
    <time>2022-09-08T12:41:55Z</time>
   </trkpt>
   <trkpt lat="39.6851680" lon="-104.9686280">
    <ele>1626.7</ele>
    <time>2022-09-08T12:41:56Z</time>
   </trkpt>
   <trkpt lat="39.6851330" lon="-104.9686220">
    <ele>1626.8</ele>
    <time>2022-09-08T12:41:57Z</time>
   </trkpt>
   <trkpt lat="39.6850950" lon="-104.9686370">
    <ele>1626.8</ele>
    <time>2022-09-08T12:41:58Z</time>
   </trkpt>
   <trkpt lat="39.6850600" lon="-104.9686490">
    <ele>1626.8</ele>
    <time>2022-09-08T12:41:59Z</time>
   </trkpt>
   <trkpt lat="39.6850220" lon="-104.9686500">
    <ele>1626.9</ele>
    <time>2022-09-08T12:42:00Z</time>
   </trkpt>
   <trkpt lat="39.6849810" lon="-104.9686560">
    <ele>1626.9</ele>
    <time>2022-09-08T12:42:01Z</time>
   </trkpt>
   <trkpt lat="39.6849480" lon="-104.9686650">
    <ele>1626.9</ele>
    <time>2022-09-08T12:42:02Z</time>
   </trkpt>
   <trkpt lat="39.6849200" lon="-104.9686710">
    <ele>1626.9</ele>
    <time>2022-09-08T12:42:03Z</time>
   </trkpt>
   <trkpt lat="39.6848810" lon="-104.9686570">
    <ele>1627.0</ele>
    <time>2022-09-08T12:42:04Z</time>
   </trkpt>
   <trkpt lat="39.6848630" lon="-104.9686560">
    <ele>1627.0</ele>
    <time>2022-09-08T12:42:05Z</time>
   </trkpt>
   <trkpt lat="39.6848290" lon="-104.9686490">
    <ele>1627.0</ele>
    <time>2022-09-08T12:42:06Z</time>
   </trkpt>
   <trkpt lat="39.6847950" lon="-104.9686530">
    <ele>1627.0</ele>
    <time>2022-09-08T12:42:07Z</time>
   </trkpt>
   <trkpt lat="39.6847640" lon="-104.9686490">
    <ele>1627.0</ele>
    <time>2022-09-08T12:42:08Z</time>
   </trkpt>
   <trkpt lat="39.6847320" lon="-104.9686340">
    <ele>1627.1</ele>
    <time>2022-09-08T12:42:09Z</time>
   </trkpt>
   <trkpt lat="39.6847040" lon="-104.9686420">
    <ele>1627.1</ele>
    <time>2022-09-08T12:42:10Z</time>
   </trkpt>
   <trkpt lat="39.6846740" lon="-104.9686490">
    <ele>1627.1</ele>
    <time>2022-09-08T12:42:11Z</time>
   </trkpt>
   <trkpt lat="39.6846420" lon="-104.9686530">
    <ele>1627.1</ele>
    <time>2022-09-08T12:42:12Z</time>
   </trkpt>
   <trkpt lat="39.6846120" lon="-104.9686450">
    <ele>1627.1</ele>
    <time>2022-09-08T12:42:13Z</time>
   </trkpt>
   <trkpt lat="39.6845820" lon="-104.9686370">
    <ele>1627.1</ele>
    <time>2022-09-08T12:42:14Z</time>
   </trkpt>
   <trkpt lat="39.6845520" lon="-104.9686300">
    <ele>1627.2</ele>
    <time>2022-09-08T12:42:15Z</time>
   </trkpt>
   <trkpt lat="39.6845180" lon="-104.9686440">
    <ele>1627.2</ele>
    <time>2022-09-08T12:42:16Z</time>
   </trkpt>
   <trkpt lat="39.6844870" lon="-104.9686460">
    <ele>1627.2</ele>
    <time>2022-09-08T12:42:17Z</time>
   </trkpt>
   <trkpt lat="39.6844540" lon="-104.9686590">
    <ele>1627.2</ele>
    <time>2022-09-08T12:42:18Z</time>
   </trkpt>
   <trkpt lat="39.6844180" lon="-104.9686560">
    <ele>1627.2</ele>
    <time>2022-09-08T12:42:19Z</time>
   </trkpt>
   <trkpt lat="39.6843780" lon="-104.9686570">
    <ele>1627.3</ele>
    <time>2022-09-08T12:42:20Z</time>
   </trkpt>
   <trkpt lat="39.6843490" lon="-104.9686590">
    <ele>1627.3</ele>
    <time>2022-09-08T12:42:21Z</time>
   </trkpt>
   <trkpt lat="39.6843180" lon="-104.9686600">
    <ele>1627.3</ele>
    <time>2022-09-08T12:42:22Z</time>
   </trkpt>
   <trkpt lat="39.6842850" lon="-104.9686620">
    <ele>1627.3</ele>
    <time>2022-09-08T12:42:23Z</time>
   </trkpt>
   <trkpt lat="39.6842540" lon="-104.9686560">
    <ele>1627.4</ele>
    <time>2022-09-08T12:42:24Z</time>
   </trkpt>
   <trkpt lat="39.6842240" lon="-104.9686490">
    <ele>1627.4</ele>
    <time>2022-09-08T12:42:25Z</time>
   </trkpt>
   <trkpt lat="39.6841950" lon="-104.9686460">
    <ele>1627.4</ele>
    <time>2022-09-08T12:42:26Z</time>
   </trkpt>
   <trkpt lat="39.6841610" lon="-104.9686410">
    <ele>1627.5</ele>
    <time>2022-09-08T12:42:27Z</time>
   </trkpt>
   <trkpt lat="39.6841310" lon="-104.9686350">
    <ele>1627.5</ele>
    <time>2022-09-08T12:42:28Z</time>
   </trkpt>
   <trkpt lat="39.6840990" lon="-104.9686290">
    <ele>1627.6</ele>
    <time>2022-09-08T12:42:29Z</time>
   </trkpt>
   <trkpt lat="39.6840670" lon="-104.9686310">
    <ele>1627.6</ele>
    <time>2022-09-08T12:42:30Z</time>
   </trkpt>
   <trkpt lat="39.6840400" lon="-104.9686330">
    <ele>1627.6</ele>
    <time>2022-09-08T12:42:31Z</time>
   </trkpt>
   <trkpt lat="39.6839970" lon="-104.9686430">
    <ele>1627.7</ele>
    <time>2022-09-08T12:42:32Z</time>
   </trkpt>
   <trkpt lat="39.6839800" lon="-104.9686540">
    <ele>1627.7</ele>
    <time>2022-09-08T12:42:33Z</time>
   </trkpt>
   <trkpt lat="39.6839450" lon="-104.9686690">
    <ele>1627.8</ele>
    <time>2022-09-08T12:42:34Z</time>
   </trkpt>
   <trkpt lat="39.6839130" lon="-104.9686690">
    <ele>1627.8</ele>
    <time>2022-09-08T12:42:35Z</time>
   </trkpt>
   <trkpt lat="39.6838840" lon="-104.9686800">
    <ele>1627.8</ele>
    <time>2022-09-08T12:42:36Z</time>
   </trkpt>
   <trkpt lat="39.6838560" lon="-104.9686770">
    <ele>1627.8</ele>
    <time>2022-09-08T12:42:37Z</time>
   </trkpt>
   <trkpt lat="39.6838220" lon="-104.9686790">
    <ele>1627.8</ele>
    <time>2022-09-08T12:42:38Z</time>
   </trkpt>
   <trkpt lat="39.6837930" lon="-104.9686770">
    <ele>1627.8</ele>
    <time>2022-09-08T12:42:39Z</time>
   </trkpt>
   <trkpt lat="39.6837660" lon="-104.9686840">
    <ele>1627.8</ele>
    <time>2022-09-08T12:42:40Z</time>
   </trkpt>
   <trkpt lat="39.6837410" lon="-104.9686680">
    <ele>1627.9</ele>
    <time>2022-09-08T12:42:41Z</time>
   </trkpt>
   <trkpt lat="39.6837020" lon="-104.9686720">
    <ele>1627.9</ele>
    <time>2022-09-08T12:42:42Z</time>
   </trkpt>
   <trkpt lat="39.6836880" lon="-104.9686750">
    <ele>1627.9</ele>
    <time>2022-09-08T12:42:43Z</time>
   </trkpt>
   <trkpt lat="39.6836570" lon="-104.9686830">
    <ele>1627.9</ele>
    <time>2022-09-08T12:42:44Z</time>
   </trkpt>
   <trkpt lat="39.6836270" lon="-104.9686790">
    <ele>1627.9</ele>
    <time>2022-09-08T12:42:45Z</time>
   </trkpt>
   <trkpt lat="39.6835990" lon="-104.9686670">
    <ele>1627.9</ele>
    <time>2022-09-08T12:42:46Z</time>
   </trkpt>
   <trkpt lat="39.6835680" lon="-104.9686620">
    <ele>1628.0</ele>
    <time>2022-09-08T12:42:47Z</time>
   </trkpt>
   <trkpt lat="39.6835350" lon="-104.9686550">
    <ele>1628.0</ele>
    <time>2022-09-08T12:42:48Z</time>
   </trkpt>
   <trkpt lat="39.6835050" lon="-104.9686640">
    <ele>1628.0</ele>
    <time>2022-09-08T12:42:49Z</time>
   </trkpt>
   <trkpt lat="39.6834720" lon="-104.9686840">
    <ele>1628.0</ele>
    <time>2022-09-08T12:42:50Z</time>
   </trkpt>
   <trkpt lat="39.6834370" lon="-104.9686740">
    <ele>1628.0</ele>
    <time>2022-09-08T12:42:51Z</time>
   </trkpt>
   <trkpt lat="39.6834070" lon="-104.9686660">
    <ele>1628.0</ele>
    <time>2022-09-08T12:42:52Z</time>
   </trkpt>
   <trkpt lat="39.6833700" lon="-104.9686770">
    <ele>1628.0</ele>
    <time>2022-09-08T12:42:53Z</time>
   </trkpt>
   <trkpt lat="39.6833350" lon="-104.9686810">
    <ele>1628.0</ele>
    <time>2022-09-08T12:42:54Z</time>
   </trkpt>
   <trkpt lat="39.6833070" lon="-104.9686740">
    <ele>1628.0</ele>
    <time>2022-09-08T12:42:55Z</time>
   </trkpt>
   <trkpt lat="39.6832760" lon="-104.9686860">
    <ele>1628.0</ele>
    <time>2022-09-08T12:42:56Z</time>
   </trkpt>
   <trkpt lat="39.6832430" lon="-104.9686840">
    <ele>1628.0</ele>
    <time>2022-09-08T12:42:57Z</time>
   </trkpt>
   <trkpt lat="39.6832150" lon="-104.9686700">
    <ele>1628.0</ele>
    <time>2022-09-08T12:42:58Z</time>
   </trkpt>
   <trkpt lat="39.6831860" lon="-104.9686720">
    <ele>1628.0</ele>
    <time>2022-09-08T12:42:59Z</time>
   </trkpt>
   <trkpt lat="39.6831510" lon="-104.9686770">
    <ele>1628.0</ele>
    <time>2022-09-08T12:43:00Z</time>
   </trkpt>
   <trkpt lat="39.6831240" lon="-104.9686850">
    <ele>1628.0</ele>
    <time>2022-09-08T12:43:01Z</time>
   </trkpt>
   <trkpt lat="39.6830960" lon="-104.9686790">
    <ele>1628.1</ele>
    <time>2022-09-08T12:43:02Z</time>
   </trkpt>
   <trkpt lat="39.6830600" lon="-104.9686660">
    <ele>1628.1</ele>
    <time>2022-09-08T12:43:03Z</time>
   </trkpt>
   <trkpt lat="39.6830280" lon="-104.9686710">
    <ele>1628.1</ele>
    <time>2022-09-08T12:43:04Z</time>
   </trkpt>
   <trkpt lat="39.6829970" lon="-104.9686640">
    <ele>1628.1</ele>
    <time>2022-09-08T12:43:05Z</time>
   </trkpt>
   <trkpt lat="39.6829610" lon="-104.9686530">
    <ele>1628.1</ele>
    <time>2022-09-08T12:43:06Z</time>
   </trkpt>
   <trkpt lat="39.6829290" lon="-104.9686560">
    <ele>1628.0</ele>
    <time>2022-09-08T12:43:07Z</time>
   </trkpt>
   <trkpt lat="39.6828990" lon="-104.9686610">
    <ele>1628.0</ele>
    <time>2022-09-08T12:43:08Z</time>
   </trkpt>
   <trkpt lat="39.6828610" lon="-104.9686600">
    <ele>1628.0</ele>
    <time>2022-09-08T12:43:09Z</time>
   </trkpt>
   <trkpt lat="39.6828260" lon="-104.9686620">
    <ele>1628.0</ele>
    <time>2022-09-08T12:43:10Z</time>
   </trkpt>
   <trkpt lat="39.6827950" lon="-104.9686720">
    <ele>1628.0</ele>
    <time>2022-09-08T12:43:11Z</time>
   </trkpt>
   <trkpt lat="39.6827590" lon="-104.9686690">
    <ele>1628.0</ele>
    <time>2022-09-08T12:43:12Z</time>
   </trkpt>
   <trkpt lat="39.6827250" lon="-104.9686610">
    <ele>1628.0</ele>
    <time>2022-09-08T12:43:13Z</time>
   </trkpt>
   <trkpt lat="39.6826940" lon="-104.9686560">
    <ele>1628.0</ele>
    <time>2022-09-08T12:43:14Z</time>
   </trkpt>
   <trkpt lat="39.6826580" lon="-104.9686530">
    <ele>1628.0</ele>
    <time>2022-09-08T12:43:15Z</time>
   </trkpt>
   <trkpt lat="39.6826280" lon="-104.9686550">
    <ele>1628.0</ele>
    <time>2022-09-08T12:43:16Z</time>
   </trkpt>
   <trkpt lat="39.6825970" lon="-104.9686440">
    <ele>1628.0</ele>
    <time>2022-09-08T12:43:17Z</time>
   </trkpt>
   <trkpt lat="39.6825620" lon="-104.9686400">
    <ele>1628.0</ele>
    <time>2022-09-08T12:43:18Z</time>
   </trkpt>
   <trkpt lat="39.6825330" lon="-104.9686360">
    <ele>1628.0</ele>
    <time>2022-09-08T12:43:19Z</time>
   </trkpt>
   <trkpt lat="39.6824970" lon="-104.9686340">
    <ele>1627.9</ele>
    <time>2022-09-08T12:43:20Z</time>
   </trkpt>
   <trkpt lat="39.6824650" lon="-104.9686360">
    <ele>1627.9</ele>
    <time>2022-09-08T12:43:21Z</time>
   </trkpt>
   <trkpt lat="39.6824300" lon="-104.9686170">
    <ele>1627.9</ele>
    <time>2022-09-08T12:43:22Z</time>
   </trkpt>
   <trkpt lat="39.6824160" lon="-104.9686160">
    <ele>1627.9</ele>
    <time>2022-09-08T12:43:23Z</time>
   </trkpt>
   <trkpt lat="39.6823830" lon="-104.9686160">
    <ele>1627.9</ele>
    <time>2022-09-08T12:43:24Z</time>
   </trkpt>
   <trkpt lat="39.6823490" lon="-104.9686160">
    <ele>1627.9</ele>
    <time>2022-09-08T12:43:25Z</time>
   </trkpt>
   <trkpt lat="39.6823160" lon="-104.9686220">
    <ele>1627.9</ele>
    <time>2022-09-08T12:43:26Z</time>
   </trkpt>
   <trkpt lat="39.6822860" lon="-104.9686260">
    <ele>1627.9</ele>
    <time>2022-09-08T12:43:27Z</time>
   </trkpt>
   <trkpt lat="39.6822560" lon="-104.9686340">
    <ele>1627.9</ele>
    <time>2022-09-08T12:43:28Z</time>
   </trkpt>
   <trkpt lat="39.6822220" lon="-104.9686400">
    <ele>1627.9</ele>
    <time>2022-09-08T12:43:29Z</time>
   </trkpt>
   <trkpt lat="39.6821840" lon="-104.9686480">
    <ele>1627.9</ele>
    <time>2022-09-08T12:43:30Z</time>
   </trkpt>
   <trkpt lat="39.6821500" lon="-104.9686390">
    <ele>1627.9</ele>
    <time>2022-09-08T12:43:31Z</time>
   </trkpt>
   <trkpt lat="39.6821190" lon="-104.9686290">
    <ele>1627.9</ele>
    <time>2022-09-08T12:43:32Z</time>
   </trkpt>
   <trkpt lat="39.6820900" lon="-104.9686340">
    <ele>1627.9</ele>
    <time>2022-09-08T12:43:33Z</time>
   </trkpt>
   <trkpt lat="39.6820570" lon="-104.9686340">
    <ele>1627.8</ele>
    <time>2022-09-08T12:43:34Z</time>
   </trkpt>
   <trkpt lat="39.6820220" lon="-104.9686350">
    <ele>1627.8</ele>
    <time>2022-09-08T12:43:35Z</time>
   </trkpt>
   <trkpt lat="39.6819880" lon="-104.9686350">
    <ele>1627.8</ele>
    <time>2022-09-08T12:43:36Z</time>
   </trkpt>
   <trkpt lat="39.6819590" lon="-104.9686240">
    <ele>1627.7</ele>
    <time>2022-09-08T12:43:37Z</time>
   </trkpt>
   <trkpt lat="39.6819300" lon="-104.9686180">
    <ele>1627.7</ele>
    <time>2022-09-08T12:43:38Z</time>
   </trkpt>
   <trkpt lat="39.6818980" lon="-104.9686310">
    <ele>1627.7</ele>
    <time>2022-09-08T12:43:39Z</time>
   </trkpt>
   <trkpt lat="39.6818680" lon="-104.9686150">
    <ele>1627.7</ele>
    <time>2022-09-08T12:43:40Z</time>
   </trkpt>
   <trkpt lat="39.6818350" lon="-104.9686170">
    <ele>1627.7</ele>
    <time>2022-09-08T12:43:41Z</time>
   </trkpt>
   <trkpt lat="39.6817980" lon="-104.9686480">
    <ele>1627.7</ele>
    <time>2022-09-08T12:43:42Z</time>
   </trkpt>
   <trkpt lat="39.6817650" lon="-104.9686460">
    <ele>1627.7</ele>
    <time>2022-09-08T12:43:43Z</time>
   </trkpt>
   <trkpt lat="39.6817340" lon="-104.9686380">
    <ele>1627.7</ele>
    <time>2022-09-08T12:43:44Z</time>
   </trkpt>
   <trkpt lat="39.6817060" lon="-104.9686360">
    <ele>1627.7</ele>
    <time>2022-09-08T12:43:45Z</time>
   </trkpt>
   <trkpt lat="39.6816760" lon="-104.9686200">
    <ele>1627.7</ele>
    <time>2022-09-08T12:43:46Z</time>
   </trkpt>
   <trkpt lat="39.6816400" lon="-104.9686620">
    <ele>1627.7</ele>
    <time>2022-09-08T12:43:47Z</time>
   </trkpt>
   <trkpt lat="39.6816100" lon="-104.9686670">
    <ele>1627.7</ele>
    <time>2022-09-08T12:43:48Z</time>
   </trkpt>
   <trkpt lat="39.6815830" lon="-104.9686670">
    <ele>1627.7</ele>
    <time>2022-09-08T12:43:49Z</time>
   </trkpt>
   <trkpt lat="39.6815550" lon="-104.9686690">
    <ele>1627.7</ele>
    <time>2022-09-08T12:43:50Z</time>
   </trkpt>
   <trkpt lat="39.6815210" lon="-104.9686520">
    <ele>1627.8</ele>
    <time>2022-09-08T12:43:51Z</time>
   </trkpt>
   <trkpt lat="39.6814890" lon="-104.9686520">
    <ele>1627.8</ele>
    <time>2022-09-08T12:43:52Z</time>
   </trkpt>
   <trkpt lat="39.6814600" lon="-104.9686470">
    <ele>1627.8</ele>
    <time>2022-09-08T12:43:53Z</time>
   </trkpt>
   <trkpt lat="39.6814260" lon="-104.9686420">
    <ele>1627.8</ele>
    <time>2022-09-08T12:43:54Z</time>
   </trkpt>
   <trkpt lat="39.6813950" lon="-104.9686500">
    <ele>1627.8</ele>
    <time>2022-09-08T12:43:55Z</time>
   </trkpt>
   <trkpt lat="39.6813670" lon="-104.9686560">
    <ele>1627.8</ele>
    <time>2022-09-08T12:43:56Z</time>
   </trkpt>
   <trkpt lat="39.6813380" lon="-104.9686510">
    <ele>1627.8</ele>
    <time>2022-09-08T12:43:57Z</time>
   </trkpt>
   <trkpt lat="39.6813050" lon="-104.9686420">
    <ele>1627.8</ele>
    <time>2022-09-08T12:43:58Z</time>
   </trkpt>
   <trkpt lat="39.6812750" lon="-104.9686500">
    <ele>1627.8</ele>
    <time>2022-09-08T12:43:59Z</time>
   </trkpt>
   <trkpt lat="39.6812440" lon="-104.9686500">
    <ele>1627.8</ele>
    <time>2022-09-08T12:44:00Z</time>
   </trkpt>
   <trkpt lat="39.6812100" lon="-104.9686380">
    <ele>1627.9</ele>
    <time>2022-09-08T12:44:01Z</time>
   </trkpt>
   <trkpt lat="39.6811840" lon="-104.9686210">
    <ele>1627.9</ele>
    <time>2022-09-08T12:44:02Z</time>
   </trkpt>
   <trkpt lat="39.6811510" lon="-104.9686190">
    <ele>1627.9</ele>
    <time>2022-09-08T12:44:03Z</time>
   </trkpt>
   <trkpt lat="39.6811110" lon="-104.9686320">
    <ele>1627.9</ele>
    <time>2022-09-08T12:44:04Z</time>
   </trkpt>
   <trkpt lat="39.6810810" lon="-104.9686360">
    <ele>1627.9</ele>
    <time>2022-09-08T12:44:05Z</time>
   </trkpt>
   <trkpt lat="39.6810470" lon="-104.9686480">
    <ele>1627.9</ele>
    <time>2022-09-08T12:44:06Z</time>
   </trkpt>
   <trkpt lat="39.6810140" lon="-104.9686540">
    <ele>1628.0</ele>
    <time>2022-09-08T12:44:07Z</time>
   </trkpt>
   <trkpt lat="39.6809840" lon="-104.9686530">
    <ele>1628.0</ele>
    <time>2022-09-08T12:44:08Z</time>
   </trkpt>
   <trkpt lat="39.6809540" lon="-104.9686650">
    <ele>1628.0</ele>
    <time>2022-09-08T12:44:09Z</time>
   </trkpt>
   <trkpt lat="39.6809270" lon="-104.9686620">
    <ele>1628.0</ele>
    <time>2022-09-08T12:44:10Z</time>
   </trkpt>
   <trkpt lat="39.6808980" lon="-104.9686620">
    <ele>1628.1</ele>
    <time>2022-09-08T12:44:11Z</time>
   </trkpt>
   <trkpt lat="39.6808640" lon="-104.9686630">
    <ele>1628.1</ele>
    <time>2022-09-08T12:44:12Z</time>
   </trkpt>
   <trkpt lat="39.6808330" lon="-104.9686610">
    <ele>1628.1</ele>
    <time>2022-09-08T12:44:13Z</time>
   </trkpt>
   <trkpt lat="39.6808060" lon="-104.9686570">
    <ele>1628.1</ele>
    <time>2022-09-08T12:44:14Z</time>
   </trkpt>
   <trkpt lat="39.6807780" lon="-104.9686600">
    <ele>1628.2</ele>
    <time>2022-09-08T12:44:15Z</time>
   </trkpt>
   <trkpt lat="39.6807450" lon="-104.9686540">
    <ele>1628.2</ele>
    <time>2022-09-08T12:44:16Z</time>
   </trkpt>
   <trkpt lat="39.6807120" lon="-104.9686530">
    <ele>1628.3</ele>
    <time>2022-09-08T12:44:17Z</time>
   </trkpt>
   <trkpt lat="39.6806820" lon="-104.9686600">
    <ele>1628.3</ele>
    <time>2022-09-08T12:44:18Z</time>
   </trkpt>
   <trkpt lat="39.6806520" lon="-104.9686610">
    <ele>1628.3</ele>
    <time>2022-09-08T12:44:19Z</time>
   </trkpt>
   <trkpt lat="39.6806220" lon="-104.9686630">
    <ele>1628.4</ele>
    <time>2022-09-08T12:44:20Z</time>
   </trkpt>
   <trkpt lat="39.6805930" lon="-104.9686570">
    <ele>1628.4</ele>
    <time>2022-09-08T12:44:21Z</time>
   </trkpt>
   <trkpt lat="39.6805630" lon="-104.9686520">
    <ele>1628.5</ele>
    <time>2022-09-08T12:44:22Z</time>
   </trkpt>
   <trkpt lat="39.6805250" lon="-104.9686790">
    <ele>1628.5</ele>
    <time>2022-09-08T12:44:23Z</time>
   </trkpt>
   <trkpt lat="39.6804950" lon="-104.9686890">
    <ele>1628.6</ele>
    <time>2022-09-08T12:44:24Z</time>
   </trkpt>
   <trkpt lat="39.6804660" lon="-104.9686990">
    <ele>1628.6</ele>
    <time>2022-09-08T12:44:25Z</time>
   </trkpt>
   <trkpt lat="39.6804360" lon="-104.9687170">
    <ele>1628.6</ele>
    <time>2022-09-08T12:44:26Z</time>
   </trkpt>
   <trkpt lat="39.6803950" lon="-104.9687080">
    <ele>1628.7</ele>
    <time>2022-09-08T12:44:27Z</time>
   </trkpt>
   <trkpt lat="39.6803800" lon="-104.9687030">
    <ele>1628.7</ele>
    <time>2022-09-08T12:44:28Z</time>
   </trkpt>
   <trkpt lat="39.6803420" lon="-104.9686930">
    <ele>1628.8</ele>
    <time>2022-09-08T12:44:29Z</time>
   </trkpt>
   <trkpt lat="39.6803130" lon="-104.9686860">
    <ele>1628.8</ele>
    <time>2022-09-08T12:44:30Z</time>
   </trkpt>
   <trkpt lat="39.6802820" lon="-104.9686790">
    <ele>1628.8</ele>
    <time>2022-09-08T12:44:31Z</time>
   </trkpt>
   <trkpt lat="39.6802540" lon="-104.9686800">
    <ele>1628.8</ele>
    <time>2022-09-08T12:44:32Z</time>
   </trkpt>
   <trkpt lat="39.6802230" lon="-104.9686780">
    <ele>1628.8</ele>
    <time>2022-09-08T12:44:33Z</time>
   </trkpt>
   <trkpt lat="39.6801890" lon="-104.9686820">
    <ele>1628.8</ele>
    <time>2022-09-08T12:44:34Z</time>
   </trkpt>
   <trkpt lat="39.6801620" lon="-104.9686760">
    <ele>1628.8</ele>
    <time>2022-09-08T12:44:35Z</time>
   </trkpt>
   <trkpt lat="39.6801300" lon="-104.9686680">
    <ele>1628.8</ele>
    <time>2022-09-08T12:44:36Z</time>
   </trkpt>
   <trkpt lat="39.6801000" lon="-104.9686580">
    <ele>1628.8</ele>
    <time>2022-09-08T12:44:37Z</time>
   </trkpt>
   <trkpt lat="39.6800670" lon="-104.9686650">
    <ele>1628.8</ele>
    <time>2022-09-08T12:44:38Z</time>
   </trkpt>
   <trkpt lat="39.6800340" lon="-104.9686590">
    <ele>1628.8</ele>
    <time>2022-09-08T12:44:39Z</time>
   </trkpt>
   <trkpt lat="39.6799980" lon="-104.9686560">
    <ele>1628.7</ele>
    <time>2022-09-08T12:44:40Z</time>
   </trkpt>
   <trkpt lat="39.6799820" lon="-104.9686500">
    <ele>1628.7</ele>
    <time>2022-09-08T12:44:41Z</time>
   </trkpt>
   <trkpt lat="39.6799510" lon="-104.9686450">
    <ele>1628.7</ele>
    <time>2022-09-08T12:44:42Z</time>
   </trkpt>
   <trkpt lat="39.6799140" lon="-104.9686560">
    <ele>1628.7</ele>
    <time>2022-09-08T12:44:43Z</time>
   </trkpt>
   <trkpt lat="39.6798860" lon="-104.9686560">
    <ele>1628.7</ele>
    <time>2022-09-08T12:44:44Z</time>
   </trkpt>
   <trkpt lat="39.6798570" lon="-104.9686580">
    <ele>1628.7</ele>
    <time>2022-09-08T12:44:45Z</time>
   </trkpt>
   <trkpt lat="39.6798290" lon="-104.9686560">
    <ele>1628.7</ele>
    <time>2022-09-08T12:44:46Z</time>
   </trkpt>
   <trkpt lat="39.6797970" lon="-104.9686580">
    <ele>1628.7</ele>
    <time>2022-09-08T12:44:47Z</time>
   </trkpt>
   <trkpt lat="39.6797670" lon="-104.9686560">
    <ele>1628.7</ele>
    <time>2022-09-08T12:44:48Z</time>
   </trkpt>
   <trkpt lat="39.6797330" lon="-104.9686540">
    <ele>1628.7</ele>
    <time>2022-09-08T12:44:49Z</time>
   </trkpt>
   <trkpt lat="39.6797020" lon="-104.9686480">
    <ele>1628.7</ele>
    <time>2022-09-08T12:44:50Z</time>
   </trkpt>
   <trkpt lat="39.6796730" lon="-104.9686470">
    <ele>1628.8</ele>
    <time>2022-09-08T12:44:51Z</time>
   </trkpt>
   <trkpt lat="39.6796450" lon="-104.9686510">
    <ele>1628.8</ele>
    <time>2022-09-08T12:44:52Z</time>
   </trkpt>
   <trkpt lat="39.6796150" lon="-104.9686300">
    <ele>1628.8</ele>
    <time>2022-09-08T12:44:53Z</time>
   </trkpt>
   <trkpt lat="39.6795820" lon="-104.9686380">
    <ele>1628.8</ele>
    <time>2022-09-08T12:44:54Z</time>
   </trkpt>
   <trkpt lat="39.6795450" lon="-104.9686340">
    <ele>1628.8</ele>
    <time>2022-09-08T12:44:55Z</time>
   </trkpt>
   <trkpt lat="39.6795150" lon="-104.9686420">
    <ele>1628.9</ele>
    <time>2022-09-08T12:44:56Z</time>
   </trkpt>
   <trkpt lat="39.6794730" lon="-104.9686470">
    <ele>1628.9</ele>
    <time>2022-09-08T12:44:57Z</time>
   </trkpt>
   <trkpt lat="39.6794580" lon="-104.9686490">
    <ele>1628.9</ele>
    <time>2022-09-08T12:44:58Z</time>
   </trkpt>
   <trkpt lat="39.6794240" lon="-104.9686450">
    <ele>1628.9</ele>
    <time>2022-09-08T12:44:59Z</time>
   </trkpt>
   <trkpt lat="39.6793880" lon="-104.9686430">
    <ele>1628.9</ele>
    <time>2022-09-08T12:45:00Z</time>
   </trkpt>
   <trkpt lat="39.6793580" lon="-104.9686390">
    <ele>1629.0</ele>
    <time>2022-09-08T12:45:01Z</time>
   </trkpt>
   <trkpt lat="39.6793140" lon="-104.9686440">
    <ele>1629.0</ele>
    <time>2022-09-08T12:45:02Z</time>
   </trkpt>
   <trkpt lat="39.6792980" lon="-104.9686470">
    <ele>1629.0</ele>
    <time>2022-09-08T12:45:03Z</time>
   </trkpt>
   <trkpt lat="39.6792640" lon="-104.9686470">
    <ele>1629.0</ele>
    <time>2022-09-08T12:45:04Z</time>
   </trkpt>
   <trkpt lat="39.6792320" lon="-104.9686500">
    <ele>1629.1</ele>
    <time>2022-09-08T12:45:05Z</time>
   </trkpt>
   <trkpt lat="39.6792020" lon="-104.9686440">
    <ele>1629.1</ele>
    <time>2022-09-08T12:45:06Z</time>
   </trkpt>
   <trkpt lat="39.6791710" lon="-104.9686490">
    <ele>1629.1</ele>
    <time>2022-09-08T12:45:07Z</time>
   </trkpt>
   <trkpt lat="39.6791390" lon="-104.9686560">
    <ele>1629.2</ele>
    <time>2022-09-08T12:45:08Z</time>
   </trkpt>
   <trkpt lat="39.6791080" lon="-104.9686610">
    <ele>1629.2</ele>
    <time>2022-09-08T12:45:09Z</time>
   </trkpt>
   <trkpt lat="39.6790770" lon="-104.9686700">
    <ele>1629.2</ele>
    <time>2022-09-08T12:45:10Z</time>
   </trkpt>
   <trkpt lat="39.6790450" lon="-104.9686680">
    <ele>1629.3</ele>
    <time>2022-09-08T12:45:11Z</time>
   </trkpt>
   <trkpt lat="39.6790120" lon="-104.9686690">
    <ele>1629.3</ele>
    <time>2022-09-08T12:45:12Z</time>
   </trkpt>
   <trkpt lat="39.6789790" lon="-104.9686760">
    <ele>1629.4</ele>
    <time>2022-09-08T12:45:13Z</time>
   </trkpt>
   <trkpt lat="39.6789450" lon="-104.9686780">
    <ele>1629.4</ele>
    <time>2022-09-08T12:45:14Z</time>
   </trkpt>
   <trkpt lat="39.6789120" lon="-104.9686950">
    <ele>1629.5</ele>
    <time>2022-09-08T12:45:15Z</time>
   </trkpt>
   <trkpt lat="39.6788840" lon="-104.9687010">
    <ele>1629.5</ele>
    <time>2022-09-08T12:45:16Z</time>
   </trkpt>
   <trkpt lat="39.6788560" lon="-104.9687020">
    <ele>1629.5</ele>
    <time>2022-09-08T12:45:17Z</time>
   </trkpt>
   <trkpt lat="39.6788290" lon="-104.9686970">
    <ele>1629.5</ele>
    <time>2022-09-08T12:45:18Z</time>
   </trkpt>
   <trkpt lat="39.6788000" lon="-104.9686980">
    <ele>1629.6</ele>
    <time>2022-09-08T12:45:19Z</time>
   </trkpt>
   <trkpt lat="39.6787740" lon="-104.9686880">
    <ele>1629.6</ele>
    <time>2022-09-08T12:45:20Z</time>
   </trkpt>
   <trkpt lat="39.6787440" lon="-104.9686840">
    <ele>1629.6</ele>
    <time>2022-09-08T12:45:21Z</time>
   </trkpt>
   <trkpt lat="39.6787150" lon="-104.9686880">
    <ele>1629.6</ele>
    <time>2022-09-08T12:45:22Z</time>
   </trkpt>
   <trkpt lat="39.6786870" lon="-104.9686930">
    <ele>1629.6</ele>
    <time>2022-09-08T12:45:23Z</time>
   </trkpt>
   <trkpt lat="39.6786770" lon="-104.9686950">
    <ele>1629.6</ele>
    <time>2022-09-08T12:45:24Z</time>
   </trkpt>
   <trkpt lat="39.6786430" lon="-104.9687020">
    <ele>1629.6</ele>
    <time>2022-09-08T12:45:25Z</time>
   </trkpt>
   <trkpt lat="39.6786330" lon="-104.9687030">
    <ele>1629.6</ele>
    <time>2022-09-08T12:45:26Z</time>
   </trkpt>
   <trkpt lat="39.6785500" lon="-104.9686970">
    <ele>1629.7</ele>
    <time>2022-09-08T12:46:50Z</time>
   </trkpt>
   <trkpt lat="39.6785180" lon="-104.9687160">
    <ele>1629.7</ele>
    <time>2022-09-08T12:46:51Z</time>
   </trkpt>
   <trkpt lat="39.6784880" lon="-104.9687220">
    <ele>1629.7</ele>
    <time>2022-09-08T12:46:52Z</time>
   </trkpt>
   <trkpt lat="39.6784460" lon="-104.9687130">
    <ele>1629.7</ele>
    <time>2022-09-08T12:46:53Z</time>
   </trkpt>
   <trkpt lat="39.6784160" lon="-104.9687090">
    <ele>1629.7</ele>
    <time>2022-09-08T12:46:54Z</time>
   </trkpt>
   <trkpt lat="39.6783820" lon="-104.9687000">
    <ele>1629.7</ele>
    <time>2022-09-08T12:46:55Z</time>
   </trkpt>
   <trkpt lat="39.6783600" lon="-104.9686810">
    <ele>1629.7</ele>
    <time>2022-09-08T12:46:56Z</time>
   </trkpt>
   <trkpt lat="39.6783640" lon="-104.9686650">
    <ele>1629.7</ele>
    <time>2022-09-08T12:46:57Z</time>
   </trkpt>
   <trkpt lat="39.6783740" lon="-104.9686200">
    <ele>1629.4</ele>
    <time>2022-09-08T12:46:58Z</time>
   </trkpt>
   <trkpt lat="39.6783700" lon="-104.9686010">
    <ele>1629.4</ele>
    <time>2022-09-08T12:46:59Z</time>
   </trkpt>
   <trkpt lat="39.6783780" lon="-104.9685480">
    <ele>1629.4</ele>
    <time>2022-09-08T12:47:00Z</time>
   </trkpt>
   <trkpt lat="39.6783820" lon="-104.9685270">
    <ele>1629.4</ele>
    <time>2022-09-08T12:47:01Z</time>
   </trkpt>
   <trkpt lat="39.6783770" lon="-104.9684800">
    <ele>1629.3</ele>
    <time>2022-09-08T12:47:02Z</time>
   </trkpt>
   <trkpt lat="39.6783730" lon="-104.9684280">
    <ele>1629.3</ele>
    <time>2022-09-08T12:47:03Z</time>
   </trkpt>
   <trkpt lat="39.6783770" lon="-104.9684080">
    <ele>1629.2</ele>
    <time>2022-09-08T12:47:04Z</time>
   </trkpt>
   <trkpt lat="39.6783760" lon="-104.9683650">
    <ele>1629.2</ele>
    <time>2022-09-08T12:47:05Z</time>
   </trkpt>
   <trkpt lat="39.6783790" lon="-104.9683210">
    <ele>1629.3</ele>
    <time>2022-09-08T12:47:06Z</time>
   </trkpt>
   <trkpt lat="39.6783790" lon="-104.9683060">
    <ele>1629.3</ele>
    <time>2022-09-08T12:47:07Z</time>
   </trkpt>
   <trkpt lat="39.6783780" lon="-104.9682700">
    <ele>1629.3</ele>
    <time>2022-09-08T12:47:08Z</time>
   </trkpt>
   <trkpt lat="39.6783830" lon="-104.9682500">
    <ele>1629.3</ele>
    <time>2022-09-08T12:47:09Z</time>
   </trkpt>
   <trkpt lat="39.6783810" lon="-104.9682070">
    <ele>1629.3</ele>
    <time>2022-09-08T12:47:10Z</time>
   </trkpt>
   <trkpt lat="39.6783810" lon="-104.9681930">
    <ele>1629.3</ele>
    <time>2022-09-08T12:47:11Z</time>
   </trkpt>
   <trkpt lat="39.6783770" lon="-104.9681530">
    <ele>1629.3</ele>
    <time>2022-09-08T12:47:12Z</time>
   </trkpt>
   <trkpt lat="39.6783650" lon="-104.9681080">
    <ele>1629.4</ele>
    <time>2022-09-08T12:47:13Z</time>
   </trkpt>
   <trkpt lat="39.6783600" lon="-104.9680950">
    <ele>1629.4</ele>
    <time>2022-09-08T12:47:14Z</time>
   </trkpt>
   <trkpt lat="39.6783540" lon="-104.9680580">
    <ele>1629.4</ele>
    <time>2022-09-08T12:47:15Z</time>
   </trkpt>
   <trkpt lat="39.6783510" lon="-104.9680130">
    <ele>1629.4</ele>
    <time>2022-09-08T12:47:16Z</time>
   </trkpt>
   <trkpt lat="39.6783530" lon="-104.9679660">
    <ele>1629.5</ele>
    <time>2022-09-08T12:47:17Z</time>
   </trkpt>
   <trkpt lat="39.6783630" lon="-104.9679090">
    <ele>1629.5</ele>
    <time>2022-09-08T12:47:18Z</time>
   </trkpt>
   <trkpt lat="39.6783740" lon="-104.9678610">
    <ele>1629.5</ele>
    <time>2022-09-08T12:47:19Z</time>
   </trkpt>
   <trkpt lat="39.6783800" lon="-104.9678050">
    <ele>1629.5</ele>
    <time>2022-09-08T12:47:20Z</time>
   </trkpt>
   <trkpt lat="39.6783870" lon="-104.9677410">
    <ele>1629.5</ele>
    <time>2022-09-08T12:47:21Z</time>
   </trkpt>
   <trkpt lat="39.6783930" lon="-104.9676940">
    <ele>1629.5</ele>
    <time>2022-09-08T12:47:22Z</time>
   </trkpt>
   <trkpt lat="39.6784010" lon="-104.9676520">
    <ele>1629.5</ele>
    <time>2022-09-08T12:47:23Z</time>
   </trkpt>
   <trkpt lat="39.6783970" lon="-104.9676070">
    <ele>1629.6</ele>
    <time>2022-09-08T12:47:24Z</time>
   </trkpt>
   <trkpt lat="39.6783980" lon="-104.9675630">
    <ele>1629.6</ele>
    <time>2022-09-08T12:47:25Z</time>
   </trkpt>
   <trkpt lat="39.6783890" lon="-104.9675110">
    <ele>1629.6</ele>
    <time>2022-09-08T12:47:26Z</time>
   </trkpt>
   <trkpt lat="39.6783830" lon="-104.9674910">
    <ele>1629.7</ele>
    <time>2022-09-08T12:47:27Z</time>
   </trkpt>
   <trkpt lat="39.6783770" lon="-104.9674340">
    <ele>1629.7</ele>
    <time>2022-09-08T12:47:28Z</time>
   </trkpt>
   <trkpt lat="39.6783630" lon="-104.9673780">
    <ele>1629.8</ele>
    <time>2022-09-08T12:47:29Z</time>
   </trkpt>
   <trkpt lat="39.6783530" lon="-104.9673390">
    <ele>1629.9</ele>
    <time>2022-09-08T12:47:30Z</time>
   </trkpt>
   <trkpt lat="39.6783350" lon="-104.9672950">
    <ele>1629.9</ele>
    <time>2022-09-08T12:47:31Z</time>
   </trkpt>
   <trkpt lat="39.6783280" lon="-104.9672770">
    <ele>1629.9</ele>
    <time>2022-09-08T12:47:32Z</time>
   </trkpt>
   <trkpt lat="39.6783300" lon="-104.9672280">
    <ele>1630.0</ele>
    <time>2022-09-08T12:47:33Z</time>
   </trkpt>
   <trkpt lat="39.6783570" lon="-104.9671650">
    <ele>1630.0</ele>
    <time>2022-09-08T12:47:34Z</time>
   </trkpt>
   <trkpt lat="39.6783670" lon="-104.9671200">
    <ele>1630.1</ele>
    <time>2022-09-08T12:47:35Z</time>
   </trkpt>
   <trkpt lat="39.6783620" lon="-104.9670740">
    <ele>1630.1</ele>
    <time>2022-09-08T12:47:36Z</time>
   </trkpt>
   <trkpt lat="39.6783560" lon="-104.9670300">
    <ele>1630.1</ele>
    <time>2022-09-08T12:47:37Z</time>
   </trkpt>
   <trkpt lat="39.6783450" lon="-104.9669760">
    <ele>1630.2</ele>
    <time>2022-09-08T12:47:38Z</time>
   </trkpt>
   <trkpt lat="39.6783500" lon="-104.9669300">
    <ele>1630.2</ele>
    <time>2022-09-08T12:47:39Z</time>
   </trkpt>
   <trkpt lat="39.6783510" lon="-104.9668790">
    <ele>1630.2</ele>
    <time>2022-09-08T12:47:40Z</time>
   </trkpt>
   <trkpt lat="39.6783480" lon="-104.9668360">
    <ele>1630.2</ele>
    <time>2022-09-08T12:47:41Z</time>
   </trkpt>
   <trkpt lat="39.6783420" lon="-104.9667960">
    <ele>1630.2</ele>
    <time>2022-09-08T12:47:42Z</time>
   </trkpt>
   <trkpt lat="39.6783400" lon="-104.9667550">
    <ele>1630.2</ele>
    <time>2022-09-08T12:47:43Z</time>
   </trkpt>
   <trkpt lat="39.6783390" lon="-104.9667120">
    <ele>1630.2</ele>
    <time>2022-09-08T12:47:44Z</time>
   </trkpt>
   <trkpt lat="39.6783470" lon="-104.9666660">
    <ele>1630.2</ele>
    <time>2022-09-08T12:47:45Z</time>
   </trkpt>
   <trkpt lat="39.6783630" lon="-104.9666100">
    <ele>1630.2</ele>
    <time>2022-09-08T12:47:46Z</time>
   </trkpt>
   <trkpt lat="39.6783720" lon="-104.9665520">
    <ele>1630.2</ele>
    <time>2022-09-08T12:47:47Z</time>
   </trkpt>
   <trkpt lat="39.6783780" lon="-104.9665060">
    <ele>1630.2</ele>
    <time>2022-09-08T12:47:48Z</time>
   </trkpt>
   <trkpt lat="39.6783730" lon="-104.9664670">
    <ele>1630.2</ele>
    <time>2022-09-08T12:47:49Z</time>
   </trkpt>
   <trkpt lat="39.6783800" lon="-104.9664200">
    <ele>1630.1</ele>
    <time>2022-09-08T12:47:50Z</time>
   </trkpt>
   <trkpt lat="39.6783770" lon="-104.9663790">
    <ele>1630.1</ele>
    <time>2022-09-08T12:47:51Z</time>
   </trkpt>
   <trkpt lat="39.6783740" lon="-104.9663410">
    <ele>1630.1</ele>
    <time>2022-09-08T12:47:52Z</time>
   </trkpt>
   <trkpt lat="39.6783820" lon="-104.9662970">
    <ele>1630.2</ele>
    <time>2022-09-08T12:47:53Z</time>
   </trkpt>
   <trkpt lat="39.6783810" lon="-104.9662550">
    <ele>1630.2</ele>
    <time>2022-09-08T12:47:54Z</time>
   </trkpt>
   <trkpt lat="39.6783780" lon="-104.9662120">
    <ele>1630.2</ele>
    <time>2022-09-08T12:47:55Z</time>
   </trkpt>
   <trkpt lat="39.6783800" lon="-104.9661700">
    <ele>1630.2</ele>
    <time>2022-09-08T12:47:56Z</time>
   </trkpt>
   <trkpt lat="39.6783750" lon="-104.9661310">
    <ele>1630.2</ele>
    <time>2022-09-08T12:47:57Z</time>
   </trkpt>
   <trkpt lat="39.6783790" lon="-104.9660900">
    <ele>1630.3</ele>
    <time>2022-09-08T12:47:58Z</time>
   </trkpt>
   <trkpt lat="39.6783760" lon="-104.9660480">
    <ele>1630.3</ele>
    <time>2022-09-08T12:47:59Z</time>
   </trkpt>
   <trkpt lat="39.6783730" lon="-104.9660080">
    <ele>1630.3</ele>
    <time>2022-09-08T12:48:00Z</time>
   </trkpt>
   <trkpt lat="39.6783690" lon="-104.9659680">
    <ele>1630.4</ele>
    <time>2022-09-08T12:48:01Z</time>
   </trkpt>
   <trkpt lat="39.6783760" lon="-104.9659180">
    <ele>1630.4</ele>
    <time>2022-09-08T12:48:02Z</time>
   </trkpt>
   <trkpt lat="39.6783840" lon="-104.9658740">
    <ele>1630.4</ele>
    <time>2022-09-08T12:48:03Z</time>
   </trkpt>
   <trkpt lat="39.6783780" lon="-104.9658230">
    <ele>1630.5</ele>
    <time>2022-09-08T12:48:04Z</time>
   </trkpt>
   <trkpt lat="39.6783780" lon="-104.9657770">
    <ele>1630.5</ele>
    <time>2022-09-08T12:48:05Z</time>
   </trkpt>
   <trkpt lat="39.6783720" lon="-104.9657340">
    <ele>1630.5</ele>
    <time>2022-09-08T12:48:06Z</time>
   </trkpt>
   <trkpt lat="39.6783620" lon="-104.9656910">
    <ele>1630.6</ele>
    <time>2022-09-08T12:48:07Z</time>
   </trkpt>
   <trkpt lat="39.6783640" lon="-104.9656510">
    <ele>1630.6</ele>
    <time>2022-09-08T12:48:08Z</time>
   </trkpt>
   <trkpt lat="39.6783660" lon="-104.9656150">
    <ele>1630.6</ele>
    <time>2022-09-08T12:48:09Z</time>
   </trkpt>
   <trkpt lat="39.6783700" lon="-104.9655800">
    <ele>1630.6</ele>
    <time>2022-09-08T12:48:10Z</time>
   </trkpt>
   <trkpt lat="39.6783580" lon="-104.9655440">
    <ele>1630.6</ele>
    <time>2022-09-08T12:48:11Z</time>
   </trkpt>
   <trkpt lat="39.6783450" lon="-104.9655090">
    <ele>1630.6</ele>
    <time>2022-09-08T12:48:12Z</time>
   </trkpt>
   <trkpt lat="39.6783360" lon="-104.9654740">
    <ele>1630.6</ele>
    <time>2022-09-08T12:48:13Z</time>
   </trkpt>
   <trkpt lat="39.6783270" lon="-104.9654400">
    <ele>1630.6</ele>
    <time>2022-09-08T12:48:14Z</time>
   </trkpt>
   <trkpt lat="39.6783330" lon="-104.9653890">
    <ele>1630.7</ele>
    <time>2022-09-08T12:48:15Z</time>
   </trkpt>
   <trkpt lat="39.6783370" lon="-104.9653410">
    <ele>1630.7</ele>
    <time>2022-09-08T12:48:16Z</time>
   </trkpt>
   <trkpt lat="39.6783390" lon="-104.9652940">
    <ele>1630.7</ele>
    <time>2022-09-08T12:48:17Z</time>
   </trkpt>
   <trkpt lat="39.6783400" lon="-104.9652530">
    <ele>1630.8</ele>
    <time>2022-09-08T12:48:18Z</time>
   </trkpt>
   <trkpt lat="39.6783410" lon="-104.9652170">
    <ele>1630.8</ele>
    <time>2022-09-08T12:48:19Z</time>
   </trkpt>
   <trkpt lat="39.6783360" lon="-104.9651810">
    <ele>1630.9</ele>
    <time>2022-09-08T12:48:20Z</time>
   </trkpt>
   <trkpt lat="39.6783240" lon="-104.9651310">
    <ele>1630.9</ele>
    <time>2022-09-08T12:48:21Z</time>
   </trkpt>
   <trkpt lat="39.6783150" lon="-104.9651080">
    <ele>1631.0</ele>
    <time>2022-09-08T12:48:22Z</time>
   </trkpt>
  </trkseg>
 </trk>
</gpx>
