<?xml version="1.0" encoding="UTF-8"?>
<gpx creator="StravaGPX" version="1.1" xmlns="http://www.topografix.com/GPX/1/1" xmlns:xsi="http://www.w3.org/2001/XMLSchema-instance" xsi:schemaLocation="http://www.topografix.com/GPX/1/1 http://www.topografix.com/GPX/1/1/gpx.xsd">
 <metadata>
  <time>2022-10-25T19:42:01Z</time>
 </metadata>
 <trk>
  <name>Lunch Walk</name>
  <type>walking</type>
  <trkseg>
   <trkpt lat="39.5716530" lon="-104.8576470">
    <ele>1759.2</ele>
    <time>2022-10-25T19:42:01Z</time>
   </trkpt>
   <trkpt lat="39.5716500" lon="-104.8576820">
    <ele>1759.2</ele>
    <time>2022-10-25T19:42:02Z</time>
   </trkpt>
   <trkpt lat="39.5716500" lon="-104.8576950">
    <ele>1759.2</ele>
    <time>2022-10-25T19:42:03Z</time>
   </trkpt>
   <trkpt lat="39.5716470" lon="-104.8577180">
    <ele>1759.2</ele>
    <time>2022-10-25T19:42:04Z</time>
   </trkpt>
   <trkpt lat="39.5716420" lon="-104.8577350">
    <ele>1759.2</ele>
    <time>2022-10-25T19:42:05Z</time>
   </trkpt>
   <trkpt lat="39.5716370" lon="-104.8577540">
    <ele>1759.2</ele>
    <time>2022-10-25T19:42:06Z</time>
   </trkpt>
   <trkpt lat="39.5716320" lon="-104.8577750">
    <ele>1759.2</ele>
    <time>2022-10-25T19:42:07Z</time>
   </trkpt>
   <trkpt lat="39.5716280" lon="-104.8577950">
    <ele>1759.2</ele>
    <time>2022-10-25T19:42:08Z</time>
   </trkpt>
   <trkpt lat="39.5716240" lon="-104.8578130">
    <ele>1759.2</ele>
    <time>2022-10-25T19:42:09Z</time>
   </trkpt>
   <trkpt lat="39.5716220" lon="-104.8578330">
    <ele>1759.2</ele>
    <time>2022-10-25T19:42:10Z</time>
   </trkpt>
   <trkpt lat="39.5716220" lon="-104.8578530">
    <ele>1759.2</ele>
    <time>2022-10-25T19:42:11Z</time>
   </trkpt>
   <trkpt lat="39.5716240" lon="-104.8578720">
    <ele>1759.2</ele>
    <time>2022-10-25T19:42:12Z</time>
   </trkpt>
   <trkpt lat="39.5716210" lon="-104.8578920">
    <ele>1759.2</ele>
    <time>2022-10-25T19:42:13Z</time>
   </trkpt>
   <trkpt lat="39.5716210" lon="-104.8579100">
    <ele>1759.2</ele>
    <time>2022-10-25T19:42:14Z</time>
   </trkpt>
   <trkpt lat="39.5716220" lon="-104.8579200">
    <ele>1759.2</ele>
    <time>2022-10-25T19:42:15Z</time>
   </trkpt>
   <trkpt lat="39.5716300" lon="-104.8579350">
    <ele>1759.1</ele>
    <time>2022-10-25T19:42:16Z</time>
   </trkpt>
   <trkpt lat="39.5716290" lon="-104.8579490">
    <ele>1759.1</ele>
    <time>2022-10-25T19:42:17Z</time>
   </trkpt>
   <trkpt lat="39.5716290" lon="-104.8579640">
    <ele>1759.1</ele>
    <time>2022-10-25T19:42:18Z</time>
   </trkpt>
   <trkpt lat="39.5716260" lon="-104.8579780">
    <ele>1759.1</ele>
    <time>2022-10-25T19:42:19Z</time>
   </trkpt>
   <trkpt lat="39.5716240" lon="-104.8579990">
    <ele>1759.1</ele>
    <time>2022-10-25T19:42:20Z</time>
   </trkpt>
   <trkpt lat="39.5716190" lon="-104.8580200">
    <ele>1759.1</ele>
    <time>2022-10-25T19:42:21Z</time>
   </trkpt>
   <trkpt lat="39.5716180" lon="-104.8580470">
    <ele>1759.1</ele>
    <time>2022-10-25T19:42:22Z</time>
   </trkpt>
   <trkpt lat="39.5716200" lon="-104.8580570">
    <ele>1759.1</ele>
    <time>2022-10-25T19:42:23Z</time>
   </trkpt>
   <trkpt lat="39.5716200" lon="-104.8580780">
    <ele>1759.1</ele>
    <time>2022-10-25T19:42:24Z</time>
   </trkpt>
   <trkpt lat="39.5716170" lon="-104.8580960">
    <ele>1759.0</ele>
    <time>2022-10-25T19:42:25Z</time>
   </trkpt>
   <trkpt lat="39.5716150" lon="-104.8581160">
    <ele>1759.0</ele>
    <time>2022-10-25T19:42:26Z</time>
   </trkpt>
   <trkpt lat="39.5716110" lon="-104.8581350">
    <ele>1759.0</ele>
    <time>2022-10-25T19:42:27Z</time>
   </trkpt>
   <trkpt lat="39.5716080" lon="-104.8581630">
    <ele>1759.0</ele>
    <time>2022-10-25T19:42:28Z</time>
   </trkpt>
   <trkpt lat="39.5716060" lon="-104.8581730">
    <ele>1759.0</ele>
    <time>2022-10-25T19:42:29Z</time>
   </trkpt>
   <trkpt lat="39.5716050" lon="-104.8581830">
    <ele>1759.0</ele>
    <time>2022-10-25T19:42:30Z</time>
   </trkpt>
   <trkpt lat="39.5715970" lon="-104.8582120">
    <ele>1759.0</ele>
    <time>2022-10-25T19:42:31Z</time>
   </trkpt>
   <trkpt lat="39.5715940" lon="-104.8582230">
    <ele>1759.0</ele>
    <time>2022-10-25T19:42:32Z</time>
   </trkpt>
   <trkpt lat="39.5715920" lon="-104.8582350">
    <ele>1759.0</ele>
    <time>2022-10-25T19:42:33Z</time>
   </trkpt>
   <trkpt lat="39.5715900" lon="-104.8582510">
    <ele>1759.0</ele>
    <time>2022-10-25T19:42:34Z</time>
   </trkpt>
   <trkpt lat="39.5715880" lon="-104.8582690">
    <ele>1758.9</ele>
    <time>2022-10-25T19:42:35Z</time>
   </trkpt>
   <trkpt lat="39.5715860" lon="-104.8582960">
    <ele>1758.9</ele>
    <time>2022-10-25T19:42:36Z</time>
   </trkpt>
   <trkpt lat="39.5715840" lon="-104.8583090">
    <ele>1758.9</ele>
    <time>2022-10-25T19:42:37Z</time>
   </trkpt>
   <trkpt lat="39.5715820" lon="-104.8583210">
    <ele>1758.9</ele>
    <time>2022-10-25T19:42:38Z</time>
   </trkpt>
   <trkpt lat="39.5715800" lon="-104.8583380">
    <ele>1758.9</ele>
    <time>2022-10-25T19:42:39Z</time>
   </trkpt>
   <trkpt lat="39.5715750" lon="-104.8583580">
    <ele>1758.9</ele>
    <time>2022-10-25T19:42:40Z</time>
   </trkpt>
   <trkpt lat="39.5715670" lon="-104.8583870">
    <ele>1758.9</ele>
    <time>2022-10-25T19:42:41Z</time>
   </trkpt>
   <trkpt lat="39.5715660" lon="-104.8583980">
    <ele>1758.9</ele>
    <time>2022-10-25T19:42:42Z</time>
   </trkpt>
   <trkpt lat="39.5715640" lon="-104.8584090">
    <ele>1758.9</ele>
    <time>2022-10-25T19:42:43Z</time>
   </trkpt>
   <trkpt lat="39.5715600" lon="-104.8584240">
    <ele>1758.9</ele>
    <time>2022-10-25T19:42:44Z</time>
   </trkpt>
   <trkpt lat="39.5715500" lon="-104.8584430">
    <ele>1758.9</ele>
    <time>2022-10-25T19:42:45Z</time>
   </trkpt>
   <trkpt lat="39.5715470" lon="-104.8584590">
    <ele>1758.9</ele>
    <time>2022-10-25T19:42:46Z</time>
   </trkpt>
   <trkpt lat="39.5715420" lon="-104.8584820">
    <ele>1758.9</ele>
    <time>2022-10-25T19:42:47Z</time>
   </trkpt>
   <trkpt lat="39.5715370" lon="-104.8584980">
    <ele>1758.9</ele>
    <time>2022-10-25T19:42:48Z</time>
   </trkpt>
   <trkpt lat="39.5715310" lon="-104.8585150">
    <ele>1758.8</ele>
    <time>2022-10-25T19:42:49Z</time>
   </trkpt>
   <trkpt lat="39.5715240" lon="-104.8585330">
    <ele>1758.8</ele>
    <time>2022-10-25T19:42:50Z</time>
   </trkpt>
   <trkpt lat="39.5715170" lon="-104.8585490">
    <ele>1758.8</ele>
    <time>2022-10-25T19:42:51Z</time>
   </trkpt>
   <trkpt lat="39.5715060" lon="-104.8585620">
    <ele>1758.8</ele>
    <time>2022-10-25T19:42:52Z</time>
   </trkpt>
   <trkpt lat="39.5714960" lon="-104.8585760">
    <ele>1758.8</ele>
    <time>2022-10-25T19:42:53Z</time>
   </trkpt>
   <trkpt lat="39.5714910" lon="-104.8585940">
    <ele>1758.8</ele>
    <time>2022-10-25T19:42:54Z</time>
   </trkpt>
   <trkpt lat="39.5714900" lon="-104.8586130">
    <ele>1758.8</ele>
    <time>2022-10-25T19:42:55Z</time>
   </trkpt>
   <trkpt lat="39.5714800" lon="-104.8586330">
    <ele>1758.8</ele>
    <time>2022-10-25T19:42:56Z</time>
   </trkpt>
   <trkpt lat="39.5714740" lon="-104.8586500">
    <ele>1758.8</ele>
    <time>2022-10-25T19:42:57Z</time>
   </trkpt>
   <trkpt lat="39.5714690" lon="-104.8586660">
    <ele>1758.8</ele>
    <time>2022-10-25T19:42:58Z</time>
   </trkpt>
   <trkpt lat="39.5714660" lon="-104.8586840">
    <ele>1758.7</ele>
    <time>2022-10-25T19:42:59Z</time>
   </trkpt>
   <trkpt lat="39.5714610" lon="-104.8587010">
    <ele>1758.7</ele>
    <time>2022-10-25T19:43:00Z</time>
   </trkpt>
   <trkpt lat="39.5714530" lon="-104.8587160">
    <ele>1758.7</ele>
    <time>2022-10-25T19:43:01Z</time>
   </trkpt>
   <trkpt lat="39.5714410" lon="-104.8587380">
    <ele>1758.7</ele>
    <time>2022-10-25T19:43:02Z</time>
   </trkpt>
   <trkpt lat="39.5714350" lon="-104.8587460">
    <ele>1758.7</ele>
    <time>2022-10-25T19:43:03Z</time>
   </trkpt>
   <trkpt lat="39.5714300" lon="-104.8587550">
    <ele>1758.7</ele>
    <time>2022-10-25T19:43:04Z</time>
   </trkpt>
   <trkpt lat="39.5714160" lon="-104.8587790">
    <ele>1758.7</ele>
    <time>2022-10-25T19:43:05Z</time>
   </trkpt>
   <trkpt lat="39.5714120" lon="-104.8587880">
    <ele>1758.7</ele>
    <time>2022-10-25T19:43:06Z</time>
   </trkpt>
   <trkpt lat="39.5714080" lon="-104.8587970">
    <ele>1758.7</ele>
    <time>2022-10-25T19:43:07Z</time>
   </trkpt>
   <trkpt lat="39.5713990" lon="-104.8588090">
    <ele>1758.7</ele>
    <time>2022-10-25T19:43:08Z</time>
   </trkpt>
   <trkpt lat="39.5713850" lon="-104.8588320">
    <ele>1758.7</ele>
    <time>2022-10-25T19:43:09Z</time>
   </trkpt>
   <trkpt lat="39.5713770" lon="-104.8588480">
    <ele>1758.7</ele>
    <time>2022-10-25T19:43:10Z</time>
   </trkpt>
   <trkpt lat="39.5713670" lon="-104.8588610">
    <ele>1758.7</ele>
    <time>2022-10-25T19:43:11Z</time>
   </trkpt>
   <trkpt lat="39.5713620" lon="-104.8588720">
    <ele>1758.7</ele>
    <time>2022-10-25T19:43:12Z</time>
   </trkpt>
   <trkpt lat="39.5713470" lon="-104.8588900">
    <ele>1758.7</ele>
    <time>2022-10-25T19:43:13Z</time>
   </trkpt>
   <trkpt lat="39.5713280" lon="-104.8589160">
    <ele>1758.7</ele>
    <time>2022-10-25T19:43:14Z</time>
   </trkpt>
   <trkpt lat="39.5713220" lon="-104.8589250">
    <ele>1758.7</ele>
    <time>2022-10-25T19:43:15Z</time>
   </trkpt>
   <trkpt lat="39.5713070" lon="-104.8589480">
    <ele>1758.7</ele>
    <time>2022-10-25T19:43:16Z</time>
   </trkpt>
   <trkpt lat="39.5713030" lon="-104.8589570">
    <ele>1758.7</ele>
    <time>2022-10-25T19:43:17Z</time>
   </trkpt>
   <trkpt lat="39.5712990" lon="-104.8589660">
    <ele>1758.7</ele>
    <time>2022-10-25T19:43:18Z</time>
   </trkpt>
   <trkpt lat="39.5712880" lon="-104.8589800">
    <ele>1758.7</ele>
    <time>2022-10-25T19:43:19Z</time>
   </trkpt>
   <trkpt lat="39.5712760" lon="-104.8589920">
    <ele>1758.7</ele>
    <time>2022-10-25T19:43:20Z</time>
   </trkpt>
   <trkpt lat="39.5712570" lon="-104.8590060">
    <ele>1758.7</ele>
    <time>2022-10-25T19:43:21Z</time>
   </trkpt>
   <trkpt lat="39.5712490" lon="-104.8590120">
    <ele>1758.7</ele>
    <time>2022-10-25T19:43:22Z</time>
   </trkpt>
   <trkpt lat="39.5712410" lon="-104.8590190">
    <ele>1758.7</ele>
    <time>2022-10-25T19:43:23Z</time>
   </trkpt>
   <trkpt lat="39.5712300" lon="-104.8590280">
    <ele>1758.7</ele>
    <time>2022-10-25T19:43:24Z</time>
   </trkpt>
   <trkpt lat="39.5712150" lon="-104.8590410">
    <ele>1758.7</ele>
    <time>2022-10-25T19:43:25Z</time>
   </trkpt>
   <trkpt lat="39.5712020" lon="-104.8590540">
    <ele>1758.7</ele>
    <time>2022-10-25T19:43:26Z</time>
   </trkpt>
   <trkpt lat="39.5711880" lon="-104.8590680">
    <ele>1758.7</ele>
    <time>2022-10-25T19:43:27Z</time>
   </trkpt>
   <trkpt lat="39.5711750" lon="-104.8590800">
    <ele>1758.7</ele>
    <time>2022-10-25T19:43:28Z</time>
   </trkpt>
   <trkpt lat="39.5711640" lon="-104.8590930">
    <ele>1758.7</ele>
    <time>2022-10-25T19:43:29Z</time>
   </trkpt>
   <trkpt lat="39.5711590" lon="-104.8591040">
    <ele>1758.7</ele>
    <time>2022-10-25T19:43:30Z</time>
   </trkpt>
   <trkpt lat="39.5711520" lon="-104.8591170">
    <ele>1758.7</ele>
    <time>2022-10-25T19:43:31Z</time>
   </trkpt>
   <trkpt lat="39.5711420" lon="-104.8591250">
    <ele>1758.7</ele>
    <time>2022-10-25T19:43:32Z</time>
   </trkpt>
   <trkpt lat="39.5711260" lon="-104.8591380">
    <ele>1758.7</ele>
    <time>2022-10-25T19:43:33Z</time>
   </trkpt>
   <trkpt lat="39.5711140" lon="-104.8591490">
    <ele>1758.7</ele>
    <time>2022-10-25T19:43:34Z</time>
   </trkpt>
   <trkpt lat="39.5711000" lon="-104.8591570">
    <ele>1758.7</ele>
    <time>2022-10-25T19:43:35Z</time>
   </trkpt>
   <trkpt lat="39.5710860" lon="-104.8591660">
    <ele>1758.7</ele>
    <time>2022-10-25T19:43:36Z</time>
   </trkpt>
   <trkpt lat="39.5710750" lon="-104.8591770">
    <ele>1758.7</ele>
    <time>2022-10-25T19:43:37Z</time>
   </trkpt>
   <trkpt lat="39.5710620" lon="-104.8591880">
    <ele>1758.7</ele>
    <time>2022-10-25T19:43:38Z</time>
   </trkpt>
   <trkpt lat="39.5710550" lon="-104.8591970">
    <ele>1758.7</ele>
    <time>2022-10-25T19:43:39Z</time>
   </trkpt>
   <trkpt lat="39.5710460" lon="-104.8592020">
    <ele>1758.7</ele>
    <time>2022-10-25T19:43:40Z</time>
   </trkpt>
   <trkpt lat="39.5710350" lon="-104.8592100">
    <ele>1758.8</ele>
    <time>2022-10-25T19:43:41Z</time>
   </trkpt>
   <trkpt lat="39.5710200" lon="-104.8592180">
    <ele>1758.8</ele>
    <time>2022-10-25T19:43:42Z</time>
   </trkpt>
   <trkpt lat="39.5710060" lon="-104.8592210">
    <ele>1758.8</ele>
    <time>2022-10-25T19:43:43Z</time>
   </trkpt>
   <trkpt lat="39.5709990" lon="-104.8592280">
    <ele>1758.8</ele>
    <time>2022-10-25T19:43:44Z</time>
   </trkpt>
   <trkpt lat="39.5709910" lon="-104.8592360">
    <ele>1758.8</ele>
    <time>2022-10-25T19:43:45Z</time>
   </trkpt>
   <trkpt lat="39.5709780" lon="-104.8592430">
    <ele>1758.8</ele>
    <time>2022-10-25T19:43:46Z</time>
   </trkpt>
   <trkpt lat="39.5709600" lon="-104.8592570">
    <ele>1758.8</ele>
    <time>2022-10-25T19:43:47Z</time>
   </trkpt>
   <trkpt lat="39.5709530" lon="-104.8592630">
    <ele>1758.9</ele>
    <time>2022-10-25T19:43:48Z</time>
   </trkpt>
   <trkpt lat="39.5709460" lon="-104.8592690">
    <ele>1758.9</ele>
    <time>2022-10-25T19:43:49Z</time>
   </trkpt>
   <trkpt lat="39.5709250" lon="-104.8592810">
    <ele>1758.9</ele>
    <time>2022-10-25T19:43:50Z</time>
   </trkpt>
   <trkpt lat="39.5709170" lon="-104.8592860">
    <ele>1758.9</ele>
    <time>2022-10-25T19:43:51Z</time>
   </trkpt>
   <trkpt lat="39.5709100" lon="-104.8592910">
    <ele>1758.9</ele>
    <time>2022-10-25T19:43:52Z</time>
   </trkpt>
   <trkpt lat="39.5708990" lon="-104.8593000">
    <ele>1758.9</ele>
    <time>2022-10-25T19:43:53Z</time>
   </trkpt>
   <trkpt lat="39.5708870" lon="-104.8593090">
    <ele>1758.9</ele>
    <time>2022-10-25T19:43:54Z</time>
   </trkpt>
   <trkpt lat="39.5708820" lon="-104.8593170">
    <ele>1759.0</ele>
    <time>2022-10-25T19:43:55Z</time>
   </trkpt>
   <trkpt lat="39.5708730" lon="-104.8593250">
    <ele>1759.0</ele>
    <time>2022-10-25T19:43:56Z</time>
   </trkpt>
   <trkpt lat="39.5708650" lon="-104.8593330">
    <ele>1759.0</ele>
    <time>2022-10-25T19:43:57Z</time>
   </trkpt>
   <trkpt lat="39.5708510" lon="-104.8593400">
    <ele>1759.0</ele>
    <time>2022-10-25T19:43:58Z</time>
   </trkpt>
   <trkpt lat="39.5708390" lon="-104.8593490">
    <ele>1759.0</ele>
    <time>2022-10-25T19:43:59Z</time>
   </trkpt>
   <trkpt lat="39.5708250" lon="-104.8593570">
    <ele>1759.0</ele>
    <time>2022-10-25T19:44:00Z</time>
   </trkpt>
   <trkpt lat="39.5708090" lon="-104.8593650">
    <ele>1759.1</ele>
    <time>2022-10-25T19:44:01Z</time>
   </trkpt>
   <trkpt lat="39.5708000" lon="-104.8593740">
    <ele>1759.1</ele>
    <time>2022-10-25T19:44:02Z</time>
   </trkpt>
   <trkpt lat="39.5707880" lon="-104.8593890">
    <ele>1759.1</ele>
    <time>2022-10-25T19:44:03Z</time>
   </trkpt>
   <trkpt lat="39.5707760" lon="-104.8594010">
    <ele>1759.1</ele>
    <time>2022-10-25T19:44:04Z</time>
   </trkpt>
   <trkpt lat="39.5707580" lon="-104.8594150">
    <ele>1759.1</ele>
    <time>2022-10-25T19:44:05Z</time>
   </trkpt>
   <trkpt lat="39.5707500" lon="-104.8594190">
    <ele>1759.2</ele>
    <time>2022-10-25T19:44:06Z</time>
   </trkpt>
   <trkpt lat="39.5707430" lon="-104.8594230">
    <ele>1759.2</ele>
    <time>2022-10-25T19:44:07Z</time>
   </trkpt>
   <trkpt lat="39.5707280" lon="-104.8594400">
    <ele>1759.2</ele>
    <time>2022-10-25T19:44:08Z</time>
   </trkpt>
   <trkpt lat="39.5707210" lon="-104.8594460">
    <ele>1759.2</ele>
    <time>2022-10-25T19:44:09Z</time>
   </trkpt>
   <trkpt lat="39.5707140" lon="-104.8594520">
    <ele>1759.2</ele>
    <time>2022-10-25T19:44:10Z</time>
   </trkpt>
   <trkpt lat="39.5706940" lon="-104.8594650">
    <ele>1759.2</ele>
    <time>2022-10-25T19:44:11Z</time>
   </trkpt>
   <trkpt lat="39.5706870" lon="-104.8594690">
    <ele>1759.3</ele>
    <time>2022-10-25T19:44:12Z</time>
   </trkpt>
   <trkpt lat="39.5706800" lon="-104.8594740">
    <ele>1759.3</ele>
    <time>2022-10-25T19:44:13Z</time>
   </trkpt>
   <trkpt lat="39.5706640" lon="-104.8594940">
    <ele>1759.3</ele>
    <time>2022-10-25T19:44:14Z</time>
   </trkpt>
   <trkpt lat="39.5706580" lon="-104.8594990">
    <ele>1759.3</ele>
    <time>2022-10-25T19:44:15Z</time>
   </trkpt>
   <trkpt lat="39.5706530" lon="-104.8595050">
    <ele>1759.3</ele>
    <time>2022-10-25T19:44:16Z</time>
   </trkpt>
   <trkpt lat="39.5706460" lon="-104.8595120">
    <ele>1759.3</ele>
    <time>2022-10-25T19:44:17Z</time>
   </trkpt>
   <trkpt lat="39.5706370" lon="-104.8595150">
    <ele>1759.3</ele>
    <time>2022-10-25T19:44:18Z</time>
   </trkpt>
   <trkpt lat="39.5706190" lon="-104.8595200">
    <ele>1759.4</ele>
    <time>2022-10-25T19:44:19Z</time>
   </trkpt>
   <trkpt lat="39.5706130" lon="-104.8595240">
    <ele>1759.4</ele>
    <time>2022-10-25T19:44:20Z</time>
   </trkpt>
   <trkpt lat="39.5706030" lon="-104.8595280">
    <ele>1759.4</ele>
    <time>2022-10-25T19:44:21Z</time>
   </trkpt>
   <trkpt lat="39.5705900" lon="-104.8595380">
    <ele>1759.4</ele>
    <time>2022-10-25T19:44:22Z</time>
   </trkpt>
   <trkpt lat="39.5705810" lon="-104.8595470">
    <ele>1759.4</ele>
    <time>2022-10-25T19:44:23Z</time>
   </trkpt>
   <trkpt lat="39.5705720" lon="-104.8595560">
    <ele>1759.5</ele>
    <time>2022-10-25T19:44:24Z</time>
   </trkpt>
   <trkpt lat="39.5705630" lon="-104.8595600">
    <ele>1759.5</ele>
    <time>2022-10-25T19:44:25Z</time>
   </trkpt>
   <trkpt lat="39.5705360" lon="-104.8595810">
    <ele>1759.5</ele>
    <time>2022-10-25T19:44:26Z</time>
   </trkpt>
   <trkpt lat="39.5705270" lon="-104.8595880">
    <ele>1759.5</ele>
    <time>2022-10-25T19:44:27Z</time>
   </trkpt>
   <trkpt lat="39.5705020" lon="-104.8596070">
    <ele>1759.6</ele>
    <time>2022-10-25T19:44:28Z</time>
   </trkpt>
   <trkpt lat="39.5704940" lon="-104.8596130">
    <ele>1759.6</ele>
    <time>2022-10-25T19:44:29Z</time>
   </trkpt>
   <trkpt lat="39.5704780" lon="-104.8596220">
    <ele>1759.6</ele>
    <time>2022-10-25T19:44:30Z</time>
   </trkpt>
   <trkpt lat="39.5704680" lon="-104.8596280">
    <ele>1759.7</ele>
    <time>2022-10-25T19:44:31Z</time>
   </trkpt>
   <trkpt lat="39.5704560" lon="-104.8596400">
    <ele>1759.7</ele>
    <time>2022-10-25T19:44:32Z</time>
   </trkpt>
   <trkpt lat="39.5704480" lon="-104.8596480">
    <ele>1759.7</ele>
    <time>2022-10-25T19:44:33Z</time>
   </trkpt>
   <trkpt lat="39.5704450" lon="-104.8596620">
    <ele>1759.7</ele>
    <time>2022-10-25T19:44:34Z</time>
   </trkpt>
   <trkpt lat="39.5704220" lon="-104.8596810">
    <ele>1759.8</ele>
    <time>2022-10-25T19:44:35Z</time>
   </trkpt>
   <trkpt lat="39.5704130" lon="-104.8596880">
    <ele>1759.8</ele>
    <time>2022-10-25T19:44:36Z</time>
   </trkpt>
   <trkpt lat="39.5704000" lon="-104.8596950">
    <ele>1759.8</ele>
    <time>2022-10-25T19:44:37Z</time>
   </trkpt>
   <trkpt lat="39.5703900" lon="-104.8597100">
    <ele>1759.9</ele>
    <time>2022-10-25T19:44:38Z</time>
   </trkpt>
   <trkpt lat="39.5703670" lon="-104.8597300">
    <ele>1759.9</ele>
    <time>2022-10-25T19:44:39Z</time>
   </trkpt>
   <trkpt lat="39.5703570" lon="-104.8597360">
    <ele>1759.9</ele>
    <time>2022-10-25T19:44:40Z</time>
   </trkpt>
   <trkpt lat="39.5703460" lon="-104.8597480">
    <ele>1759.9</ele>
    <time>2022-10-25T19:44:41Z</time>
   </trkpt>
   <trkpt lat="39.5703300" lon="-104.8597530">
    <ele>1760.0</ele>
    <time>2022-10-25T19:44:42Z</time>
   </trkpt>
   <trkpt lat="39.5703170" lon="-104.8597590">
    <ele>1760.0</ele>
    <time>2022-10-25T19:44:43Z</time>
   </trkpt>
   <trkpt lat="39.5703020" lon="-104.8597750">
    <ele>1760.0</ele>
    <time>2022-10-25T19:44:44Z</time>
   </trkpt>
   <trkpt lat="39.5702890" lon="-104.8597820">
    <ele>1760.0</ele>
    <time>2022-10-25T19:44:45Z</time>
   </trkpt>
   <trkpt lat="39.5702820" lon="-104.8597920">
    <ele>1760.0</ele>
    <time>2022-10-25T19:44:46Z</time>
   </trkpt>
   <trkpt lat="39.5702710" lon="-104.8597960">
    <ele>1760.1</ele>
    <time>2022-10-25T19:44:47Z</time>
   </trkpt>
   <trkpt lat="39.5702600" lon="-104.8598060">
    <ele>1760.1</ele>
    <time>2022-10-25T19:44:48Z</time>
   </trkpt>
   <trkpt lat="39.5702470" lon="-104.8598120">
    <ele>1760.1</ele>
    <time>2022-10-25T19:44:49Z</time>
   </trkpt>
   <trkpt lat="39.5702320" lon="-104.8598220">
    <ele>1760.1</ele>
    <time>2022-10-25T19:44:50Z</time>
   </trkpt>
   <trkpt lat="39.5702170" lon="-104.8598300">
    <ele>1760.2</ele>
    <time>2022-10-25T19:44:51Z</time>
   </trkpt>
   <trkpt lat="39.5701990" lon="-104.8598460">
    <ele>1760.2</ele>
    <time>2022-10-25T19:44:52Z</time>
   </trkpt>
   <trkpt lat="39.5701890" lon="-104.8598550">
    <ele>1760.2</ele>
    <time>2022-10-25T19:44:53Z</time>
   </trkpt>
   <trkpt lat="39.5701800" lon="-104.8598640">
    <ele>1760.2</ele>
    <time>2022-10-25T19:44:54Z</time>
   </trkpt>
   <trkpt lat="39.5701700" lon="-104.8598690">
    <ele>1760.3</ele>
    <time>2022-10-25T19:44:55Z</time>
   </trkpt>
   <trkpt lat="39.5701560" lon="-104.8598840">
    <ele>1760.3</ele>
    <time>2022-10-25T19:44:56Z</time>
   </trkpt>
   <trkpt lat="39.5701330" lon="-104.8599030">
    <ele>1760.3</ele>
    <time>2022-10-25T19:44:57Z</time>
   </trkpt>
   <trkpt lat="39.5701250" lon="-104.8599100">
    <ele>1760.4</ele>
    <time>2022-10-25T19:44:58Z</time>
   </trkpt>
   <trkpt lat="39.5701130" lon="-104.8599240">
    <ele>1760.4</ele>
    <time>2022-10-25T19:44:59Z</time>
   </trkpt>
   <trkpt lat="39.5700950" lon="-104.8599290">
    <ele>1760.4</ele>
    <time>2022-10-25T19:45:00Z</time>
   </trkpt>
   <trkpt lat="39.5700800" lon="-104.8599370">
    <ele>1760.5</ele>
    <time>2022-10-25T19:45:01Z</time>
   </trkpt>
   <trkpt lat="39.5700630" lon="-104.8599490">
    <ele>1760.5</ele>
    <time>2022-10-25T19:45:02Z</time>
   </trkpt>
   <trkpt lat="39.5700500" lon="-104.8599570">
    <ele>1760.5</ele>
    <time>2022-10-25T19:45:03Z</time>
   </trkpt>
   <trkpt lat="39.5700360" lon="-104.8599670">
    <ele>1760.6</ele>
    <time>2022-10-25T19:45:04Z</time>
   </trkpt>
   <trkpt lat="39.5700210" lon="-104.8599780">
    <ele>1760.6</ele>
    <time>2022-10-25T19:45:05Z</time>
   </trkpt>
   <trkpt lat="39.5700090" lon="-104.8599910">
    <ele>1760.6</ele>
    <time>2022-10-25T19:45:06Z</time>
   </trkpt>
   <trkpt lat="39.5699950" lon="-104.8600050">
    <ele>1760.7</ele>
    <time>2022-10-25T19:45:07Z</time>
   </trkpt>
   <trkpt lat="39.5699830" lon="-104.8600150">
    <ele>1760.7</ele>
    <time>2022-10-25T19:45:08Z</time>
   </trkpt>
   <trkpt lat="39.5699690" lon="-104.8600280">
    <ele>1760.8</ele>
    <time>2022-10-25T19:45:09Z</time>
   </trkpt>
   <trkpt lat="39.5699570" lon="-104.8600400">
    <ele>1760.8</ele>
    <time>2022-10-25T19:45:10Z</time>
   </trkpt>
   <trkpt lat="39.5699460" lon="-104.8600500">
    <ele>1760.8</ele>
    <time>2022-10-25T19:45:11Z</time>
   </trkpt>
   <trkpt lat="39.5699330" lon="-104.8600690">
    <ele>1760.9</ele>
    <time>2022-10-25T19:45:12Z</time>
   </trkpt>
   <trkpt lat="39.5699160" lon="-104.8600820">
    <ele>1760.9</ele>
    <time>2022-10-25T19:45:13Z</time>
   </trkpt>
   <trkpt lat="39.5699080" lon="-104.8600870">
    <ele>1761.0</ele>
    <time>2022-10-25T19:45:14Z</time>
   </trkpt>
   <trkpt lat="39.5699000" lon="-104.8600930">
    <ele>1761.0</ele>
    <time>2022-10-25T19:45:15Z</time>
   </trkpt>
   <trkpt lat="39.5698800" lon="-104.8601060">
    <ele>1761.0</ele>
    <time>2022-10-25T19:45:16Z</time>
   </trkpt>
   <trkpt lat="39.5698730" lon="-104.8601120">
    <ele>1761.1</ele>
    <time>2022-10-25T19:45:17Z</time>
   </trkpt>
   <trkpt lat="39.5698650" lon="-104.8601190">
    <ele>1761.1</ele>
    <time>2022-10-25T19:45:18Z</time>
   </trkpt>
   <trkpt lat="39.5698470" lon="-104.8601320">
    <ele>1761.2</ele>
    <time>2022-10-25T19:45:19Z</time>
   </trkpt>
   <trkpt lat="39.5698390" lon="-104.8601370">
    <ele>1761.2</ele>
    <time>2022-10-25T19:45:20Z</time>
   </trkpt>
   <trkpt lat="39.5698310" lon="-104.8601420">
    <ele>1761.2</ele>
    <time>2022-10-25T19:45:21Z</time>
   </trkpt>
   <trkpt lat="39.5698130" lon="-104.8601530">
    <ele>1761.3</ele>
    <time>2022-10-25T19:45:22Z</time>
   </trkpt>
   <trkpt lat="39.5698050" lon="-104.8601580">
    <ele>1761.3</ele>
    <time>2022-10-25T19:45:23Z</time>
   </trkpt>
   <trkpt lat="39.5697980" lon="-104.8601630">
    <ele>1761.3</ele>
    <time>2022-10-25T19:45:24Z</time>
   </trkpt>
   <trkpt lat="39.5697740" lon="-104.8601710">
    <ele>1761.4</ele>
    <time>2022-10-25T19:45:25Z</time>
   </trkpt>
   <trkpt lat="39.5697670" lon="-104.8601780">
    <ele>1761.4</ele>
    <time>2022-10-25T19:45:26Z</time>
   </trkpt>
   <trkpt lat="39.5697610" lon="-104.8601850">
    <ele>1761.4</ele>
    <time>2022-10-25T19:45:27Z</time>
   </trkpt>
   <trkpt lat="39.5697430" lon="-104.8601950">
    <ele>1761.5</ele>
    <time>2022-10-25T19:45:28Z</time>
   </trkpt>
   <trkpt lat="39.5697360" lon="-104.8602010">
    <ele>1761.5</ele>
    <time>2022-10-25T19:45:29Z</time>
   </trkpt>
   <trkpt lat="39.5697290" lon="-104.8602060">
    <ele>1761.5</ele>
    <time>2022-10-25T19:45:30Z</time>
   </trkpt>
   <trkpt lat="39.5697110" lon="-104.8602200">
    <ele>1761.6</ele>
    <time>2022-10-25T19:45:31Z</time>
   </trkpt>
   <trkpt lat="39.5697040" lon="-104.8602270">
    <ele>1761.6</ele>
    <time>2022-10-25T19:45:32Z</time>
   </trkpt>
   <trkpt lat="39.5696970" lon="-104.8602340">
    <ele>1761.6</ele>
    <time>2022-10-25T19:45:33Z</time>
   </trkpt>
   <trkpt lat="39.5696850" lon="-104.8602410">
    <ele>1761.7</ele>
    <time>2022-10-25T19:45:34Z</time>
   </trkpt>
   <trkpt lat="39.5696750" lon="-104.8602480">
    <ele>1761.7</ele>
    <time>2022-10-25T19:45:35Z</time>
   </trkpt>
   <trkpt lat="39.5696650" lon="-104.8602550">
    <ele>1761.7</ele>
    <time>2022-10-25T19:45:36Z</time>
   </trkpt>
   <trkpt lat="39.5696590" lon="-104.8602600">
    <ele>1761.8</ele>
    <time>2022-10-25T19:45:37Z</time>
   </trkpt>
   <trkpt lat="39.5696460" lon="-104.8602710">
    <ele>1761.8</ele>
    <time>2022-10-25T19:45:38Z</time>
   </trkpt>
   <trkpt lat="39.5696370" lon="-104.8602830">
    <ele>1761.8</ele>
    <time>2022-10-25T19:45:39Z</time>
   </trkpt>
   <trkpt lat="39.5696270" lon="-104.8602910">
    <ele>1761.9</ele>
    <time>2022-10-25T19:45:40Z</time>
   </trkpt>
   <trkpt lat="39.5696170" lon="-104.8602960">
    <ele>1761.9</ele>
    <time>2022-10-25T19:45:41Z</time>
   </trkpt>
   <trkpt lat="39.5696080" lon="-104.8603000">
    <ele>1761.9</ele>
    <time>2022-10-25T19:45:42Z</time>
   </trkpt>
   <trkpt lat="39.5695900" lon="-104.8603140">
    <ele>1762.0</ele>
    <time>2022-10-25T19:45:43Z</time>
   </trkpt>
   <trkpt lat="39.5695830" lon="-104.8603200">
    <ele>1762.0</ele>
    <time>2022-10-25T19:45:44Z</time>
   </trkpt>
   <trkpt lat="39.5695750" lon="-104.8603250">
    <ele>1762.0</ele>
    <time>2022-10-25T19:45:45Z</time>
   </trkpt>
   <trkpt lat="39.5695550" lon="-104.8603370">
    <ele>1762.1</ele>
    <time>2022-10-25T19:45:46Z</time>
   </trkpt>
   <trkpt lat="39.5695480" lon="-104.8603440">
    <ele>1762.1</ele>
    <time>2022-10-25T19:45:47Z</time>
   </trkpt>
   <trkpt lat="39.5695410" lon="-104.8603500">
    <ele>1762.1</ele>
    <time>2022-10-25T19:45:48Z</time>
   </trkpt>
   <trkpt lat="39.5695220" lon="-104.8603650">
    <ele>1762.2</ele>
    <time>2022-10-25T19:45:49Z</time>
   </trkpt>
   <trkpt lat="39.5695130" lon="-104.8603710">
    <ele>1762.2</ele>
    <time>2022-10-25T19:45:50Z</time>
   </trkpt>
   <trkpt lat="39.5695040" lon="-104.8603770">
    <ele>1762.2</ele>
    <time>2022-10-25T19:45:51Z</time>
   </trkpt>
   <trkpt lat="39.5694820" lon="-104.8604000">
    <ele>1762.3</ele>
    <time>2022-10-25T19:45:52Z</time>
   </trkpt>
   <trkpt lat="39.5694770" lon="-104.8604090">
    <ele>1762.3</ele>
    <time>2022-10-25T19:45:53Z</time>
   </trkpt>
   <trkpt lat="39.5694630" lon="-104.8604180">
    <ele>1762.3</ele>
    <time>2022-10-25T19:45:54Z</time>
   </trkpt>
   <trkpt lat="39.5694470" lon="-104.8604300">
    <ele>1762.4</ele>
    <time>2022-10-25T19:45:55Z</time>
   </trkpt>
   <trkpt lat="39.5694320" lon="-104.8604390">
    <ele>1762.4</ele>
    <time>2022-10-25T19:45:56Z</time>
   </trkpt>
   <trkpt lat="39.5694210" lon="-104.8604450">
    <ele>1762.5</ele>
    <time>2022-10-25T19:45:57Z</time>
   </trkpt>
   <trkpt lat="39.5694030" lon="-104.8604600">
    <ele>1762.5</ele>
    <time>2022-10-25T19:45:58Z</time>
   </trkpt>
   <trkpt lat="39.5693960" lon="-104.8604650">
    <ele>1762.5</ele>
    <time>2022-10-25T19:45:59Z</time>
   </trkpt>
   <trkpt lat="39.5693880" lon="-104.8604690">
    <ele>1762.5</ele>
    <time>2022-10-25T19:46:00Z</time>
   </trkpt>
   <trkpt lat="39.5693680" lon="-104.8604750">
    <ele>1762.6</ele>
    <time>2022-10-25T19:46:01Z</time>
   </trkpt>
   <trkpt lat="39.5693620" lon="-104.8604810">
    <ele>1762.6</ele>
    <time>2022-10-25T19:46:02Z</time>
   </trkpt>
   <trkpt lat="39.5693550" lon="-104.8604870">
    <ele>1762.6</ele>
    <time>2022-10-25T19:46:03Z</time>
   </trkpt>
   <trkpt lat="39.5693430" lon="-104.8604970">
    <ele>1762.6</ele>
    <time>2022-10-25T19:46:04Z</time>
   </trkpt>
   <trkpt lat="39.5693280" lon="-104.8605060">
    <ele>1762.7</ele>
    <time>2022-10-25T19:46:05Z</time>
   </trkpt>
   <trkpt lat="39.5693140" lon="-104.8605160">
    <ele>1762.7</ele>
    <time>2022-10-25T19:46:06Z</time>
   </trkpt>
   <trkpt lat="39.5692990" lon="-104.8605310">
    <ele>1762.7</ele>
    <time>2022-10-25T19:46:07Z</time>
   </trkpt>
   <trkpt lat="39.5692880" lon="-104.8605460">
    <ele>1762.8</ele>
    <time>2022-10-25T19:46:08Z</time>
   </trkpt>
   <trkpt lat="39.5692750" lon="-104.8605580">
    <ele>1762.8</ele>
    <time>2022-10-25T19:46:09Z</time>
   </trkpt>
   <trkpt lat="39.5692550" lon="-104.8605650">
    <ele>1762.8</ele>
    <time>2022-10-25T19:46:10Z</time>
   </trkpt>
   <trkpt lat="39.5692470" lon="-104.8605690">
    <ele>1762.9</ele>
    <time>2022-10-25T19:46:11Z</time>
   </trkpt>
   <trkpt lat="39.5692400" lon="-104.8605730">
    <ele>1762.9</ele>
    <time>2022-10-25T19:46:12Z</time>
   </trkpt>
   <trkpt lat="39.5692270" lon="-104.8605770">
    <ele>1762.9</ele>
    <time>2022-10-25T19:46:13Z</time>
   </trkpt>
   <trkpt lat="39.5692160" lon="-104.8605820">
    <ele>1762.9</ele>
    <time>2022-10-25T19:46:14Z</time>
   </trkpt>
   <trkpt lat="39.5692080" lon="-104.8605890">
    <ele>1762.9</ele>
    <time>2022-10-25T19:46:15Z</time>
   </trkpt>
   <trkpt lat="39.5691940" lon="-104.8605970">
    <ele>1762.9</ele>
    <time>2022-10-25T19:46:16Z</time>
   </trkpt>
   <trkpt lat="39.5691810" lon="-104.8606010">
    <ele>1762.9</ele>
    <time>2022-10-25T19:46:17Z</time>
   </trkpt>
   <trkpt lat="39.5691690" lon="-104.8606130">
    <ele>1762.9</ele>
    <time>2022-10-25T19:46:18Z</time>
   </trkpt>
   <trkpt lat="39.5691590" lon="-104.8606270">
    <ele>1763.0</ele>
    <time>2022-10-25T19:46:19Z</time>
   </trkpt>
   <trkpt lat="39.5691520" lon="-104.8606390">
    <ele>1763.0</ele>
    <time>2022-10-25T19:46:20Z</time>
   </trkpt>
   <trkpt lat="39.5691430" lon="-104.8606480">
    <ele>1763.0</ele>
    <time>2022-10-25T19:46:21Z</time>
   </trkpt>
   <trkpt lat="39.5691310" lon="-104.8606560">
    <ele>1763.0</ele>
    <time>2022-10-25T19:46:22Z</time>
   </trkpt>
   <trkpt lat="39.5691200" lon="-104.8606630">
    <ele>1763.0</ele>
    <time>2022-10-25T19:46:23Z</time>
   </trkpt>
   <trkpt lat="39.5691050" lon="-104.8606720">
    <ele>1763.0</ele>
    <time>2022-10-25T19:46:24Z</time>
   </trkpt>
   <trkpt lat="39.5690870" lon="-104.8606870">
    <ele>1763.1</ele>
    <time>2022-10-25T19:46:25Z</time>
   </trkpt>
   <trkpt lat="39.5690750" lon="-104.8606960">
    <ele>1763.1</ele>
    <time>2022-10-25T19:46:26Z</time>
   </trkpt>
   <trkpt lat="39.5690550" lon="-104.8607090">
    <ele>1763.1</ele>
    <time>2022-10-25T19:46:27Z</time>
   </trkpt>
   <trkpt lat="39.5690480" lon="-104.8607140">
    <ele>1763.1</ele>
    <time>2022-10-25T19:46:28Z</time>
   </trkpt>
   <trkpt lat="39.5690400" lon="-104.8607200">
    <ele>1763.1</ele>
    <time>2022-10-25T19:46:29Z</time>
   </trkpt>
   <trkpt lat="39.5690220" lon="-104.8607330">
    <ele>1763.2</ele>
    <time>2022-10-25T19:46:30Z</time>
   </trkpt>
   <trkpt lat="39.5690160" lon="-104.8607390">
    <ele>1763.2</ele>
    <time>2022-10-25T19:46:31Z</time>
   </trkpt>
   <trkpt lat="39.5690100" lon="-104.8607460">
    <ele>1763.2</ele>
    <time>2022-10-25T19:46:32Z</time>
   </trkpt>
   <trkpt lat="39.5689970" lon="-104.8607540">
    <ele>1763.2</ele>
    <time>2022-10-25T19:46:33Z</time>
   </trkpt>
   <trkpt lat="39.5689820" lon="-104.8607680">
    <ele>1763.2</ele>
    <time>2022-10-25T19:46:34Z</time>
   </trkpt>
   <trkpt lat="39.5689660" lon="-104.8607850">
    <ele>1763.3</ele>
    <time>2022-10-25T19:46:35Z</time>
   </trkpt>
   <trkpt lat="39.5689580" lon="-104.8607890">
    <ele>1763.3</ele>
    <time>2022-10-25T19:46:36Z</time>
   </trkpt>
   <trkpt lat="39.5689490" lon="-104.8607940">
    <ele>1763.3</ele>
    <time>2022-10-25T19:46:37Z</time>
   </trkpt>
   <trkpt lat="39.5689360" lon="-104.8608010">
    <ele>1763.3</ele>
    <time>2022-10-25T19:46:38Z</time>
   </trkpt>
   <trkpt lat="39.5689240" lon="-104.8608090">
    <ele>1763.3</ele>
    <time>2022-10-25T19:46:39Z</time>
   </trkpt>
   <trkpt lat="39.5689050" lon="-104.8608240">
    <ele>1763.4</ele>
    <time>2022-10-25T19:46:40Z</time>
   </trkpt>
   <trkpt lat="39.5688980" lon="-104.8608290">
    <ele>1763.4</ele>
    <time>2022-10-25T19:46:41Z</time>
   </trkpt>
   <trkpt lat="39.5688900" lon="-104.8608350">
    <ele>1763.4</ele>
    <time>2022-10-25T19:46:42Z</time>
   </trkpt>
   <trkpt lat="39.5688770" lon="-104.8608450">
    <ele>1763.4</ele>
    <time>2022-10-25T19:46:43Z</time>
   </trkpt>
   <trkpt lat="39.5688670" lon="-104.8608540">
    <ele>1763.4</ele>
    <time>2022-10-25T19:46:44Z</time>
   </trkpt>
   <trkpt lat="39.5688520" lon="-104.8608660">
    <ele>1763.4</ele>
    <time>2022-10-25T19:46:45Z</time>
   </trkpt>
   <trkpt lat="39.5688420" lon="-104.8608730">
    <ele>1763.5</ele>
    <time>2022-10-25T19:46:46Z</time>
   </trkpt>
   <trkpt lat="39.5688280" lon="-104.8608820">
    <ele>1763.5</ele>
    <time>2022-10-25T19:46:47Z</time>
   </trkpt>
   <trkpt lat="39.5688190" lon="-104.8608940">
    <ele>1763.5</ele>
    <time>2022-10-25T19:46:48Z</time>
   </trkpt>
   <trkpt lat="39.5688050" lon="-104.8609050">
    <ele>1763.5</ele>
    <time>2022-10-25T19:46:49Z</time>
   </trkpt>
   <trkpt lat="39.5687930" lon="-104.8609160">
    <ele>1763.5</ele>
    <time>2022-10-25T19:46:50Z</time>
   </trkpt>
   <trkpt lat="39.5687810" lon="-104.8609240">
    <ele>1763.6</ele>
    <time>2022-10-25T19:46:51Z</time>
   </trkpt>
   <trkpt lat="39.5687670" lon="-104.8609370">
    <ele>1763.6</ele>
    <time>2022-10-25T19:46:52Z</time>
   </trkpt>
   <trkpt lat="39.5687550" lon="-104.8609440">
    <ele>1763.6</ele>
    <time>2022-10-25T19:46:53Z</time>
   </trkpt>
   <trkpt lat="39.5687430" lon="-104.8609550">
    <ele>1763.6</ele>
    <time>2022-10-25T19:46:54Z</time>
   </trkpt>
   <trkpt lat="39.5687320" lon="-104.8609660">
    <ele>1763.6</ele>
    <time>2022-10-25T19:46:55Z</time>
   </trkpt>
   <trkpt lat="39.5687190" lon="-104.8609730">
    <ele>1763.7</ele>
    <time>2022-10-25T19:46:56Z</time>
   </trkpt>
   <trkpt lat="39.5687040" lon="-104.8609820">
    <ele>1763.7</ele>
    <time>2022-10-25T19:46:57Z</time>
   </trkpt>
   <trkpt lat="39.5686920" lon="-104.8609870">
    <ele>1763.7</ele>
    <time>2022-10-25T19:46:58Z</time>
   </trkpt>
   <trkpt lat="39.5686630" lon="-104.8610060">
    <ele>1763.8</ele>
    <time>2022-10-25T19:46:59Z</time>
   </trkpt>
   <trkpt lat="39.5686550" lon="-104.8610120">
    <ele>1763.8</ele>
    <time>2022-10-25T19:47:00Z</time>
   </trkpt>
   <trkpt lat="39.5686290" lon="-104.8610300">
    <ele>1763.8</ele>
    <time>2022-10-25T19:47:01Z</time>
   </trkpt>
   <trkpt lat="39.5686210" lon="-104.8610370">
    <ele>1763.8</ele>
    <time>2022-10-25T19:47:02Z</time>
   </trkpt>
   <trkpt lat="39.5686050" lon="-104.8610460">
    <ele>1763.9</ele>
    <time>2022-10-25T19:47:03Z</time>
   </trkpt>
   <trkpt lat="39.5685930" lon="-104.8610580">
    <ele>1763.9</ele>
    <time>2022-10-25T19:47:04Z</time>
   </trkpt>
   <trkpt lat="39.5685810" lon="-104.8610690">
    <ele>1763.9</ele>
    <time>2022-10-25T19:47:05Z</time>
   </trkpt>
   <trkpt lat="39.5685680" lon="-104.8610750">
    <ele>1763.9</ele>
    <time>2022-10-25T19:47:06Z</time>
   </trkpt>
   <trkpt lat="39.5685560" lon="-104.8610820">
    <ele>1763.9</ele>
    <time>2022-10-25T19:47:07Z</time>
   </trkpt>
   <trkpt lat="39.5685380" lon="-104.8610910">
    <ele>1764.0</ele>
    <time>2022-10-25T19:47:08Z</time>
   </trkpt>
   <trkpt lat="39.5685200" lon="-104.8611080">
    <ele>1764.0</ele>
    <time>2022-10-25T19:47:09Z</time>
   </trkpt>
   <trkpt lat="39.5685120" lon="-104.8611140">
    <ele>1764.0</ele>
    <time>2022-10-25T19:47:10Z</time>
   </trkpt>
   <trkpt lat="39.5685050" lon="-104.8611200">
    <ele>1764.0</ele>
    <time>2022-10-25T19:47:11Z</time>
   </trkpt>
   <trkpt lat="39.5684830" lon="-104.8611410">
    <ele>1764.0</ele>
    <time>2022-10-25T19:47:12Z</time>
   </trkpt>
   <trkpt lat="39.5684710" lon="-104.8611510">
    <ele>1764.1</ele>
    <time>2022-10-25T19:47:13Z</time>
   </trkpt>
   <trkpt lat="39.5684590" lon="-104.8611610">
    <ele>1764.1</ele>
    <time>2022-10-25T19:47:14Z</time>
   </trkpt>
   <trkpt lat="39.5684470" lon="-104.8611710">
    <ele>1764.1</ele>
    <time>2022-10-25T19:47:15Z</time>
   </trkpt>
   <trkpt lat="39.5684400" lon="-104.8611850">
    <ele>1764.1</ele>
    <time>2022-10-25T19:47:16Z</time>
   </trkpt>
   <trkpt lat="39.5684200" lon="-104.8612000">
    <ele>1764.1</ele>
    <time>2022-10-25T19:47:17Z</time>
   </trkpt>
   <trkpt lat="39.5684030" lon="-104.8612120">
    <ele>1764.2</ele>
    <time>2022-10-25T19:47:18Z</time>
   </trkpt>
   <trkpt lat="39.5683920" lon="-104.8612250">
    <ele>1764.2</ele>
    <time>2022-10-25T19:47:19Z</time>
   </trkpt>
   <trkpt lat="39.5683790" lon="-104.8612330">
    <ele>1764.2</ele>
    <time>2022-10-25T19:47:20Z</time>
   </trkpt>
   <trkpt lat="39.5683650" lon="-104.8612420">
    <ele>1764.2</ele>
    <time>2022-10-25T19:47:21Z</time>
   </trkpt>
   <trkpt lat="39.5683510" lon="-104.8612510">
    <ele>1764.2</ele>
    <time>2022-10-25T19:47:22Z</time>
   </trkpt>
   <trkpt lat="39.5683360" lon="-104.8612580">
    <ele>1764.3</ele>
    <time>2022-10-25T19:47:23Z</time>
   </trkpt>
   <trkpt lat="39.5683240" lon="-104.8612680">
    <ele>1764.3</ele>
    <time>2022-10-25T19:47:24Z</time>
   </trkpt>
   <trkpt lat="39.5683130" lon="-104.8612780">
    <ele>1764.3</ele>
    <time>2022-10-25T19:47:25Z</time>
   </trkpt>
   <trkpt lat="39.5683000" lon="-104.8612880">
    <ele>1764.3</ele>
    <time>2022-10-25T19:47:26Z</time>
   </trkpt>
   <trkpt lat="39.5682890" lon="-104.8612970">
    <ele>1764.3</ele>
    <time>2022-10-25T19:47:27Z</time>
   </trkpt>
   <trkpt lat="39.5682800" lon="-104.8613080">
    <ele>1764.4</ele>
    <time>2022-10-25T19:47:28Z</time>
   </trkpt>
   <trkpt lat="39.5682650" lon="-104.8613180">
    <ele>1764.4</ele>
    <time>2022-10-25T19:47:29Z</time>
   </trkpt>
   <trkpt lat="39.5682540" lon="-104.8613280">
    <ele>1764.4</ele>
    <time>2022-10-25T19:47:30Z</time>
   </trkpt>
   <trkpt lat="39.5682420" lon="-104.8613410">
    <ele>1764.4</ele>
    <time>2022-10-25T19:47:31Z</time>
   </trkpt>
   <trkpt lat="39.5682290" lon="-104.8613480">
    <ele>1764.4</ele>
    <time>2022-10-25T19:47:32Z</time>
   </trkpt>
   <trkpt lat="39.5682140" lon="-104.8613560">
    <ele>1764.4</ele>
    <time>2022-10-25T19:47:33Z</time>
   </trkpt>
   <trkpt lat="39.5681970" lon="-104.8613680">
    <ele>1764.5</ele>
    <time>2022-10-25T19:47:34Z</time>
   </trkpt>
   <trkpt lat="39.5681880" lon="-104.8613740">
    <ele>1764.5</ele>
    <time>2022-10-25T19:47:35Z</time>
   </trkpt>
   <trkpt lat="39.5681780" lon="-104.8613800">
    <ele>1764.5</ele>
    <time>2022-10-25T19:47:36Z</time>
   </trkpt>
   <trkpt lat="39.5681690" lon="-104.8613920">
    <ele>1764.5</ele>
    <time>2022-10-25T19:47:37Z</time>
   </trkpt>
   <trkpt lat="39.5681620" lon="-104.8613970">
    <ele>1764.5</ele>
    <time>2022-10-25T19:47:38Z</time>
   </trkpt>
   <trkpt lat="39.5681530" lon="-104.8614030">
    <ele>1764.5</ele>
    <time>2022-10-25T19:47:39Z</time>
   </trkpt>
   <trkpt lat="39.5681330" lon="-104.8614150">
    <ele>1764.5</ele>
    <time>2022-10-25T19:47:40Z</time>
   </trkpt>
   <trkpt lat="39.5681260" lon="-104.8614190">
    <ele>1764.5</ele>
    <time>2022-10-25T19:47:41Z</time>
   </trkpt>
   <trkpt lat="39.5681190" lon="-104.8614220">
    <ele>1764.5</ele>
    <time>2022-10-25T19:47:42Z</time>
   </trkpt>
   <trkpt lat="39.5681040" lon="-104.8614340">
    <ele>1764.6</ele>
    <time>2022-10-25T19:47:43Z</time>
   </trkpt>
   <trkpt lat="39.5680900" lon="-104.8614420">
    <ele>1764.6</ele>
    <time>2022-10-25T19:47:44Z</time>
   </trkpt>
   <trkpt lat="39.5680790" lon="-104.8614550">
    <ele>1764.6</ele>
    <time>2022-10-25T19:47:45Z</time>
   </trkpt>
   <trkpt lat="39.5680710" lon="-104.8614650">
    <ele>1764.6</ele>
    <time>2022-10-25T19:47:46Z</time>
   </trkpt>
   <trkpt lat="39.5680650" lon="-104.8614740">
    <ele>1764.6</ele>
    <time>2022-10-25T19:47:47Z</time>
   </trkpt>
   <trkpt lat="39.5680590" lon="-104.8614750">
    <ele>1764.6</ele>
    <time>2022-10-25T19:47:48Z</time>
   </trkpt>
   <trkpt lat="39.5680350" lon="-104.8614920">
    <ele>1764.6</ele>
    <time>2022-10-25T19:47:49Z</time>
   </trkpt>
   <trkpt lat="39.5680080" lon="-104.8615120">
    <ele>1764.7</ele>
    <time>2022-10-25T19:47:50Z</time>
   </trkpt>
   <trkpt lat="39.5680030" lon="-104.8615160">
    <ele>1764.7</ele>
    <time>2022-10-25T19:47:51Z</time>
   </trkpt>
   <trkpt lat="39.5679880" lon="-104.8615180">
    <ele>1764.7</ele>
    <time>2022-10-25T19:47:52Z</time>
   </trkpt>
   <trkpt lat="39.5679770" lon="-104.8615270">
    <ele>1764.7</ele>
    <time>2022-10-25T19:47:53Z</time>
   </trkpt>
   <trkpt lat="39.5679650" lon="-104.8615360">
    <ele>1764.7</ele>
    <time>2022-10-25T19:47:54Z</time>
   </trkpt>
   <trkpt lat="39.5679510" lon="-104.8615430">
    <ele>1764.7</ele>
    <time>2022-10-25T19:47:55Z</time>
   </trkpt>
   <trkpt lat="39.5679350" lon="-104.8615510">
    <ele>1764.8</ele>
    <time>2022-10-25T19:47:56Z</time>
   </trkpt>
   <trkpt lat="39.5679200" lon="-104.8615650">
    <ele>1764.8</ele>
    <time>2022-10-25T19:47:57Z</time>
   </trkpt>
   <trkpt lat="39.5679030" lon="-104.8615820">
    <ele>1764.8</ele>
    <time>2022-10-25T19:47:58Z</time>
   </trkpt>
   <trkpt lat="39.5678970" lon="-104.8615880">
    <ele>1764.8</ele>
    <time>2022-10-25T19:47:59Z</time>
   </trkpt>
   <trkpt lat="39.5678920" lon="-104.8615950">
    <ele>1764.8</ele>
    <time>2022-10-25T19:48:00Z</time>
   </trkpt>
   <trkpt lat="39.5678700" lon="-104.8616130">
    <ele>1764.8</ele>
    <time>2022-10-25T19:48:01Z</time>
   </trkpt>
   <trkpt lat="39.5678600" lon="-104.8616170">
    <ele>1764.8</ele>
    <time>2022-10-25T19:48:02Z</time>
   </trkpt>
   <trkpt lat="39.5678480" lon="-104.8616240">
    <ele>1764.8</ele>
    <time>2022-10-25T19:48:03Z</time>
   </trkpt>
   <trkpt lat="39.5678340" lon="-104.8616320">
    <ele>1764.8</ele>
    <time>2022-10-25T19:48:04Z</time>
   </trkpt>
   <trkpt lat="39.5678120" lon="-104.8616400">
    <ele>1764.8</ele>
    <time>2022-10-25T19:48:05Z</time>
   </trkpt>
   <trkpt lat="39.5678020" lon="-104.8616470">
    <ele>1764.8</ele>
    <time>2022-10-25T19:48:06Z</time>
   </trkpt>
   <trkpt lat="39.5677930" lon="-104.8616530">
    <ele>1764.8</ele>
    <time>2022-10-25T19:48:07Z</time>
   </trkpt>
   <trkpt lat="39.5677790" lon="-104.8616630">
    <ele>1764.9</ele>
    <time>2022-10-25T19:48:08Z</time>
   </trkpt>
   <trkpt lat="39.5677650" lon="-104.8616750">
    <ele>1764.9</ele>
    <time>2022-10-25T19:48:09Z</time>
   </trkpt>
   <trkpt lat="39.5677520" lon="-104.8616830">
    <ele>1764.9</ele>
    <time>2022-10-25T19:48:10Z</time>
   </trkpt>
   <trkpt lat="39.5677440" lon="-104.8616990">
    <ele>1764.9</ele>
    <time>2022-10-25T19:48:11Z</time>
   </trkpt>
   <trkpt lat="39.5677270" lon="-104.8617090">
    <ele>1764.9</ele>
    <time>2022-10-25T19:48:12Z</time>
   </trkpt>
   <trkpt lat="39.5677130" lon="-104.8617160">
    <ele>1764.9</ele>
    <time>2022-10-25T19:48:13Z</time>
   </trkpt>
   <trkpt lat="39.5677000" lon="-104.8617220">
    <ele>1764.9</ele>
    <time>2022-10-25T19:48:14Z</time>
   </trkpt>
   <trkpt lat="39.5676870" lon="-104.8617330">
    <ele>1764.9</ele>
    <time>2022-10-25T19:48:15Z</time>
   </trkpt>
   <trkpt lat="39.5676710" lon="-104.8617480">
    <ele>1764.9</ele>
    <time>2022-10-25T19:48:16Z</time>
   </trkpt>
   <trkpt lat="39.5676630" lon="-104.8617550">
    <ele>1764.9</ele>
    <time>2022-10-25T19:48:17Z</time>
   </trkpt>
   <trkpt lat="39.5676560" lon="-104.8617620">
    <ele>1765.0</ele>
    <time>2022-10-25T19:48:18Z</time>
   </trkpt>
   <trkpt lat="39.5676450" lon="-104.8617720">
    <ele>1765.0</ele>
    <time>2022-10-25T19:48:19Z</time>
   </trkpt>
   <trkpt lat="39.5676320" lon="-104.8617820">
    <ele>1765.0</ele>
    <time>2022-10-25T19:48:20Z</time>
   </trkpt>
   <trkpt lat="39.5676120" lon="-104.8617960">
    <ele>1765.0</ele>
    <time>2022-10-25T19:48:21Z</time>
   </trkpt>
   <trkpt lat="39.5676040" lon="-104.8618000">
    <ele>1765.0</ele>
    <time>2022-10-25T19:48:22Z</time>
   </trkpt>
   <trkpt lat="39.5675950" lon="-104.8618050">
    <ele>1765.0</ele>
    <time>2022-10-25T19:48:23Z</time>
   </trkpt>
   <trkpt lat="39.5675750" lon="-104.8618150">
    <ele>1765.0</ele>
    <time>2022-10-25T19:48:24Z</time>
   </trkpt>
   <trkpt lat="39.5675650" lon="-104.8618170">
    <ele>1765.0</ele>
    <time>2022-10-25T19:48:25Z</time>
   </trkpt>
   <trkpt lat="39.5675550" lon="-104.8618190">
    <ele>1765.0</ele>
    <time>2022-10-25T19:48:26Z</time>
   </trkpt>
   <trkpt lat="39.5675440" lon="-104.8618270">
    <ele>1765.0</ele>
    <time>2022-10-25T19:48:27Z</time>
   </trkpt>
   <trkpt lat="39.5675300" lon="-104.8618380">
    <ele>1765.0</ele>
    <time>2022-10-25T19:48:28Z</time>
   </trkpt>
   <trkpt lat="39.5675160" lon="-104.8618430">
    <ele>1765.1</ele>
    <time>2022-10-25T19:48:29Z</time>
   </trkpt>
   <trkpt lat="39.5675030" lon="-104.8618540">
    <ele>1765.1</ele>
    <time>2022-10-25T19:48:30Z</time>
   </trkpt>
   <trkpt lat="39.5674880" lon="-104.8618630">
    <ele>1765.1</ele>
    <time>2022-10-25T19:48:31Z</time>
   </trkpt>
   <trkpt lat="39.5674750" lon="-104.8618730">
    <ele>1765.1</ele>
    <time>2022-10-25T19:48:32Z</time>
   </trkpt>
   <trkpt lat="39.5674640" lon="-104.8618820">
    <ele>1765.1</ele>
    <time>2022-10-25T19:48:33Z</time>
   </trkpt>
   <trkpt lat="39.5674540" lon="-104.8618940">
    <ele>1765.1</ele>
    <time>2022-10-25T19:48:34Z</time>
   </trkpt>
   <trkpt lat="39.5674280" lon="-104.8618990">
    <ele>1765.1</ele>
    <time>2022-10-25T19:48:35Z</time>
   </trkpt>
   <trkpt lat="39.5674170" lon="-104.8619000">
    <ele>1765.1</ele>
    <time>2022-10-25T19:48:36Z</time>
   </trkpt>
   <trkpt lat="39.5673950" lon="-104.8618780">
    <ele>1765.2</ele>
    <time>2022-10-25T19:48:37Z</time>
   </trkpt>
   <trkpt lat="39.5673890" lon="-104.8618650">
    <ele>1765.2</ele>
    <time>2022-10-25T19:48:38Z</time>
   </trkpt>
   <trkpt lat="39.5673760" lon="-104.8618320">
    <ele>1765.2</ele>
    <time>2022-10-25T19:48:39Z</time>
   </trkpt>
   <trkpt lat="39.5673720" lon="-104.8618200">
    <ele>1765.1</ele>
    <time>2022-10-25T19:48:40Z</time>
   </trkpt>
   <trkpt lat="39.5673640" lon="-104.8617990">
    <ele>1765.1</ele>
    <time>2022-10-25T19:48:41Z</time>
   </trkpt>
   <trkpt lat="39.5673550" lon="-104.8617830">
    <ele>1765.1</ele>
    <time>2022-10-25T19:48:42Z</time>
   </trkpt>
   <trkpt lat="39.5673380" lon="-104.8617690">
    <ele>1765.1</ele>
    <time>2022-10-25T19:48:43Z</time>
   </trkpt>
   <trkpt lat="39.5673330" lon="-104.8617520">
    <ele>1765.1</ele>
    <time>2022-10-25T19:48:45Z</time>
   </trkpt>
   <trkpt lat="39.5673250" lon="-104.8617350">
    <ele>1765.1</ele>
    <time>2022-10-25T19:48:46Z</time>
   </trkpt>
   <trkpt lat="39.5673150" lon="-104.8617160">
    <ele>1765.1</ele>
    <time>2022-10-25T19:48:47Z</time>
   </trkpt>
   <trkpt lat="39.5673090" lon="-104.8616970">
    <ele>1765.0</ele>
    <time>2022-10-25T19:48:48Z</time>
   </trkpt>
   <trkpt lat="39.5672960" lon="-104.8616810">
    <ele>1765.0</ele>
    <time>2022-10-25T19:48:49Z</time>
   </trkpt>
   <trkpt lat="39.5672880" lon="-104.8616710">
    <ele>1765.0</ele>
    <time>2022-10-25T19:48:50Z</time>
   </trkpt>
   <trkpt lat="39.5672790" lon="-104.8616520">
    <ele>1765.0</ele>
    <time>2022-10-25T19:48:51Z</time>
   </trkpt>
   <trkpt lat="39.5672700" lon="-104.8616340">
    <ele>1765.0</ele>
    <time>2022-10-25T19:48:52Z</time>
   </trkpt>
   <trkpt lat="39.5672610" lon="-104.8616190">
    <ele>1765.0</ele>
    <time>2022-10-25T19:48:53Z</time>
   </trkpt>
   <trkpt lat="39.5672540" lon="-104.8616030">
    <ele>1764.9</ele>
    <time>2022-10-25T19:48:54Z</time>
   </trkpt>
   <trkpt lat="39.5672430" lon="-104.8615900">
    <ele>1764.9</ele>
    <time>2022-10-25T19:48:55Z</time>
   </trkpt>
   <trkpt lat="39.5672360" lon="-104.8615740">
    <ele>1764.9</ele>
    <time>2022-10-25T19:48:56Z</time>
   </trkpt>
   <trkpt lat="39.5672310" lon="-104.8615560">
    <ele>1764.9</ele>
    <time>2022-10-25T19:48:57Z</time>
   </trkpt>
   <trkpt lat="39.5672120" lon="-104.8615190">
    <ele>1764.9</ele>
    <time>2022-10-25T19:48:58Z</time>
   </trkpt>
   <trkpt lat="39.5672070" lon="-104.8615100">
    <ele>1764.9</ele>
    <time>2022-10-25T19:48:59Z</time>
   </trkpt>
   <trkpt lat="39.5672060" lon="-104.8615020">
    <ele>1764.8</ele>
    <time>2022-10-25T19:49:00Z</time>
   </trkpt>
   <trkpt lat="39.5671970" lon="-104.8614830">
    <ele>1764.8</ele>
    <time>2022-10-25T19:49:01Z</time>
   </trkpt>
   <trkpt lat="39.5671930" lon="-104.8614680">
    <ele>1764.8</ele>
    <time>2022-10-25T19:49:02Z</time>
   </trkpt>
   <trkpt lat="39.5671900" lon="-104.8614590">
    <ele>1764.8</ele>
    <time>2022-10-25T19:49:03Z</time>
   </trkpt>
   <trkpt lat="39.5671830" lon="-104.8614480">
    <ele>1764.8</ele>
    <time>2022-10-25T19:49:04Z</time>
   </trkpt>
   <trkpt lat="39.5671790" lon="-104.8614380">
    <ele>1764.8</ele>
    <time>2022-10-25T19:49:05Z</time>
   </trkpt>
   <trkpt lat="39.5671740" lon="-104.8614330">
    <ele>1764.8</ele>
    <time>2022-10-25T19:49:06Z</time>
   </trkpt>
   <trkpt lat="39.5671640" lon="-104.8614150">
    <ele>1764.8</ele>
    <time>2022-10-25T19:49:07Z</time>
   </trkpt>
   <trkpt lat="39.5671590" lon="-104.8614040">
    <ele>1764.8</ele>
    <time>2022-10-25T19:49:08Z</time>
   </trkpt>
   <trkpt lat="39.5671550" lon="-104.8613930">
    <ele>1764.8</ele>
    <time>2022-10-25T19:49:09Z</time>
   </trkpt>
   <trkpt lat="39.5671460" lon="-104.8613600">
    <ele>1764.8</ele>
    <time>2022-10-25T19:49:10Z</time>
   </trkpt>
   <trkpt lat="39.5671420" lon="-104.8613470">
    <ele>1764.8</ele>
    <time>2022-10-25T19:49:11Z</time>
   </trkpt>
   <trkpt lat="39.5671310" lon="-104.8613280">
    <ele>1764.8</ele>
    <time>2022-10-25T19:49:12Z</time>
   </trkpt>
   <trkpt lat="39.5671210" lon="-104.8613100">
    <ele>1764.8</ele>
    <time>2022-10-25T19:49:13Z</time>
   </trkpt>
   <trkpt lat="39.5671140" lon="-104.8612870">
    <ele>1764.7</ele>
    <time>2022-10-25T19:49:14Z</time>
   </trkpt>
   <trkpt lat="39.5671050" lon="-104.8612700">
    <ele>1764.7</ele>
    <time>2022-10-25T19:49:15Z</time>
   </trkpt>
   <trkpt lat="39.5671010" lon="-104.8612500">
    <ele>1764.7</ele>
    <time>2022-10-25T19:49:16Z</time>
   </trkpt>
   <trkpt lat="39.5670970" lon="-104.8612310">
    <ele>1764.7</ele>
    <time>2022-10-25T19:49:17Z</time>
   </trkpt>
   <trkpt lat="39.5670900" lon="-104.8612130">
    <ele>1764.7</ele>
    <time>2022-10-25T19:49:18Z</time>
   </trkpt>
   <trkpt lat="39.5670810" lon="-104.8611970">
    <ele>1764.7</ele>
    <time>2022-10-25T19:49:19Z</time>
   </trkpt>
   <trkpt lat="39.5670680" lon="-104.8611810">
    <ele>1764.6</ele>
    <time>2022-10-25T19:49:20Z</time>
   </trkpt>
   <trkpt lat="39.5670560" lon="-104.8611650">
    <ele>1764.6</ele>
    <time>2022-10-25T19:49:21Z</time>
   </trkpt>
   <trkpt lat="39.5670450" lon="-104.8611500">
    <ele>1764.6</ele>
    <time>2022-10-25T19:49:22Z</time>
   </trkpt>
   <trkpt lat="39.5670370" lon="-104.8611350">
    <ele>1764.6</ele>
    <time>2022-10-25T19:49:23Z</time>
   </trkpt>
   <trkpt lat="39.5670250" lon="-104.8611120">
    <ele>1764.6</ele>
    <time>2022-10-25T19:49:24Z</time>
   </trkpt>
   <trkpt lat="39.5670180" lon="-104.8611000">
    <ele>1764.6</ele>
    <time>2022-10-25T19:49:25Z</time>
   </trkpt>
   <trkpt lat="39.5670120" lon="-104.8610890">
    <ele>1764.6</ele>
    <time>2022-10-25T19:49:26Z</time>
   </trkpt>
   <trkpt lat="39.5669930" lon="-104.8610630">
    <ele>1764.5</ele>
    <time>2022-10-25T19:49:27Z</time>
   </trkpt>
   <trkpt lat="39.5669860" lon="-104.8610530">
    <ele>1764.5</ele>
    <time>2022-10-25T19:49:28Z</time>
   </trkpt>
   <trkpt lat="39.5669640" lon="-104.8610340">
    <ele>1764.5</ele>
    <time>2022-10-25T19:49:29Z</time>
   </trkpt>
   <trkpt lat="39.5669530" lon="-104.8610310">
    <ele>1764.5</ele>
    <time>2022-10-25T19:49:30Z</time>
   </trkpt>
   <trkpt lat="39.5669420" lon="-104.8610210">
    <ele>1764.5</ele>
    <time>2022-10-25T19:49:31Z</time>
   </trkpt>
   <trkpt lat="39.5669280" lon="-104.8610000">
    <ele>1764.5</ele>
    <time>2022-10-25T19:49:32Z</time>
   </trkpt>
   <trkpt lat="39.5669170" lon="-104.8609900">
    <ele>1764.5</ele>
    <time>2022-10-25T19:49:33Z</time>
   </trkpt>
   <trkpt lat="39.5669010" lon="-104.8609740">
    <ele>1764.4</ele>
    <time>2022-10-25T19:49:34Z</time>
   </trkpt>
   <trkpt lat="39.5668870" lon="-104.8609610">
    <ele>1764.4</ele>
    <time>2022-10-25T19:49:35Z</time>
   </trkpt>
   <trkpt lat="39.5668720" lon="-104.8609470">
    <ele>1764.4</ele>
    <time>2022-10-25T19:49:36Z</time>
   </trkpt>
   <trkpt lat="39.5668600" lon="-104.8609350">
    <ele>1764.4</ele>
    <time>2022-10-25T19:49:37Z</time>
   </trkpt>
   <trkpt lat="39.5668520" lon="-104.8609160">
    <ele>1764.4</ele>
    <time>2022-10-25T19:49:38Z</time>
   </trkpt>
   <trkpt lat="39.5668430" lon="-104.8609030">
    <ele>1764.4</ele>
    <time>2022-10-25T19:49:39Z</time>
   </trkpt>
   <trkpt lat="39.5668290" lon="-104.8608920">
    <ele>1764.4</ele>
    <time>2022-10-25T19:49:40Z</time>
   </trkpt>
   <trkpt lat="39.5668140" lon="-104.8608820">
    <ele>1764.4</ele>
    <time>2022-10-25T19:49:41Z</time>
   </trkpt>
   <trkpt lat="39.5668020" lon="-104.8608720">
    <ele>1764.4</ele>
    <time>2022-10-25T19:49:42Z</time>
   </trkpt>
   <trkpt lat="39.5667910" lon="-104.8608540">
    <ele>1764.4</ele>
    <time>2022-10-25T19:49:43Z</time>
   </trkpt>
   <trkpt lat="39.5667800" lon="-104.8608460">
    <ele>1764.4</ele>
    <time>2022-10-25T19:49:44Z</time>
   </trkpt>
   <trkpt lat="39.5667670" lon="-104.8608330">
    <ele>1764.4</ele>
    <time>2022-10-25T19:49:45Z</time>
   </trkpt>
   <trkpt lat="39.5667570" lon="-104.8608230">
    <ele>1764.4</ele>
    <time>2022-10-25T19:49:46Z</time>
   </trkpt>
   <trkpt lat="39.5667420" lon="-104.8608150">
    <ele>1764.4</ele>
    <time>2022-10-25T19:49:47Z</time>
   </trkpt>
   <trkpt lat="39.5667300" lon="-104.8608020">
    <ele>1764.4</ele>
    <time>2022-10-25T19:49:48Z</time>
   </trkpt>
   <trkpt lat="39.5667120" lon="-104.8607870">
    <ele>1764.4</ele>
    <time>2022-10-25T19:49:49Z</time>
   </trkpt>
   <trkpt lat="39.5667040" lon="-104.8607790">
    <ele>1764.4</ele>
    <time>2022-10-25T19:49:50Z</time>
   </trkpt>
   <trkpt lat="39.5666960" lon="-104.8607710">
    <ele>1764.4</ele>
    <time>2022-10-25T19:49:51Z</time>
   </trkpt>
   <trkpt lat="39.5666830" lon="-104.8607620">
    <ele>1764.4</ele>
    <time>2022-10-25T19:49:52Z</time>
   </trkpt>
   <trkpt lat="39.5666700" lon="-104.8607560">
    <ele>1764.4</ele>
    <time>2022-10-25T19:49:53Z</time>
   </trkpt>
   <trkpt lat="39.5666590" lon="-104.8607450">
    <ele>1764.4</ele>
    <time>2022-10-25T19:49:54Z</time>
   </trkpt>
   <trkpt lat="39.5666460" lon="-104.8607350">
    <ele>1764.4</ele>
    <time>2022-10-25T19:49:55Z</time>
   </trkpt>
   <trkpt lat="39.5666290" lon="-104.8607340">
    <ele>1764.4</ele>
    <time>2022-10-25T19:49:56Z</time>
   </trkpt>
   <trkpt lat="39.5666150" lon="-104.8607270">
    <ele>1764.4</ele>
    <time>2022-10-25T19:49:57Z</time>
   </trkpt>
   <trkpt lat="39.5666000" lon="-104.8607230">
    <ele>1764.5</ele>
    <time>2022-10-25T19:49:58Z</time>
   </trkpt>
   <trkpt lat="39.5665860" lon="-104.8607170">
    <ele>1764.5</ele>
    <time>2022-10-25T19:49:59Z</time>
   </trkpt>
   <trkpt lat="39.5665730" lon="-104.8607070">
    <ele>1764.5</ele>
    <time>2022-10-25T19:50:00Z</time>
   </trkpt>
   <trkpt lat="39.5665580" lon="-104.8607010">
    <ele>1764.5</ele>
    <time>2022-10-25T19:50:01Z</time>
   </trkpt>
   <trkpt lat="39.5665450" lon="-104.8606950">
    <ele>1764.5</ele>
    <time>2022-10-25T19:50:02Z</time>
   </trkpt>
   <trkpt lat="39.5665320" lon="-104.8606880">
    <ele>1764.5</ele>
    <time>2022-10-25T19:50:03Z</time>
   </trkpt>
   <trkpt lat="39.5665180" lon="-104.8606810">
    <ele>1764.5</ele>
    <time>2022-10-25T19:50:04Z</time>
   </trkpt>
   <trkpt lat="39.5665040" lon="-104.8606780">
    <ele>1764.5</ele>
    <time>2022-10-25T19:50:05Z</time>
   </trkpt>
   <trkpt lat="39.5664890" lon="-104.8606750">
    <ele>1764.5</ele>
    <time>2022-10-25T19:50:06Z</time>
   </trkpt>
   <trkpt lat="39.5664750" lon="-104.8606670">
    <ele>1764.5</ele>
    <time>2022-10-25T19:50:07Z</time>
   </trkpt>
   <trkpt lat="39.5664600" lon="-104.8606630">
    <ele>1764.5</ele>
    <time>2022-10-25T19:50:08Z</time>
   </trkpt>
   <trkpt lat="39.5664460" lon="-104.8606620">
    <ele>1764.5</ele>
    <time>2022-10-25T19:50:09Z</time>
   </trkpt>
   <trkpt lat="39.5664360" lon="-104.8606620">
    <ele>1764.5</ele>
    <time>2022-10-25T19:50:10Z</time>
   </trkpt>
   <trkpt lat="39.5664190" lon="-104.8606570">
    <ele>1764.5</ele>
    <time>2022-10-25T19:50:11Z</time>
   </trkpt>
   <trkpt lat="39.5664000" lon="-104.8606520">
    <ele>1764.6</ele>
    <time>2022-10-25T19:50:12Z</time>
   </trkpt>
   <trkpt lat="39.5663880" lon="-104.8606490">
    <ele>1764.6</ele>
    <time>2022-10-25T19:50:13Z</time>
   </trkpt>
   <trkpt lat="39.5663690" lon="-104.8606510">
    <ele>1764.6</ele>
    <time>2022-10-25T19:50:14Z</time>
   </trkpt>
   <trkpt lat="39.5663530" lon="-104.8606520">
    <ele>1764.6</ele>
    <time>2022-10-25T19:50:15Z</time>
   </trkpt>
   <trkpt lat="39.5663260" lon="-104.8606570">
    <ele>1764.6</ele>
    <time>2022-10-25T19:50:16Z</time>
   </trkpt>
   <trkpt lat="39.5663160" lon="-104.8606590">
    <ele>1764.6</ele>
    <time>2022-10-25T19:50:17Z</time>
   </trkpt>
   <trkpt lat="39.5662980" lon="-104.8606570">
    <ele>1764.6</ele>
    <time>2022-10-25T19:50:18Z</time>
   </trkpt>
   <trkpt lat="39.5662820" lon="-104.8606580">
    <ele>1764.6</ele>
    <time>2022-10-25T19:50:19Z</time>
   </trkpt>
   <trkpt lat="39.5662650" lon="-104.8606600">
    <ele>1764.7</ele>
    <time>2022-10-25T19:50:20Z</time>
   </trkpt>
   <trkpt lat="39.5662470" lon="-104.8606640">
    <ele>1764.7</ele>
    <time>2022-10-25T19:50:21Z</time>
   </trkpt>
   <trkpt lat="39.5662330" lon="-104.8606630">
    <ele>1764.7</ele>
    <time>2022-10-25T19:50:22Z</time>
   </trkpt>
   <trkpt lat="39.5662190" lon="-104.8606620">
    <ele>1764.7</ele>
    <time>2022-10-25T19:50:23Z</time>
   </trkpt>
   <trkpt lat="39.5662000" lon="-104.8606630">
    <ele>1764.7</ele>
    <time>2022-10-25T19:50:24Z</time>
   </trkpt>
   <trkpt lat="39.5661840" lon="-104.8606630">
    <ele>1764.7</ele>
    <time>2022-10-25T19:50:25Z</time>
   </trkpt>
   <trkpt lat="39.5661670" lon="-104.8606620">
    <ele>1764.7</ele>
    <time>2022-10-25T19:50:26Z</time>
   </trkpt>
   <trkpt lat="39.5661500" lon="-104.8606620">
    <ele>1764.7</ele>
    <time>2022-10-25T19:50:27Z</time>
   </trkpt>
   <trkpt lat="39.5661350" lon="-104.8606590">
    <ele>1764.8</ele>
    <time>2022-10-25T19:50:28Z</time>
   </trkpt>
   <trkpt lat="39.5661210" lon="-104.8606550">
    <ele>1764.8</ele>
    <time>2022-10-25T19:50:29Z</time>
   </trkpt>
   <trkpt lat="39.5661090" lon="-104.8606460">
    <ele>1764.8</ele>
    <time>2022-10-25T19:50:30Z</time>
   </trkpt>
   <trkpt lat="39.5660970" lon="-104.8606350">
    <ele>1764.8</ele>
    <time>2022-10-25T19:50:31Z</time>
   </trkpt>
   <trkpt lat="39.5660840" lon="-104.8606240">
    <ele>1764.8</ele>
    <time>2022-10-25T19:50:32Z</time>
   </trkpt>
   <trkpt lat="39.5660780" lon="-104.8606250">
    <ele>1764.8</ele>
    <time>2022-10-25T19:50:33Z</time>
   </trkpt>
   <trkpt lat="39.5660720" lon="-104.8606260">
    <ele>1764.8</ele>
    <time>2022-10-25T19:50:34Z</time>
   </trkpt>
   <trkpt lat="39.5660660" lon="-104.8606270">
    <ele>1764.8</ele>
    <time>2022-10-25T19:50:35Z</time>
   </trkpt>
   <trkpt lat="39.5660600" lon="-104.8606280">
    <ele>1764.8</ele>
    <time>2022-10-25T19:50:36Z</time>
   </trkpt>
   <trkpt lat="39.5660290" lon="-104.8606300">
    <ele>1764.8</ele>
    <time>2022-10-25T19:50:37Z</time>
   </trkpt>
   <trkpt lat="39.5660200" lon="-104.8606270">
    <ele>1764.8</ele>
    <time>2022-10-25T19:50:38Z</time>
   </trkpt>
   <trkpt lat="39.5659900" lon="-104.8606270">
    <ele>1764.9</ele>
    <time>2022-10-25T19:50:39Z</time>
   </trkpt>
   <trkpt lat="39.5659810" lon="-104.8606270">
    <ele>1764.9</ele>
    <time>2022-10-25T19:50:40Z</time>
   </trkpt>
   <trkpt lat="39.5659520" lon="-104.8606290">
    <ele>1764.9</ele>
    <time>2022-10-25T19:50:41Z</time>
   </trkpt>
   <trkpt lat="39.5659430" lon="-104.8606290">
    <ele>1764.9</ele>
    <time>2022-10-25T19:50:42Z</time>
   </trkpt>
   <trkpt lat="39.5659150" lon="-104.8606390">
    <ele>1764.9</ele>
    <time>2022-10-25T19:50:43Z</time>
   </trkpt>
   <trkpt lat="39.5659070" lon="-104.8606430">
    <ele>1764.9</ele>
    <time>2022-10-25T19:50:44Z</time>
   </trkpt>
   <trkpt lat="39.5658910" lon="-104.8606510">
    <ele>1764.9</ele>
    <time>2022-10-25T19:50:45Z</time>
   </trkpt>
   <trkpt lat="39.5658740" lon="-104.8606610">
    <ele>1764.9</ele>
    <time>2022-10-25T19:50:46Z</time>
   </trkpt>
   <trkpt lat="39.5658470" lon="-104.8606670">
    <ele>1764.9</ele>
    <time>2022-10-25T19:50:47Z</time>
   </trkpt>
   <trkpt lat="39.5658370" lon="-104.8606700">
    <ele>1764.9</ele>
    <time>2022-10-25T19:50:48Z</time>
   </trkpt>
   <trkpt lat="39.5658150" lon="-104.8606730">
    <ele>1764.9</ele>
    <time>2022-10-25T19:50:49Z</time>
   </trkpt>
   <trkpt lat="39.5658060" lon="-104.8606740">
    <ele>1764.9</ele>
    <time>2022-10-25T19:50:51Z</time>
   </trkpt>
   <trkpt lat="39.5657970" lon="-104.8606740">
    <ele>1764.9</ele>
    <time>2022-10-25T19:50:52Z</time>
   </trkpt>
   <trkpt lat="39.5657590" lon="-104.8606740">
    <ele>1765.0</ele>
    <time>2022-10-25T19:50:53Z</time>
   </trkpt>
   <trkpt lat="39.5657420" lon="-104.8606730">
    <ele>1765.0</ele>
    <time>2022-10-25T19:50:54Z</time>
   </trkpt>
   <trkpt lat="39.5657240" lon="-104.8606730">
    <ele>1765.0</ele>
    <time>2022-10-25T19:50:55Z</time>
   </trkpt>
   <trkpt lat="39.5657040" lon="-104.8606750">
    <ele>1765.0</ele>
    <time>2022-10-25T19:50:56Z</time>
   </trkpt>
   <trkpt lat="39.5656920" lon="-104.8606750">
    <ele>1765.0</ele>
    <time>2022-10-25T19:50:57Z</time>
   </trkpt>
   <trkpt lat="39.5656770" lon="-104.8606730">
    <ele>1765.0</ele>
    <time>2022-10-25T19:50:58Z</time>
   </trkpt>
   <trkpt lat="39.5656620" lon="-104.8606720">
    <ele>1765.0</ele>
    <time>2022-10-25T19:50:59Z</time>
   </trkpt>
   <trkpt lat="39.5656460" lon="-104.8606720">
    <ele>1765.1</ele>
    <time>2022-10-25T19:51:00Z</time>
   </trkpt>
   <trkpt lat="39.5656320" lon="-104.8606720">
    <ele>1765.1</ele>
    <time>2022-10-25T19:51:01Z</time>
   </trkpt>
   <trkpt lat="39.5656160" lon="-104.8606750">
    <ele>1765.1</ele>
    <time>2022-10-25T19:51:02Z</time>
   </trkpt>
   <trkpt lat="39.5655990" lon="-104.8606780">
    <ele>1765.1</ele>
    <time>2022-10-25T19:51:03Z</time>
   </trkpt>
   <trkpt lat="39.5655760" lon="-104.8606760">
    <ele>1765.1</ele>
    <time>2022-10-25T19:51:04Z</time>
   </trkpt>
   <trkpt lat="39.5655670" lon="-104.8606740">
    <ele>1765.1</ele>
    <time>2022-10-25T19:51:05Z</time>
   </trkpt>
   <trkpt lat="39.5655580" lon="-104.8606730">
    <ele>1765.1</ele>
    <time>2022-10-25T19:51:06Z</time>
   </trkpt>
   <trkpt lat="39.5655440" lon="-104.8606740">
    <ele>1765.1</ele>
    <time>2022-10-25T19:51:07Z</time>
   </trkpt>
   <trkpt lat="39.5655300" lon="-104.8606750">
    <ele>1765.2</ele>
    <time>2022-10-25T19:51:08Z</time>
   </trkpt>
   <trkpt lat="39.5655190" lon="-104.8606760">
    <ele>1765.2</ele>
    <time>2022-10-25T19:51:09Z</time>
   </trkpt>
   <trkpt lat="39.5654850" lon="-104.8606740">
    <ele>1765.2</ele>
    <time>2022-10-25T19:51:11Z</time>
   </trkpt>
   <trkpt lat="39.5654680" lon="-104.8606740">
    <ele>1765.2</ele>
    <time>2022-10-25T19:51:12Z</time>
   </trkpt>
   <trkpt lat="39.5654530" lon="-104.8606770">
    <ele>1765.2</ele>
    <time>2022-10-25T19:51:13Z</time>
   </trkpt>
   <trkpt lat="39.5654370" lon="-104.8606770">
    <ele>1765.2</ele>
    <time>2022-10-25T19:51:14Z</time>
   </trkpt>
   <trkpt lat="39.5654240" lon="-104.8606760">
    <ele>1765.3</ele>
    <time>2022-10-25T19:51:15Z</time>
   </trkpt>
   <trkpt lat="39.5654080" lon="-104.8606750">
    <ele>1765.3</ele>
    <time>2022-10-25T19:51:16Z</time>
   </trkpt>
   <trkpt lat="39.5653930" lon="-104.8606770">
    <ele>1765.3</ele>
    <time>2022-10-25T19:51:17Z</time>
   </trkpt>
   <trkpt lat="39.5653810" lon="-104.8606830">
    <ele>1765.3</ele>
    <time>2022-10-25T19:51:18Z</time>
   </trkpt>
   <trkpt lat="39.5653610" lon="-104.8606830">
    <ele>1765.3</ele>
    <time>2022-10-25T19:51:19Z</time>
   </trkpt>
   <trkpt lat="39.5653520" lon="-104.8606800">
    <ele>1765.3</ele>
    <time>2022-10-25T19:51:20Z</time>
   </trkpt>
   <trkpt lat="39.5653430" lon="-104.8606780">
    <ele>1765.3</ele>
    <time>2022-10-25T19:51:21Z</time>
   </trkpt>
   <trkpt lat="39.5653130" lon="-104.8606830">
    <ele>1765.3</ele>
    <time>2022-10-25T19:51:22Z</time>
   </trkpt>
   <trkpt lat="39.5653000" lon="-104.8606810">
    <ele>1765.3</ele>
    <time>2022-10-25T19:51:23Z</time>
   </trkpt>
   <trkpt lat="39.5652870" lon="-104.8606810">
    <ele>1765.4</ele>
    <time>2022-10-25T19:51:24Z</time>
   </trkpt>
   <trkpt lat="39.5652720" lon="-104.8606800">
    <ele>1765.4</ele>
    <time>2022-10-25T19:51:25Z</time>
   </trkpt>
   <trkpt lat="39.5652560" lon="-104.8606800">
    <ele>1765.4</ele>
    <time>2022-10-25T19:51:26Z</time>
   </trkpt>
   <trkpt lat="39.5652420" lon="-104.8606810">
    <ele>1765.4</ele>
    <time>2022-10-25T19:51:27Z</time>
   </trkpt>
   <trkpt lat="39.5652300" lon="-104.8606830">
    <ele>1765.4</ele>
    <time>2022-10-25T19:51:28Z</time>
   </trkpt>
   <trkpt lat="39.5652150" lon="-104.8606860">
    <ele>1765.4</ele>
    <time>2022-10-25T19:51:29Z</time>
   </trkpt>
   <trkpt lat="39.5652010" lon="-104.8606900">
    <ele>1765.5</ele>
    <time>2022-10-25T19:51:30Z</time>
   </trkpt>
   <trkpt lat="39.5651860" lon="-104.8606990">
    <ele>1765.5</ele>
    <time>2022-10-25T19:51:31Z</time>
   </trkpt>
   <trkpt lat="39.5651710" lon="-104.8607020">
    <ele>1765.5</ele>
    <time>2022-10-25T19:51:32Z</time>
   </trkpt>
   <trkpt lat="39.5651560" lon="-104.8607090">
    <ele>1765.5</ele>
    <time>2022-10-25T19:51:33Z</time>
   </trkpt>
   <trkpt lat="39.5651410" lon="-104.8607140">
    <ele>1765.5</ele>
    <time>2022-10-25T19:51:34Z</time>
   </trkpt>
   <trkpt lat="39.5651290" lon="-104.8607160">
    <ele>1765.6</ele>
    <time>2022-10-25T19:51:35Z</time>
   </trkpt>
   <trkpt lat="39.5651120" lon="-104.8607230">
    <ele>1765.6</ele>
    <time>2022-10-25T19:51:36Z</time>
   </trkpt>
   <trkpt lat="39.5651000" lon="-104.8607260">
    <ele>1765.6</ele>
    <time>2022-10-25T19:51:37Z</time>
   </trkpt>
   <trkpt lat="39.5650790" lon="-104.8607320">
    <ele>1765.6</ele>
    <time>2022-10-25T19:51:38Z</time>
   </trkpt>
   <trkpt lat="39.5650700" lon="-104.8607380">
    <ele>1765.6</ele>
    <time>2022-10-25T19:51:39Z</time>
   </trkpt>
   <trkpt lat="39.5650620" lon="-104.8607440">
    <ele>1765.7</ele>
    <time>2022-10-25T19:51:40Z</time>
   </trkpt>
   <trkpt lat="39.5650450" lon="-104.8607520">
    <ele>1765.7</ele>
    <time>2022-10-25T19:51:41Z</time>
   </trkpt>
   <trkpt lat="39.5650320" lon="-104.8607570">
    <ele>1765.7</ele>
    <time>2022-10-25T19:51:42Z</time>
   </trkpt>
   <trkpt lat="39.5650110" lon="-104.8607670">
    <ele>1765.7</ele>
    <time>2022-10-25T19:51:43Z</time>
   </trkpt>
   <trkpt lat="39.5650030" lon="-104.8607720">
    <ele>1765.7</ele>
    <time>2022-10-25T19:51:44Z</time>
   </trkpt>
   <trkpt lat="39.5649940" lon="-104.8607760">
    <ele>1765.8</ele>
    <time>2022-10-25T19:51:45Z</time>
   </trkpt>
   <trkpt lat="39.5649820" lon="-104.8607820">
    <ele>1765.8</ele>
    <time>2022-10-25T19:51:46Z</time>
   </trkpt>
   <trkpt lat="39.5649660" lon="-104.8607870">
    <ele>1765.8</ele>
    <time>2022-10-25T19:51:47Z</time>
   </trkpt>
   <trkpt lat="39.5649510" lon="-104.8607920">
    <ele>1765.8</ele>
    <time>2022-10-25T19:51:48Z</time>
   </trkpt>
   <trkpt lat="39.5649340" lon="-104.8607940">
    <ele>1765.8</ele>
    <time>2022-10-25T19:51:49Z</time>
   </trkpt>
   <trkpt lat="39.5649200" lon="-104.8607950">
    <ele>1765.9</ele>
    <time>2022-10-25T19:51:50Z</time>
   </trkpt>
   <trkpt lat="39.5649050" lon="-104.8607990">
    <ele>1765.9</ele>
    <time>2022-10-25T19:51:51Z</time>
   </trkpt>
   <trkpt lat="39.5648890" lon="-104.8608010">
    <ele>1765.9</ele>
    <time>2022-10-25T19:51:52Z</time>
   </trkpt>
   <trkpt lat="39.5648770" lon="-104.8608060">
    <ele>1765.9</ele>
    <time>2022-10-25T19:51:53Z</time>
   </trkpt>
   <trkpt lat="39.5648640" lon="-104.8608160">
    <ele>1765.9</ele>
    <time>2022-10-25T19:51:54Z</time>
   </trkpt>
   <trkpt lat="39.5648520" lon="-104.8608270">
    <ele>1766.0</ele>
    <time>2022-10-25T19:51:55Z</time>
   </trkpt>
   <trkpt lat="39.5648370" lon="-104.8608390">
    <ele>1766.0</ele>
    <time>2022-10-25T19:51:56Z</time>
   </trkpt>
   <trkpt lat="39.5648260" lon="-104.8608520">
    <ele>1766.0</ele>
    <time>2022-10-25T19:51:57Z</time>
   </trkpt>
   <trkpt lat="39.5648080" lon="-104.8608690">
    <ele>1766.1</ele>
    <time>2022-10-25T19:51:58Z</time>
   </trkpt>
   <trkpt lat="39.5648000" lon="-104.8608760">
    <ele>1766.1</ele>
    <time>2022-10-25T19:51:59Z</time>
   </trkpt>
   <trkpt lat="39.5647930" lon="-104.8608840">
    <ele>1766.1</ele>
    <time>2022-10-25T19:52:00Z</time>
   </trkpt>
   <trkpt lat="39.5647830" lon="-104.8608980">
    <ele>1766.1</ele>
    <time>2022-10-25T19:52:01Z</time>
   </trkpt>
   <trkpt lat="39.5647720" lon="-104.8609120">
    <ele>1766.1</ele>
    <time>2022-10-25T19:52:02Z</time>
   </trkpt>
   <trkpt lat="39.5647610" lon="-104.8609230">
    <ele>1766.2</ele>
    <time>2022-10-25T19:52:03Z</time>
   </trkpt>
   <trkpt lat="39.5647540" lon="-104.8609380">
    <ele>1766.2</ele>
    <time>2022-10-25T19:52:04Z</time>
   </trkpt>
   <trkpt lat="39.5647360" lon="-104.8609620">
    <ele>1766.2</ele>
    <time>2022-10-25T19:52:05Z</time>
   </trkpt>
   <trkpt lat="39.5647310" lon="-104.8609720">
    <ele>1766.2</ele>
    <time>2022-10-25T19:52:06Z</time>
   </trkpt>
   <trkpt lat="39.5647250" lon="-104.8609830">
    <ele>1766.3</ele>
    <time>2022-10-25T19:52:07Z</time>
   </trkpt>
   <trkpt lat="39.5647190" lon="-104.8609990">
    <ele>1766.3</ele>
    <time>2022-10-25T19:52:08Z</time>
   </trkpt>
   <trkpt lat="39.5647090" lon="-104.8610120">
    <ele>1766.3</ele>
    <time>2022-10-25T19:52:09Z</time>
   </trkpt>
   <trkpt lat="39.5646980" lon="-104.8610240">
    <ele>1766.3</ele>
    <time>2022-10-25T19:52:10Z</time>
   </trkpt>
   <trkpt lat="39.5646870" lon="-104.8610390">
    <ele>1766.4</ele>
    <time>2022-10-25T19:52:11Z</time>
   </trkpt>
   <trkpt lat="39.5646780" lon="-104.8610540">
    <ele>1766.4</ele>
    <time>2022-10-25T19:52:12Z</time>
   </trkpt>
   <trkpt lat="39.5646680" lon="-104.8610680">
    <ele>1766.4</ele>
    <time>2022-10-25T19:52:13Z</time>
   </trkpt>
   <trkpt lat="39.5646590" lon="-104.8610860">
    <ele>1766.4</ele>
    <time>2022-10-25T19:52:14Z</time>
   </trkpt>
   <trkpt lat="39.5646520" lon="-104.8611020">
    <ele>1766.4</ele>
    <time>2022-10-25T19:52:15Z</time>
   </trkpt>
   <trkpt lat="39.5646430" lon="-104.8611170">
    <ele>1766.5</ele>
    <time>2022-10-25T19:52:16Z</time>
   </trkpt>
   <trkpt lat="39.5646330" lon="-104.8611310">
    <ele>1766.5</ele>
    <time>2022-10-25T19:52:17Z</time>
   </trkpt>
   <trkpt lat="39.5646270" lon="-104.8611490">
    <ele>1766.5</ele>
    <time>2022-10-25T19:52:18Z</time>
   </trkpt>
   <trkpt lat="39.5646210" lon="-104.8611640">
    <ele>1766.5</ele>
    <time>2022-10-25T19:52:19Z</time>
   </trkpt>
   <trkpt lat="39.5646150" lon="-104.8611790">
    <ele>1766.5</ele>
    <time>2022-10-25T19:52:20Z</time>
   </trkpt>
   <trkpt lat="39.5646090" lon="-104.8611980">
    <ele>1766.6</ele>
    <time>2022-10-25T19:52:21Z</time>
   </trkpt>
   <trkpt lat="39.5646030" lon="-104.8612140">
    <ele>1766.6</ele>
    <time>2022-10-25T19:52:22Z</time>
   </trkpt>
   <trkpt lat="39.5645990" lon="-104.8612300">
    <ele>1766.6</ele>
    <time>2022-10-25T19:52:23Z</time>
   </trkpt>
   <trkpt lat="39.5645950" lon="-104.8612490">
    <ele>1766.6</ele>
    <time>2022-10-25T19:52:24Z</time>
   </trkpt>
   <trkpt lat="39.5645850" lon="-104.8612690">
    <ele>1766.6</ele>
    <time>2022-10-25T19:52:25Z</time>
   </trkpt>
   <trkpt lat="39.5645750" lon="-104.8612820">
    <ele>1766.3</ele>
    <time>2022-10-25T19:52:26Z</time>
   </trkpt>
   <trkpt lat="39.5645600" lon="-104.8612900">
    <ele>1766.3</ele>
    <time>2022-10-25T19:52:27Z</time>
   </trkpt>
   <trkpt lat="39.5645450" lon="-104.8612960">
    <ele>1766.2</ele>
    <time>2022-10-25T19:52:28Z</time>
   </trkpt>
   <trkpt lat="39.5645280" lon="-104.8612950">
    <ele>1766.2</ele>
    <time>2022-10-25T19:52:29Z</time>
   </trkpt>
   <trkpt lat="39.5645120" lon="-104.8612930">
    <ele>1766.2</ele>
    <time>2022-10-25T19:52:30Z</time>
   </trkpt>
   <trkpt lat="39.5644980" lon="-104.8612910">
    <ele>1766.1</ele>
    <time>2022-10-25T19:52:31Z</time>
   </trkpt>
   <trkpt lat="39.5644860" lon="-104.8612900">
    <ele>1766.1</ele>
    <time>2022-10-25T19:52:32Z</time>
   </trkpt>
   <trkpt lat="39.5644690" lon="-104.8612890">
    <ele>1766.0</ele>
    <time>2022-10-25T19:52:33Z</time>
   </trkpt>
   <trkpt lat="39.5644540" lon="-104.8612880">
    <ele>1766.0</ele>
    <time>2022-10-25T19:52:34Z</time>
   </trkpt>
   <trkpt lat="39.5644400" lon="-104.8612890">
    <ele>1766.0</ele>
    <time>2022-10-25T19:52:35Z</time>
   </trkpt>
   <trkpt lat="39.5644230" lon="-104.8613060">
    <ele>1765.9</ele>
    <time>2022-10-25T19:52:36Z</time>
   </trkpt>
   <trkpt lat="39.5644160" lon="-104.8613150">
    <ele>1765.9</ele>
    <time>2022-10-25T19:52:37Z</time>
   </trkpt>
   <trkpt lat="39.5644090" lon="-104.8613250">
    <ele>1765.9</ele>
    <time>2022-10-25T19:52:38Z</time>
   </trkpt>
   <trkpt lat="39.5643950" lon="-104.8613370">
    <ele>1765.8</ele>
    <time>2022-10-25T19:52:39Z</time>
   </trkpt>
   <trkpt lat="39.5643850" lon="-104.8613480">
    <ele>1765.8</ele>
    <time>2022-10-25T19:52:40Z</time>
   </trkpt>
   <trkpt lat="39.5643690" lon="-104.8613690">
    <ele>1765.8</ele>
    <time>2022-10-25T19:52:41Z</time>
   </trkpt>
   <trkpt lat="39.5643630" lon="-104.8613780">
    <ele>1765.8</ele>
    <time>2022-10-25T19:52:42Z</time>
   </trkpt>
   <trkpt lat="39.5643580" lon="-104.8613880">
    <ele>1765.8</ele>
    <time>2022-10-25T19:52:43Z</time>
   </trkpt>
   <trkpt lat="39.5643500" lon="-104.8614040">
    <ele>1765.8</ele>
    <time>2022-10-25T19:52:44Z</time>
   </trkpt>
   <trkpt lat="39.5643420" lon="-104.8614210">
    <ele>1765.8</ele>
    <time>2022-10-25T19:52:45Z</time>
   </trkpt>
   <trkpt lat="39.5643360" lon="-104.8614390">
    <ele>1765.8</ele>
    <time>2022-10-25T19:52:46Z</time>
   </trkpt>
   <trkpt lat="39.5643260" lon="-104.8614540">
    <ele>1765.8</ele>
    <time>2022-10-25T19:52:47Z</time>
   </trkpt>
   <trkpt lat="39.5643180" lon="-104.8614650">
    <ele>1765.8</ele>
    <time>2022-10-25T19:52:48Z</time>
   </trkpt>
   <trkpt lat="39.5643130" lon="-104.8614850">
    <ele>1765.8</ele>
    <time>2022-10-25T19:52:49Z</time>
   </trkpt>
   <trkpt lat="39.5643050" lon="-104.8615120">
    <ele>1765.8</ele>
    <time>2022-10-25T19:52:50Z</time>
   </trkpt>
   <trkpt lat="39.5643010" lon="-104.8615230">
    <ele>1765.9</ele>
    <time>2022-10-25T19:52:51Z</time>
   </trkpt>
   <trkpt lat="39.5642970" lon="-104.8615340">
    <ele>1765.9</ele>
    <time>2022-10-25T19:52:52Z</time>
   </trkpt>
   <trkpt lat="39.5642920" lon="-104.8615460">
    <ele>1765.9</ele>
    <time>2022-10-25T19:52:53Z</time>
   </trkpt>
   <trkpt lat="39.5642900" lon="-104.8615640">
    <ele>1765.9</ele>
    <time>2022-10-25T19:52:54Z</time>
   </trkpt>
   <trkpt lat="39.5642880" lon="-104.8615780">
    <ele>1765.9</ele>
    <time>2022-10-25T19:52:55Z</time>
   </trkpt>
   <trkpt lat="39.5642830" lon="-104.8616050">
    <ele>1765.9</ele>
    <time>2022-10-25T19:52:56Z</time>
   </trkpt>
   <trkpt lat="39.5642790" lon="-104.8616170">
    <ele>1765.9</ele>
    <time>2022-10-25T19:52:57Z</time>
   </trkpt>
   <trkpt lat="39.5642760" lon="-104.8616290">
    <ele>1765.9</ele>
    <time>2022-10-25T19:52:58Z</time>
   </trkpt>
   <trkpt lat="39.5642700" lon="-104.8616440">
    <ele>1766.0</ele>
    <time>2022-10-25T19:52:59Z</time>
   </trkpt>
   <trkpt lat="39.5642610" lon="-104.8616640">
    <ele>1766.0</ele>
    <time>2022-10-25T19:53:00Z</time>
   </trkpt>
   <trkpt lat="39.5642540" lon="-104.8616940">
    <ele>1766.0</ele>
    <time>2022-10-25T19:53:01Z</time>
   </trkpt>
   <trkpt lat="39.5642510" lon="-104.8617080">
    <ele>1766.0</ele>
    <time>2022-10-25T19:53:02Z</time>
   </trkpt>
   <trkpt lat="39.5642480" lon="-104.8617230">
    <ele>1766.0</ele>
    <time>2022-10-25T19:53:03Z</time>
   </trkpt>
   <trkpt lat="39.5642390" lon="-104.8617420">
    <ele>1766.1</ele>
    <time>2022-10-25T19:53:04Z</time>
   </trkpt>
   <trkpt lat="39.5642320" lon="-104.8617630">
    <ele>1766.1</ele>
    <time>2022-10-25T19:53:05Z</time>
   </trkpt>
   <trkpt lat="39.5642250" lon="-104.8617740">
    <ele>1766.1</ele>
    <time>2022-10-25T19:53:06Z</time>
   </trkpt>
   <trkpt lat="39.5642210" lon="-104.8617860">
    <ele>1766.1</ele>
    <time>2022-10-25T19:53:07Z</time>
   </trkpt>
   <trkpt lat="39.5642150" lon="-104.8617980">
    <ele>1766.1</ele>
    <time>2022-10-25T19:53:08Z</time>
   </trkpt>
   <trkpt lat="39.5642070" lon="-104.8618120">
    <ele>1766.1</ele>
    <time>2022-10-25T19:53:09Z</time>
   </trkpt>
   <trkpt lat="39.5641970" lon="-104.8618310">
    <ele>1766.1</ele>
    <time>2022-10-25T19:53:10Z</time>
   </trkpt>
   <trkpt lat="39.5641930" lon="-104.8618450">
    <ele>1766.1</ele>
    <time>2022-10-25T19:53:11Z</time>
   </trkpt>
   <trkpt lat="39.5641840" lon="-104.8618630">
    <ele>1766.1</ele>
    <time>2022-10-25T19:53:12Z</time>
   </trkpt>
   <trkpt lat="39.5641760" lon="-104.8618800">
    <ele>1766.1</ele>
    <time>2022-10-25T19:53:13Z</time>
   </trkpt>
   <trkpt lat="39.5641700" lon="-104.8618950">
    <ele>1766.1</ele>
    <time>2022-10-25T19:53:14Z</time>
   </trkpt>
   <trkpt lat="39.5641560" lon="-104.8619170">
    <ele>1766.1</ele>
    <time>2022-10-25T19:53:15Z</time>
   </trkpt>
   <trkpt lat="39.5641500" lon="-104.8619280">
    <ele>1766.1</ele>
    <time>2022-10-25T19:53:16Z</time>
   </trkpt>
   <trkpt lat="39.5641430" lon="-104.8619390">
    <ele>1766.1</ele>
    <time>2022-10-25T19:53:17Z</time>
   </trkpt>
   <trkpt lat="39.5641380" lon="-104.8619490">
    <ele>1766.1</ele>
    <time>2022-10-25T19:53:18Z</time>
   </trkpt>
   <trkpt lat="39.5641320" lon="-104.8619590">
    <ele>1766.1</ele>
    <time>2022-10-25T19:53:19Z</time>
   </trkpt>
   <trkpt lat="39.5641220" lon="-104.8619750">
    <ele>1766.2</ele>
    <time>2022-10-25T19:53:20Z</time>
   </trkpt>
   <trkpt lat="39.5641100" lon="-104.8619890">
    <ele>1766.2</ele>
    <time>2022-10-25T19:53:21Z</time>
   </trkpt>
   <trkpt lat="39.5641000" lon="-104.8620060">
    <ele>1766.2</ele>
    <time>2022-10-25T19:53:22Z</time>
   </trkpt>
   <trkpt lat="39.5640890" lon="-104.8620210">
    <ele>1766.3</ele>
    <time>2022-10-25T19:53:23Z</time>
   </trkpt>
   <trkpt lat="39.5640740" lon="-104.8620340">
    <ele>1766.3</ele>
    <time>2022-10-25T19:53:24Z</time>
   </trkpt>
   <trkpt lat="39.5640590" lon="-104.8620450">
    <ele>1766.4</ele>
    <time>2022-10-25T19:53:25Z</time>
   </trkpt>
   <trkpt lat="39.5640460" lon="-104.8620580">
    <ele>1766.4</ele>
    <time>2022-10-25T19:53:26Z</time>
   </trkpt>
   <trkpt lat="39.5640290" lon="-104.8620750">
    <ele>1766.5</ele>
    <time>2022-10-25T19:53:27Z</time>
   </trkpt>
   <trkpt lat="39.5640210" lon="-104.8620810">
    <ele>1766.5</ele>
    <time>2022-10-25T19:53:28Z</time>
   </trkpt>
   <trkpt lat="39.5640140" lon="-104.8620870">
    <ele>1766.5</ele>
    <time>2022-10-25T19:53:29Z</time>
   </trkpt>
   <trkpt lat="39.5640010" lon="-104.8620990">
    <ele>1766.6</ele>
    <time>2022-10-25T19:53:30Z</time>
   </trkpt>
   <trkpt lat="39.5639880" lon="-104.8621140">
    <ele>1766.6</ele>
    <time>2022-10-25T19:53:31Z</time>
   </trkpt>
   <trkpt lat="39.5639660" lon="-104.8621370">
    <ele>1766.7</ele>
    <time>2022-10-25T19:53:32Z</time>
   </trkpt>
   <trkpt lat="39.5639550" lon="-104.8621410">
    <ele>1766.8</ele>
    <time>2022-10-25T19:53:33Z</time>
   </trkpt>
   <trkpt lat="39.5639250" lon="-104.8621630">
    <ele>1766.9</ele>
    <time>2022-10-25T19:53:34Z</time>
   </trkpt>
   <trkpt lat="39.5639160" lon="-104.8621710">
    <ele>1766.9</ele>
    <time>2022-10-25T19:53:35Z</time>
   </trkpt>
   <trkpt lat="39.5639040" lon="-104.8621890">
    <ele>1766.9</ele>
    <time>2022-10-25T19:53:36Z</time>
   </trkpt>
   <trkpt lat="39.5638930" lon="-104.8622030">
    <ele>1766.9</ele>
    <time>2022-10-25T19:53:37Z</time>
   </trkpt>
   <trkpt lat="39.5638820" lon="-104.8622210">
    <ele>1766.9</ele>
    <time>2022-10-25T19:53:38Z</time>
   </trkpt>
   <trkpt lat="39.5638710" lon="-104.8622380">
    <ele>1767.0</ele>
    <time>2022-10-25T19:53:39Z</time>
   </trkpt>
   <trkpt lat="39.5638580" lon="-104.8622550">
    <ele>1767.0</ele>
    <time>2022-10-25T19:53:40Z</time>
   </trkpt>
   <trkpt lat="39.5638480" lon="-104.8622720">
    <ele>1767.0</ele>
    <time>2022-10-25T19:53:41Z</time>
   </trkpt>
   <trkpt lat="39.5638350" lon="-104.8622950">
    <ele>1767.1</ele>
    <time>2022-10-25T19:53:42Z</time>
   </trkpt>
   <trkpt lat="39.5638280" lon="-104.8623030">
    <ele>1767.1</ele>
    <time>2022-10-25T19:53:43Z</time>
   </trkpt>
   <trkpt lat="39.5638200" lon="-104.8623120">
    <ele>1767.1</ele>
    <time>2022-10-25T19:53:44Z</time>
   </trkpt>
   <trkpt lat="39.5638090" lon="-104.8623300">
    <ele>1767.1</ele>
    <time>2022-10-25T19:53:45Z</time>
   </trkpt>
   <trkpt lat="39.5637990" lon="-104.8623480">
    <ele>1767.1</ele>
    <time>2022-10-25T19:53:46Z</time>
   </trkpt>
   <trkpt lat="39.5637890" lon="-104.8623610">
    <ele>1767.1</ele>
    <time>2022-10-25T19:53:47Z</time>
   </trkpt>
   <trkpt lat="39.5637770" lon="-104.8623710">
    <ele>1767.1</ele>
    <time>2022-10-25T19:53:48Z</time>
   </trkpt>
   <trkpt lat="39.5637640" lon="-104.8623770">
    <ele>1767.2</ele>
    <time>2022-10-25T19:53:49Z</time>
   </trkpt>
   <trkpt lat="39.5637510" lon="-104.8623860">
    <ele>1767.2</ele>
    <time>2022-10-25T19:53:50Z</time>
   </trkpt>
   <trkpt lat="39.5637290" lon="-104.8623940">
    <ele>1767.2</ele>
    <time>2022-10-25T19:53:51Z</time>
   </trkpt>
   <trkpt lat="39.5637200" lon="-104.8623970">
    <ele>1767.2</ele>
    <time>2022-10-25T19:53:52Z</time>
   </trkpt>
   <trkpt lat="39.5637120" lon="-104.8623990">
    <ele>1767.2</ele>
    <time>2022-10-25T19:53:53Z</time>
   </trkpt>
   <trkpt lat="39.5636900" lon="-104.8624100">
    <ele>1767.2</ele>
    <time>2022-10-25T19:53:54Z</time>
   </trkpt>
   <trkpt lat="39.5636800" lon="-104.8624120">
    <ele>1767.3</ele>
    <time>2022-10-25T19:53:55Z</time>
   </trkpt>
   <trkpt lat="39.5636710" lon="-104.8624150">
    <ele>1767.3</ele>
    <time>2022-10-25T19:53:56Z</time>
   </trkpt>
   <trkpt lat="39.5636560" lon="-104.8624250">
    <ele>1767.3</ele>
    <time>2022-10-25T19:53:57Z</time>
   </trkpt>
   <trkpt lat="39.5636410" lon="-104.8624280">
    <ele>1767.3</ele>
    <time>2022-10-25T19:53:58Z</time>
   </trkpt>
   <trkpt lat="39.5636260" lon="-104.8624350">
    <ele>1767.3</ele>
    <time>2022-10-25T19:53:59Z</time>
   </trkpt>
   <trkpt lat="39.5636160" lon="-104.8624430">
    <ele>1767.3</ele>
    <time>2022-10-25T19:54:00Z</time>
   </trkpt>
   <trkpt lat="39.5636010" lon="-104.8624470">
    <ele>1767.4</ele>
    <time>2022-10-25T19:54:01Z</time>
   </trkpt>
   <trkpt lat="39.5635880" lon="-104.8624520">
    <ele>1767.4</ele>
    <time>2022-10-25T19:54:02Z</time>
   </trkpt>
   <trkpt lat="39.5635740" lon="-104.8624590">
    <ele>1767.4</ele>
    <time>2022-10-25T19:54:03Z</time>
   </trkpt>
   <trkpt lat="39.5635560" lon="-104.8624640">
    <ele>1767.4</ele>
    <time>2022-10-25T19:54:04Z</time>
   </trkpt>
   <trkpt lat="39.5635430" lon="-104.8624670">
    <ele>1767.4</ele>
    <time>2022-10-25T19:54:05Z</time>
   </trkpt>
   <trkpt lat="39.5635310" lon="-104.8624680">
    <ele>1767.4</ele>
    <time>2022-10-25T19:54:06Z</time>
   </trkpt>
   <trkpt lat="39.5635210" lon="-104.8624670">
    <ele>1767.5</ele>
    <time>2022-10-25T19:54:07Z</time>
   </trkpt>
   <trkpt lat="39.5635120" lon="-104.8624680">
    <ele>1767.5</ele>
    <time>2022-10-25T19:54:08Z</time>
   </trkpt>
   <trkpt lat="39.5635020" lon="-104.8624640">
    <ele>1767.5</ele>
    <time>2022-10-25T19:54:09Z</time>
   </trkpt>
   <trkpt lat="39.5634880" lon="-104.8624630">
    <ele>1767.5</ele>
    <time>2022-10-25T19:54:10Z</time>
   </trkpt>
   <trkpt lat="39.5634740" lon="-104.8624590">
    <ele>1767.5</ele>
    <time>2022-10-25T19:54:11Z</time>
   </trkpt>
   <trkpt lat="39.5634580" lon="-104.8624600">
    <ele>1767.6</ele>
    <time>2022-10-25T19:54:12Z</time>
   </trkpt>
   <trkpt lat="39.5634440" lon="-104.8624620">
    <ele>1767.6</ele>
    <time>2022-10-25T19:54:13Z</time>
   </trkpt>
   <trkpt lat="39.5634270" lon="-104.8624600">
    <ele>1767.6</ele>
    <time>2022-10-25T19:54:14Z</time>
   </trkpt>
   <trkpt lat="39.5634130" lon="-104.8624600">
    <ele>1767.7</ele>
    <time>2022-10-25T19:54:15Z</time>
   </trkpt>
   <trkpt lat="39.5633970" lon="-104.8624560">
    <ele>1767.7</ele>
    <time>2022-10-25T19:54:16Z</time>
   </trkpt>
   <trkpt lat="39.5633810" lon="-104.8624590">
    <ele>1767.7</ele>
    <time>2022-10-25T19:54:17Z</time>
   </trkpt>
   <trkpt lat="39.5633650" lon="-104.8624640">
    <ele>1767.8</ele>
    <time>2022-10-25T19:54:18Z</time>
   </trkpt>
   <trkpt lat="39.5633540" lon="-104.8624760">
    <ele>1767.8</ele>
    <time>2022-10-25T19:54:19Z</time>
   </trkpt>
   <trkpt lat="39.5633410" lon="-104.8624950">
    <ele>1767.9</ele>
    <time>2022-10-25T19:54:20Z</time>
   </trkpt>
   <trkpt lat="39.5633330" lon="-104.8625100">
    <ele>1767.9</ele>
    <time>2022-10-25T19:54:21Z</time>
   </trkpt>
   <trkpt lat="39.5633220" lon="-104.8625320">
    <ele>1767.9</ele>
    <time>2022-10-25T19:54:22Z</time>
   </trkpt>
   <trkpt lat="39.5633120" lon="-104.8625490">
    <ele>1768.0</ele>
    <time>2022-10-25T19:54:23Z</time>
   </trkpt>
   <trkpt lat="39.5633000" lon="-104.8625650">
    <ele>1768.0</ele>
    <time>2022-10-25T19:54:24Z</time>
   </trkpt>
   <trkpt lat="39.5632860" lon="-104.8625760">
    <ele>1768.5</ele>
    <time>2022-10-25T19:54:25Z</time>
   </trkpt>
   <trkpt lat="39.5632720" lon="-104.8625900">
    <ele>1768.5</ele>
    <time>2022-10-25T19:54:26Z</time>
   </trkpt>
   <trkpt lat="39.5632600" lon="-104.8626050">
    <ele>1768.5</ele>
    <time>2022-10-25T19:54:27Z</time>
   </trkpt>
   <trkpt lat="39.5632430" lon="-104.8626150">
    <ele>1768.6</ele>
    <time>2022-10-25T19:54:28Z</time>
   </trkpt>
   <trkpt lat="39.5632300" lon="-104.8626280">
    <ele>1768.6</ele>
    <time>2022-10-25T19:54:29Z</time>
   </trkpt>
   <trkpt lat="39.5632210" lon="-104.8626380">
    <ele>1768.6</ele>
    <time>2022-10-25T19:54:30Z</time>
   </trkpt>
   <trkpt lat="39.5632070" lon="-104.8626510">
    <ele>1768.7</ele>
    <time>2022-10-25T19:54:31Z</time>
   </trkpt>
   <trkpt lat="39.5631950" lon="-104.8626630">
    <ele>1768.7</ele>
    <time>2022-10-25T19:54:32Z</time>
   </trkpt>
   <trkpt lat="39.5631820" lon="-104.8626740">
    <ele>1768.7</ele>
    <time>2022-10-25T19:54:33Z</time>
   </trkpt>
   <trkpt lat="39.5631710" lon="-104.8626840">
    <ele>1768.7</ele>
    <time>2022-10-25T19:54:34Z</time>
   </trkpt>
   <trkpt lat="39.5631600" lon="-104.8626940">
    <ele>1768.7</ele>
    <time>2022-10-25T19:54:35Z</time>
   </trkpt>
   <trkpt lat="39.5631500" lon="-104.8627100">
    <ele>1768.7</ele>
    <time>2022-10-25T19:54:36Z</time>
   </trkpt>
   <trkpt lat="39.5631430" lon="-104.8627270">
    <ele>1768.7</ele>
    <time>2022-10-25T19:54:37Z</time>
   </trkpt>
   <trkpt lat="39.5631420" lon="-104.8627460">
    <ele>1768.7</ele>
    <time>2022-10-25T19:54:38Z</time>
   </trkpt>
   <trkpt lat="39.5631470" lon="-104.8627550">
    <ele>1768.7</ele>
    <time>2022-10-25T19:54:39Z</time>
   </trkpt>
   <trkpt lat="39.5738090" lon="-104.8563980">
    <ele>1760.5</ele>
    <time>2022-10-25T20:15:55Z</time>
   </trkpt>
   <trkpt lat="39.5738130" lon="-104.8563980">
    <ele>1760.5</ele>
    <time>2022-10-25T20:15:56Z</time>
   </trkpt>
   <trkpt lat="39.5738130" lon="-104.8563980">
    <ele>1760.5</ele>
    <time>2022-10-25T20:15:57Z</time>
   </trkpt>
  </trkseg>
 </trk>
</gpx>
