<?xml version="1.0" encoding="UTF-8"?>
<gpx creator="StravaGPX" version="1.1" xmlns="http://www.topografix.com/GPX/1/1" xmlns:xsi="http://www.w3.org/2001/XMLSchema-instance" xsi:schemaLocation="http://www.topografix.com/GPX/1/1 http://www.topografix.com/GPX/1/1/gpx.xsd">
 <metadata>
  <time>2022-12-01T20:51:24Z</time>
 </metadata>
 <trk>
  <name>Quick break</name>
  <type>walking</type>
  <trkseg>
   <trkpt lat="39.5745020" lon="-104.8569320">
    <ele>1758.3</ele>
    <time>2022-12-01T20:51:24Z</time>
   </trkpt>
   <trkpt lat="39.5744870" lon="-104.8569090">
    <ele>1758.4</ele>
    <time>2022-12-01T20:51:25Z</time>
   </trkpt>
   <trkpt lat="39.5744800" lon="-104.8569000">
    <ele>1758.4</ele>
    <time>2022-12-01T20:51:26Z</time>
   </trkpt>
   <trkpt lat="39.5744730" lon="-104.8568910">
    <ele>1758.4</ele>
    <time>2022-12-01T20:51:27Z</time>
   </trkpt>
   <trkpt lat="39.5744620" lon="-104.8568750">
    <ele>1758.5</ele>
    <time>2022-12-01T20:51:28Z</time>
   </trkpt>
   <trkpt lat="39.5744530" lon="-104.8568670">
    <ele>1758.5</ele>
    <time>2022-12-01T20:51:29Z</time>
   </trkpt>
   <trkpt lat="39.5744420" lon="-104.8568520">
    <ele>1758.6</ele>
    <time>2022-12-01T20:51:30Z</time>
   </trkpt>
   <trkpt lat="39.5744280" lon="-104.8568370">
    <ele>1758.6</ele>
    <time>2022-12-01T20:51:31Z</time>
   </trkpt>
   <trkpt lat="39.5744150" lon="-104.8568260">
    <ele>1758.7</ele>
    <time>2022-12-01T20:51:32Z</time>
   </trkpt>
   <trkpt lat="39.5744040" lon="-104.8568130">
    <ele>1758.7</ele>
    <time>2022-12-01T20:51:33Z</time>
   </trkpt>
   <trkpt lat="39.5743880" lon="-104.8567960">
    <ele>1758.8</ele>
    <time>2022-12-01T20:51:34Z</time>
   </trkpt>
   <trkpt lat="39.5743800" lon="-104.8567890">
    <ele>1758.8</ele>
    <time>2022-12-01T20:51:35Z</time>
   </trkpt>
   <trkpt lat="39.5743720" lon="-104.8567810">
    <ele>1758.9</ele>
    <time>2022-12-01T20:51:36Z</time>
   </trkpt>
   <trkpt lat="39.5743620" lon="-104.8567700">
    <ele>1758.9</ele>
    <time>2022-12-01T20:51:37Z</time>
   </trkpt>
   <trkpt lat="39.5743500" lon="-104.8567560">
    <ele>1758.9</ele>
    <time>2022-12-01T20:51:38Z</time>
   </trkpt>
   <trkpt lat="39.5743400" lon="-104.8567430">
    <ele>1759.0</ele>
    <time>2022-12-01T20:51:39Z</time>
   </trkpt>
   <trkpt lat="39.5743270" lon="-104.8567340">
    <ele>1759.0</ele>
    <time>2022-12-01T20:51:40Z</time>
   </trkpt>
   <trkpt lat="39.5743140" lon="-104.8567210">
    <ele>1759.1</ele>
    <time>2022-12-01T20:51:41Z</time>
   </trkpt>
   <trkpt lat="39.5743030" lon="-104.8567110">
    <ele>1759.1</ele>
    <time>2022-12-01T20:51:42Z</time>
   </trkpt>
   <trkpt lat="39.5742920" lon="-104.8566990">
    <ele>1759.1</ele>
    <time>2022-12-01T20:51:43Z</time>
   </trkpt>
   <trkpt lat="39.5742820" lon="-104.8566830">
    <ele>1759.2</ele>
    <time>2022-12-01T20:51:44Z</time>
   </trkpt>
   <trkpt lat="39.5742620" lon="-104.8566640">
    <ele>1759.3</ele>
    <time>2022-12-01T20:51:45Z</time>
   </trkpt>
   <trkpt lat="39.5742520" lon="-104.8566560">
    <ele>1759.3</ele>
    <time>2022-12-01T20:51:46Z</time>
   </trkpt>
   <trkpt lat="39.5742430" lon="-104.8566470">
    <ele>1759.3</ele>
    <time>2022-12-01T20:51:47Z</time>
   </trkpt>
   <trkpt lat="39.5742290" lon="-104.8566260">
    <ele>1759.4</ele>
    <time>2022-12-01T20:51:48Z</time>
   </trkpt>
   <trkpt lat="39.5742220" lon="-104.8566180">
    <ele>1759.4</ele>
    <time>2022-12-01T20:51:49Z</time>
   </trkpt>
   <trkpt lat="39.5742140" lon="-104.8566100">
    <ele>1759.4</ele>
    <time>2022-12-01T20:51:50Z</time>
   </trkpt>
   <trkpt lat="39.5741980" lon="-104.8565960">
    <ele>1759.5</ele>
    <time>2022-12-01T20:51:51Z</time>
   </trkpt>
   <trkpt lat="39.5741890" lon="-104.8565900">
    <ele>1759.5</ele>
    <time>2022-12-01T20:51:52Z</time>
   </trkpt>
   <trkpt lat="39.5741810" lon="-104.8565830">
    <ele>1759.5</ele>
    <time>2022-12-01T20:51:53Z</time>
   </trkpt>
   <trkpt lat="39.5741610" lon="-104.8565750">
    <ele>1759.6</ele>
    <time>2022-12-01T20:51:54Z</time>
   </trkpt>
   <trkpt lat="39.5741530" lon="-104.8565720">
    <ele>1759.6</ele>
    <time>2022-12-01T20:51:55Z</time>
   </trkpt>
   <trkpt lat="39.5741450" lon="-104.8565690">
    <ele>1759.6</ele>
    <time>2022-12-01T20:51:56Z</time>
   </trkpt>
   <trkpt lat="39.5741390" lon="-104.8565680">
    <ele>1759.6</ele>
    <time>2022-12-01T20:51:57Z</time>
   </trkpt>
   <trkpt lat="39.5741250" lon="-104.8565610">
    <ele>1759.7</ele>
    <time>2022-12-01T20:51:58Z</time>
   </trkpt>
   <trkpt lat="39.5741120" lon="-104.8565530">
    <ele>1759.7</ele>
    <time>2022-12-01T20:51:59Z</time>
   </trkpt>
   <trkpt lat="39.5740950" lon="-104.8565470">
    <ele>1759.8</ele>
    <time>2022-12-01T20:52:00Z</time>
   </trkpt>
   <trkpt lat="39.5740790" lon="-104.8565390">
    <ele>1759.8</ele>
    <time>2022-12-01T20:52:01Z</time>
   </trkpt>
   <trkpt lat="39.5740660" lon="-104.8565310">
    <ele>1759.9</ele>
    <time>2022-12-01T20:52:02Z</time>
   </trkpt>
   <trkpt lat="39.5740530" lon="-104.8565180">
    <ele>1759.9</ele>
    <time>2022-12-01T20:52:03Z</time>
   </trkpt>
   <trkpt lat="39.5740430" lon="-104.8565050">
    <ele>1759.9</ele>
    <time>2022-12-01T20:52:04Z</time>
   </trkpt>
   <trkpt lat="39.5740310" lon="-104.8564900">
    <ele>1759.9</ele>
    <time>2022-12-01T20:52:05Z</time>
   </trkpt>
   <trkpt lat="39.5740230" lon="-104.8564820">
    <ele>1760.0</ele>
    <time>2022-12-01T20:52:06Z</time>
   </trkpt>
   <trkpt lat="39.5740060" lon="-104.8564710">
    <ele>1760.0</ele>
    <time>2022-12-01T20:52:07Z</time>
   </trkpt>
   <trkpt lat="39.5739870" lon="-104.8564660">
    <ele>1760.1</ele>
    <time>2022-12-01T20:52:08Z</time>
   </trkpt>
   <trkpt lat="39.5739720" lon="-104.8564620">
    <ele>1760.1</ele>
    <time>2022-12-01T20:52:09Z</time>
   </trkpt>
   <trkpt lat="39.5739620" lon="-104.8564580">
    <ele>1760.1</ele>
    <time>2022-12-01T20:52:10Z</time>
   </trkpt>
   <trkpt lat="39.5739470" lon="-104.8564550">
    <ele>1760.2</ele>
    <time>2022-12-01T20:52:11Z</time>
   </trkpt>
   <trkpt lat="39.5739380" lon="-104.8564520">
    <ele>1760.2</ele>
    <time>2022-12-01T20:52:12Z</time>
   </trkpt>
   <trkpt lat="39.5739190" lon="-104.8564470">
    <ele>1760.2</ele>
    <time>2022-12-01T20:52:13Z</time>
   </trkpt>
   <trkpt lat="39.5739090" lon="-104.8564450">
    <ele>1760.2</ele>
    <time>2022-12-01T20:52:14Z</time>
   </trkpt>
   <trkpt lat="39.5739000" lon="-104.8564420">
    <ele>1760.3</ele>
    <time>2022-12-01T20:52:15Z</time>
   </trkpt>
   <trkpt lat="39.5738840" lon="-104.8564370">
    <ele>1760.3</ele>
    <time>2022-12-01T20:52:16Z</time>
   </trkpt>
   <trkpt lat="39.5738680" lon="-104.8564310">
    <ele>1760.3</ele>
    <time>2022-12-01T20:52:17Z</time>
   </trkpt>
   <trkpt lat="39.5738500" lon="-104.8564290">
    <ele>1760.4</ele>
    <time>2022-12-01T20:52:18Z</time>
   </trkpt>
   <trkpt lat="39.5738390" lon="-104.8564240">
    <ele>1760.4</ele>
    <time>2022-12-01T20:52:19Z</time>
   </trkpt>
   <trkpt lat="39.5738240" lon="-104.8564240">
    <ele>1760.4</ele>
    <time>2022-12-01T20:52:20Z</time>
   </trkpt>
   <trkpt lat="39.5738120" lon="-104.8564240">
    <ele>1760.5</ele>
    <time>2022-12-01T20:52:21Z</time>
   </trkpt>
   <trkpt lat="39.5737980" lon="-104.8564210">
    <ele>1760.5</ele>
    <time>2022-12-01T20:52:22Z</time>
   </trkpt>
   <trkpt lat="39.5737800" lon="-104.8564200">
    <ele>1760.5</ele>
    <time>2022-12-01T20:52:23Z</time>
   </trkpt>
   <trkpt lat="39.5737590" lon="-104.8564170">
    <ele>1760.6</ele>
    <time>2022-12-01T20:52:24Z</time>
   </trkpt>
   <trkpt lat="39.5737520" lon="-104.8564150">
    <ele>1760.6</ele>
    <time>2022-12-01T20:52:25Z</time>
   </trkpt>
   <trkpt lat="39.5737440" lon="-104.8564130">
    <ele>1760.6</ele>
    <time>2022-12-01T20:52:26Z</time>
   </trkpt>
   <trkpt lat="39.5737300" lon="-104.8564110">
    <ele>1760.7</ele>
    <time>2022-12-01T20:52:27Z</time>
   </trkpt>
   <trkpt lat="39.5737150" lon="-104.8564090">
    <ele>1760.7</ele>
    <time>2022-12-01T20:52:28Z</time>
   </trkpt>
   <trkpt lat="39.5737010" lon="-104.8564010">
    <ele>1760.7</ele>
    <time>2022-12-01T20:52:29Z</time>
   </trkpt>
   <trkpt lat="39.5736850" lon="-104.8563970">
    <ele>1760.8</ele>
    <time>2022-12-01T20:52:30Z</time>
   </trkpt>
   <trkpt lat="39.5736640" lon="-104.8563930">
    <ele>1760.8</ele>
    <time>2022-12-01T20:52:31Z</time>
   </trkpt>
   <trkpt lat="39.5736550" lon="-104.8563910">
    <ele>1760.9</ele>
    <time>2022-12-01T20:52:32Z</time>
   </trkpt>
   <trkpt lat="39.5736470" lon="-104.8563890">
    <ele>1760.9</ele>
    <time>2022-12-01T20:52:33Z</time>
   </trkpt>
   <trkpt lat="39.5736280" lon="-104.8563860">
    <ele>1760.9</ele>
    <time>2022-12-01T20:52:34Z</time>
   </trkpt>
   <trkpt lat="39.5736190" lon="-104.8563850">
    <ele>1760.9</ele>
    <time>2022-12-01T20:52:35Z</time>
   </trkpt>
   <trkpt lat="39.5736100" lon="-104.8563850">
    <ele>1761.0</ele>
    <time>2022-12-01T20:52:36Z</time>
   </trkpt>
   <trkpt lat="39.5735980" lon="-104.8563840">
    <ele>1761.0</ele>
    <time>2022-12-01T20:52:37Z</time>
   </trkpt>
   <trkpt lat="39.5735800" lon="-104.8563910">
    <ele>1761.0</ele>
    <time>2022-12-01T20:52:38Z</time>
   </trkpt>
   <trkpt lat="39.5735660" lon="-104.8563920">
    <ele>1761.1</ele>
    <time>2022-12-01T20:52:39Z</time>
   </trkpt>
   <trkpt lat="39.5735500" lon="-104.8563940">
    <ele>1761.1</ele>
    <time>2022-12-01T20:52:40Z</time>
   </trkpt>
   <trkpt lat="39.5735280" lon="-104.8563970">
    <ele>1761.2</ele>
    <time>2022-12-01T20:52:41Z</time>
   </trkpt>
   <trkpt lat="39.5735200" lon="-104.8564000">
    <ele>1761.2</ele>
    <time>2022-12-01T20:52:42Z</time>
   </trkpt>
   <trkpt lat="39.5735110" lon="-104.8564020">
    <ele>1761.2</ele>
    <time>2022-12-01T20:52:43Z</time>
   </trkpt>
   <trkpt lat="39.5734890" lon="-104.8564040">
    <ele>1761.3</ele>
    <time>2022-12-01T20:52:44Z</time>
   </trkpt>
   <trkpt lat="39.5734810" lon="-104.8564050">
    <ele>1761.3</ele>
    <time>2022-12-01T20:52:45Z</time>
   </trkpt>
   <trkpt lat="39.5734730" lon="-104.8564070">
    <ele>1761.3</ele>
    <time>2022-12-01T20:52:46Z</time>
   </trkpt>
   <trkpt lat="39.5734610" lon="-104.8564080">
    <ele>1761.4</ele>
    <time>2022-12-01T20:52:47Z</time>
   </trkpt>
   <trkpt lat="39.5734540" lon="-104.8564040">
    <ele>1761.4</ele>
    <time>2022-12-01T20:52:48Z</time>
   </trkpt>
   <trkpt lat="39.5734430" lon="-104.8564000">
    <ele>1761.4</ele>
    <time>2022-12-01T20:52:49Z</time>
   </trkpt>
   <trkpt lat="39.5734280" lon="-104.8563950">
    <ele>1761.4</ele>
    <time>2022-12-01T20:52:50Z</time>
   </trkpt>
   <trkpt lat="39.5734110" lon="-104.8563890">
    <ele>1761.4</ele>
    <time>2022-12-01T20:52:51Z</time>
   </trkpt>
   <trkpt lat="39.5733930" lon="-104.8563890">
    <ele>1761.5</ele>
    <time>2022-12-01T20:52:52Z</time>
   </trkpt>
   <trkpt lat="39.5733780" lon="-104.8563870">
    <ele>1761.5</ele>
    <time>2022-12-01T20:52:53Z</time>
   </trkpt>
   <trkpt lat="39.5733660" lon="-104.8563880">
    <ele>1761.5</ele>
    <time>2022-12-01T20:52:54Z</time>
   </trkpt>
   <trkpt lat="39.5733480" lon="-104.8563840">
    <ele>1761.6</ele>
    <time>2022-12-01T20:52:55Z</time>
   </trkpt>
   <trkpt lat="39.5733180" lon="-104.8563810">
    <ele>1761.6</ele>
    <time>2022-12-01T20:52:56Z</time>
   </trkpt>
   <trkpt lat="39.5733070" lon="-104.8563780">
    <ele>1761.6</ele>
    <time>2022-12-01T20:52:57Z</time>
   </trkpt>
   <trkpt lat="39.5732790" lon="-104.8563750">
    <ele>1761.7</ele>
    <time>2022-12-01T20:52:58Z</time>
   </trkpt>
   <trkpt lat="39.5732700" lon="-104.8563770">
    <ele>1761.7</ele>
    <time>2022-12-01T20:52:59Z</time>
   </trkpt>
   <trkpt lat="39.5732540" lon="-104.8563730">
    <ele>1761.7</ele>
    <time>2022-12-01T20:53:00Z</time>
   </trkpt>
   <trkpt lat="39.5732390" lon="-104.8563670">
    <ele>1761.7</ele>
    <time>2022-12-01T20:53:01Z</time>
   </trkpt>
   <trkpt lat="39.5732230" lon="-104.8563620">
    <ele>1761.8</ele>
    <time>2022-12-01T20:53:02Z</time>
   </trkpt>
   <trkpt lat="39.5732090" lon="-104.8563550">
    <ele>1761.8</ele>
    <time>2022-12-01T20:53:03Z</time>
   </trkpt>
   <trkpt lat="39.5731880" lon="-104.8563560">
    <ele>1761.8</ele>
    <time>2022-12-01T20:53:04Z</time>
   </trkpt>
   <trkpt lat="39.5731790" lon="-104.8563550">
    <ele>1761.8</ele>
    <time>2022-12-01T20:53:05Z</time>
   </trkpt>
   <trkpt lat="39.5731700" lon="-104.8563540">
    <ele>1761.8</ele>
    <time>2022-12-01T20:53:06Z</time>
   </trkpt>
   <trkpt lat="39.5731540" lon="-104.8563540">
    <ele>1761.9</ele>
    <time>2022-12-01T20:53:07Z</time>
   </trkpt>
   <trkpt lat="39.5731420" lon="-104.8563610">
    <ele>1761.9</ele>
    <time>2022-12-01T20:53:08Z</time>
   </trkpt>
   <trkpt lat="39.5731240" lon="-104.8563580">
    <ele>1761.9</ele>
    <time>2022-12-01T20:53:09Z</time>
   </trkpt>
   <trkpt lat="39.5731080" lon="-104.8563550">
    <ele>1761.9</ele>
    <time>2022-12-01T20:53:10Z</time>
   </trkpt>
   <trkpt lat="39.5730960" lon="-104.8563550">
    <ele>1762.0</ele>
    <time>2022-12-01T20:53:11Z</time>
   </trkpt>
   <trkpt lat="39.5730810" lon="-104.8563590">
    <ele>1762.0</ele>
    <time>2022-12-01T20:53:12Z</time>
   </trkpt>
   <trkpt lat="39.5730690" lon="-104.8563620">
    <ele>1762.0</ele>
    <time>2022-12-01T20:53:13Z</time>
   </trkpt>
   <trkpt lat="39.5730530" lon="-104.8563640">
    <ele>1762.0</ele>
    <time>2022-12-01T20:53:14Z</time>
   </trkpt>
   <trkpt lat="39.5730270" lon="-104.8563710">
    <ele>1762.1</ele>
    <time>2022-12-01T20:53:15Z</time>
   </trkpt>
   <trkpt lat="39.5730170" lon="-104.8563750">
    <ele>1762.1</ele>
    <time>2022-12-01T20:53:16Z</time>
   </trkpt>
   <trkpt lat="39.5730010" lon="-104.8563770">
    <ele>1762.1</ele>
    <time>2022-12-01T20:53:17Z</time>
   </trkpt>
   <trkpt lat="39.5729830" lon="-104.8563810">
    <ele>1762.2</ele>
    <time>2022-12-01T20:53:18Z</time>
   </trkpt>
   <trkpt lat="39.5729690" lon="-104.8563780">
    <ele>1762.2</ele>
    <time>2022-12-01T20:53:19Z</time>
   </trkpt>
   <trkpt lat="39.5729520" lon="-104.8563840">
    <ele>1762.2</ele>
    <time>2022-12-01T20:53:20Z</time>
   </trkpt>
   <trkpt lat="39.5729390" lon="-104.8563920">
    <ele>1762.2</ele>
    <time>2022-12-01T20:53:21Z</time>
   </trkpt>
   <trkpt lat="39.5729250" lon="-104.8563930">
    <ele>1762.2</ele>
    <time>2022-12-01T20:53:22Z</time>
   </trkpt>
   <trkpt lat="39.5729040" lon="-104.8563940">
    <ele>1762.2</ele>
    <time>2022-12-01T20:53:23Z</time>
   </trkpt>
   <trkpt lat="39.5728950" lon="-104.8563940">
    <ele>1762.2</ele>
    <time>2022-12-01T20:53:24Z</time>
   </trkpt>
   <trkpt lat="39.5728870" lon="-104.8563950">
    <ele>1762.2</ele>
    <time>2022-12-01T20:53:25Z</time>
   </trkpt>
   <trkpt lat="39.5728730" lon="-104.8563920">
    <ele>1762.2</ele>
    <time>2022-12-01T20:53:26Z</time>
   </trkpt>
   <trkpt lat="39.5728600" lon="-104.8563920">
    <ele>1762.3</ele>
    <time>2022-12-01T20:53:27Z</time>
   </trkpt>
   <trkpt lat="39.5728440" lon="-104.8563910">
    <ele>1762.3</ele>
    <time>2022-12-01T20:53:28Z</time>
   </trkpt>
   <trkpt lat="39.5728270" lon="-104.8563960">
    <ele>1762.3</ele>
    <time>2022-12-01T20:53:29Z</time>
   </trkpt>
   <trkpt lat="39.5728050" lon="-104.8564000">
    <ele>1762.3</ele>
    <time>2022-12-01T20:53:30Z</time>
   </trkpt>
   <trkpt lat="39.5727950" lon="-104.8564010">
    <ele>1762.3</ele>
    <time>2022-12-01T20:53:31Z</time>
   </trkpt>
   <trkpt lat="39.5727850" lon="-104.8564030">
    <ele>1762.3</ele>
    <time>2022-12-01T20:53:32Z</time>
   </trkpt>
   <trkpt lat="39.5727630" lon="-104.8564060">
    <ele>1762.4</ele>
    <time>2022-12-01T20:53:33Z</time>
   </trkpt>
   <trkpt lat="39.5727550" lon="-104.8564060">
    <ele>1762.4</ele>
    <time>2022-12-01T20:53:34Z</time>
   </trkpt>
   <trkpt lat="39.5727460" lon="-104.8564060">
    <ele>1762.4</ele>
    <time>2022-12-01T20:53:35Z</time>
   </trkpt>
   <trkpt lat="39.5727170" lon="-104.8564030">
    <ele>1762.4</ele>
    <time>2022-12-01T20:53:36Z</time>
   </trkpt>
   <trkpt lat="39.5727060" lon="-104.8564020">
    <ele>1762.4</ele>
    <time>2022-12-01T20:53:37Z</time>
   </trkpt>
   <trkpt lat="39.5726780" lon="-104.8563920">
    <ele>1762.5</ele>
    <time>2022-12-01T20:53:38Z</time>
   </trkpt>
   <trkpt lat="39.5726700" lon="-104.8563930">
    <ele>1762.5</ele>
    <time>2022-12-01T20:53:39Z</time>
   </trkpt>
   <trkpt lat="39.5726560" lon="-104.8563890">
    <ele>1762.5</ele>
    <time>2022-12-01T20:53:40Z</time>
   </trkpt>
   <trkpt lat="39.5726390" lon="-104.8563890">
    <ele>1762.5</ele>
    <time>2022-12-01T20:53:41Z</time>
   </trkpt>
   <trkpt lat="39.5726100" lon="-104.8563900">
    <ele>1762.5</ele>
    <time>2022-12-01T20:53:42Z</time>
   </trkpt>
   <trkpt lat="39.5726010" lon="-104.8563900">
    <ele>1762.5</ele>
    <time>2022-12-01T20:53:43Z</time>
   </trkpt>
   <trkpt lat="39.5725820" lon="-104.8563930">
    <ele>1762.6</ele>
    <time>2022-12-01T20:53:44Z</time>
   </trkpt>
   <trkpt lat="39.5725730" lon="-104.8563900">
    <ele>1762.6</ele>
    <time>2022-12-01T20:53:45Z</time>
   </trkpt>
   <trkpt lat="39.5725640" lon="-104.8563880">
    <ele>1762.6</ele>
    <time>2022-12-01T20:53:46Z</time>
   </trkpt>
   <trkpt lat="39.5725500" lon="-104.8563870">
    <ele>1762.6</ele>
    <time>2022-12-01T20:53:47Z</time>
   </trkpt>
   <trkpt lat="39.5725330" lon="-104.8563890">
    <ele>1762.6</ele>
    <time>2022-12-01T20:53:48Z</time>
   </trkpt>
   <trkpt lat="39.5725060" lon="-104.8564030">
    <ele>1762.6</ele>
    <time>2022-12-01T20:53:49Z</time>
   </trkpt>
   <trkpt lat="39.5724990" lon="-104.8564080">
    <ele>1762.6</ele>
    <time>2022-12-01T20:53:50Z</time>
   </trkpt>
   <trkpt lat="39.5724830" lon="-104.8564050">
    <ele>1762.6</ele>
    <time>2022-12-01T20:53:51Z</time>
   </trkpt>
   <trkpt lat="39.5724690" lon="-104.8564010">
    <ele>1762.6</ele>
    <time>2022-12-01T20:53:52Z</time>
   </trkpt>
   <trkpt lat="39.5724410" lon="-104.8563980">
    <ele>1762.6</ele>
    <time>2022-12-01T20:53:53Z</time>
   </trkpt>
   <trkpt lat="39.5724300" lon="-104.8563960">
    <ele>1762.6</ele>
    <time>2022-12-01T20:53:54Z</time>
   </trkpt>
   <trkpt lat="39.5724170" lon="-104.8563970">
    <ele>1762.6</ele>
    <time>2022-12-01T20:53:55Z</time>
   </trkpt>
   <trkpt lat="39.5724030" lon="-104.8564020">
    <ele>1762.6</ele>
    <time>2022-12-01T20:53:56Z</time>
   </trkpt>
   <trkpt lat="39.5723870" lon="-104.8564050">
    <ele>1762.6</ele>
    <time>2022-12-01T20:53:57Z</time>
   </trkpt>
   <trkpt lat="39.5723690" lon="-104.8564110">
    <ele>1762.6</ele>
    <time>2022-12-01T20:53:58Z</time>
   </trkpt>
   <trkpt lat="39.5723550" lon="-104.8564200">
    <ele>1762.6</ele>
    <time>2022-12-01T20:53:59Z</time>
   </trkpt>
   <trkpt lat="39.5723410" lon="-104.8564300">
    <ele>1762.6</ele>
    <time>2022-12-01T20:54:00Z</time>
   </trkpt>
   <trkpt lat="39.5723260" lon="-104.8564420">
    <ele>1762.5</ele>
    <time>2022-12-01T20:54:01Z</time>
   </trkpt>
   <trkpt lat="39.5723100" lon="-104.8564430">
    <ele>1762.5</ele>
    <time>2022-12-01T20:54:02Z</time>
   </trkpt>
   <trkpt lat="39.5722870" lon="-104.8564460">
    <ele>1762.5</ele>
    <time>2022-12-01T20:54:03Z</time>
   </trkpt>
   <trkpt lat="39.5722790" lon="-104.8564510">
    <ele>1762.5</ele>
    <time>2022-12-01T20:54:04Z</time>
   </trkpt>
   <trkpt lat="39.5722710" lon="-104.8564550">
    <ele>1762.5</ele>
    <time>2022-12-01T20:54:05Z</time>
   </trkpt>
   <trkpt lat="39.5722580" lon="-104.8564560">
    <ele>1762.4</ele>
    <time>2022-12-01T20:54:06Z</time>
   </trkpt>
   <trkpt lat="39.5722420" lon="-104.8564590">
    <ele>1762.4</ele>
    <time>2022-12-01T20:54:07Z</time>
   </trkpt>
   <trkpt lat="39.5722280" lon="-104.8564660">
    <ele>1762.4</ele>
    <time>2022-12-01T20:54:08Z</time>
   </trkpt>
   <trkpt lat="39.5722140" lon="-104.8564770">
    <ele>1762.3</ele>
    <time>2022-12-01T20:54:09Z</time>
   </trkpt>
   <trkpt lat="39.5722010" lon="-104.8564910">
    <ele>1762.3</ele>
    <time>2022-12-01T20:54:10Z</time>
   </trkpt>
   <trkpt lat="39.5721880" lon="-104.8565020">
    <ele>1762.2</ele>
    <time>2022-12-01T20:54:11Z</time>
   </trkpt>
   <trkpt lat="39.5721780" lon="-104.8565120">
    <ele>1762.2</ele>
    <time>2022-12-01T20:54:12Z</time>
   </trkpt>
   <trkpt lat="39.5721620" lon="-104.8565290">
    <ele>1762.1</ele>
    <time>2022-12-01T20:54:13Z</time>
   </trkpt>
   <trkpt lat="39.5721490" lon="-104.8565380">
    <ele>1762.1</ele>
    <time>2022-12-01T20:54:14Z</time>
   </trkpt>
   <trkpt lat="39.5721360" lon="-104.8565450">
    <ele>1762.0</ele>
    <time>2022-12-01T20:54:15Z</time>
   </trkpt>
   <trkpt lat="39.5721190" lon="-104.8565570">
    <ele>1762.0</ele>
    <time>2022-12-01T20:54:16Z</time>
   </trkpt>
   <trkpt lat="39.5721110" lon="-104.8565640">
    <ele>1761.9</ele>
    <time>2022-12-01T20:54:17Z</time>
   </trkpt>
   <trkpt lat="39.5721040" lon="-104.8565710">
    <ele>1761.9</ele>
    <time>2022-12-01T20:54:18Z</time>
   </trkpt>
   <trkpt lat="39.5720960" lon="-104.8565820">
    <ele>1761.8</ele>
    <time>2022-12-01T20:54:19Z</time>
   </trkpt>
   <trkpt lat="39.5720870" lon="-104.8565930">
    <ele>1761.8</ele>
    <time>2022-12-01T20:54:20Z</time>
   </trkpt>
   <trkpt lat="39.5720790" lon="-104.8566030">
    <ele>1761.8</ele>
    <time>2022-12-01T20:54:21Z</time>
   </trkpt>
   <trkpt lat="39.5720600" lon="-104.8566200">
    <ele>1761.7</ele>
    <time>2022-12-01T20:54:22Z</time>
   </trkpt>
   <trkpt lat="39.5720520" lon="-104.8566270">
    <ele>1761.6</ele>
    <time>2022-12-01T20:54:23Z</time>
   </trkpt>
   <trkpt lat="39.5720450" lon="-104.8566350">
    <ele>1761.6</ele>
    <time>2022-12-01T20:54:24Z</time>
   </trkpt>
   <trkpt lat="39.5720330" lon="-104.8566530">
    <ele>1761.5</ele>
    <time>2022-12-01T20:54:25Z</time>
   </trkpt>
   <trkpt lat="39.5720240" lon="-104.8566640">
    <ele>1761.5</ele>
    <time>2022-12-01T20:54:26Z</time>
   </trkpt>
   <trkpt lat="39.5720150" lon="-104.8566710">
    <ele>1761.4</ele>
    <time>2022-12-01T20:54:27Z</time>
   </trkpt>
   <trkpt lat="39.5720040" lon="-104.8566690">
    <ele>1761.4</ele>
    <time>2022-12-01T20:54:28Z</time>
   </trkpt>
   <trkpt lat="39.5719930" lon="-104.8566770">
    <ele>1761.3</ele>
    <time>2022-12-01T20:54:29Z</time>
   </trkpt>
   <trkpt lat="39.5719790" lon="-104.8566870">
    <ele>1761.3</ele>
    <time>2022-12-01T20:54:30Z</time>
   </trkpt>
   <trkpt lat="39.5719630" lon="-104.8566990">
    <ele>1761.2</ele>
    <time>2022-12-01T20:54:31Z</time>
   </trkpt>
   <trkpt lat="39.5719460" lon="-104.8567090">
    <ele>1761.1</ele>
    <time>2022-12-01T20:54:32Z</time>
   </trkpt>
   <trkpt lat="39.5719390" lon="-104.8567180">
    <ele>1761.1</ele>
    <time>2022-12-01T20:54:33Z</time>
   </trkpt>
   <trkpt lat="39.5719210" lon="-104.8567480">
    <ele>1760.9</ele>
    <time>2022-12-01T20:54:34Z</time>
   </trkpt>
   <trkpt lat="39.5719130" lon="-104.8567580">
    <ele>1760.9</ele>
    <time>2022-12-01T20:54:35Z</time>
   </trkpt>
   <trkpt lat="39.5719110" lon="-104.8567710">
    <ele>1760.9</ele>
    <time>2022-12-01T20:54:36Z</time>
   </trkpt>
   <trkpt lat="39.5719060" lon="-104.8567810">
    <ele>1760.8</ele>
    <time>2022-12-01T20:54:37Z</time>
   </trkpt>
   <trkpt lat="39.5718960" lon="-104.8567960">
    <ele>1760.8</ele>
    <time>2022-12-01T20:54:38Z</time>
   </trkpt>
   <trkpt lat="39.5718870" lon="-104.8568090">
    <ele>1760.7</ele>
    <time>2022-12-01T20:54:39Z</time>
   </trkpt>
   <trkpt lat="39.5718740" lon="-104.8568280">
    <ele>1760.6</ele>
    <time>2022-12-01T20:54:40Z</time>
   </trkpt>
   <trkpt lat="39.5718660" lon="-104.8568450">
    <ele>1760.6</ele>
    <time>2022-12-01T20:54:41Z</time>
   </trkpt>
   <trkpt lat="39.5718550" lon="-104.8568630">
    <ele>1760.5</ele>
    <time>2022-12-01T20:54:42Z</time>
   </trkpt>
   <trkpt lat="39.5718460" lon="-104.8568770">
    <ele>1760.4</ele>
    <time>2022-12-01T20:54:43Z</time>
   </trkpt>
   <trkpt lat="39.5718360" lon="-104.8568970">
    <ele>1760.4</ele>
    <time>2022-12-01T20:54:44Z</time>
   </trkpt>
   <trkpt lat="39.5718290" lon="-104.8569140">
    <ele>1760.3</ele>
    <time>2022-12-01T20:54:45Z</time>
   </trkpt>
   <trkpt lat="39.5718240" lon="-104.8569300">
    <ele>1760.3</ele>
    <time>2022-12-01T20:54:46Z</time>
   </trkpt>
   <trkpt lat="39.5718110" lon="-104.8569530">
    <ele>1760.2</ele>
    <time>2022-12-01T20:54:47Z</time>
   </trkpt>
   <trkpt lat="39.5718030" lon="-104.8569610">
    <ele>1760.2</ele>
    <time>2022-12-01T20:54:48Z</time>
   </trkpt>
   <trkpt lat="39.5717960" lon="-104.8569690">
    <ele>1760.1</ele>
    <time>2022-12-01T20:54:49Z</time>
   </trkpt>
   <trkpt lat="39.5717880" lon="-104.8569810">
    <ele>1760.1</ele>
    <time>2022-12-01T20:54:50Z</time>
   </trkpt>
   <trkpt lat="39.5717780" lon="-104.8569950">
    <ele>1760.1</ele>
    <time>2022-12-01T20:54:51Z</time>
   </trkpt>
   <trkpt lat="39.5717670" lon="-104.8570080">
    <ele>1760.0</ele>
    <time>2022-12-01T20:54:52Z</time>
   </trkpt>
   <trkpt lat="39.5717550" lon="-104.8570250">
    <ele>1760.0</ele>
    <time>2022-12-01T20:54:53Z</time>
   </trkpt>
   <trkpt lat="39.5717390" lon="-104.8570530">
    <ele>1759.9</ele>
    <time>2022-12-01T20:54:54Z</time>
   </trkpt>
   <trkpt lat="39.5717340" lon="-104.8570640">
    <ele>1759.9</ele>
    <time>2022-12-01T20:54:55Z</time>
   </trkpt>
   <trkpt lat="39.5717300" lon="-104.8570850">
    <ele>1759.9</ele>
    <time>2022-12-01T20:54:56Z</time>
   </trkpt>
   <trkpt lat="39.5717300" lon="-104.8570990">
    <ele>1759.8</ele>
    <time>2022-12-01T20:54:57Z</time>
   </trkpt>
   <trkpt lat="39.5717290" lon="-104.8571210">
    <ele>1759.8</ele>
    <time>2022-12-01T20:54:58Z</time>
   </trkpt>
   <trkpt lat="39.5717270" lon="-104.8571410">
    <ele>1759.7</ele>
    <time>2022-12-01T20:54:59Z</time>
   </trkpt>
   <trkpt lat="39.5717190" lon="-104.8571670">
    <ele>1759.7</ele>
    <time>2022-12-01T20:55:00Z</time>
   </trkpt>
   <trkpt lat="39.5717150" lon="-104.8571760">
    <ele>1759.7</ele>
    <time>2022-12-01T20:55:01Z</time>
   </trkpt>
   <trkpt lat="39.5717110" lon="-104.8571860">
    <ele>1759.7</ele>
    <time>2022-12-01T20:55:02Z</time>
   </trkpt>
   <trkpt lat="39.5716970" lon="-104.8572060">
    <ele>1759.7</ele>
    <time>2022-12-01T20:55:03Z</time>
   </trkpt>
   <trkpt lat="39.5716950" lon="-104.8572160">
    <ele>1759.7</ele>
    <time>2022-12-01T20:55:04Z</time>
   </trkpt>
   <trkpt lat="39.5716930" lon="-104.8572260">
    <ele>1759.7</ele>
    <time>2022-12-01T20:55:05Z</time>
   </trkpt>
   <trkpt lat="39.5716820" lon="-104.8572420">
    <ele>1759.7</ele>
    <time>2022-12-01T20:55:06Z</time>
   </trkpt>
   <trkpt lat="39.5716750" lon="-104.8572660">
    <ele>1759.6</ele>
    <time>2022-12-01T20:55:07Z</time>
   </trkpt>
   <trkpt lat="39.5716720" lon="-104.8573040">
    <ele>1759.6</ele>
    <time>2022-12-01T20:55:08Z</time>
   </trkpt>
   <trkpt lat="39.5716710" lon="-104.8573140">
    <ele>1759.6</ele>
    <time>2022-12-01T20:55:09Z</time>
   </trkpt>
   <trkpt lat="39.5716700" lon="-104.8573500">
    <ele>1759.5</ele>
    <time>2022-12-01T20:55:10Z</time>
   </trkpt>
   <trkpt lat="39.5716700" lon="-104.8573610">
    <ele>1759.5</ele>
    <time>2022-12-01T20:55:11Z</time>
   </trkpt>
   <trkpt lat="39.5716700" lon="-104.8573840">
    <ele>1759.5</ele>
    <time>2022-12-01T20:55:12Z</time>
   </trkpt>
   <trkpt lat="39.5716710" lon="-104.8574050">
    <ele>1759.5</ele>
    <time>2022-12-01T20:55:13Z</time>
   </trkpt>
   <trkpt lat="39.5716700" lon="-104.8574240">
    <ele>1759.4</ele>
    <time>2022-12-01T20:55:14Z</time>
   </trkpt>
   <trkpt lat="39.5716680" lon="-104.8574420">
    <ele>1759.4</ele>
    <time>2022-12-01T20:55:15Z</time>
   </trkpt>
   <trkpt lat="39.5716690" lon="-104.8574590">
    <ele>1759.4</ele>
    <time>2022-12-01T20:55:16Z</time>
   </trkpt>
   <trkpt lat="39.5716730" lon="-104.8574840">
    <ele>1759.4</ele>
    <time>2022-12-01T20:55:17Z</time>
   </trkpt>
   <trkpt lat="39.5716710" lon="-104.8575000">
    <ele>1759.4</ele>
    <time>2022-12-01T20:55:18Z</time>
   </trkpt>
   <trkpt lat="39.5716670" lon="-104.8575190">
    <ele>1759.3</ele>
    <time>2022-12-01T20:55:19Z</time>
   </trkpt>
   <trkpt lat="39.5716650" lon="-104.8575390">
    <ele>1759.3</ele>
    <time>2022-12-01T20:55:20Z</time>
   </trkpt>
   <trkpt lat="39.5716690" lon="-104.8575590">
    <ele>1759.3</ele>
    <time>2022-12-01T20:55:21Z</time>
   </trkpt>
   <trkpt lat="39.5716690" lon="-104.8575780">
    <ele>1759.3</ele>
    <time>2022-12-01T20:55:22Z</time>
   </trkpt>
   <trkpt lat="39.5716670" lon="-104.8575980">
    <ele>1759.3</ele>
    <time>2022-12-01T20:55:23Z</time>
   </trkpt>
   <trkpt lat="39.5716680" lon="-104.8576290">
    <ele>1759.3</ele>
    <time>2022-12-01T20:55:24Z</time>
   </trkpt>
   <trkpt lat="39.5716680" lon="-104.8576400">
    <ele>1759.3</ele>
    <time>2022-12-01T20:55:25Z</time>
   </trkpt>
   <trkpt lat="39.5716680" lon="-104.8576520">
    <ele>1759.2</ele>
    <time>2022-12-01T20:55:26Z</time>
   </trkpt>
   <trkpt lat="39.5716640" lon="-104.8576700">
    <ele>1759.2</ele>
    <time>2022-12-01T20:55:27Z</time>
   </trkpt>
   <trkpt lat="39.5716590" lon="-104.8576920">
    <ele>1759.2</ele>
    <time>2022-12-01T20:55:28Z</time>
   </trkpt>
   <trkpt lat="39.5716580" lon="-104.8577100">
    <ele>1759.2</ele>
    <time>2022-12-01T20:55:29Z</time>
   </trkpt>
   <trkpt lat="39.5716610" lon="-104.8577280">
    <ele>1759.2</ele>
    <time>2022-12-01T20:55:30Z</time>
   </trkpt>
   <trkpt lat="39.5716600" lon="-104.8577520">
    <ele>1759.2</ele>
    <time>2022-12-01T20:55:31Z</time>
   </trkpt>
   <trkpt lat="39.5716580" lon="-104.8577710">
    <ele>1759.2</ele>
    <time>2022-12-01T20:55:32Z</time>
   </trkpt>
   <trkpt lat="39.5716580" lon="-104.8577890">
    <ele>1759.2</ele>
    <time>2022-12-01T20:55:33Z</time>
   </trkpt>
   <trkpt lat="39.5716570" lon="-104.8578120">
    <ele>1759.2</ele>
    <time>2022-12-01T20:55:34Z</time>
   </trkpt>
   <trkpt lat="39.5716530" lon="-104.8578280">
    <ele>1759.2</ele>
    <time>2022-12-01T20:55:35Z</time>
   </trkpt>
   <trkpt lat="39.5716530" lon="-104.8578470">
    <ele>1759.2</ele>
    <time>2022-12-01T20:55:36Z</time>
   </trkpt>
   <trkpt lat="39.5716530" lon="-104.8578660">
    <ele>1759.2</ele>
    <time>2022-12-01T20:55:37Z</time>
   </trkpt>
   <trkpt lat="39.5716540" lon="-104.8578850">
    <ele>1759.2</ele>
    <time>2022-12-01T20:55:38Z</time>
   </trkpt>
   <trkpt lat="39.5716520" lon="-104.8579130">
    <ele>1759.2</ele>
    <time>2022-12-01T20:55:39Z</time>
   </trkpt>
   <trkpt lat="39.5716530" lon="-104.8579290">
    <ele>1759.2</ele>
    <time>2022-12-01T20:55:40Z</time>
   </trkpt>
   <trkpt lat="39.5716520" lon="-104.8579490">
    <ele>1759.1</ele>
    <time>2022-12-01T20:55:41Z</time>
   </trkpt>
   <trkpt lat="39.5716540" lon="-104.8579640">
    <ele>1759.1</ele>
    <time>2022-12-01T20:55:42Z</time>
   </trkpt>
   <trkpt lat="39.5716520" lon="-104.8579850">
    <ele>1759.1</ele>
    <time>2022-12-01T20:55:43Z</time>
   </trkpt>
   <trkpt lat="39.5716490" lon="-104.8580060">
    <ele>1759.1</ele>
    <time>2022-12-01T20:55:44Z</time>
   </trkpt>
   <trkpt lat="39.5716450" lon="-104.8580260">
    <ele>1759.1</ele>
    <time>2022-12-01T20:55:45Z</time>
   </trkpt>
   <trkpt lat="39.5716430" lon="-104.8580470">
    <ele>1759.1</ele>
    <time>2022-12-01T20:55:46Z</time>
   </trkpt>
   <trkpt lat="39.5716410" lon="-104.8580740">
    <ele>1759.1</ele>
    <time>2022-12-01T20:55:47Z</time>
   </trkpt>
   <trkpt lat="39.5716400" lon="-104.8580850">
    <ele>1759.1</ele>
    <time>2022-12-01T20:55:48Z</time>
   </trkpt>
   <trkpt lat="39.5716400" lon="-104.8580960">
    <ele>1759.1</ele>
    <time>2022-12-01T20:55:49Z</time>
   </trkpt>
   <trkpt lat="39.5716380" lon="-104.8581170">
    <ele>1759.0</ele>
    <time>2022-12-01T20:55:50Z</time>
   </trkpt>
   <trkpt lat="39.5716340" lon="-104.8581380">
    <ele>1759.0</ele>
    <time>2022-12-01T20:55:51Z</time>
   </trkpt>
   <trkpt lat="39.5716290" lon="-104.8581680">
    <ele>1759.0</ele>
    <time>2022-12-01T20:55:52Z</time>
   </trkpt>
   <trkpt lat="39.5716280" lon="-104.8581780">
    <ele>1759.0</ele>
    <time>2022-12-01T20:55:53Z</time>
   </trkpt>
   <trkpt lat="39.5716260" lon="-104.8581880">
    <ele>1759.0</ele>
    <time>2022-12-01T20:55:54Z</time>
   </trkpt>
   <trkpt lat="39.5716210" lon="-104.8582160">
    <ele>1759.0</ele>
    <time>2022-12-01T20:55:55Z</time>
   </trkpt>
   <trkpt lat="39.5716180" lon="-104.8582270">
    <ele>1759.0</ele>
    <time>2022-12-01T20:55:56Z</time>
   </trkpt>
   <trkpt lat="39.5716150" lon="-104.8582390">
    <ele>1759.0</ele>
    <time>2022-12-01T20:55:57Z</time>
   </trkpt>
   <trkpt lat="39.5716120" lon="-104.8582560">
    <ele>1759.0</ele>
    <time>2022-12-01T20:55:58Z</time>
   </trkpt>
   <trkpt lat="39.5716070" lon="-104.8582750">
    <ele>1758.9</ele>
    <time>2022-12-01T20:55:59Z</time>
   </trkpt>
   <trkpt lat="39.5716020" lon="-104.8582980">
    <ele>1758.9</ele>
    <time>2022-12-01T20:56:00Z</time>
   </trkpt>
   <trkpt lat="39.5715980" lon="-104.8583160">
    <ele>1758.9</ele>
    <time>2022-12-01T20:56:01Z</time>
   </trkpt>
   <trkpt lat="39.5715970" lon="-104.8583440">
    <ele>1758.9</ele>
    <time>2022-12-01T20:56:02Z</time>
   </trkpt>
   <trkpt lat="39.5715970" lon="-104.8583550">
    <ele>1758.9</ele>
    <time>2022-12-01T20:56:03Z</time>
   </trkpt>
   <trkpt lat="39.5715960" lon="-104.8583670">
    <ele>1758.9</ele>
    <time>2022-12-01T20:56:04Z</time>
   </trkpt>
   <trkpt lat="39.5715870" lon="-104.8583820">
    <ele>1758.9</ele>
    <time>2022-12-01T20:56:05Z</time>
   </trkpt>
   <trkpt lat="39.5715820" lon="-104.8584000">
    <ele>1758.9</ele>
    <time>2022-12-01T20:56:06Z</time>
   </trkpt>
   <trkpt lat="39.5715760" lon="-104.8584170">
    <ele>1758.9</ele>
    <time>2022-12-01T20:56:07Z</time>
   </trkpt>
   <trkpt lat="39.5715690" lon="-104.8584350">
    <ele>1758.9</ele>
    <time>2022-12-01T20:56:08Z</time>
   </trkpt>
   <trkpt lat="39.5715630" lon="-104.8584540">
    <ele>1758.9</ele>
    <time>2022-12-01T20:56:09Z</time>
   </trkpt>
   <trkpt lat="39.5715580" lon="-104.8584730">
    <ele>1758.9</ele>
    <time>2022-12-01T20:56:10Z</time>
   </trkpt>
   <trkpt lat="39.5715540" lon="-104.8584930">
    <ele>1758.9</ele>
    <time>2022-12-01T20:56:11Z</time>
   </trkpt>
   <trkpt lat="39.5715490" lon="-104.8585070">
    <ele>1758.9</ele>
    <time>2022-12-01T20:56:12Z</time>
   </trkpt>
   <trkpt lat="39.5715440" lon="-104.8585230">
    <ele>1758.8</ele>
    <time>2022-12-01T20:56:13Z</time>
   </trkpt>
   <trkpt lat="39.5715400" lon="-104.8585400">
    <ele>1758.8</ele>
    <time>2022-12-01T20:56:14Z</time>
   </trkpt>
   <trkpt lat="39.5715260" lon="-104.8585750">
    <ele>1758.8</ele>
    <time>2022-12-01T20:56:15Z</time>
   </trkpt>
   <trkpt lat="39.5715220" lon="-104.8585860">
    <ele>1758.8</ele>
    <time>2022-12-01T20:56:16Z</time>
   </trkpt>
   <trkpt lat="39.5715160" lon="-104.8586050">
    <ele>1758.8</ele>
    <time>2022-12-01T20:56:17Z</time>
   </trkpt>
   <trkpt lat="39.5715100" lon="-104.8586210">
    <ele>1758.8</ele>
    <time>2022-12-01T20:56:18Z</time>
   </trkpt>
   <trkpt lat="39.5715050" lon="-104.8586380">
    <ele>1758.8</ele>
    <time>2022-12-01T20:56:19Z</time>
   </trkpt>
   <trkpt lat="39.5714950" lon="-104.8586550">
    <ele>1758.8</ele>
    <time>2022-12-01T20:56:20Z</time>
   </trkpt>
   <trkpt lat="39.5714870" lon="-104.8586740">
    <ele>1758.8</ele>
    <time>2022-12-01T20:56:21Z</time>
   </trkpt>
   <trkpt lat="39.5714830" lon="-104.8586950">
    <ele>1758.8</ele>
    <time>2022-12-01T20:56:22Z</time>
   </trkpt>
   <trkpt lat="39.5714760" lon="-104.8587120">
    <ele>1758.7</ele>
    <time>2022-12-01T20:56:23Z</time>
   </trkpt>
   <trkpt lat="39.5714670" lon="-104.8587310">
    <ele>1758.7</ele>
    <time>2022-12-01T20:56:24Z</time>
   </trkpt>
   <trkpt lat="39.5714590" lon="-104.8587470">
    <ele>1758.7</ele>
    <time>2022-12-01T20:56:25Z</time>
   </trkpt>
   <trkpt lat="39.5714510" lon="-104.8587660">
    <ele>1758.7</ele>
    <time>2022-12-01T20:56:26Z</time>
   </trkpt>
   <trkpt lat="39.5714440" lon="-104.8587850">
    <ele>1758.7</ele>
    <time>2022-12-01T20:56:27Z</time>
   </trkpt>
   <trkpt lat="39.5714310" lon="-104.8587970">
    <ele>1758.7</ele>
    <time>2022-12-01T20:56:28Z</time>
   </trkpt>
   <trkpt lat="39.5714250" lon="-104.8588150">
    <ele>1758.7</ele>
    <time>2022-12-01T20:56:29Z</time>
   </trkpt>
   <trkpt lat="39.5714150" lon="-104.8588250">
    <ele>1758.7</ele>
    <time>2022-12-01T20:56:30Z</time>
   </trkpt>
   <trkpt lat="39.5714060" lon="-104.8588430">
    <ele>1758.7</ele>
    <time>2022-12-01T20:56:31Z</time>
   </trkpt>
   <trkpt lat="39.5714000" lon="-104.8588590">
    <ele>1758.7</ele>
    <time>2022-12-01T20:56:32Z</time>
   </trkpt>
   <trkpt lat="39.5713920" lon="-104.8588720">
    <ele>1758.7</ele>
    <time>2022-12-01T20:56:33Z</time>
   </trkpt>
   <trkpt lat="39.5713810" lon="-104.8588850">
    <ele>1758.7</ele>
    <time>2022-12-01T20:56:34Z</time>
   </trkpt>
   <trkpt lat="39.5713650" lon="-104.8589050">
    <ele>1758.7</ele>
    <time>2022-12-01T20:56:35Z</time>
   </trkpt>
   <trkpt lat="39.5713580" lon="-104.8589140">
    <ele>1758.7</ele>
    <time>2022-12-01T20:56:36Z</time>
   </trkpt>
   <trkpt lat="39.5713510" lon="-104.8589230">
    <ele>1758.7</ele>
    <time>2022-12-01T20:56:37Z</time>
   </trkpt>
   <trkpt lat="39.5713450" lon="-104.8589410">
    <ele>1758.7</ele>
    <time>2022-12-01T20:56:38Z</time>
   </trkpt>
   <trkpt lat="39.5713340" lon="-104.8589520">
    <ele>1758.7</ele>
    <time>2022-12-01T20:56:39Z</time>
   </trkpt>
   <trkpt lat="39.5713230" lon="-104.8589650">
    <ele>1758.7</ele>
    <time>2022-12-01T20:56:40Z</time>
   </trkpt>
   <trkpt lat="39.5713100" lon="-104.8589760">
    <ele>1758.7</ele>
    <time>2022-12-01T20:56:41Z</time>
   </trkpt>
   <trkpt lat="39.5713000" lon="-104.8589900">
    <ele>1758.7</ele>
    <time>2022-12-01T20:56:42Z</time>
   </trkpt>
   <trkpt lat="39.5712870" lon="-104.8590020">
    <ele>1758.7</ele>
    <time>2022-12-01T20:56:43Z</time>
   </trkpt>
   <trkpt lat="39.5712710" lon="-104.8590110">
    <ele>1758.7</ele>
    <time>2022-12-01T20:56:44Z</time>
   </trkpt>
   <trkpt lat="39.5712580" lon="-104.8590260">
    <ele>1758.7</ele>
    <time>2022-12-01T20:56:45Z</time>
   </trkpt>
   <trkpt lat="39.5712450" lon="-104.8590400">
    <ele>1758.7</ele>
    <time>2022-12-01T20:56:46Z</time>
   </trkpt>
   <trkpt lat="39.5712340" lon="-104.8590550">
    <ele>1758.7</ele>
    <time>2022-12-01T20:56:47Z</time>
   </trkpt>
   <trkpt lat="39.5712210" lon="-104.8590760">
    <ele>1758.7</ele>
    <time>2022-12-01T20:56:48Z</time>
   </trkpt>
   <trkpt lat="39.5712140" lon="-104.8590850">
    <ele>1758.7</ele>
    <time>2022-12-01T20:56:49Z</time>
   </trkpt>
   <trkpt lat="39.5712060" lon="-104.8590940">
    <ele>1758.7</ele>
    <time>2022-12-01T20:56:50Z</time>
   </trkpt>
   <trkpt lat="39.5711910" lon="-104.8591070">
    <ele>1758.7</ele>
    <time>2022-12-01T20:56:51Z</time>
   </trkpt>
   <trkpt lat="39.5711800" lon="-104.8591170">
    <ele>1758.7</ele>
    <time>2022-12-01T20:56:52Z</time>
   </trkpt>
   <trkpt lat="39.5711690" lon="-104.8591280">
    <ele>1758.7</ele>
    <time>2022-12-01T20:56:53Z</time>
   </trkpt>
   <trkpt lat="39.5711510" lon="-104.8591410">
    <ele>1758.7</ele>
    <time>2022-12-01T20:56:54Z</time>
   </trkpt>
   <trkpt lat="39.5711400" lon="-104.8591520">
    <ele>1758.7</ele>
    <time>2022-12-01T20:56:55Z</time>
   </trkpt>
   <trkpt lat="39.5711260" lon="-104.8591640">
    <ele>1758.7</ele>
    <time>2022-12-01T20:56:56Z</time>
   </trkpt>
   <trkpt lat="39.5711120" lon="-104.8591700">
    <ele>1758.7</ele>
    <time>2022-12-01T20:56:57Z</time>
   </trkpt>
   <trkpt lat="39.5710980" lon="-104.8591820">
    <ele>1758.7</ele>
    <time>2022-12-01T20:56:58Z</time>
   </trkpt>
   <trkpt lat="39.5710840" lon="-104.8591930">
    <ele>1758.7</ele>
    <time>2022-12-01T20:56:59Z</time>
   </trkpt>
   <trkpt lat="39.5710700" lon="-104.8592020">
    <ele>1758.7</ele>
    <time>2022-12-01T20:57:00Z</time>
   </trkpt>
   <trkpt lat="39.5710560" lon="-104.8592140">
    <ele>1758.7</ele>
    <time>2022-12-01T20:57:01Z</time>
   </trkpt>
   <trkpt lat="39.5710420" lon="-104.8592230">
    <ele>1758.8</ele>
    <time>2022-12-01T20:57:02Z</time>
   </trkpt>
   <trkpt lat="39.5710240" lon="-104.8592430">
    <ele>1758.8</ele>
    <time>2022-12-01T20:57:03Z</time>
   </trkpt>
   <trkpt lat="39.5710150" lon="-104.8592490">
    <ele>1758.8</ele>
    <time>2022-12-01T20:57:04Z</time>
   </trkpt>
   <trkpt lat="39.5710070" lon="-104.8592550">
    <ele>1758.8</ele>
    <time>2022-12-01T20:57:05Z</time>
   </trkpt>
   <trkpt lat="39.5709910" lon="-104.8592680">
    <ele>1758.8</ele>
    <time>2022-12-01T20:57:06Z</time>
   </trkpt>
   <trkpt lat="39.5709760" lon="-104.8592790">
    <ele>1758.8</ele>
    <time>2022-12-01T20:57:07Z</time>
   </trkpt>
   <trkpt lat="39.5709610" lon="-104.8592880">
    <ele>1758.9</ele>
    <time>2022-12-01T20:57:08Z</time>
   </trkpt>
   <trkpt lat="39.5709490" lon="-104.8592990">
    <ele>1758.9</ele>
    <time>2022-12-01T20:57:09Z</time>
   </trkpt>
   <trkpt lat="39.5709380" lon="-104.8593090">
    <ele>1758.9</ele>
    <time>2022-12-01T20:57:10Z</time>
   </trkpt>
   <trkpt lat="39.5709220" lon="-104.8593190">
    <ele>1758.9</ele>
    <time>2022-12-01T20:57:11Z</time>
   </trkpt>
   <trkpt lat="39.5709010" lon="-104.8593350">
    <ele>1758.9</ele>
    <time>2022-12-01T20:57:12Z</time>
   </trkpt>
   <trkpt lat="39.5708930" lon="-104.8593420">
    <ele>1759.0</ele>
    <time>2022-12-01T20:57:13Z</time>
   </trkpt>
   <trkpt lat="39.5708840" lon="-104.8593490">
    <ele>1759.0</ele>
    <time>2022-12-01T20:57:14Z</time>
   </trkpt>
   <trkpt lat="39.5708680" lon="-104.8593550">
    <ele>1759.0</ele>
    <time>2022-12-01T20:57:15Z</time>
   </trkpt>
   <trkpt lat="39.5708550" lon="-104.8593630">
    <ele>1759.0</ele>
    <time>2022-12-01T20:57:16Z</time>
   </trkpt>
   <trkpt lat="39.5708410" lon="-104.8593750">
    <ele>1759.0</ele>
    <time>2022-12-01T20:57:17Z</time>
   </trkpt>
   <trkpt lat="39.5708290" lon="-104.8593830">
    <ele>1759.0</ele>
    <time>2022-12-01T20:57:18Z</time>
   </trkpt>
   <trkpt lat="39.5708160" lon="-104.8593920">
    <ele>1759.1</ele>
    <time>2022-12-01T20:57:19Z</time>
   </trkpt>
   <trkpt lat="39.5708040" lon="-104.8593990">
    <ele>1759.1</ele>
    <time>2022-12-01T20:57:20Z</time>
   </trkpt>
   <trkpt lat="39.5707870" lon="-104.8594150">
    <ele>1759.1</ele>
    <time>2022-12-01T20:57:21Z</time>
   </trkpt>
   <trkpt lat="39.5707810" lon="-104.8594220">
    <ele>1759.1</ele>
    <time>2022-12-01T20:57:22Z</time>
   </trkpt>
   <trkpt lat="39.5707750" lon="-104.8594280">
    <ele>1759.1</ele>
    <time>2022-12-01T20:57:23Z</time>
   </trkpt>
   <trkpt lat="39.5707590" lon="-104.8594430">
    <ele>1759.1</ele>
    <time>2022-12-01T20:57:24Z</time>
   </trkpt>
   <trkpt lat="39.5707430" lon="-104.8594480">
    <ele>1759.2</ele>
    <time>2022-12-01T20:57:25Z</time>
   </trkpt>
   <trkpt lat="39.5707290" lon="-104.8594620">
    <ele>1759.2</ele>
    <time>2022-12-01T20:57:26Z</time>
   </trkpt>
   <trkpt lat="39.5707160" lon="-104.8594700">
    <ele>1759.2</ele>
    <time>2022-12-01T20:57:27Z</time>
   </trkpt>
   <trkpt lat="39.5707050" lon="-104.8594780">
    <ele>1759.2</ele>
    <time>2022-12-01T20:57:28Z</time>
   </trkpt>
   <trkpt lat="39.5706920" lon="-104.8594880">
    <ele>1759.3</ele>
    <time>2022-12-01T20:57:29Z</time>
   </trkpt>
   <trkpt lat="39.5706790" lon="-104.8594980">
    <ele>1759.3</ele>
    <time>2022-12-01T20:57:30Z</time>
   </trkpt>
   <trkpt lat="39.5706640" lon="-104.8595060">
    <ele>1759.3</ele>
    <time>2022-12-01T20:57:31Z</time>
   </trkpt>
   <trkpt lat="39.5706430" lon="-104.8595180">
    <ele>1759.3</ele>
    <time>2022-12-01T20:57:32Z</time>
   </trkpt>
   <trkpt lat="39.5706360" lon="-104.8595210">
    <ele>1759.3</ele>
    <time>2022-12-01T20:57:33Z</time>
   </trkpt>
   <trkpt lat="39.5706280" lon="-104.8595240">
    <ele>1759.4</ele>
    <time>2022-12-01T20:57:34Z</time>
   </trkpt>
   <trkpt lat="39.5706170" lon="-104.8595290">
    <ele>1759.4</ele>
    <time>2022-12-01T20:57:35Z</time>
   </trkpt>
   <trkpt lat="39.5706080" lon="-104.8595360">
    <ele>1759.4</ele>
    <time>2022-12-01T20:57:36Z</time>
   </trkpt>
   <trkpt lat="39.5705960" lon="-104.8595440">
    <ele>1759.4</ele>
    <time>2022-12-01T20:57:37Z</time>
   </trkpt>
   <trkpt lat="39.5705830" lon="-104.8595560">
    <ele>1759.4</ele>
    <time>2022-12-01T20:57:38Z</time>
   </trkpt>
   <trkpt lat="39.5705710" lon="-104.8595670">
    <ele>1759.5</ele>
    <time>2022-12-01T20:57:39Z</time>
   </trkpt>
   <trkpt lat="39.5705580" lon="-104.8595780">
    <ele>1759.5</ele>
    <time>2022-12-01T20:57:40Z</time>
   </trkpt>
   <trkpt lat="39.5705440" lon="-104.8595940">
    <ele>1759.5</ele>
    <time>2022-12-01T20:57:41Z</time>
   </trkpt>
   <trkpt lat="39.5705250" lon="-104.8596020">
    <ele>1759.5</ele>
    <time>2022-12-01T20:57:42Z</time>
   </trkpt>
   <trkpt lat="39.5705110" lon="-104.8596140">
    <ele>1759.6</ele>
    <time>2022-12-01T20:57:43Z</time>
   </trkpt>
   <trkpt lat="39.5704960" lon="-104.8596210">
    <ele>1759.6</ele>
    <time>2022-12-01T20:57:44Z</time>
   </trkpt>
   <trkpt lat="39.5704840" lon="-104.8596310">
    <ele>1759.6</ele>
    <time>2022-12-01T20:57:45Z</time>
   </trkpt>
   <trkpt lat="39.5704660" lon="-104.8596470">
    <ele>1759.7</ele>
    <time>2022-12-01T20:57:46Z</time>
   </trkpt>
   <trkpt lat="39.5704590" lon="-104.8596550">
    <ele>1759.7</ele>
    <time>2022-12-01T20:57:47Z</time>
   </trkpt>
   <trkpt lat="39.5704530" lon="-104.8596630">
    <ele>1759.7</ele>
    <time>2022-12-01T20:57:48Z</time>
   </trkpt>
   <trkpt lat="39.5704480" lon="-104.8596830">
    <ele>1759.7</ele>
    <time>2022-12-01T20:57:49Z</time>
   </trkpt>
   <trkpt lat="39.5704420" lon="-104.8597070">
    <ele>1759.8</ele>
    <time>2022-12-01T20:57:50Z</time>
   </trkpt>
   <trkpt lat="39.5704480" lon="-104.8597420">
    <ele>1760.1</ele>
    <time>2022-12-01T20:57:51Z</time>
   </trkpt>
   <trkpt lat="39.5704490" lon="-104.8597530">
    <ele>1760.1</ele>
    <time>2022-12-01T20:57:52Z</time>
   </trkpt>
   <trkpt lat="39.5704490" lon="-104.8597770">
    <ele>1760.1</ele>
    <time>2022-12-01T20:57:53Z</time>
   </trkpt>
   <trkpt lat="39.5704520" lon="-104.8597980">
    <ele>1760.1</ele>
    <time>2022-12-01T20:57:54Z</time>
   </trkpt>
   <trkpt lat="39.5704600" lon="-104.8598170">
    <ele>1760.2</ele>
    <time>2022-12-01T20:57:55Z</time>
   </trkpt>
   <trkpt lat="39.5704680" lon="-104.8598350">
    <ele>1760.2</ele>
    <time>2022-12-01T20:57:56Z</time>
   </trkpt>
   <trkpt lat="39.5704740" lon="-104.8598530">
    <ele>1760.3</ele>
    <time>2022-12-01T20:57:57Z</time>
   </trkpt>
   <trkpt lat="39.5704810" lon="-104.8598680">
    <ele>1760.3</ele>
    <time>2022-12-01T20:57:58Z</time>
   </trkpt>
   <trkpt lat="39.5704910" lon="-104.8598900">
    <ele>1760.4</ele>
    <time>2022-12-01T20:57:59Z</time>
   </trkpt>
   <trkpt lat="39.5704960" lon="-104.8598990">
    <ele>1760.4</ele>
    <time>2022-12-01T20:58:00Z</time>
   </trkpt>
   <trkpt lat="39.5705010" lon="-104.8599080">
    <ele>1760.4</ele>
    <time>2022-12-01T20:58:01Z</time>
   </trkpt>
   <trkpt lat="39.5705140" lon="-104.8599190">
    <ele>1760.5</ele>
    <time>2022-12-01T20:58:02Z</time>
   </trkpt>
   <trkpt lat="39.5705250" lon="-104.8599350">
    <ele>1760.5</ele>
    <time>2022-12-01T20:58:03Z</time>
   </trkpt>
   <trkpt lat="39.5705370" lon="-104.8599520">
    <ele>1760.6</ele>
    <time>2022-12-01T20:58:04Z</time>
   </trkpt>
   <trkpt lat="39.5705470" lon="-104.8599670">
    <ele>1760.6</ele>
    <time>2022-12-01T20:58:05Z</time>
   </trkpt>
   <trkpt lat="39.5705620" lon="-104.8599890">
    <ele>1760.7</ele>
    <time>2022-12-01T20:58:06Z</time>
   </trkpt>
   <trkpt lat="39.5705670" lon="-104.8599980">
    <ele>1760.7</ele>
    <time>2022-12-01T20:58:07Z</time>
   </trkpt>
   <trkpt lat="39.5705730" lon="-104.8600080">
    <ele>1760.8</ele>
    <time>2022-12-01T20:58:08Z</time>
   </trkpt>
   <trkpt lat="39.5705910" lon="-104.8600290">
    <ele>1760.9</ele>
    <time>2022-12-01T20:58:09Z</time>
   </trkpt>
   <trkpt lat="39.5705970" lon="-104.8600360">
    <ele>1760.9</ele>
    <time>2022-12-01T20:58:10Z</time>
   </trkpt>
   <trkpt lat="39.5706030" lon="-104.8600430">
    <ele>1760.9</ele>
    <time>2022-12-01T20:58:11Z</time>
   </trkpt>
   <trkpt lat="39.5706140" lon="-104.8600680">
    <ele>1761.0</ele>
    <time>2022-12-01T20:58:12Z</time>
   </trkpt>
   <trkpt lat="39.5706180" lon="-104.8600790">
    <ele>1761.0</ele>
    <time>2022-12-01T20:58:13Z</time>
   </trkpt>
   <trkpt lat="39.5706230" lon="-104.8600900">
    <ele>1761.1</ele>
    <time>2022-12-01T20:58:14Z</time>
   </trkpt>
   <trkpt lat="39.5706290" lon="-104.8601090">
    <ele>1761.1</ele>
    <time>2022-12-01T20:58:15Z</time>
   </trkpt>
   <trkpt lat="39.5706340" lon="-104.8601250">
    <ele>1761.2</ele>
    <time>2022-12-01T20:58:16Z</time>
   </trkpt>
   <trkpt lat="39.5706510" lon="-104.8601410">
    <ele>1761.2</ele>
    <time>2022-12-01T20:58:17Z</time>
   </trkpt>
   <trkpt lat="39.5706570" lon="-104.8601500">
    <ele>1761.3</ele>
    <time>2022-12-01T20:58:18Z</time>
   </trkpt>
   <trkpt lat="39.5706640" lon="-104.8601590">
    <ele>1761.3</ele>
    <time>2022-12-01T20:58:19Z</time>
   </trkpt>
   <trkpt lat="39.5706720" lon="-104.8601690">
    <ele>1761.4</ele>
    <time>2022-12-01T20:58:20Z</time>
   </trkpt>
   <trkpt lat="39.5706770" lon="-104.8601760">
    <ele>1761.4</ele>
    <time>2022-12-01T20:58:21Z</time>
   </trkpt>
   <trkpt lat="39.5706820" lon="-104.8601930">
    <ele>1761.4</ele>
    <time>2022-12-01T20:58:22Z</time>
   </trkpt>
   <trkpt lat="39.5706880" lon="-104.8602060">
    <ele>1761.5</ele>
    <time>2022-12-01T20:58:23Z</time>
   </trkpt>
   <trkpt lat="39.5706940" lon="-104.8602260">
    <ele>1761.5</ele>
    <time>2022-12-01T20:58:24Z</time>
   </trkpt>
   <trkpt lat="39.5707000" lon="-104.8602440">
    <ele>1761.6</ele>
    <time>2022-12-01T20:58:25Z</time>
   </trkpt>
   <trkpt lat="39.5707090" lon="-104.8602580">
    <ele>1761.6</ele>
    <time>2022-12-01T20:58:26Z</time>
   </trkpt>
   <trkpt lat="39.5707190" lon="-104.8602810">
    <ele>1761.6</ele>
    <time>2022-12-01T20:58:27Z</time>
   </trkpt>
   <trkpt lat="39.5707250" lon="-104.8602910">
    <ele>1761.6</ele>
    <time>2022-12-01T20:58:28Z</time>
   </trkpt>
   <trkpt lat="39.5707310" lon="-104.8603010">
    <ele>1761.5</ele>
    <time>2022-12-01T20:58:29Z</time>
   </trkpt>
   <trkpt lat="39.5707380" lon="-104.8603130">
    <ele>1761.5</ele>
    <time>2022-12-01T20:58:30Z</time>
   </trkpt>
   <trkpt lat="39.5707440" lon="-104.8603330">
    <ele>1761.5</ele>
    <time>2022-12-01T20:58:31Z</time>
   </trkpt>
   <trkpt lat="39.5707510" lon="-104.8603480">
    <ele>1761.5</ele>
    <time>2022-12-01T20:58:32Z</time>
   </trkpt>
   <trkpt lat="39.5707600" lon="-104.8603680">
    <ele>1761.4</ele>
    <time>2022-12-01T20:58:33Z</time>
   </trkpt>
   <trkpt lat="39.5707730" lon="-104.8603840">
    <ele>1761.4</ele>
    <time>2022-12-01T20:58:34Z</time>
   </trkpt>
   <trkpt lat="39.5707820" lon="-104.8604000">
    <ele>1761.3</ele>
    <time>2022-12-01T20:58:35Z</time>
   </trkpt>
   <trkpt lat="39.5707890" lon="-104.8604170">
    <ele>1761.3</ele>
    <time>2022-12-01T20:58:36Z</time>
   </trkpt>
   <trkpt lat="39.5707980" lon="-104.8604320">
    <ele>1761.3</ele>
    <time>2022-12-01T20:58:37Z</time>
   </trkpt>
   <trkpt lat="39.5708020" lon="-104.8604310">
    <ele>1761.3</ele>
    <time>2022-12-01T20:58:38Z</time>
   </trkpt>
   <trkpt lat="39.5707970" lon="-104.8604200">
    <ele>1761.3</ele>
    <time>2022-12-01T20:58:39Z</time>
   </trkpt>
   <trkpt lat="39.5707930" lon="-104.8604100">
    <ele>1761.2</ele>
    <time>2022-12-01T20:58:40Z</time>
   </trkpt>
   <trkpt lat="39.5707880" lon="-104.8603990">
    <ele>1761.2</ele>
    <time>2022-12-01T20:58:41Z</time>
   </trkpt>
   <trkpt lat="39.5707830" lon="-104.8603880">
    <ele>1761.2</ele>
    <time>2022-12-01T20:58:42Z</time>
   </trkpt>
   <trkpt lat="39.5707760" lon="-104.8603750">
    <ele>1761.2</ele>
    <time>2022-12-01T20:58:43Z</time>
   </trkpt>
   <trkpt lat="39.5707650" lon="-104.8603590">
    <ele>1761.1</ele>
    <time>2022-12-01T20:58:44Z</time>
   </trkpt>
   <trkpt lat="39.5707610" lon="-104.8603400">
    <ele>1761.1</ele>
    <time>2022-12-01T20:58:45Z</time>
   </trkpt>
   <trkpt lat="39.5707520" lon="-104.8603280">
    <ele>1761.1</ele>
    <time>2022-12-01T20:58:46Z</time>
   </trkpt>
   <trkpt lat="39.5707440" lon="-104.8603160">
    <ele>1761.0</ele>
    <time>2022-12-01T20:58:47Z</time>
   </trkpt>
   <trkpt lat="39.5707340" lon="-104.8602980">
    <ele>1761.0</ele>
    <time>2022-12-01T20:58:48Z</time>
   </trkpt>
   <trkpt lat="39.5707260" lon="-104.8602720">
    <ele>1761.0</ele>
    <time>2022-12-01T20:58:49Z</time>
   </trkpt>
   <trkpt lat="39.5707200" lon="-104.8602610">
    <ele>1760.9</ele>
    <time>2022-12-01T20:58:50Z</time>
   </trkpt>
   <trkpt lat="39.5707150" lon="-104.8602500">
    <ele>1760.9</ele>
    <time>2022-12-01T20:58:51Z</time>
   </trkpt>
   <trkpt lat="39.5707030" lon="-104.8602200">
    <ele>1760.9</ele>
    <time>2022-12-01T20:58:52Z</time>
   </trkpt>
   <trkpt lat="39.5706980" lon="-104.8602090">
    <ele>1760.8</ele>
    <time>2022-12-01T20:58:53Z</time>
   </trkpt>
   <trkpt lat="39.5706940" lon="-104.8601970">
    <ele>1760.8</ele>
    <time>2022-12-01T20:58:54Z</time>
   </trkpt>
   <trkpt lat="39.5706880" lon="-104.8601820">
    <ele>1760.8</ele>
    <time>2022-12-01T20:58:55Z</time>
   </trkpt>
   <trkpt lat="39.5706780" lon="-104.8601680">
    <ele>1760.8</ele>
    <time>2022-12-01T20:58:56Z</time>
   </trkpt>
   <trkpt lat="39.5706710" lon="-104.8601570">
    <ele>1760.7</ele>
    <time>2022-12-01T20:58:57Z</time>
   </trkpt>
   <trkpt lat="39.5706580" lon="-104.8601350">
    <ele>1760.7</ele>
    <time>2022-12-01T20:58:58Z</time>
   </trkpt>
   <trkpt lat="39.5706460" lon="-104.8601200">
    <ele>1760.7</ele>
    <time>2022-12-01T20:58:59Z</time>
   </trkpt>
   <trkpt lat="39.5706430" lon="-104.8601080">
    <ele>1760.6</ele>
    <time>2022-12-01T20:59:00Z</time>
   </trkpt>
   <trkpt lat="39.5706400" lon="-104.8600950">
    <ele>1760.6</ele>
    <time>2022-12-01T20:59:01Z</time>
   </trkpt>
   <trkpt lat="39.5706320" lon="-104.8600760">
    <ele>1760.6</ele>
    <time>2022-12-01T20:59:02Z</time>
   </trkpt>
   <trkpt lat="39.5706230" lon="-104.8600600">
    <ele>1760.6</ele>
    <time>2022-12-01T20:59:03Z</time>
   </trkpt>
   <trkpt lat="39.5706140" lon="-104.8600410">
    <ele>1760.5</ele>
    <time>2022-12-01T20:59:04Z</time>
   </trkpt>
   <trkpt lat="39.5706040" lon="-104.8600270">
    <ele>1760.5</ele>
    <time>2022-12-01T20:59:05Z</time>
   </trkpt>
   <trkpt lat="39.5705930" lon="-104.8600110">
    <ele>1760.5</ele>
    <time>2022-12-01T20:59:06Z</time>
   </trkpt>
   <trkpt lat="39.5705860" lon="-104.8599970">
    <ele>1760.4</ele>
    <time>2022-12-01T20:59:07Z</time>
   </trkpt>
   <trkpt lat="39.5705790" lon="-104.8599790">
    <ele>1760.4</ele>
    <time>2022-12-01T20:59:08Z</time>
   </trkpt>
   <trkpt lat="39.5705660" lon="-104.8599610">
    <ele>1760.4</ele>
    <time>2022-12-01T20:59:09Z</time>
   </trkpt>
   <trkpt lat="39.5705570" lon="-104.8599510">
    <ele>1760.3</ele>
    <time>2022-12-01T20:59:10Z</time>
   </trkpt>
   <trkpt lat="39.5705460" lon="-104.8599360">
    <ele>1760.3</ele>
    <time>2022-12-01T20:59:11Z</time>
   </trkpt>
   <trkpt lat="39.5705360" lon="-104.8599300">
    <ele>1760.3</ele>
    <time>2022-12-01T20:59:12Z</time>
   </trkpt>
   <trkpt lat="39.5705290" lon="-104.8599200">
    <ele>1760.3</ele>
    <time>2022-12-01T20:59:13Z</time>
   </trkpt>
   <trkpt lat="39.5705210" lon="-104.8599130">
    <ele>1760.3</ele>
    <time>2022-12-01T20:59:14Z</time>
   </trkpt>
   <trkpt lat="39.5705040" lon="-104.8598960">
    <ele>1760.2</ele>
    <time>2022-12-01T20:59:15Z</time>
   </trkpt>
   <trkpt lat="39.5704970" lon="-104.8598890">
    <ele>1760.2</ele>
    <time>2022-12-01T20:59:16Z</time>
   </trkpt>
   <trkpt lat="39.5704910" lon="-104.8598820">
    <ele>1760.2</ele>
    <time>2022-12-01T20:59:17Z</time>
   </trkpt>
   <trkpt lat="39.5704790" lon="-104.8598650">
    <ele>1760.2</ele>
    <time>2022-12-01T20:59:18Z</time>
   </trkpt>
   <trkpt lat="39.5704710" lon="-104.8598480">
    <ele>1760.1</ele>
    <time>2022-12-01T20:59:19Z</time>
   </trkpt>
   <trkpt lat="39.5704620" lon="-104.8598180">
    <ele>1760.1</ele>
    <time>2022-12-01T20:59:20Z</time>
   </trkpt>
   <trkpt lat="39.5704580" lon="-104.8598040">
    <ele>1760.1</ele>
    <time>2022-12-01T20:59:21Z</time>
   </trkpt>
   <trkpt lat="39.5704540" lon="-104.8597910">
    <ele>1760.1</ele>
    <time>2022-12-01T20:59:22Z</time>
   </trkpt>
   <trkpt lat="39.5704530" lon="-104.8597750">
    <ele>1760.1</ele>
    <time>2022-12-01T20:59:23Z</time>
   </trkpt>
   <trkpt lat="39.5704460" lon="-104.8597510">
    <ele>1760.1</ele>
    <time>2022-12-01T20:59:24Z</time>
   </trkpt>
   <trkpt lat="39.5704410" lon="-104.8597340">
    <ele>1760.0</ele>
    <time>2022-12-01T20:59:25Z</time>
   </trkpt>
   <trkpt lat="39.5704450" lon="-104.8597150">
    <ele>1760.0</ele>
    <time>2022-12-01T20:59:26Z</time>
   </trkpt>
   <trkpt lat="39.5704420" lon="-104.8596980">
    <ele>1759.7</ele>
    <time>2022-12-01T20:59:27Z</time>
   </trkpt>
   <trkpt lat="39.5704450" lon="-104.8596760">
    <ele>1759.7</ele>
    <time>2022-12-01T20:59:28Z</time>
   </trkpt>
   <trkpt lat="39.5704720" lon="-104.8596550">
    <ele>1759.7</ele>
    <time>2022-12-01T20:59:29Z</time>
   </trkpt>
   <trkpt lat="39.5704810" lon="-104.8596470">
    <ele>1759.6</ele>
    <time>2022-12-01T20:59:30Z</time>
   </trkpt>
   <trkpt lat="39.5704890" lon="-104.8596370">
    <ele>1759.6</ele>
    <time>2022-12-01T20:59:31Z</time>
   </trkpt>
   <trkpt lat="39.5705030" lon="-104.8596250">
    <ele>1759.6</ele>
    <time>2022-12-01T20:59:32Z</time>
   </trkpt>
   <trkpt lat="39.5705240" lon="-104.8596130">
    <ele>1759.5</ele>
    <time>2022-12-01T20:59:33Z</time>
   </trkpt>
   <trkpt lat="39.5705320" lon="-104.8596090">
    <ele>1759.5</ele>
    <time>2022-12-01T20:59:34Z</time>
   </trkpt>
   <trkpt lat="39.5705400" lon="-104.8596040">
    <ele>1759.5</ele>
    <time>2022-12-01T20:59:35Z</time>
   </trkpt>
   <trkpt lat="39.5705520" lon="-104.8595950">
    <ele>1759.5</ele>
    <time>2022-12-01T20:59:36Z</time>
   </trkpt>
   <trkpt lat="39.5705640" lon="-104.8595830">
    <ele>1759.5</ele>
    <time>2022-12-01T20:59:37Z</time>
   </trkpt>
   <trkpt lat="39.5705750" lon="-104.8595660">
    <ele>1759.4</ele>
    <time>2022-12-01T20:59:38Z</time>
   </trkpt>
   <trkpt lat="39.5705880" lon="-104.8595520">
    <ele>1759.4</ele>
    <time>2022-12-01T20:59:39Z</time>
   </trkpt>
   <trkpt lat="39.5706030" lon="-104.8595420">
    <ele>1759.4</ele>
    <time>2022-12-01T20:59:40Z</time>
   </trkpt>
   <trkpt lat="39.5706200" lon="-104.8595320">
    <ele>1759.4</ele>
    <time>2022-12-01T20:59:41Z</time>
   </trkpt>
   <trkpt lat="39.5706340" lon="-104.8595220">
    <ele>1759.3</ele>
    <time>2022-12-01T20:59:42Z</time>
   </trkpt>
   <trkpt lat="39.5706460" lon="-104.8595130">
    <ele>1759.3</ele>
    <time>2022-12-01T20:59:43Z</time>
   </trkpt>
   <trkpt lat="39.5706610" lon="-104.8595020">
    <ele>1759.3</ele>
    <time>2022-12-01T20:59:44Z</time>
   </trkpt>
   <trkpt lat="39.5706770" lon="-104.8594950">
    <ele>1759.3</ele>
    <time>2022-12-01T20:59:45Z</time>
   </trkpt>
   <trkpt lat="39.5706950" lon="-104.8594920">
    <ele>1759.2</ele>
    <time>2022-12-01T20:59:46Z</time>
   </trkpt>
   <trkpt lat="39.5707080" lon="-104.8594800">
    <ele>1759.2</ele>
    <time>2022-12-01T20:59:47Z</time>
   </trkpt>
   <trkpt lat="39.5707210" lon="-104.8594680">
    <ele>1759.2</ele>
    <time>2022-12-01T20:59:48Z</time>
   </trkpt>
   <trkpt lat="39.5707390" lon="-104.8594590">
    <ele>1759.2</ele>
    <time>2022-12-01T20:59:49Z</time>
   </trkpt>
   <trkpt lat="39.5707550" lon="-104.8594520">
    <ele>1759.1</ele>
    <time>2022-12-01T20:59:50Z</time>
   </trkpt>
   <trkpt lat="39.5707700" lon="-104.8594420">
    <ele>1759.1</ele>
    <time>2022-12-01T20:59:51Z</time>
   </trkpt>
   <trkpt lat="39.5707830" lon="-104.8594300">
    <ele>1759.1</ele>
    <time>2022-12-01T20:59:52Z</time>
   </trkpt>
   <trkpt lat="39.5707960" lon="-104.8594180">
    <ele>1759.1</ele>
    <time>2022-12-01T20:59:53Z</time>
   </trkpt>
   <trkpt lat="39.5708090" lon="-104.8594020">
    <ele>1759.1</ele>
    <time>2022-12-01T20:59:54Z</time>
   </trkpt>
   <trkpt lat="39.5708200" lon="-104.8593900">
    <ele>1759.0</ele>
    <time>2022-12-01T20:59:55Z</time>
   </trkpt>
   <trkpt lat="39.5708340" lon="-104.8593810">
    <ele>1759.0</ele>
    <time>2022-12-01T20:59:56Z</time>
   </trkpt>
   <trkpt lat="39.5708470" lon="-104.8593700">
    <ele>1759.0</ele>
    <time>2022-12-01T20:59:57Z</time>
   </trkpt>
   <trkpt lat="39.5708600" lon="-104.8593590">
    <ele>1759.0</ele>
    <time>2022-12-01T20:59:58Z</time>
   </trkpt>
   <trkpt lat="39.5708750" lon="-104.8593490">
    <ele>1759.0</ele>
    <time>2022-12-01T20:59:59Z</time>
   </trkpt>
   <trkpt lat="39.5708890" lon="-104.8593380">
    <ele>1758.9</ele>
    <time>2022-12-01T21:00:00Z</time>
   </trkpt>
   <trkpt lat="39.5709040" lon="-104.8593300">
    <ele>1758.9</ele>
    <time>2022-12-01T21:00:01Z</time>
   </trkpt>
   <trkpt lat="39.5709170" lon="-104.8593150">
    <ele>1758.9</ele>
    <time>2022-12-01T21:00:02Z</time>
   </trkpt>
   <trkpt lat="39.5709310" lon="-104.8593060">
    <ele>1758.9</ele>
    <time>2022-12-01T21:00:03Z</time>
   </trkpt>
   <trkpt lat="39.5709440" lon="-104.8592950">
    <ele>1758.9</ele>
    <time>2022-12-01T21:00:04Z</time>
   </trkpt>
   <trkpt lat="39.5709580" lon="-104.8592920">
    <ele>1758.8</ele>
    <time>2022-12-01T21:00:05Z</time>
   </trkpt>
   <trkpt lat="39.5709710" lon="-104.8592820">
    <ele>1758.8</ele>
    <time>2022-12-01T21:00:06Z</time>
   </trkpt>
   <trkpt lat="39.5709830" lon="-104.8592690">
    <ele>1758.8</ele>
    <time>2022-12-01T21:00:07Z</time>
   </trkpt>
   <trkpt lat="39.5709950" lon="-104.8592560">
    <ele>1758.8</ele>
    <time>2022-12-01T21:00:08Z</time>
   </trkpt>
   <trkpt lat="39.5710100" lon="-104.8592450">
    <ele>1758.8</ele>
    <time>2022-12-01T21:00:09Z</time>
   </trkpt>
   <trkpt lat="39.5710230" lon="-104.8592350">
    <ele>1758.8</ele>
    <time>2022-12-01T21:00:10Z</time>
   </trkpt>
   <trkpt lat="39.5710390" lon="-104.8592290">
    <ele>1758.7</ele>
    <time>2022-12-01T21:00:11Z</time>
   </trkpt>
   <trkpt lat="39.5710510" lon="-104.8592160">
    <ele>1758.7</ele>
    <time>2022-12-01T21:00:12Z</time>
   </trkpt>
   <trkpt lat="39.5710650" lon="-104.8592070">
    <ele>1758.7</ele>
    <time>2022-12-01T21:00:13Z</time>
   </trkpt>
   <trkpt lat="39.5710800" lon="-104.8591980">
    <ele>1758.7</ele>
    <time>2022-12-01T21:00:14Z</time>
   </trkpt>
   <trkpt lat="39.5710920" lon="-104.8591890">
    <ele>1758.7</ele>
    <time>2022-12-01T21:00:15Z</time>
   </trkpt>
   <trkpt lat="39.5711050" lon="-104.8591800">
    <ele>1758.7</ele>
    <time>2022-12-01T21:00:16Z</time>
   </trkpt>
   <trkpt lat="39.5711210" lon="-104.8591680">
    <ele>1758.7</ele>
    <time>2022-12-01T21:00:17Z</time>
   </trkpt>
   <trkpt lat="39.5711310" lon="-104.8591570">
    <ele>1758.7</ele>
    <time>2022-12-01T21:00:18Z</time>
   </trkpt>
   <trkpt lat="39.5711460" lon="-104.8591440">
    <ele>1758.7</ele>
    <time>2022-12-01T21:00:19Z</time>
   </trkpt>
   <trkpt lat="39.5711560" lon="-104.8591310">
    <ele>1758.7</ele>
    <time>2022-12-01T21:00:20Z</time>
   </trkpt>
   <trkpt lat="39.5711710" lon="-104.8591250">
    <ele>1758.7</ele>
    <time>2022-12-01T21:00:21Z</time>
   </trkpt>
   <trkpt lat="39.5711830" lon="-104.8591130">
    <ele>1758.7</ele>
    <time>2022-12-01T21:00:22Z</time>
   </trkpt>
   <trkpt lat="39.5711970" lon="-104.8591030">
    <ele>1758.7</ele>
    <time>2022-12-01T21:00:23Z</time>
   </trkpt>
   <trkpt lat="39.5712080" lon="-104.8590890">
    <ele>1758.7</ele>
    <time>2022-12-01T21:00:24Z</time>
   </trkpt>
   <trkpt lat="39.5712190" lon="-104.8590760">
    <ele>1758.7</ele>
    <time>2022-12-01T21:00:25Z</time>
   </trkpt>
   <trkpt lat="39.5712320" lon="-104.8590650">
    <ele>1758.7</ele>
    <time>2022-12-01T21:00:26Z</time>
   </trkpt>
   <trkpt lat="39.5712470" lon="-104.8590580">
    <ele>1758.7</ele>
    <time>2022-12-01T21:00:27Z</time>
   </trkpt>
   <trkpt lat="39.5712590" lon="-104.8590490">
    <ele>1758.7</ele>
    <time>2022-12-01T21:00:28Z</time>
   </trkpt>
   <trkpt lat="39.5712670" lon="-104.8590330">
    <ele>1758.7</ele>
    <time>2022-12-01T21:00:29Z</time>
   </trkpt>
   <trkpt lat="39.5712770" lon="-104.8590220">
    <ele>1758.7</ele>
    <time>2022-12-01T21:00:30Z</time>
   </trkpt>
   <trkpt lat="39.5712890" lon="-104.8590110">
    <ele>1758.7</ele>
    <time>2022-12-01T21:00:31Z</time>
   </trkpt>
   <trkpt lat="39.5713000" lon="-104.8589950">
    <ele>1758.7</ele>
    <time>2022-12-01T21:00:32Z</time>
   </trkpt>
   <trkpt lat="39.5713090" lon="-104.8589820">
    <ele>1758.7</ele>
    <time>2022-12-01T21:00:33Z</time>
   </trkpt>
   <trkpt lat="39.5713200" lon="-104.8589690">
    <ele>1758.7</ele>
    <time>2022-12-01T21:00:34Z</time>
   </trkpt>
   <trkpt lat="39.5713300" lon="-104.8589550">
    <ele>1758.7</ele>
    <time>2022-12-01T21:00:35Z</time>
   </trkpt>
   <trkpt lat="39.5713400" lon="-104.8589390">
    <ele>1758.7</ele>
    <time>2022-12-01T21:00:36Z</time>
   </trkpt>
   <trkpt lat="39.5713530" lon="-104.8589260">
    <ele>1758.7</ele>
    <time>2022-12-01T21:00:37Z</time>
   </trkpt>
   <trkpt lat="39.5713630" lon="-104.8589090">
    <ele>1758.7</ele>
    <time>2022-12-01T21:00:38Z</time>
   </trkpt>
   <trkpt lat="39.5713710" lon="-104.8588940">
    <ele>1758.7</ele>
    <time>2022-12-01T21:00:39Z</time>
   </trkpt>
   <trkpt lat="39.5713830" lon="-104.8588810">
    <ele>1758.7</ele>
    <time>2022-12-01T21:00:40Z</time>
   </trkpt>
   <trkpt lat="39.5713930" lon="-104.8588660">
    <ele>1758.7</ele>
    <time>2022-12-01T21:00:41Z</time>
   </trkpt>
   <trkpt lat="39.5714030" lon="-104.8588510">
    <ele>1758.7</ele>
    <time>2022-12-01T21:00:42Z</time>
   </trkpt>
   <trkpt lat="39.5714130" lon="-104.8588380">
    <ele>1758.7</ele>
    <time>2022-12-01T21:00:43Z</time>
   </trkpt>
   <trkpt lat="39.5714230" lon="-104.8588160">
    <ele>1758.7</ele>
    <time>2022-12-01T21:00:44Z</time>
   </trkpt>
   <trkpt lat="39.5714280" lon="-104.8588020">
    <ele>1758.7</ele>
    <time>2022-12-01T21:00:45Z</time>
   </trkpt>
   <trkpt lat="39.5714340" lon="-104.8587880">
    <ele>1758.7</ele>
    <time>2022-12-01T21:00:46Z</time>
   </trkpt>
   <trkpt lat="39.5714450" lon="-104.8587690">
    <ele>1758.7</ele>
    <time>2022-12-01T21:00:47Z</time>
   </trkpt>
   <trkpt lat="39.5714540" lon="-104.8587530">
    <ele>1758.7</ele>
    <time>2022-12-01T21:00:48Z</time>
   </trkpt>
   <trkpt lat="39.5714640" lon="-104.8587370">
    <ele>1758.7</ele>
    <time>2022-12-01T21:00:49Z</time>
   </trkpt>
   <trkpt lat="39.5714730" lon="-104.8587220">
    <ele>1758.7</ele>
    <time>2022-12-01T21:00:50Z</time>
   </trkpt>
   <trkpt lat="39.5714830" lon="-104.8587060">
    <ele>1758.8</ele>
    <time>2022-12-01T21:00:51Z</time>
   </trkpt>
   <trkpt lat="39.5714890" lon="-104.8586880">
    <ele>1758.8</ele>
    <time>2022-12-01T21:00:52Z</time>
   </trkpt>
   <trkpt lat="39.5714950" lon="-104.8586670">
    <ele>1758.8</ele>
    <time>2022-12-01T21:00:53Z</time>
   </trkpt>
   <trkpt lat="39.5714990" lon="-104.8586470">
    <ele>1758.8</ele>
    <time>2022-12-01T21:00:54Z</time>
   </trkpt>
   <trkpt lat="39.5715070" lon="-104.8586330">
    <ele>1758.8</ele>
    <time>2022-12-01T21:00:55Z</time>
   </trkpt>
   <trkpt lat="39.5715160" lon="-104.8586140">
    <ele>1758.8</ele>
    <time>2022-12-01T21:00:56Z</time>
   </trkpt>
   <trkpt lat="39.5715240" lon="-104.8585990">
    <ele>1758.8</ele>
    <time>2022-12-01T21:00:57Z</time>
   </trkpt>
   <trkpt lat="39.5715330" lon="-104.8585840">
    <ele>1758.8</ele>
    <time>2022-12-01T21:00:58Z</time>
   </trkpt>
   <trkpt lat="39.5715430" lon="-104.8585700">
    <ele>1758.8</ele>
    <time>2022-12-01T21:00:59Z</time>
   </trkpt>
   <trkpt lat="39.5715490" lon="-104.8585490">
    <ele>1758.8</ele>
    <time>2022-12-01T21:01:00Z</time>
   </trkpt>
   <trkpt lat="39.5715560" lon="-104.8585290">
    <ele>1758.7</ele>
    <time>2022-12-01T21:01:01Z</time>
   </trkpt>
   <trkpt lat="39.5715630" lon="-104.8585130">
    <ele>1758.3</ele>
    <time>2022-12-01T21:01:02Z</time>
   </trkpt>
   <trkpt lat="39.5715690" lon="-104.8584930">
    <ele>1758.2</ele>
    <time>2022-12-01T21:01:03Z</time>
   </trkpt>
   <trkpt lat="39.5715750" lon="-104.8584740">
    <ele>1758.0</ele>
    <time>2022-12-01T21:01:04Z</time>
   </trkpt>
   <trkpt lat="39.5715820" lon="-104.8584540">
    <ele>1757.8</ele>
    <time>2022-12-01T21:01:05Z</time>
   </trkpt>
   <trkpt lat="39.5715870" lon="-104.8584370">
    <ele>1757.7</ele>
    <time>2022-12-01T21:01:06Z</time>
   </trkpt>
   <trkpt lat="39.5715920" lon="-104.8584120">
    <ele>1757.2</ele>
    <time>2022-12-01T21:01:07Z</time>
   </trkpt>
   <trkpt lat="39.5716080" lon="-104.8584010">
    <ele>1757.0</ele>
    <time>2022-12-01T21:01:08Z</time>
   </trkpt>
   <trkpt lat="39.5716220" lon="-104.8583900">
    <ele>1756.9</ele>
    <time>2022-12-01T21:01:09Z</time>
   </trkpt>
   <trkpt lat="39.5716330" lon="-104.8583750">
    <ele>1756.3</ele>
    <time>2022-12-01T21:01:10Z</time>
   </trkpt>
   <trkpt lat="39.5716450" lon="-104.8583620">
    <ele>1756.1</ele>
    <time>2022-12-01T21:01:11Z</time>
   </trkpt>
   <trkpt lat="39.5716590" lon="-104.8583520">
    <ele>1755.9</ele>
    <time>2022-12-01T21:01:12Z</time>
   </trkpt>
   <trkpt lat="39.5716680" lon="-104.8583340">
    <ele>1755.9</ele>
    <time>2022-12-01T21:01:13Z</time>
   </trkpt>
   <trkpt lat="39.5716800" lon="-104.8583190">
    <ele>1755.9</ele>
    <time>2022-12-01T21:01:14Z</time>
   </trkpt>
   <trkpt lat="39.5716880" lon="-104.8583010">
    <ele>1755.9</ele>
    <time>2022-12-01T21:01:15Z</time>
   </trkpt>
   <trkpt lat="39.5716950" lon="-104.8582820">
    <ele>1755.9</ele>
    <time>2022-12-01T21:01:16Z</time>
   </trkpt>
   <trkpt lat="39.5716940" lon="-104.8582650">
    <ele>1755.9</ele>
    <time>2022-12-01T21:01:17Z</time>
   </trkpt>
   <trkpt lat="39.5716950" lon="-104.8582440">
    <ele>1755.9</ele>
    <time>2022-12-01T21:01:18Z</time>
   </trkpt>
   <trkpt lat="39.5716940" lon="-104.8582250">
    <ele>1755.9</ele>
    <time>2022-12-01T21:01:19Z</time>
   </trkpt>
   <trkpt lat="39.5716970" lon="-104.8582090">
    <ele>1755.8</ele>
    <time>2022-12-01T21:01:20Z</time>
   </trkpt>
   <trkpt lat="39.5716990" lon="-104.8581900">
    <ele>1755.8</ele>
    <time>2022-12-01T21:01:21Z</time>
   </trkpt>
   <trkpt lat="39.5716980" lon="-104.8581730">
    <ele>1755.8</ele>
    <time>2022-12-01T21:01:22Z</time>
   </trkpt>
   <trkpt lat="39.5716990" lon="-104.8581640">
    <ele>1755.8</ele>
    <time>2022-12-01T21:01:23Z</time>
   </trkpt>
   <trkpt lat="39.5717040" lon="-104.8581380">
    <ele>1755.7</ele>
    <time>2022-12-01T21:01:24Z</time>
   </trkpt>
   <trkpt lat="39.5717090" lon="-104.8581220">
    <ele>1755.6</ele>
    <time>2022-12-01T21:01:25Z</time>
   </trkpt>
   <trkpt lat="39.5717160" lon="-104.8581000">
    <ele>1755.6</ele>
    <time>2022-12-01T21:01:26Z</time>
   </trkpt>
   <trkpt lat="39.5717210" lon="-104.8580790">
    <ele>1755.5</ele>
    <time>2022-12-01T21:01:27Z</time>
   </trkpt>
   <trkpt lat="39.5717160" lon="-104.8580600">
    <ele>1755.4</ele>
    <time>2022-12-01T21:01:28Z</time>
   </trkpt>
   <trkpt lat="39.5717160" lon="-104.8580400">
    <ele>1755.4</ele>
    <time>2022-12-01T21:01:29Z</time>
   </trkpt>
   <trkpt lat="39.5717210" lon="-104.8580220">
    <ele>1755.3</ele>
    <time>2022-12-01T21:01:30Z</time>
   </trkpt>
   <trkpt lat="39.5717250" lon="-104.8580040">
    <ele>1755.2</ele>
    <time>2022-12-01T21:01:31Z</time>
   </trkpt>
   <trkpt lat="39.5717270" lon="-104.8579870">
    <ele>1755.2</ele>
    <time>2022-12-01T21:01:32Z</time>
   </trkpt>
   <trkpt lat="39.5717270" lon="-104.8579660">
    <ele>1755.1</ele>
    <time>2022-12-01T21:01:33Z</time>
   </trkpt>
   <trkpt lat="39.5717310" lon="-104.8579490">
    <ele>1755.1</ele>
    <time>2022-12-01T21:01:34Z</time>
   </trkpt>
   <trkpt lat="39.5717310" lon="-104.8579310">
    <ele>1755.0</ele>
    <time>2022-12-01T21:01:35Z</time>
   </trkpt>
   <trkpt lat="39.5717350" lon="-104.8579140">
    <ele>1755.0</ele>
    <time>2022-12-01T21:01:36Z</time>
   </trkpt>
   <trkpt lat="39.5717400" lon="-104.8578920">
    <ele>1754.9</ele>
    <time>2022-12-01T21:01:37Z</time>
   </trkpt>
   <trkpt lat="39.5717440" lon="-104.8578730">
    <ele>1754.9</ele>
    <time>2022-12-01T21:01:38Z</time>
   </trkpt>
   <trkpt lat="39.5717510" lon="-104.8578560">
    <ele>1754.8</ele>
    <time>2022-12-01T21:01:39Z</time>
   </trkpt>
   <trkpt lat="39.5717600" lon="-104.8578390">
    <ele>1754.8</ele>
    <time>2022-12-01T21:01:40Z</time>
   </trkpt>
   <trkpt lat="39.5717710" lon="-104.8578240">
    <ele>1754.7</ele>
    <time>2022-12-01T21:01:41Z</time>
   </trkpt>
   <trkpt lat="39.5717820" lon="-104.8578110">
    <ele>1754.7</ele>
    <time>2022-12-01T21:01:42Z</time>
   </trkpt>
   <trkpt lat="39.5717900" lon="-104.8577950">
    <ele>1754.7</ele>
    <time>2022-12-01T21:01:43Z</time>
   </trkpt>
   <trkpt lat="39.5717990" lon="-104.8577790">
    <ele>1754.7</ele>
    <time>2022-12-01T21:01:44Z</time>
   </trkpt>
   <trkpt lat="39.5718090" lon="-104.8577640">
    <ele>1754.6</ele>
    <time>2022-12-01T21:01:45Z</time>
   </trkpt>
   <trkpt lat="39.5718210" lon="-104.8577530">
    <ele>1754.6</ele>
    <time>2022-12-01T21:01:46Z</time>
   </trkpt>
   <trkpt lat="39.5718320" lon="-104.8577430">
    <ele>1754.6</ele>
    <time>2022-12-01T21:01:47Z</time>
   </trkpt>
   <trkpt lat="39.5718480" lon="-104.8577290">
    <ele>1754.6</ele>
    <time>2022-12-01T21:01:48Z</time>
   </trkpt>
   <trkpt lat="39.5718650" lon="-104.8577180">
    <ele>1754.6</ele>
    <time>2022-12-01T21:01:49Z</time>
   </trkpt>
   <trkpt lat="39.5718750" lon="-104.8577110">
    <ele>1754.6</ele>
    <time>2022-12-01T21:01:50Z</time>
   </trkpt>
   <trkpt lat="39.5718850" lon="-104.8577040">
    <ele>1754.6</ele>
    <time>2022-12-01T21:01:51Z</time>
   </trkpt>
   <trkpt lat="39.5719100" lon="-104.8576880">
    <ele>1754.5</ele>
    <time>2022-12-01T21:01:52Z</time>
   </trkpt>
   <trkpt lat="39.5719200" lon="-104.8576850">
    <ele>1754.5</ele>
    <time>2022-12-01T21:01:53Z</time>
   </trkpt>
   <trkpt lat="39.5719350" lon="-104.8576800">
    <ele>1754.5</ele>
    <time>2022-12-01T21:01:54Z</time>
   </trkpt>
   <trkpt lat="39.5719480" lon="-104.8576780">
    <ele>1754.5</ele>
    <time>2022-12-01T21:01:55Z</time>
   </trkpt>
   <trkpt lat="39.5719720" lon="-104.8576740">
    <ele>1754.5</ele>
    <time>2022-12-01T21:01:56Z</time>
   </trkpt>
   <trkpt lat="39.5719800" lon="-104.8576720">
    <ele>1754.5</ele>
    <time>2022-12-01T21:01:57Z</time>
   </trkpt>
   <trkpt lat="39.5719880" lon="-104.8576700">
    <ele>1754.5</ele>
    <time>2022-12-01T21:01:58Z</time>
   </trkpt>
   <trkpt lat="39.5720020" lon="-104.8576690">
    <ele>1754.6</ele>
    <time>2022-12-01T21:01:59Z</time>
   </trkpt>
   <trkpt lat="39.5720160" lon="-104.8576670">
    <ele>1754.6</ele>
    <time>2022-12-01T21:02:00Z</time>
   </trkpt>
   <trkpt lat="39.5720340" lon="-104.8576640">
    <ele>1754.6</ele>
    <time>2022-12-01T21:02:01Z</time>
   </trkpt>
   <trkpt lat="39.5720470" lon="-104.8576680">
    <ele>1754.6</ele>
    <time>2022-12-01T21:02:02Z</time>
   </trkpt>
   <trkpt lat="39.5720690" lon="-104.8576740">
    <ele>1754.5</ele>
    <time>2022-12-01T21:02:03Z</time>
   </trkpt>
   <trkpt lat="39.5720770" lon="-104.8576760">
    <ele>1754.5</ele>
    <time>2022-12-01T21:02:04Z</time>
   </trkpt>
   <trkpt lat="39.5720850" lon="-104.8576780">
    <ele>1754.5</ele>
    <time>2022-12-01T21:02:05Z</time>
   </trkpt>
   <trkpt lat="39.5720990" lon="-104.8576830">
    <ele>1754.5</ele>
    <time>2022-12-01T21:02:06Z</time>
   </trkpt>
   <trkpt lat="39.5721140" lon="-104.8576820">
    <ele>1754.5</ele>
    <time>2022-12-01T21:02:07Z</time>
   </trkpt>
   <trkpt lat="39.5721270" lon="-104.8576840">
    <ele>1754.4</ele>
    <time>2022-12-01T21:02:08Z</time>
   </trkpt>
   <trkpt lat="39.5721410" lon="-104.8576900">
    <ele>1754.4</ele>
    <time>2022-12-01T21:02:09Z</time>
   </trkpt>
   <trkpt lat="39.5721550" lon="-104.8576900">
    <ele>1754.4</ele>
    <time>2022-12-01T21:02:10Z</time>
   </trkpt>
   <trkpt lat="39.5721680" lon="-104.8576930">
    <ele>1754.4</ele>
    <time>2022-12-01T21:02:11Z</time>
   </trkpt>
   <trkpt lat="39.5721800" lon="-104.8577000">
    <ele>1754.4</ele>
    <time>2022-12-01T21:02:12Z</time>
   </trkpt>
   <trkpt lat="39.5721980" lon="-104.8577030">
    <ele>1754.4</ele>
    <time>2022-12-01T21:02:13Z</time>
   </trkpt>
   <trkpt lat="39.5722150" lon="-104.8577050">
    <ele>1754.4</ele>
    <time>2022-12-01T21:02:14Z</time>
   </trkpt>
   <trkpt lat="39.5722290" lon="-104.8577090">
    <ele>1754.4</ele>
    <time>2022-12-01T21:02:15Z</time>
   </trkpt>
   <trkpt lat="39.5722430" lon="-104.8577130">
    <ele>1754.5</ele>
    <time>2022-12-01T21:02:16Z</time>
   </trkpt>
   <trkpt lat="39.5722570" lon="-104.8577110">
    <ele>1754.5</ele>
    <time>2022-12-01T21:02:17Z</time>
   </trkpt>
   <trkpt lat="39.5722740" lon="-104.8577070">
    <ele>1754.5</ele>
    <time>2022-12-01T21:02:18Z</time>
   </trkpt>
   <trkpt lat="39.5722880" lon="-104.8577110">
    <ele>1754.6</ele>
    <time>2022-12-01T21:02:19Z</time>
   </trkpt>
   <trkpt lat="39.5723020" lon="-104.8577150">
    <ele>1754.6</ele>
    <time>2022-12-01T21:02:20Z</time>
   </trkpt>
   <trkpt lat="39.5723170" lon="-104.8577160">
    <ele>1754.6</ele>
    <time>2022-12-01T21:02:21Z</time>
   </trkpt>
   <trkpt lat="39.5723300" lon="-104.8577150">
    <ele>1754.6</ele>
    <time>2022-12-01T21:02:22Z</time>
   </trkpt>
   <trkpt lat="39.5723440" lon="-104.8577150">
    <ele>1754.7</ele>
    <time>2022-12-01T21:02:23Z</time>
   </trkpt>
   <trkpt lat="39.5723620" lon="-104.8577190">
    <ele>1754.7</ele>
    <time>2022-12-01T21:02:24Z</time>
   </trkpt>
   <trkpt lat="39.5723750" lon="-104.8577180">
    <ele>1754.7</ele>
    <time>2022-12-01T21:02:25Z</time>
   </trkpt>
   <trkpt lat="39.5723900" lon="-104.8577220">
    <ele>1754.7</ele>
    <time>2022-12-01T21:02:26Z</time>
   </trkpt>
   <trkpt lat="39.5723980" lon="-104.8577240">
    <ele>1754.7</ele>
    <time>2022-12-01T21:02:27Z</time>
   </trkpt>
   <trkpt lat="39.5724060" lon="-104.8577260">
    <ele>1754.7</ele>
    <time>2022-12-01T21:02:28Z</time>
   </trkpt>
   <trkpt lat="39.5724140" lon="-104.8577270">
    <ele>1754.8</ele>
    <time>2022-12-01T21:02:29Z</time>
   </trkpt>
   <trkpt lat="39.5724360" lon="-104.8577480">
    <ele>1754.7</ele>
    <time>2022-12-01T21:02:30Z</time>
   </trkpt>
   <trkpt lat="39.5724460" lon="-104.8577540">
    <ele>1754.7</ele>
    <time>2022-12-01T21:02:31Z</time>
   </trkpt>
   <trkpt lat="39.5724640" lon="-104.8577640">
    <ele>1754.7</ele>
    <time>2022-12-01T21:02:32Z</time>
   </trkpt>
   <trkpt lat="39.5724760" lon="-104.8577710">
    <ele>1754.7</ele>
    <time>2022-12-01T21:02:33Z</time>
   </trkpt>
   <trkpt lat="39.5724940" lon="-104.8577800">
    <ele>1754.6</ele>
    <time>2022-12-01T21:02:34Z</time>
   </trkpt>
   <trkpt lat="39.5725070" lon="-104.8577840">
    <ele>1754.5</ele>
    <time>2022-12-01T21:02:35Z</time>
   </trkpt>
   <trkpt lat="39.5725250" lon="-104.8577950">
    <ele>1754.4</ele>
    <time>2022-12-01T21:02:36Z</time>
   </trkpt>
   <trkpt lat="39.5725350" lon="-104.8578010">
    <ele>1754.4</ele>
    <time>2022-12-01T21:02:37Z</time>
   </trkpt>
   <trkpt lat="39.5725450" lon="-104.8578070">
    <ele>1754.3</ele>
    <time>2022-12-01T21:02:38Z</time>
   </trkpt>
   <trkpt lat="39.5725610" lon="-104.8578140">
    <ele>1754.2</ele>
    <time>2022-12-01T21:02:39Z</time>
   </trkpt>
   <trkpt lat="39.5725750" lon="-104.8578180">
    <ele>1754.1</ele>
    <time>2022-12-01T21:02:40Z</time>
   </trkpt>
   <trkpt lat="39.5725990" lon="-104.8578320">
    <ele>1754.0</ele>
    <time>2022-12-01T21:02:41Z</time>
   </trkpt>
   <trkpt lat="39.5726100" lon="-104.8578370">
    <ele>1753.9</ele>
    <time>2022-12-01T21:02:42Z</time>
   </trkpt>
   <trkpt lat="39.5726270" lon="-104.8578430">
    <ele>1753.8</ele>
    <time>2022-12-01T21:02:43Z</time>
   </trkpt>
   <trkpt lat="39.5726430" lon="-104.8578440">
    <ele>1753.7</ele>
    <time>2022-12-01T21:02:44Z</time>
   </trkpt>
   <trkpt lat="39.5726510" lon="-104.8578470">
    <ele>1753.6</ele>
    <time>2022-12-01T21:02:45Z</time>
   </trkpt>
   <trkpt lat="39.5726710" lon="-104.8578510">
    <ele>1753.5</ele>
    <time>2022-12-01T21:02:46Z</time>
   </trkpt>
   <trkpt lat="39.5726890" lon="-104.8578510">
    <ele>1753.4</ele>
    <time>2022-12-01T21:02:47Z</time>
   </trkpt>
   <trkpt lat="39.5727050" lon="-104.8578560">
    <ele>1753.4</ele>
    <time>2022-12-01T21:02:48Z</time>
   </trkpt>
   <trkpt lat="39.5727210" lon="-104.8578520">
    <ele>1753.3</ele>
    <time>2022-12-01T21:02:49Z</time>
   </trkpt>
   <trkpt lat="39.5727390" lon="-104.8578560">
    <ele>1753.3</ele>
    <time>2022-12-01T21:02:50Z</time>
   </trkpt>
   <trkpt lat="39.5727520" lon="-104.8578600">
    <ele>1753.2</ele>
    <time>2022-12-01T21:02:51Z</time>
   </trkpt>
   <trkpt lat="39.5727690" lon="-104.8578530">
    <ele>1753.2</ele>
    <time>2022-12-01T21:02:52Z</time>
   </trkpt>
   <trkpt lat="39.5727960" lon="-104.8578490">
    <ele>1753.2</ele>
    <time>2022-12-01T21:02:53Z</time>
   </trkpt>
   <trkpt lat="39.5728060" lon="-104.8578480">
    <ele>1753.2</ele>
    <time>2022-12-01T21:02:54Z</time>
   </trkpt>
   <trkpt lat="39.5728210" lon="-104.8578450">
    <ele>1753.2</ele>
    <time>2022-12-01T21:02:55Z</time>
   </trkpt>
   <trkpt lat="39.5728370" lon="-104.8578430">
    <ele>1753.2</ele>
    <time>2022-12-01T21:02:56Z</time>
   </trkpt>
   <trkpt lat="39.5728530" lon="-104.8578370">
    <ele>1753.2</ele>
    <time>2022-12-01T21:02:57Z</time>
   </trkpt>
   <trkpt lat="39.5728680" lon="-104.8578340">
    <ele>1753.2</ele>
    <time>2022-12-01T21:02:58Z</time>
   </trkpt>
   <trkpt lat="39.5728820" lon="-104.8578370">
    <ele>1753.2</ele>
    <time>2022-12-01T21:02:59Z</time>
   </trkpt>
   <trkpt lat="39.5728980" lon="-104.8578360">
    <ele>1753.3</ele>
    <time>2022-12-01T21:03:00Z</time>
   </trkpt>
   <trkpt lat="39.5729160" lon="-104.8578350">
    <ele>1753.3</ele>
    <time>2022-12-01T21:03:01Z</time>
   </trkpt>
   <trkpt lat="39.5729310" lon="-104.8578340">
    <ele>1753.3</ele>
    <time>2022-12-01T21:03:02Z</time>
   </trkpt>
   <trkpt lat="39.5729470" lon="-104.8578350">
    <ele>1753.4</ele>
    <time>2022-12-01T21:03:03Z</time>
   </trkpt>
   <trkpt lat="39.5729630" lon="-104.8578330">
    <ele>1753.4</ele>
    <time>2022-12-01T21:03:04Z</time>
   </trkpt>
   <trkpt lat="39.5729790" lon="-104.8578280">
    <ele>1753.4</ele>
    <time>2022-12-01T21:03:05Z</time>
   </trkpt>
   <trkpt lat="39.5729950" lon="-104.8578280">
    <ele>1753.4</ele>
    <time>2022-12-01T21:03:06Z</time>
   </trkpt>
   <trkpt lat="39.5730100" lon="-104.8578260">
    <ele>1753.5</ele>
    <time>2022-12-01T21:03:07Z</time>
   </trkpt>
   <trkpt lat="39.5730260" lon="-104.8578290">
    <ele>1753.5</ele>
    <time>2022-12-01T21:03:08Z</time>
   </trkpt>
   <trkpt lat="39.5730420" lon="-104.8578280">
    <ele>1753.5</ele>
    <time>2022-12-01T21:03:09Z</time>
   </trkpt>
   <trkpt lat="39.5730570" lon="-104.8578270">
    <ele>1753.6</ele>
    <time>2022-12-01T21:03:10Z</time>
   </trkpt>
   <trkpt lat="39.5730740" lon="-104.8578240">
    <ele>1753.6</ele>
    <time>2022-12-01T21:03:11Z</time>
   </trkpt>
   <trkpt lat="39.5730910" lon="-104.8578210">
    <ele>1753.6</ele>
    <time>2022-12-01T21:03:12Z</time>
   </trkpt>
   <trkpt lat="39.5731140" lon="-104.8578170">
    <ele>1753.6</ele>
    <time>2022-12-01T21:03:13Z</time>
   </trkpt>
   <trkpt lat="39.5731230" lon="-104.8578160">
    <ele>1753.6</ele>
    <time>2022-12-01T21:03:14Z</time>
   </trkpt>
   <trkpt lat="39.5731330" lon="-104.8578160">
    <ele>1753.6</ele>
    <time>2022-12-01T21:03:15Z</time>
   </trkpt>
   <trkpt lat="39.5731450" lon="-104.8578200">
    <ele>1753.7</ele>
    <time>2022-12-01T21:03:16Z</time>
   </trkpt>
   <trkpt lat="39.5731620" lon="-104.8578210">
    <ele>1753.7</ele>
    <time>2022-12-01T21:03:17Z</time>
   </trkpt>
   <trkpt lat="39.5731760" lon="-104.8578220">
    <ele>1753.7</ele>
    <time>2022-12-01T21:03:18Z</time>
   </trkpt>
   <trkpt lat="39.5731920" lon="-104.8578120">
    <ele>1753.7</ele>
    <time>2022-12-01T21:03:19Z</time>
   </trkpt>
   <trkpt lat="39.5732190" lon="-104.8578130">
    <ele>1753.7</ele>
    <time>2022-12-01T21:03:20Z</time>
   </trkpt>
   <trkpt lat="39.5732280" lon="-104.8578150">
    <ele>1753.7</ele>
    <time>2022-12-01T21:03:21Z</time>
   </trkpt>
   <trkpt lat="39.5732440" lon="-104.8578050">
    <ele>1753.7</ele>
    <time>2022-12-01T21:03:22Z</time>
   </trkpt>
   <trkpt lat="39.5732620" lon="-104.8578050">
    <ele>1753.7</ele>
    <time>2022-12-01T21:03:23Z</time>
   </trkpt>
   <trkpt lat="39.5732760" lon="-104.8578120">
    <ele>1753.7</ele>
    <time>2022-12-01T21:03:24Z</time>
   </trkpt>
   <trkpt lat="39.5732950" lon="-104.8578060">
    <ele>1753.7</ele>
    <time>2022-12-01T21:03:25Z</time>
   </trkpt>
   <trkpt lat="39.5733110" lon="-104.8578030">
    <ele>1753.7</ele>
    <time>2022-12-01T21:03:26Z</time>
   </trkpt>
   <trkpt lat="39.5733280" lon="-104.8578000">
    <ele>1753.7</ele>
    <time>2022-12-01T21:03:27Z</time>
   </trkpt>
   <trkpt lat="39.5733460" lon="-104.8577960">
    <ele>1753.7</ele>
    <time>2022-12-01T21:03:28Z</time>
   </trkpt>
   <trkpt lat="39.5733620" lon="-104.8577960">
    <ele>1753.7</ele>
    <time>2022-12-01T21:03:29Z</time>
   </trkpt>
   <trkpt lat="39.5733770" lon="-104.8577940">
    <ele>1753.7</ele>
    <time>2022-12-01T21:03:30Z</time>
   </trkpt>
   <trkpt lat="39.5733920" lon="-104.8577870">
    <ele>1753.7</ele>
    <time>2022-12-01T21:03:31Z</time>
   </trkpt>
   <trkpt lat="39.5734140" lon="-104.8577890">
    <ele>1753.7</ele>
    <time>2022-12-01T21:03:32Z</time>
   </trkpt>
   <trkpt lat="39.5734230" lon="-104.8577880">
    <ele>1753.7</ele>
    <time>2022-12-01T21:03:33Z</time>
   </trkpt>
   <trkpt lat="39.5734330" lon="-104.8577880">
    <ele>1753.7</ele>
    <time>2022-12-01T21:03:34Z</time>
   </trkpt>
   <trkpt lat="39.5734440" lon="-104.8577880">
    <ele>1753.7</ele>
    <time>2022-12-01T21:03:35Z</time>
   </trkpt>
   <trkpt lat="39.5734640" lon="-104.8577900">
    <ele>1753.7</ele>
    <time>2022-12-01T21:03:36Z</time>
   </trkpt>
   <trkpt lat="39.5734780" lon="-104.8577910">
    <ele>1753.7</ele>
    <time>2022-12-01T21:03:37Z</time>
   </trkpt>
   <trkpt lat="39.5734960" lon="-104.8577890">
    <ele>1753.7</ele>
    <time>2022-12-01T21:03:38Z</time>
   </trkpt>
   <trkpt lat="39.5735110" lon="-104.8577840">
    <ele>1753.7</ele>
    <time>2022-12-01T21:03:39Z</time>
   </trkpt>
   <trkpt lat="39.5735250" lon="-104.8577840">
    <ele>1753.7</ele>
    <time>2022-12-01T21:03:40Z</time>
   </trkpt>
   <trkpt lat="39.5735400" lon="-104.8577890">
    <ele>1753.6</ele>
    <time>2022-12-01T21:03:41Z</time>
   </trkpt>
   <trkpt lat="39.5735580" lon="-104.8577930">
    <ele>1753.6</ele>
    <time>2022-12-01T21:03:42Z</time>
   </trkpt>
   <trkpt lat="39.5735710" lon="-104.8577920">
    <ele>1753.6</ele>
    <time>2022-12-01T21:03:43Z</time>
   </trkpt>
   <trkpt lat="39.5735860" lon="-104.8577920">
    <ele>1753.5</ele>
    <time>2022-12-01T21:03:44Z</time>
   </trkpt>
   <trkpt lat="39.5736060" lon="-104.8577990">
    <ele>1753.5</ele>
    <time>2022-12-01T21:03:45Z</time>
   </trkpt>
   <trkpt lat="39.5736180" lon="-104.8578030">
    <ele>1753.4</ele>
    <time>2022-12-01T21:03:46Z</time>
   </trkpt>
   <trkpt lat="39.5736450" lon="-104.8578140">
    <ele>1753.3</ele>
    <time>2022-12-01T21:03:47Z</time>
   </trkpt>
   <trkpt lat="39.5736530" lon="-104.8578170">
    <ele>1753.3</ele>
    <time>2022-12-01T21:03:48Z</time>
   </trkpt>
   <trkpt lat="39.5736680" lon="-104.8578220">
    <ele>1753.3</ele>
    <time>2022-12-01T21:03:49Z</time>
   </trkpt>
   <trkpt lat="39.5736830" lon="-104.8578240">
    <ele>1753.2</ele>
    <time>2022-12-01T21:03:50Z</time>
   </trkpt>
   <trkpt lat="39.5737010" lon="-104.8578240">
    <ele>1753.1</ele>
    <time>2022-12-01T21:03:51Z</time>
   </trkpt>
   <trkpt lat="39.5737150" lon="-104.8578290">
    <ele>1753.1</ele>
    <time>2022-12-01T21:03:52Z</time>
   </trkpt>
   <trkpt lat="39.5737280" lon="-104.8578280">
    <ele>1753.0</ele>
    <time>2022-12-01T21:03:53Z</time>
   </trkpt>
   <trkpt lat="39.5737500" lon="-104.8578220">
    <ele>1752.9</ele>
    <time>2022-12-01T21:03:54Z</time>
   </trkpt>
   <trkpt lat="39.5737660" lon="-104.8578120">
    <ele>1752.9</ele>
    <time>2022-12-01T21:03:55Z</time>
   </trkpt>
   <trkpt lat="39.5737820" lon="-104.8578180">
    <ele>1752.8</ele>
    <time>2022-12-01T21:03:56Z</time>
   </trkpt>
   <trkpt lat="39.5738000" lon="-104.8578260">
    <ele>1752.8</ele>
    <time>2022-12-01T21:03:57Z</time>
   </trkpt>
   <trkpt lat="39.5738140" lon="-104.8578340">
    <ele>1752.7</ele>
    <time>2022-12-01T21:03:58Z</time>
   </trkpt>
   <trkpt lat="39.5738310" lon="-104.8578370">
    <ele>1752.7</ele>
    <time>2022-12-01T21:03:59Z</time>
   </trkpt>
   <trkpt lat="39.5738500" lon="-104.8578270">
    <ele>1752.7</ele>
    <time>2022-12-01T21:04:00Z</time>
   </trkpt>
   <trkpt lat="39.5738630" lon="-104.8578260">
    <ele>1752.6</ele>
    <time>2022-12-01T21:04:01Z</time>
   </trkpt>
   <trkpt lat="39.5738770" lon="-104.8578150">
    <ele>1752.6</ele>
    <time>2022-12-01T21:04:02Z</time>
   </trkpt>
   <trkpt lat="39.5738930" lon="-104.8578110">
    <ele>1752.6</ele>
    <time>2022-12-01T21:04:03Z</time>
   </trkpt>
   <trkpt lat="39.5739080" lon="-104.8578100">
    <ele>1752.6</ele>
    <time>2022-12-01T21:04:04Z</time>
   </trkpt>
   <trkpt lat="39.5739210" lon="-104.8578040">
    <ele>1752.6</ele>
    <time>2022-12-01T21:04:05Z</time>
   </trkpt>
   <trkpt lat="39.5739370" lon="-104.8577980">
    <ele>1752.6</ele>
    <time>2022-12-01T21:04:06Z</time>
   </trkpt>
   <trkpt lat="39.5739540" lon="-104.8577900">
    <ele>1752.6</ele>
    <time>2022-12-01T21:04:07Z</time>
   </trkpt>
   <trkpt lat="39.5739710" lon="-104.8577830">
    <ele>1752.6</ele>
    <time>2022-12-01T21:04:08Z</time>
   </trkpt>
   <trkpt lat="39.5739860" lon="-104.8577740">
    <ele>1752.6</ele>
    <time>2022-12-01T21:04:09Z</time>
   </trkpt>
   <trkpt lat="39.5739990" lon="-104.8577600">
    <ele>1752.6</ele>
    <time>2022-12-01T21:04:10Z</time>
   </trkpt>
   <trkpt lat="39.5740150" lon="-104.8577480">
    <ele>1752.6</ele>
    <time>2022-12-01T21:04:11Z</time>
   </trkpt>
   <trkpt lat="39.5740300" lon="-104.8577360">
    <ele>1752.6</ele>
    <time>2022-12-01T21:04:12Z</time>
   </trkpt>
   <trkpt lat="39.5740440" lon="-104.8577230">
    <ele>1752.6</ele>
    <time>2022-12-01T21:04:13Z</time>
   </trkpt>
   <trkpt lat="39.5740560" lon="-104.8577050">
    <ele>1752.6</ele>
    <time>2022-12-01T21:04:14Z</time>
   </trkpt>
   <trkpt lat="39.5740720" lon="-104.8576930">
    <ele>1752.6</ele>
    <time>2022-12-01T21:04:15Z</time>
   </trkpt>
   <trkpt lat="39.5740860" lon="-104.8576850">
    <ele>1752.6</ele>
    <time>2022-12-01T21:04:16Z</time>
   </trkpt>
   <trkpt lat="39.5740990" lon="-104.8576700">
    <ele>1752.6</ele>
    <time>2022-12-01T21:04:17Z</time>
   </trkpt>
   <trkpt lat="39.5741120" lon="-104.8576590">
    <ele>1752.6</ele>
    <time>2022-12-01T21:04:18Z</time>
   </trkpt>
   <trkpt lat="39.5741240" lon="-104.8576520">
    <ele>1752.6</ele>
    <time>2022-12-01T21:04:19Z</time>
   </trkpt>
   <trkpt lat="39.5741390" lon="-104.8576390">
    <ele>1752.6</ele>
    <time>2022-12-01T21:04:20Z</time>
   </trkpt>
   <trkpt lat="39.5741510" lon="-104.8576260">
    <ele>1752.6</ele>
    <time>2022-12-01T21:04:21Z</time>
   </trkpt>
   <trkpt lat="39.5741650" lon="-104.8576150">
    <ele>1752.6</ele>
    <time>2022-12-01T21:04:22Z</time>
   </trkpt>
   <trkpt lat="39.5741760" lon="-104.8576030">
    <ele>1752.6</ele>
    <time>2022-12-01T21:04:23Z</time>
   </trkpt>
   <trkpt lat="39.5741900" lon="-104.8575900">
    <ele>1752.6</ele>
    <time>2022-12-01T21:04:24Z</time>
   </trkpt>
   <trkpt lat="39.5742030" lon="-104.8575780">
    <ele>1752.6</ele>
    <time>2022-12-01T21:04:25Z</time>
   </trkpt>
   <trkpt lat="39.5742130" lon="-104.8575640">
    <ele>1752.6</ele>
    <time>2022-12-01T21:04:26Z</time>
   </trkpt>
   <trkpt lat="39.5742270" lon="-104.8575560">
    <ele>1752.6</ele>
    <time>2022-12-01T21:04:27Z</time>
   </trkpt>
   <trkpt lat="39.5742400" lon="-104.8575390">
    <ele>1752.6</ele>
    <time>2022-12-01T21:04:28Z</time>
   </trkpt>
   <trkpt lat="39.5742480" lon="-104.8575200">
    <ele>1752.6</ele>
    <time>2022-12-01T21:04:29Z</time>
   </trkpt>
   <trkpt lat="39.5742590" lon="-104.8575110">
    <ele>1752.6</ele>
    <time>2022-12-01T21:04:30Z</time>
   </trkpt>
   <trkpt lat="39.5742730" lon="-104.8575000">
    <ele>1752.6</ele>
    <time>2022-12-01T21:04:31Z</time>
   </trkpt>
   <trkpt lat="39.5742810" lon="-104.8574840">
    <ele>1752.6</ele>
    <time>2022-12-01T21:04:32Z</time>
   </trkpt>
   <trkpt lat="39.5743020" lon="-104.8574720">
    <ele>1752.6</ele>
    <time>2022-12-01T21:04:33Z</time>
   </trkpt>
   <trkpt lat="39.5743110" lon="-104.8574690">
    <ele>1752.6</ele>
    <time>2022-12-01T21:04:34Z</time>
   </trkpt>
   <trkpt lat="39.5743200" lon="-104.8574660">
    <ele>1752.6</ele>
    <time>2022-12-01T21:04:35Z</time>
   </trkpt>
   <trkpt lat="39.5743350" lon="-104.8574490">
    <ele>1752.6</ele>
    <time>2022-12-01T21:04:36Z</time>
   </trkpt>
   <trkpt lat="39.5743410" lon="-104.8574410">
    <ele>1752.7</ele>
    <time>2022-12-01T21:04:37Z</time>
   </trkpt>
   <trkpt lat="39.5743480" lon="-104.8574330">
    <ele>1752.7</ele>
    <time>2022-12-01T21:04:38Z</time>
   </trkpt>
   <trkpt lat="39.5743610" lon="-104.8574030">
    <ele>1752.7</ele>
    <time>2022-12-01T21:04:39Z</time>
   </trkpt>
   <trkpt lat="39.5743650" lon="-104.8573920">
    <ele>1752.7</ele>
    <time>2022-12-01T21:04:40Z</time>
   </trkpt>
   <trkpt lat="39.5743610" lon="-104.8573750">
    <ele>1752.7</ele>
    <time>2022-12-01T21:04:41Z</time>
   </trkpt>
   <trkpt lat="39.5743560" lon="-104.8573570">
    <ele>1752.7</ele>
    <time>2022-12-01T21:04:42Z</time>
   </trkpt>
   <trkpt lat="39.5743520" lon="-104.8573370">
    <ele>1752.7</ele>
    <time>2022-12-01T21:04:43Z</time>
   </trkpt>
   <trkpt lat="39.5743530" lon="-104.8573160">
    <ele>1752.7</ele>
    <time>2022-12-01T21:04:44Z</time>
   </trkpt>
   <trkpt lat="39.5743490" lon="-104.8572860">
    <ele>1752.7</ele>
    <time>2022-12-01T21:04:45Z</time>
   </trkpt>
   <trkpt lat="39.5743490" lon="-104.8572760">
    <ele>1752.7</ele>
    <time>2022-12-01T21:04:46Z</time>
   </trkpt>
   <trkpt lat="39.5743480" lon="-104.8572660">
    <ele>1752.7</ele>
    <time>2022-12-01T21:04:47Z</time>
   </trkpt>
  </trkseg>
 </trk>
</gpx>
