<?xml version="1.0" encoding="UTF-8"?>
<gpx creator="StravaGPX" version="1.1" xmlns="http://www.topografix.com/GPX/1/1" xmlns:xsi="http://www.w3.org/2001/XMLSchema-instance" xsi:schemaLocation="http://www.topografix.com/GPX/1/1 http://www.topografix.com/GPX/1/1/gpx.xsd">
 <metadata>
  <time>2023-04-01T21:59:51Z</time>
 </metadata>
 <trk>
  <name>Run part 2</name>
  <type>running</type>
  <trkseg>
   <trkpt lat="39.7004450" lon="-104.9732020">
    <ele>1620.0</ele>
    <time>2023-04-01T21:59:51Z</time>
   </trkpt>
   <trkpt lat="39.7004300" lon="-104.9732020">
    <ele>1620.1</ele>
    <time>2023-04-01T21:59:52Z</time>
   </trkpt>
   <trkpt lat="39.7004160" lon="-104.9732000">
    <ele>1620.1</ele>
    <time>2023-04-01T21:59:53Z</time>
   </trkpt>
   <trkpt lat="39.7004020" lon="-104.9731940">
    <ele>1620.1</ele>
    <time>2023-04-01T21:59:54Z</time>
   </trkpt>
   <trkpt lat="39.7003910" lon="-104.9731890">
    <ele>1620.1</ele>
    <time>2023-04-01T21:59:55Z</time>
   </trkpt>
   <trkpt lat="39.7003730" lon="-104.9731860">
    <ele>1620.1</ele>
    <time>2023-04-01T21:59:56Z</time>
   </trkpt>
   <trkpt lat="39.7003460" lon="-104.9731770">
    <ele>1620.1</ele>
    <time>2023-04-01T21:59:57Z</time>
   </trkpt>
   <trkpt lat="39.7003360" lon="-104.9731740">
    <ele>1620.2</ele>
    <time>2023-04-01T21:59:58Z</time>
   </trkpt>
   <trkpt lat="39.7003000" lon="-104.9731710">
    <ele>1620.2</ele>
    <time>2023-04-01T21:59:59Z</time>
   </trkpt>
   <trkpt lat="39.7002870" lon="-104.9731720">
    <ele>1620.2</ele>
    <time>2023-04-01T22:00:00Z</time>
   </trkpt>
   <trkpt lat="39.7002500" lon="-104.9731890">
    <ele>1620.2</ele>
    <time>2023-04-01T22:00:01Z</time>
   </trkpt>
   <trkpt lat="39.7002370" lon="-104.9731910">
    <ele>1620.2</ele>
    <time>2023-04-01T22:00:02Z</time>
   </trkpt>
   <trkpt lat="39.7001990" lon="-104.9731970">
    <ele>1620.2</ele>
    <time>2023-04-01T22:00:03Z</time>
   </trkpt>
   <trkpt lat="39.7001860" lon="-104.9732020">
    <ele>1620.2</ele>
    <time>2023-04-01T22:00:04Z</time>
   </trkpt>
   <trkpt lat="39.7001580" lon="-104.9732030">
    <ele>1620.2</ele>
    <time>2023-04-01T22:00:05Z</time>
   </trkpt>
   <trkpt lat="39.7001190" lon="-104.9732040">
    <ele>1620.3</ele>
    <time>2023-04-01T22:00:06Z</time>
   </trkpt>
   <trkpt lat="39.7000660" lon="-104.9732070">
    <ele>1620.3</ele>
    <time>2023-04-01T22:00:07Z</time>
   </trkpt>
   <trkpt lat="39.7000350" lon="-104.9732050">
    <ele>1620.3</ele>
    <time>2023-04-01T22:00:08Z</time>
   </trkpt>
   <trkpt lat="39.7000060" lon="-104.9732020">
    <ele>1620.4</ele>
    <time>2023-04-01T22:00:09Z</time>
   </trkpt>
   <trkpt lat="39.6999750" lon="-104.9732020">
    <ele>1620.4</ele>
    <time>2023-04-01T22:00:10Z</time>
   </trkpt>
   <trkpt lat="39.6999370" lon="-104.9731980">
    <ele>1620.4</ele>
    <time>2023-04-01T22:00:11Z</time>
   </trkpt>
   <trkpt lat="39.6999030" lon="-104.9731960">
    <ele>1620.4</ele>
    <time>2023-04-01T22:00:12Z</time>
   </trkpt>
   <trkpt lat="39.6998630" lon="-104.9731970">
    <ele>1620.4</ele>
    <time>2023-04-01T22:00:13Z</time>
   </trkpt>
   <trkpt lat="39.6998330" lon="-104.9732050">
    <ele>1620.5</ele>
    <time>2023-04-01T22:00:14Z</time>
   </trkpt>
   <trkpt lat="39.6998030" lon="-104.9732100">
    <ele>1620.5</ele>
    <time>2023-04-01T22:00:15Z</time>
   </trkpt>
   <trkpt lat="39.6997740" lon="-104.9732020">
    <ele>1620.4</ele>
    <time>2023-04-01T22:00:16Z</time>
   </trkpt>
   <trkpt lat="39.6997440" lon="-104.9732060">
    <ele>1620.4</ele>
    <time>2023-04-01T22:00:17Z</time>
   </trkpt>
   <trkpt lat="39.6997110" lon="-104.9732080">
    <ele>1620.4</ele>
    <time>2023-04-01T22:00:18Z</time>
   </trkpt>
   <trkpt lat="39.6996670" lon="-104.9732040">
    <ele>1620.4</ele>
    <time>2023-04-01T22:00:19Z</time>
   </trkpt>
   <trkpt lat="39.6996500" lon="-104.9732030">
    <ele>1620.4</ele>
    <time>2023-04-01T22:00:20Z</time>
   </trkpt>
   <trkpt lat="39.6996190" lon="-104.9731960">
    <ele>1620.4</ele>
    <time>2023-04-01T22:00:21Z</time>
   </trkpt>
   <trkpt lat="39.6995900" lon="-104.9731910">
    <ele>1620.4</ele>
    <time>2023-04-01T22:00:22Z</time>
   </trkpt>
   <trkpt lat="39.6995600" lon="-104.9731910">
    <ele>1620.3</ele>
    <time>2023-04-01T22:00:23Z</time>
   </trkpt>
   <trkpt lat="39.6995240" lon="-104.9731860">
    <ele>1620.3</ele>
    <time>2023-04-01T22:00:24Z</time>
   </trkpt>
   <trkpt lat="39.6994920" lon="-104.9731730">
    <ele>1620.3</ele>
    <time>2023-04-01T22:00:25Z</time>
   </trkpt>
   <trkpt lat="39.6994630" lon="-104.9731700">
    <ele>1620.3</ele>
    <time>2023-04-01T22:00:26Z</time>
   </trkpt>
   <trkpt lat="39.6994250" lon="-104.9731650">
    <ele>1620.3</ele>
    <time>2023-04-01T22:00:27Z</time>
   </trkpt>
   <trkpt lat="39.6993870" lon="-104.9731670">
    <ele>1620.3</ele>
    <time>2023-04-01T22:00:28Z</time>
   </trkpt>
   <trkpt lat="39.6993420" lon="-104.9731680">
    <ele>1620.3</ele>
    <time>2023-04-01T22:00:29Z</time>
   </trkpt>
   <trkpt lat="39.6992670" lon="-104.9731780">
    <ele>1620.2</ele>
    <time>2023-04-01T22:00:30Z</time>
   </trkpt>
   <trkpt lat="39.6992300" lon="-104.9731840">
    <ele>1620.2</ele>
    <time>2023-04-01T22:00:31Z</time>
   </trkpt>
   <trkpt lat="39.6992020" lon="-104.9731900">
    <ele>1620.2</ele>
    <time>2023-04-01T22:00:32Z</time>
   </trkpt>
   <trkpt lat="39.6991720" lon="-104.9731960">
    <ele>1620.2</ele>
    <time>2023-04-01T22:00:33Z</time>
   </trkpt>
   <trkpt lat="39.6991400" lon="-104.9732020">
    <ele>1620.2</ele>
    <time>2023-04-01T22:00:34Z</time>
   </trkpt>
   <trkpt lat="39.6991110" lon="-104.9732100">
    <ele>1620.3</ele>
    <time>2023-04-01T22:00:35Z</time>
   </trkpt>
   <trkpt lat="39.6990810" lon="-104.9732170">
    <ele>1620.3</ele>
    <time>2023-04-01T22:00:36Z</time>
   </trkpt>
   <trkpt lat="39.6990510" lon="-104.9732220">
    <ele>1620.3</ele>
    <time>2023-04-01T22:00:37Z</time>
   </trkpt>
   <trkpt lat="39.6990220" lon="-104.9732200">
    <ele>1620.3</ele>
    <time>2023-04-01T22:00:38Z</time>
   </trkpt>
   <trkpt lat="39.6989920" lon="-104.9732140">
    <ele>1620.3</ele>
    <time>2023-04-01T22:00:39Z</time>
   </trkpt>
   <trkpt lat="39.6989620" lon="-104.9732100">
    <ele>1620.3</ele>
    <time>2023-04-01T22:00:40Z</time>
   </trkpt>
   <trkpt lat="39.6989290" lon="-104.9732030">
    <ele>1620.3</ele>
    <time>2023-04-01T22:00:41Z</time>
   </trkpt>
   <trkpt lat="39.6988940" lon="-104.9731910">
    <ele>1620.3</ele>
    <time>2023-04-01T22:00:42Z</time>
   </trkpt>
   <trkpt lat="39.6988470" lon="-104.9731840">
    <ele>1620.3</ele>
    <time>2023-04-01T22:00:43Z</time>
   </trkpt>
   <trkpt lat="39.6988090" lon="-104.9731840">
    <ele>1620.3</ele>
    <time>2023-04-01T22:00:44Z</time>
   </trkpt>
   <trkpt lat="39.6987780" lon="-104.9731870">
    <ele>1620.2</ele>
    <time>2023-04-01T22:00:45Z</time>
   </trkpt>
   <trkpt lat="39.6987430" lon="-104.9732020">
    <ele>1620.2</ele>
    <time>2023-04-01T22:00:46Z</time>
   </trkpt>
   <trkpt lat="39.6987030" lon="-104.9732060">
    <ele>1620.2</ele>
    <time>2023-04-01T22:00:47Z</time>
   </trkpt>
   <trkpt lat="39.6986740" lon="-104.9732050">
    <ele>1620.2</ele>
    <time>2023-04-01T22:00:48Z</time>
   </trkpt>
   <trkpt lat="39.6986460" lon="-104.9732130">
    <ele>1620.2</ele>
    <time>2023-04-01T22:00:49Z</time>
   </trkpt>
   <trkpt lat="39.6986180" lon="-104.9732190">
    <ele>1620.2</ele>
    <time>2023-04-01T22:00:50Z</time>
   </trkpt>
   <trkpt lat="39.6985800" lon="-104.9732150">
    <ele>1620.1</ele>
    <time>2023-04-01T22:00:51Z</time>
   </trkpt>
   <trkpt lat="39.6985460" lon="-104.9732160">
    <ele>1620.1</ele>
    <time>2023-04-01T22:00:52Z</time>
   </trkpt>
   <trkpt lat="39.6985100" lon="-104.9732220">
    <ele>1620.1</ele>
    <time>2023-04-01T22:00:53Z</time>
   </trkpt>
   <trkpt lat="39.6984740" lon="-104.9732330">
    <ele>1620.1</ele>
    <time>2023-04-01T22:00:54Z</time>
   </trkpt>
   <trkpt lat="39.6984430" lon="-104.9732400">
    <ele>1620.1</ele>
    <time>2023-04-01T22:00:55Z</time>
   </trkpt>
   <trkpt lat="39.6984120" lon="-104.9732420">
    <ele>1620.0</ele>
    <time>2023-04-01T22:00:56Z</time>
   </trkpt>
   <trkpt lat="39.6983810" lon="-104.9732340">
    <ele>1620.0</ele>
    <time>2023-04-01T22:00:57Z</time>
   </trkpt>
   <trkpt lat="39.6983470" lon="-104.9732380">
    <ele>1620.0</ele>
    <time>2023-04-01T22:00:58Z</time>
   </trkpt>
   <trkpt lat="39.6983160" lon="-104.9732350">
    <ele>1620.0</ele>
    <time>2023-04-01T22:00:59Z</time>
   </trkpt>
   <trkpt lat="39.6982830" lon="-104.9732300">
    <ele>1620.0</ele>
    <time>2023-04-01T22:01:00Z</time>
   </trkpt>
   <trkpt lat="39.6982490" lon="-104.9732340">
    <ele>1620.0</ele>
    <time>2023-04-01T22:01:01Z</time>
   </trkpt>
   <trkpt lat="39.6982140" lon="-104.9732320">
    <ele>1620.0</ele>
    <time>2023-04-01T22:01:02Z</time>
   </trkpt>
   <trkpt lat="39.6981820" lon="-104.9732300">
    <ele>1620.0</ele>
    <time>2023-04-01T22:01:03Z</time>
   </trkpt>
   <trkpt lat="39.6981430" lon="-104.9732300">
    <ele>1619.9</ele>
    <time>2023-04-01T22:01:04Z</time>
   </trkpt>
   <trkpt lat="39.6981130" lon="-104.9732240">
    <ele>1619.9</ele>
    <time>2023-04-01T22:01:05Z</time>
   </trkpt>
   <trkpt lat="39.6980880" lon="-104.9732070">
    <ele>1619.9</ele>
    <time>2023-04-01T22:01:06Z</time>
   </trkpt>
   <trkpt lat="39.6980570" lon="-104.9732060">
    <ele>1619.9</ele>
    <time>2023-04-01T22:01:07Z</time>
   </trkpt>
   <trkpt lat="39.6980250" lon="-104.9732070">
    <ele>1619.9</ele>
    <time>2023-04-01T22:01:08Z</time>
   </trkpt>
   <trkpt lat="39.6979990" lon="-104.9732280">
    <ele>1619.9</ele>
    <time>2023-04-01T22:01:09Z</time>
   </trkpt>
   <trkpt lat="39.6979780" lon="-104.9732560">
    <ele>1619.8</ele>
    <time>2023-04-01T22:01:10Z</time>
   </trkpt>
   <trkpt lat="39.6979410" lon="-104.9732750">
    <ele>1619.8</ele>
    <time>2023-04-01T22:01:11Z</time>
   </trkpt>
   <trkpt lat="39.6979250" lon="-104.9732780">
    <ele>1619.7</ele>
    <time>2023-04-01T22:01:12Z</time>
   </trkpt>
   <trkpt lat="39.6978900" lon="-104.9732820">
    <ele>1619.6</ele>
    <time>2023-04-01T22:01:13Z</time>
   </trkpt>
   <trkpt lat="39.6978550" lon="-104.9732830">
    <ele>1619.6</ele>
    <time>2023-04-01T22:01:14Z</time>
   </trkpt>
   <trkpt lat="39.6978240" lon="-104.9732900">
    <ele>1619.5</ele>
    <time>2023-04-01T22:01:15Z</time>
   </trkpt>
   <trkpt lat="39.6977850" lon="-104.9732880">
    <ele>1619.4</ele>
    <time>2023-04-01T22:01:16Z</time>
   </trkpt>
   <trkpt lat="39.6977730" lon="-104.9732840">
    <ele>1619.4</ele>
    <time>2023-04-01T22:01:17Z</time>
   </trkpt>
   <trkpt lat="39.6977320" lon="-104.9732670">
    <ele>1619.3</ele>
    <time>2023-04-01T22:01:18Z</time>
   </trkpt>
   <trkpt lat="39.6977000" lon="-104.9732470">
    <ele>1619.3</ele>
    <time>2023-04-01T22:01:19Z</time>
   </trkpt>
   <trkpt lat="39.6976700" lon="-104.9732410">
    <ele>1619.3</ele>
    <time>2023-04-01T22:01:20Z</time>
   </trkpt>
   <trkpt lat="39.6976390" lon="-104.9732430">
    <ele>1619.2</ele>
    <time>2023-04-01T22:01:21Z</time>
   </trkpt>
   <trkpt lat="39.6976110" lon="-104.9732490">
    <ele>1619.2</ele>
    <time>2023-04-01T22:01:22Z</time>
   </trkpt>
   <trkpt lat="39.6975830" lon="-104.9732430">
    <ele>1619.2</ele>
    <time>2023-04-01T22:01:23Z</time>
   </trkpt>
   <trkpt lat="39.6975530" lon="-104.9732360">
    <ele>1619.2</ele>
    <time>2023-04-01T22:01:24Z</time>
   </trkpt>
   <trkpt lat="39.6975250" lon="-104.9732230">
    <ele>1619.1</ele>
    <time>2023-04-01T22:01:25Z</time>
   </trkpt>
   <trkpt lat="39.6974880" lon="-104.9732080">
    <ele>1619.1</ele>
    <time>2023-04-01T22:01:26Z</time>
   </trkpt>
   <trkpt lat="39.6974450" lon="-104.9732040">
    <ele>1619.1</ele>
    <time>2023-04-01T22:01:27Z</time>
   </trkpt>
   <trkpt lat="39.6974120" lon="-104.9732130">
    <ele>1619.0</ele>
    <time>2023-04-01T22:01:28Z</time>
   </trkpt>
   <trkpt lat="39.6973810" lon="-104.9732140">
    <ele>1619.0</ele>
    <time>2023-04-01T22:01:29Z</time>
   </trkpt>
   <trkpt lat="39.6973540" lon="-104.9732130">
    <ele>1619.0</ele>
    <time>2023-04-01T22:01:30Z</time>
   </trkpt>
   <trkpt lat="39.6973120" lon="-104.9732080">
    <ele>1619.0</ele>
    <time>2023-04-01T22:01:31Z</time>
   </trkpt>
   <trkpt lat="39.6972970" lon="-104.9732080">
    <ele>1619.0</ele>
    <time>2023-04-01T22:01:32Z</time>
   </trkpt>
   <trkpt lat="39.6972600" lon="-104.9731940">
    <ele>1618.9</ele>
    <time>2023-04-01T22:01:33Z</time>
   </trkpt>
   <trkpt lat="39.6972230" lon="-104.9731810">
    <ele>1618.9</ele>
    <time>2023-04-01T22:01:34Z</time>
   </trkpt>
   <trkpt lat="39.6971950" lon="-104.9731730">
    <ele>1618.8</ele>
    <time>2023-04-01T22:01:35Z</time>
   </trkpt>
   <trkpt lat="39.6971670" lon="-104.9731760">
    <ele>1618.8</ele>
    <time>2023-04-01T22:01:36Z</time>
   </trkpt>
   <trkpt lat="39.6971380" lon="-104.9731750">
    <ele>1618.8</ele>
    <time>2023-04-01T22:01:37Z</time>
   </trkpt>
   <trkpt lat="39.6971090" lon="-104.9731790">
    <ele>1618.7</ele>
    <time>2023-04-01T22:01:38Z</time>
   </trkpt>
   <trkpt lat="39.6970820" lon="-104.9731860">
    <ele>1618.7</ele>
    <time>2023-04-01T22:01:39Z</time>
   </trkpt>
   <trkpt lat="39.6970500" lon="-104.9731960">
    <ele>1618.6</ele>
    <time>2023-04-01T22:01:40Z</time>
   </trkpt>
   <trkpt lat="39.6970200" lon="-104.9732050">
    <ele>1618.6</ele>
    <time>2023-04-01T22:01:41Z</time>
   </trkpt>
   <trkpt lat="39.6969850" lon="-104.9732070">
    <ele>1618.5</ele>
    <time>2023-04-01T22:01:42Z</time>
   </trkpt>
   <trkpt lat="39.6969430" lon="-104.9732120">
    <ele>1618.5</ele>
    <time>2023-04-01T22:01:43Z</time>
   </trkpt>
   <trkpt lat="39.6969050" lon="-104.9732180">
    <ele>1618.4</ele>
    <time>2023-04-01T22:01:44Z</time>
   </trkpt>
   <trkpt lat="39.6968770" lon="-104.9732260">
    <ele>1618.4</ele>
    <time>2023-04-01T22:01:45Z</time>
   </trkpt>
   <trkpt lat="39.6968390" lon="-104.9732440">
    <ele>1618.3</ele>
    <time>2023-04-01T22:01:46Z</time>
   </trkpt>
   <trkpt lat="39.6968260" lon="-104.9732560">
    <ele>1618.3</ele>
    <time>2023-04-01T22:01:47Z</time>
   </trkpt>
   <trkpt lat="39.6968000" lon="-104.9732690">
    <ele>1618.2</ele>
    <time>2023-04-01T22:01:48Z</time>
   </trkpt>
   <trkpt lat="39.6967630" lon="-104.9732770">
    <ele>1618.2</ele>
    <time>2023-04-01T22:01:49Z</time>
   </trkpt>
   <trkpt lat="39.6967510" lon="-104.9732790">
    <ele>1618.2</ele>
    <time>2023-04-01T22:01:50Z</time>
   </trkpt>
   <trkpt lat="39.6967130" lon="-104.9732850">
    <ele>1618.1</ele>
    <time>2023-04-01T22:01:51Z</time>
   </trkpt>
   <trkpt lat="39.6967010" lon="-104.9732860">
    <ele>1618.1</ele>
    <time>2023-04-01T22:01:52Z</time>
   </trkpt>
   <trkpt lat="39.6966570" lon="-104.9732810">
    <ele>1618.0</ele>
    <time>2023-04-01T22:01:53Z</time>
   </trkpt>
   <trkpt lat="39.6966380" lon="-104.9732810">
    <ele>1618.0</ele>
    <time>2023-04-01T22:01:54Z</time>
   </trkpt>
   <trkpt lat="39.6966060" lon="-104.9732750">
    <ele>1618.0</ele>
    <time>2023-04-01T22:01:55Z</time>
   </trkpt>
   <trkpt lat="39.6965690" lon="-104.9732780">
    <ele>1618.0</ele>
    <time>2023-04-01T22:01:56Z</time>
   </trkpt>
   <trkpt lat="39.6965410" lon="-104.9732790">
    <ele>1617.9</ele>
    <time>2023-04-01T22:01:57Z</time>
   </trkpt>
   <trkpt lat="39.6965110" lon="-104.9732830">
    <ele>1617.9</ele>
    <time>2023-04-01T22:01:58Z</time>
   </trkpt>
   <trkpt lat="39.6964830" lon="-104.9732810">
    <ele>1617.9</ele>
    <time>2023-04-01T22:01:59Z</time>
   </trkpt>
   <trkpt lat="39.6964470" lon="-104.9732720">
    <ele>1617.9</ele>
    <time>2023-04-01T22:02:00Z</time>
   </trkpt>
   <trkpt lat="39.6964170" lon="-104.9732740">
    <ele>1617.9</ele>
    <time>2023-04-01T22:02:01Z</time>
   </trkpt>
   <trkpt lat="39.6963850" lon="-104.9732790">
    <ele>1617.9</ele>
    <time>2023-04-01T22:02:02Z</time>
   </trkpt>
   <trkpt lat="39.6963510" lon="-104.9732870">
    <ele>1617.9</ele>
    <time>2023-04-01T22:02:03Z</time>
   </trkpt>
   <trkpt lat="39.6963210" lon="-104.9732880">
    <ele>1617.9</ele>
    <time>2023-04-01T22:02:04Z</time>
   </trkpt>
   <trkpt lat="39.6962850" lon="-104.9732840">
    <ele>1617.9</ele>
    <time>2023-04-01T22:02:05Z</time>
   </trkpt>
   <trkpt lat="39.6962500" lon="-104.9732860">
    <ele>1618.0</ele>
    <time>2023-04-01T22:02:06Z</time>
   </trkpt>
   <trkpt lat="39.6962140" lon="-104.9732880">
    <ele>1618.0</ele>
    <time>2023-04-01T22:02:07Z</time>
   </trkpt>
   <trkpt lat="39.6961860" lon="-104.9732840">
    <ele>1618.0</ele>
    <time>2023-04-01T22:02:08Z</time>
   </trkpt>
   <trkpt lat="39.6961570" lon="-104.9732820">
    <ele>1618.0</ele>
    <time>2023-04-01T22:02:09Z</time>
   </trkpt>
   <trkpt lat="39.6961190" lon="-104.9732840">
    <ele>1618.0</ele>
    <time>2023-04-01T22:02:10Z</time>
   </trkpt>
   <trkpt lat="39.6961050" lon="-104.9732840">
    <ele>1618.0</ele>
    <time>2023-04-01T22:02:11Z</time>
   </trkpt>
   <trkpt lat="39.6960710" lon="-104.9732820">
    <ele>1618.1</ele>
    <time>2023-04-01T22:02:12Z</time>
   </trkpt>
   <trkpt lat="39.6960350" lon="-104.9732820">
    <ele>1618.1</ele>
    <time>2023-04-01T22:02:13Z</time>
   </trkpt>
   <trkpt lat="39.6959920" lon="-104.9732830">
    <ele>1618.1</ele>
    <time>2023-04-01T22:02:14Z</time>
   </trkpt>
   <trkpt lat="39.6959530" lon="-104.9732850">
    <ele>1618.2</ele>
    <time>2023-04-01T22:02:15Z</time>
   </trkpt>
   <trkpt lat="39.6959160" lon="-104.9732820">
    <ele>1618.2</ele>
    <time>2023-04-01T22:02:16Z</time>
   </trkpt>
   <trkpt lat="39.6958830" lon="-104.9732850">
    <ele>1618.2</ele>
    <time>2023-04-01T22:02:17Z</time>
   </trkpt>
   <trkpt lat="39.6958470" lon="-104.9732940">
    <ele>1618.2</ele>
    <time>2023-04-01T22:02:18Z</time>
   </trkpt>
   <trkpt lat="39.6958100" lon="-104.9732910">
    <ele>1618.3</ele>
    <time>2023-04-01T22:02:19Z</time>
   </trkpt>
   <trkpt lat="39.6957720" lon="-104.9732940">
    <ele>1618.3</ele>
    <time>2023-04-01T22:02:20Z</time>
   </trkpt>
   <trkpt lat="39.6957380" lon="-104.9732950">
    <ele>1618.3</ele>
    <time>2023-04-01T22:02:21Z</time>
   </trkpt>
   <trkpt lat="39.6957100" lon="-104.9732940">
    <ele>1618.3</ele>
    <time>2023-04-01T22:02:22Z</time>
   </trkpt>
   <trkpt lat="39.6956820" lon="-104.9732870">
    <ele>1618.3</ele>
    <time>2023-04-01T22:02:23Z</time>
   </trkpt>
   <trkpt lat="39.6956510" lon="-104.9732940">
    <ele>1618.3</ele>
    <time>2023-04-01T22:02:24Z</time>
   </trkpt>
   <trkpt lat="39.6956160" lon="-104.9732970">
    <ele>1618.4</ele>
    <time>2023-04-01T22:02:25Z</time>
   </trkpt>
   <trkpt lat="39.6956040" lon="-104.9732960">
    <ele>1618.4</ele>
    <time>2023-04-01T22:02:26Z</time>
   </trkpt>
   <trkpt lat="39.6955700" lon="-104.9732920">
    <ele>1618.4</ele>
    <time>2023-04-01T22:02:27Z</time>
   </trkpt>
   <trkpt lat="39.6955330" lon="-104.9732910">
    <ele>1618.4</ele>
    <time>2023-04-01T22:02:28Z</time>
   </trkpt>
   <trkpt lat="39.6955040" lon="-104.9732860">
    <ele>1618.4</ele>
    <time>2023-04-01T22:02:29Z</time>
   </trkpt>
   <trkpt lat="39.6954770" lon="-104.9732850">
    <ele>1618.4</ele>
    <time>2023-04-01T22:02:30Z</time>
   </trkpt>
   <trkpt lat="39.6954480" lon="-104.9732810">
    <ele>1618.4</ele>
    <time>2023-04-01T22:02:31Z</time>
   </trkpt>
   <trkpt lat="39.6954150" lon="-104.9732800">
    <ele>1618.4</ele>
    <time>2023-04-01T22:02:32Z</time>
   </trkpt>
   <trkpt lat="39.6953810" lon="-104.9732750">
    <ele>1618.4</ele>
    <time>2023-04-01T22:02:33Z</time>
   </trkpt>
   <trkpt lat="39.6953480" lon="-104.9732780">
    <ele>1618.4</ele>
    <time>2023-04-01T22:02:34Z</time>
   </trkpt>
   <trkpt lat="39.6953090" lon="-104.9732770">
    <ele>1618.4</ele>
    <time>2023-04-01T22:02:35Z</time>
   </trkpt>
   <trkpt lat="39.6952940" lon="-104.9732740">
    <ele>1618.4</ele>
    <time>2023-04-01T22:02:36Z</time>
   </trkpt>
   <trkpt lat="39.6952670" lon="-104.9732690">
    <ele>1618.5</ele>
    <time>2023-04-01T22:02:37Z</time>
   </trkpt>
   <trkpt lat="39.6952360" lon="-104.9732750">
    <ele>1618.5</ele>
    <time>2023-04-01T22:02:38Z</time>
   </trkpt>
   <trkpt lat="39.6951940" lon="-104.9732720">
    <ele>1618.5</ele>
    <time>2023-04-01T22:02:39Z</time>
   </trkpt>
   <trkpt lat="39.6951790" lon="-104.9732720">
    <ele>1618.5</ele>
    <time>2023-04-01T22:02:40Z</time>
   </trkpt>
   <trkpt lat="39.6951370" lon="-104.9732650">
    <ele>1618.6</ele>
    <time>2023-04-01T22:02:41Z</time>
   </trkpt>
   <trkpt lat="39.6950990" lon="-104.9732640">
    <ele>1618.6</ele>
    <time>2023-04-01T22:02:42Z</time>
   </trkpt>
   <trkpt lat="39.6950630" lon="-104.9732660">
    <ele>1618.6</ele>
    <time>2023-04-01T22:02:43Z</time>
   </trkpt>
   <trkpt lat="39.6950300" lon="-104.9732630">
    <ele>1618.7</ele>
    <time>2023-04-01T22:02:44Z</time>
   </trkpt>
   <trkpt lat="39.6949990" lon="-104.9732600">
    <ele>1618.7</ele>
    <time>2023-04-01T22:02:45Z</time>
   </trkpt>
   <trkpt lat="39.6949720" lon="-104.9732540">
    <ele>1618.7</ele>
    <time>2023-04-01T22:02:46Z</time>
   </trkpt>
   <trkpt lat="39.6949420" lon="-104.9732550">
    <ele>1618.8</ele>
    <time>2023-04-01T22:02:47Z</time>
   </trkpt>
   <trkpt lat="39.6949140" lon="-104.9732590">
    <ele>1618.8</ele>
    <time>2023-04-01T22:02:48Z</time>
   </trkpt>
   <trkpt lat="39.6948770" lon="-104.9732640">
    <ele>1618.9</ele>
    <time>2023-04-01T22:02:49Z</time>
   </trkpt>
   <trkpt lat="39.6948400" lon="-104.9732610">
    <ele>1618.9</ele>
    <time>2023-04-01T22:02:50Z</time>
   </trkpt>
   <trkpt lat="39.6948050" lon="-104.9732600">
    <ele>1619.0</ele>
    <time>2023-04-01T22:02:51Z</time>
   </trkpt>
   <trkpt lat="39.6947680" lon="-104.9732620">
    <ele>1619.0</ele>
    <time>2023-04-01T22:02:52Z</time>
   </trkpt>
   <trkpt lat="39.6947550" lon="-104.9732630">
    <ele>1619.0</ele>
    <time>2023-04-01T22:02:53Z</time>
   </trkpt>
   <trkpt lat="39.6947230" lon="-104.9732610">
    <ele>1619.1</ele>
    <time>2023-04-01T22:02:54Z</time>
   </trkpt>
   <trkpt lat="39.6946840" lon="-104.9732560">
    <ele>1619.1</ele>
    <time>2023-04-01T22:02:55Z</time>
   </trkpt>
   <trkpt lat="39.6946450" lon="-104.9732460">
    <ele>1619.2</ele>
    <time>2023-04-01T22:02:56Z</time>
   </trkpt>
   <trkpt lat="39.6946140" lon="-104.9732420">
    <ele>1619.2</ele>
    <time>2023-04-01T22:02:57Z</time>
   </trkpt>
   <trkpt lat="39.6945870" lon="-104.9732410">
    <ele>1619.2</ele>
    <time>2023-04-01T22:02:58Z</time>
   </trkpt>
   <trkpt lat="39.6945570" lon="-104.9732490">
    <ele>1619.3</ele>
    <time>2023-04-01T22:02:59Z</time>
   </trkpt>
   <trkpt lat="39.6945170" lon="-104.9732700">
    <ele>1619.3</ele>
    <time>2023-04-01T22:03:00Z</time>
   </trkpt>
   <trkpt lat="39.6944810" lon="-104.9732800">
    <ele>1619.3</ele>
    <time>2023-04-01T22:03:01Z</time>
   </trkpt>
   <trkpt lat="39.6944420" lon="-104.9732920">
    <ele>1619.3</ele>
    <time>2023-04-01T22:03:02Z</time>
   </trkpt>
   <trkpt lat="39.6944140" lon="-104.9733040">
    <ele>1619.3</ele>
    <time>2023-04-01T22:03:03Z</time>
   </trkpt>
   <trkpt lat="39.6943750" lon="-104.9733150">
    <ele>1619.3</ele>
    <time>2023-04-01T22:03:04Z</time>
   </trkpt>
   <trkpt lat="39.6943630" lon="-104.9733220">
    <ele>1619.2</ele>
    <time>2023-04-01T22:03:05Z</time>
   </trkpt>
   <trkpt lat="39.6943310" lon="-104.9733260">
    <ele>1619.2</ele>
    <time>2023-04-01T22:03:06Z</time>
   </trkpt>
   <trkpt lat="39.6943000" lon="-104.9733320">
    <ele>1619.2</ele>
    <time>2023-04-01T22:03:07Z</time>
   </trkpt>
   <trkpt lat="39.6942650" lon="-104.9733440">
    <ele>1619.2</ele>
    <time>2023-04-01T22:03:08Z</time>
   </trkpt>
   <trkpt lat="39.6942280" lon="-104.9733460">
    <ele>1619.3</ele>
    <time>2023-04-01T22:03:09Z</time>
   </trkpt>
   <trkpt lat="39.6941920" lon="-104.9733430">
    <ele>1619.3</ele>
    <time>2023-04-01T22:03:10Z</time>
   </trkpt>
   <trkpt lat="39.6941620" lon="-104.9733370">
    <ele>1619.3</ele>
    <time>2023-04-01T22:03:11Z</time>
   </trkpt>
   <trkpt lat="39.6941320" lon="-104.9733370">
    <ele>1619.3</ele>
    <time>2023-04-01T22:03:12Z</time>
   </trkpt>
   <trkpt lat="39.6941010" lon="-104.9733350">
    <ele>1619.3</ele>
    <time>2023-04-01T22:03:13Z</time>
   </trkpt>
   <trkpt lat="39.6940640" lon="-104.9733390">
    <ele>1619.3</ele>
    <time>2023-04-01T22:03:14Z</time>
   </trkpt>
   <trkpt lat="39.6940500" lon="-104.9733420">
    <ele>1619.3</ele>
    <time>2023-04-01T22:03:15Z</time>
   </trkpt>
   <trkpt lat="39.6940100" lon="-104.9733460">
    <ele>1619.4</ele>
    <time>2023-04-01T22:03:16Z</time>
   </trkpt>
   <trkpt lat="39.6939650" lon="-104.9733410">
    <ele>1619.4</ele>
    <time>2023-04-01T22:03:17Z</time>
   </trkpt>
   <trkpt lat="39.6939280" lon="-104.9733240">
    <ele>1619.4</ele>
    <time>2023-04-01T22:03:18Z</time>
   </trkpt>
   <trkpt lat="39.6938920" lon="-104.9733070">
    <ele>1619.5</ele>
    <time>2023-04-01T22:03:19Z</time>
   </trkpt>
   <trkpt lat="39.6938500" lon="-104.9733150">
    <ele>1619.5</ele>
    <time>2023-04-01T22:03:20Z</time>
   </trkpt>
   <trkpt lat="39.6938340" lon="-104.9733220">
    <ele>1619.5</ele>
    <time>2023-04-01T22:03:21Z</time>
   </trkpt>
   <trkpt lat="39.6938050" lon="-104.9733230">
    <ele>1619.6</ele>
    <time>2023-04-01T22:03:22Z</time>
   </trkpt>
   <trkpt lat="39.6937760" lon="-104.9733240">
    <ele>1619.6</ele>
    <time>2023-04-01T22:03:23Z</time>
   </trkpt>
   <trkpt lat="39.6937420" lon="-104.9733240">
    <ele>1619.6</ele>
    <time>2023-04-01T22:03:24Z</time>
   </trkpt>
   <trkpt lat="39.6937130" lon="-104.9733210">
    <ele>1619.7</ele>
    <time>2023-04-01T22:03:25Z</time>
   </trkpt>
   <trkpt lat="39.6936850" lon="-104.9733170">
    <ele>1619.7</ele>
    <time>2023-04-01T22:03:26Z</time>
   </trkpt>
   <trkpt lat="39.6936480" lon="-104.9733180">
    <ele>1619.7</ele>
    <time>2023-04-01T22:03:27Z</time>
   </trkpt>
   <trkpt lat="39.6936360" lon="-104.9733200">
    <ele>1619.7</ele>
    <time>2023-04-01T22:03:28Z</time>
   </trkpt>
   <trkpt lat="39.6935990" lon="-104.9733290">
    <ele>1619.8</ele>
    <time>2023-04-01T22:03:29Z</time>
   </trkpt>
   <trkpt lat="39.6935860" lon="-104.9733360">
    <ele>1619.8</ele>
    <time>2023-04-01T22:03:30Z</time>
   </trkpt>
   <trkpt lat="39.6935560" lon="-104.9733360">
    <ele>1619.8</ele>
    <time>2023-04-01T22:03:31Z</time>
   </trkpt>
   <trkpt lat="39.6935250" lon="-104.9733390">
    <ele>1619.9</ele>
    <time>2023-04-01T22:03:32Z</time>
   </trkpt>
   <trkpt lat="39.6934850" lon="-104.9733340">
    <ele>1619.9</ele>
    <time>2023-04-01T22:03:33Z</time>
   </trkpt>
   <trkpt lat="39.6934710" lon="-104.9733300">
    <ele>1619.9</ele>
    <time>2023-04-01T22:03:34Z</time>
   </trkpt>
   <trkpt lat="39.6934410" lon="-104.9733300">
    <ele>1619.9</ele>
    <time>2023-04-01T22:03:35Z</time>
   </trkpt>
   <trkpt lat="39.6934100" lon="-104.9733300">
    <ele>1620.0</ele>
    <time>2023-04-01T22:03:36Z</time>
   </trkpt>
   <trkpt lat="39.6933810" lon="-104.9733250">
    <ele>1620.0</ele>
    <time>2023-04-01T22:03:37Z</time>
   </trkpt>
   <trkpt lat="39.6933530" lon="-104.9733240">
    <ele>1620.0</ele>
    <time>2023-04-01T22:03:38Z</time>
   </trkpt>
   <trkpt lat="39.6933200" lon="-104.9733290">
    <ele>1620.1</ele>
    <time>2023-04-01T22:03:39Z</time>
   </trkpt>
   <trkpt lat="39.6932900" lon="-104.9733300">
    <ele>1620.1</ele>
    <time>2023-04-01T22:03:40Z</time>
   </trkpt>
   <trkpt lat="39.6932530" lon="-104.9733340">
    <ele>1620.1</ele>
    <time>2023-04-01T22:03:41Z</time>
   </trkpt>
   <trkpt lat="39.6932390" lon="-104.9733350">
    <ele>1620.1</ele>
    <time>2023-04-01T22:03:42Z</time>
   </trkpt>
   <trkpt lat="39.6932000" lon="-104.9733230">
    <ele>1620.2</ele>
    <time>2023-04-01T22:03:43Z</time>
   </trkpt>
   <trkpt lat="39.6931840" lon="-104.9733210">
    <ele>1620.2</ele>
    <time>2023-04-01T22:03:44Z</time>
   </trkpt>
   <trkpt lat="39.6931550" lon="-104.9733200">
    <ele>1620.2</ele>
    <time>2023-04-01T22:03:45Z</time>
   </trkpt>
   <trkpt lat="39.6931260" lon="-104.9733160">
    <ele>1620.2</ele>
    <time>2023-04-01T22:03:46Z</time>
   </trkpt>
   <trkpt lat="39.6930860" lon="-104.9733090">
    <ele>1620.2</ele>
    <time>2023-04-01T22:03:47Z</time>
   </trkpt>
   <trkpt lat="39.6930720" lon="-104.9733090">
    <ele>1620.1</ele>
    <time>2023-04-01T22:03:48Z</time>
   </trkpt>
   <trkpt lat="39.6930300" lon="-104.9733060">
    <ele>1620.1</ele>
    <time>2023-04-01T22:03:49Z</time>
   </trkpt>
   <trkpt lat="39.6930140" lon="-104.9733060">
    <ele>1620.1</ele>
    <time>2023-04-01T22:03:50Z</time>
   </trkpt>
   <trkpt lat="39.6929720" lon="-104.9733060">
    <ele>1620.1</ele>
    <time>2023-04-01T22:03:51Z</time>
   </trkpt>
   <trkpt lat="39.6929380" lon="-104.9733150">
    <ele>1620.2</ele>
    <time>2023-04-01T22:03:52Z</time>
   </trkpt>
   <trkpt lat="39.6929060" lon="-104.9733200">
    <ele>1620.2</ele>
    <time>2023-04-01T22:03:53Z</time>
   </trkpt>
   <trkpt lat="39.6928770" lon="-104.9733160">
    <ele>1620.2</ele>
    <time>2023-04-01T22:03:54Z</time>
   </trkpt>
   <trkpt lat="39.6928620" lon="-104.9732720">
    <ele>1620.2</ele>
    <time>2023-04-01T22:03:55Z</time>
   </trkpt>
   <trkpt lat="39.6928660" lon="-104.9732220">
    <ele>1620.2</ele>
    <time>2023-04-01T22:03:56Z</time>
   </trkpt>
   <trkpt lat="39.6928740" lon="-104.9731820">
    <ele>1620.2</ele>
    <time>2023-04-01T22:03:57Z</time>
   </trkpt>
   <trkpt lat="39.6928760" lon="-104.9731440">
    <ele>1620.2</ele>
    <time>2023-04-01T22:03:58Z</time>
   </trkpt>
   <trkpt lat="39.6928830" lon="-104.9731030">
    <ele>1620.2</ele>
    <time>2023-04-01T22:03:59Z</time>
   </trkpt>
   <trkpt lat="39.6928830" lon="-104.9730550">
    <ele>1620.2</ele>
    <time>2023-04-01T22:04:00Z</time>
   </trkpt>
   <trkpt lat="39.6928740" lon="-104.9730100">
    <ele>1620.3</ele>
    <time>2023-04-01T22:04:01Z</time>
   </trkpt>
   <trkpt lat="39.6928760" lon="-104.9729670">
    <ele>1620.3</ele>
    <time>2023-04-01T22:04:02Z</time>
   </trkpt>
   <trkpt lat="39.6928750" lon="-104.9729280">
    <ele>1620.3</ele>
    <time>2023-04-01T22:04:03Z</time>
   </trkpt>
   <trkpt lat="39.6928790" lon="-104.9728720">
    <ele>1620.3</ele>
    <time>2023-04-01T22:04:04Z</time>
   </trkpt>
   <trkpt lat="39.6928800" lon="-104.9728480">
    <ele>1620.3</ele>
    <time>2023-04-01T22:04:05Z</time>
   </trkpt>
   <trkpt lat="39.6928810" lon="-104.9727930">
    <ele>1620.3</ele>
    <time>2023-04-01T22:04:06Z</time>
   </trkpt>
   <trkpt lat="39.6928790" lon="-104.9727420">
    <ele>1620.3</ele>
    <time>2023-04-01T22:04:07Z</time>
   </trkpt>
   <trkpt lat="39.6928770" lon="-104.9727210">
    <ele>1620.3</ele>
    <time>2023-04-01T22:04:08Z</time>
   </trkpt>
   <trkpt lat="39.6928750" lon="-104.9726820">
    <ele>1620.3</ele>
    <time>2023-04-01T22:04:09Z</time>
   </trkpt>
   <trkpt lat="39.6928770" lon="-104.9726470">
    <ele>1620.4</ele>
    <time>2023-04-01T22:04:10Z</time>
   </trkpt>
   <trkpt lat="39.6928700" lon="-104.9726100">
    <ele>1620.4</ele>
    <time>2023-04-01T22:04:11Z</time>
   </trkpt>
   <trkpt lat="39.6928750" lon="-104.9725610">
    <ele>1620.4</ele>
    <time>2023-04-01T22:04:12Z</time>
   </trkpt>
   <trkpt lat="39.6928750" lon="-104.9725430">
    <ele>1620.4</ele>
    <time>2023-04-01T22:04:13Z</time>
   </trkpt>
   <trkpt lat="39.6928730" lon="-104.9724960">
    <ele>1620.4</ele>
    <time>2023-04-01T22:04:14Z</time>
   </trkpt>
   <trkpt lat="39.6928710" lon="-104.9724800">
    <ele>1620.4</ele>
    <time>2023-04-01T22:04:15Z</time>
   </trkpt>
   <trkpt lat="39.6928700" lon="-104.9724420">
    <ele>1620.4</ele>
    <time>2023-04-01T22:04:16Z</time>
   </trkpt>
   <trkpt lat="39.6928700" lon="-104.9724050">
    <ele>1620.4</ele>
    <time>2023-04-01T22:04:17Z</time>
   </trkpt>
   <trkpt lat="39.6928680" lon="-104.9723600">
    <ele>1620.4</ele>
    <time>2023-04-01T22:04:18Z</time>
   </trkpt>
   <trkpt lat="39.6928660" lon="-104.9723430">
    <ele>1620.5</ele>
    <time>2023-04-01T22:04:19Z</time>
   </trkpt>
   <trkpt lat="39.6928650" lon="-104.9723020">
    <ele>1620.5</ele>
    <time>2023-04-01T22:04:20Z</time>
   </trkpt>
   <trkpt lat="39.6928640" lon="-104.9722630">
    <ele>1620.5</ele>
    <time>2023-04-01T22:04:21Z</time>
   </trkpt>
   <trkpt lat="39.6928610" lon="-104.9722250">
    <ele>1620.5</ele>
    <time>2023-04-01T22:04:22Z</time>
   </trkpt>
   <trkpt lat="39.6928670" lon="-104.9721770">
    <ele>1620.5</ele>
    <time>2023-04-01T22:04:23Z</time>
   </trkpt>
   <trkpt lat="39.6928660" lon="-104.9721580">
    <ele>1620.5</ele>
    <time>2023-04-01T22:04:24Z</time>
   </trkpt>
   <trkpt lat="39.6928660" lon="-104.9721180">
    <ele>1620.6</ele>
    <time>2023-04-01T22:04:25Z</time>
   </trkpt>
   <trkpt lat="39.6928630" lon="-104.9720810">
    <ele>1620.6</ele>
    <time>2023-04-01T22:04:26Z</time>
   </trkpt>
   <trkpt lat="39.6928630" lon="-104.9720390">
    <ele>1620.6</ele>
    <time>2023-04-01T22:04:27Z</time>
   </trkpt>
   <trkpt lat="39.6928680" lon="-104.9720000">
    <ele>1620.6</ele>
    <time>2023-04-01T22:04:28Z</time>
   </trkpt>
   <trkpt lat="39.6928700" lon="-104.9719620">
    <ele>1620.6</ele>
    <time>2023-04-01T22:04:29Z</time>
   </trkpt>
   <trkpt lat="39.6928700" lon="-104.9719210">
    <ele>1620.6</ele>
    <time>2023-04-01T22:04:30Z</time>
   </trkpt>
   <trkpt lat="39.6928720" lon="-104.9718710">
    <ele>1620.6</ele>
    <time>2023-04-01T22:04:31Z</time>
   </trkpt>
   <trkpt lat="39.6928730" lon="-104.9718240">
    <ele>1620.6</ele>
    <time>2023-04-01T22:04:32Z</time>
   </trkpt>
   <trkpt lat="39.6928730" lon="-104.9717890">
    <ele>1620.7</ele>
    <time>2023-04-01T22:04:33Z</time>
   </trkpt>
   <trkpt lat="39.6928710" lon="-104.9717540">
    <ele>1620.7</ele>
    <time>2023-04-01T22:04:34Z</time>
   </trkpt>
   <trkpt lat="39.6928740" lon="-104.9717170">
    <ele>1620.7</ele>
    <time>2023-04-01T22:04:35Z</time>
   </trkpt>
   <trkpt lat="39.6928720" lon="-104.9716760">
    <ele>1620.7</ele>
    <time>2023-04-01T22:04:36Z</time>
   </trkpt>
   <trkpt lat="39.6928700" lon="-104.9716380">
    <ele>1620.7</ele>
    <time>2023-04-01T22:04:37Z</time>
   </trkpt>
   <trkpt lat="39.6928690" lon="-104.9715990">
    <ele>1620.7</ele>
    <time>2023-04-01T22:04:38Z</time>
   </trkpt>
   <trkpt lat="39.6928680" lon="-104.9715620">
    <ele>1620.7</ele>
    <time>2023-04-01T22:04:39Z</time>
   </trkpt>
   <trkpt lat="39.6928710" lon="-104.9715270">
    <ele>1620.7</ele>
    <time>2023-04-01T22:04:40Z</time>
   </trkpt>
   <trkpt lat="39.6928710" lon="-104.9714710">
    <ele>1620.8</ele>
    <time>2023-04-01T22:04:41Z</time>
   </trkpt>
   <trkpt lat="39.6928700" lon="-104.9714500">
    <ele>1620.8</ele>
    <time>2023-04-01T22:04:42Z</time>
   </trkpt>
   <trkpt lat="39.6928680" lon="-104.9714090">
    <ele>1620.8</ele>
    <time>2023-04-01T22:04:43Z</time>
   </trkpt>
   <trkpt lat="39.6928690" lon="-104.9713710">
    <ele>1620.8</ele>
    <time>2023-04-01T22:04:44Z</time>
   </trkpt>
   <trkpt lat="39.6928690" lon="-104.9713170">
    <ele>1620.8</ele>
    <time>2023-04-01T22:04:45Z</time>
   </trkpt>
   <trkpt lat="39.6928710" lon="-104.9712950">
    <ele>1620.8</ele>
    <time>2023-04-01T22:04:46Z</time>
   </trkpt>
   <trkpt lat="39.6928700" lon="-104.9712550">
    <ele>1620.9</ele>
    <time>2023-04-01T22:04:47Z</time>
   </trkpt>
   <trkpt lat="39.6928690" lon="-104.9712140">
    <ele>1620.9</ele>
    <time>2023-04-01T22:04:48Z</time>
   </trkpt>
   <trkpt lat="39.6928680" lon="-104.9711670">
    <ele>1620.9</ele>
    <time>2023-04-01T22:04:49Z</time>
   </trkpt>
   <trkpt lat="39.6928670" lon="-104.9711490">
    <ele>1620.9</ele>
    <time>2023-04-01T22:04:50Z</time>
   </trkpt>
   <trkpt lat="39.6928660" lon="-104.9711060">
    <ele>1620.9</ele>
    <time>2023-04-01T22:04:51Z</time>
   </trkpt>
   <trkpt lat="39.6928640" lon="-104.9710590">
    <ele>1620.9</ele>
    <time>2023-04-01T22:04:52Z</time>
   </trkpt>
   <trkpt lat="39.6928530" lon="-104.9710180">
    <ele>1620.9</ele>
    <time>2023-04-01T22:04:53Z</time>
   </trkpt>
   <trkpt lat="39.6928510" lon="-104.9710080">
    <ele>1620.9</ele>
    <time>2023-04-01T22:04:54Z</time>
   </trkpt>
   <trkpt lat="39.6928500" lon="-104.9709700">
    <ele>1620.9</ele>
    <time>2023-04-01T22:04:55Z</time>
   </trkpt>
   <trkpt lat="39.6928510" lon="-104.9709540">
    <ele>1620.9</ele>
    <time>2023-04-01T22:04:56Z</time>
   </trkpt>
   <trkpt lat="39.6928510" lon="-104.9709040">
    <ele>1620.9</ele>
    <time>2023-04-01T22:04:57Z</time>
   </trkpt>
   <trkpt lat="39.6928500" lon="-104.9708840">
    <ele>1620.9</ele>
    <time>2023-04-01T22:04:58Z</time>
   </trkpt>
   <trkpt lat="39.6928460" lon="-104.9708490">
    <ele>1620.9</ele>
    <time>2023-04-01T22:04:59Z</time>
   </trkpt>
   <trkpt lat="39.6928460" lon="-104.9707980">
    <ele>1620.9</ele>
    <time>2023-04-01T22:05:00Z</time>
   </trkpt>
   <trkpt lat="39.6928470" lon="-104.9707800">
    <ele>1620.9</ele>
    <time>2023-04-01T22:05:01Z</time>
   </trkpt>
   <trkpt lat="39.6928430" lon="-104.9707310">
    <ele>1620.9</ele>
    <time>2023-04-01T22:05:02Z</time>
   </trkpt>
   <trkpt lat="39.6928490" lon="-104.9706840">
    <ele>1620.9</ele>
    <time>2023-04-01T22:05:03Z</time>
   </trkpt>
   <trkpt lat="39.6928520" lon="-104.9706400">
    <ele>1620.9</ele>
    <time>2023-04-01T22:05:04Z</time>
   </trkpt>
   <trkpt lat="39.6928540" lon="-104.9706020">
    <ele>1620.9</ele>
    <time>2023-04-01T22:05:05Z</time>
   </trkpt>
   <trkpt lat="39.6928620" lon="-104.9705550">
    <ele>1620.9</ele>
    <time>2023-04-01T22:05:06Z</time>
   </trkpt>
   <trkpt lat="39.6928640" lon="-104.9705070">
    <ele>1620.9</ele>
    <time>2023-04-01T22:05:07Z</time>
   </trkpt>
   <trkpt lat="39.6928670" lon="-104.9704930">
    <ele>1620.9</ele>
    <time>2023-04-01T22:05:08Z</time>
   </trkpt>
   <trkpt lat="39.6928590" lon="-104.9704430">
    <ele>1621.0</ele>
    <time>2023-04-01T22:05:09Z</time>
   </trkpt>
   <trkpt lat="39.6928580" lon="-104.9704230">
    <ele>1621.0</ele>
    <time>2023-04-01T22:05:10Z</time>
   </trkpt>
   <trkpt lat="39.6928630" lon="-104.9703720">
    <ele>1621.0</ele>
    <time>2023-04-01T22:05:11Z</time>
   </trkpt>
   <trkpt lat="39.6928650" lon="-104.9703550">
    <ele>1621.0</ele>
    <time>2023-04-01T22:05:12Z</time>
   </trkpt>
   <trkpt lat="39.6928690" lon="-104.9703130">
    <ele>1621.0</ele>
    <time>2023-04-01T22:05:13Z</time>
   </trkpt>
   <trkpt lat="39.6928650" lon="-104.9702610">
    <ele>1621.0</ele>
    <time>2023-04-01T22:05:14Z</time>
   </trkpt>
   <trkpt lat="39.6928640" lon="-104.9702160">
    <ele>1621.0</ele>
    <time>2023-04-01T22:05:15Z</time>
   </trkpt>
   <trkpt lat="39.6928670" lon="-104.9701770">
    <ele>1621.0</ele>
    <time>2023-04-01T22:05:16Z</time>
   </trkpt>
   <trkpt lat="39.6928700" lon="-104.9701330">
    <ele>1621.0</ele>
    <time>2023-04-01T22:05:17Z</time>
   </trkpt>
   <trkpt lat="39.6928730" lon="-104.9700890">
    <ele>1621.0</ele>
    <time>2023-04-01T22:05:18Z</time>
   </trkpt>
   <trkpt lat="39.6928720" lon="-104.9700410">
    <ele>1621.0</ele>
    <time>2023-04-01T22:05:19Z</time>
   </trkpt>
   <trkpt lat="39.6928730" lon="-104.9700220">
    <ele>1621.0</ele>
    <time>2023-04-01T22:05:20Z</time>
   </trkpt>
   <trkpt lat="39.6928640" lon="-104.9699750">
    <ele>1621.1</ele>
    <time>2023-04-01T22:05:21Z</time>
   </trkpt>
   <trkpt lat="39.6928620" lon="-104.9699590">
    <ele>1621.1</ele>
    <time>2023-04-01T22:05:22Z</time>
   </trkpt>
   <trkpt lat="39.6928630" lon="-104.9699060">
    <ele>1621.1</ele>
    <time>2023-04-01T22:05:23Z</time>
   </trkpt>
   <trkpt lat="39.6928620" lon="-104.9698840">
    <ele>1621.1</ele>
    <time>2023-04-01T22:05:24Z</time>
   </trkpt>
   <trkpt lat="39.6928610" lon="-104.9698310">
    <ele>1621.1</ele>
    <time>2023-04-01T22:05:25Z</time>
   </trkpt>
   <trkpt lat="39.6928600" lon="-104.9698110">
    <ele>1621.1</ele>
    <time>2023-04-01T22:05:26Z</time>
   </trkpt>
   <trkpt lat="39.6928590" lon="-104.9697740">
    <ele>1621.1</ele>
    <time>2023-04-01T22:05:27Z</time>
   </trkpt>
   <trkpt lat="39.6928580" lon="-104.9697300">
    <ele>1621.1</ele>
    <time>2023-04-01T22:05:28Z</time>
   </trkpt>
   <trkpt lat="39.6928640" lon="-104.9696890">
    <ele>1621.1</ele>
    <time>2023-04-01T22:05:29Z</time>
   </trkpt>
   <trkpt lat="39.6928620" lon="-104.9696510">
    <ele>1621.2</ele>
    <time>2023-04-01T22:05:30Z</time>
   </trkpt>
   <trkpt lat="39.6928610" lon="-104.9696010">
    <ele>1621.2</ele>
    <time>2023-04-01T22:05:31Z</time>
   </trkpt>
   <trkpt lat="39.6928600" lon="-104.9695820">
    <ele>1621.2</ele>
    <time>2023-04-01T22:05:32Z</time>
   </trkpt>
   <trkpt lat="39.6928560" lon="-104.9695270">
    <ele>1621.2</ele>
    <time>2023-04-01T22:05:33Z</time>
   </trkpt>
   <trkpt lat="39.6928540" lon="-104.9695060">
    <ele>1621.2</ele>
    <time>2023-04-01T22:05:34Z</time>
   </trkpt>
   <trkpt lat="39.6928540" lon="-104.9694640">
    <ele>1621.2</ele>
    <time>2023-04-01T22:05:35Z</time>
   </trkpt>
   <trkpt lat="39.6928550" lon="-104.9694210">
    <ele>1621.3</ele>
    <time>2023-04-01T22:05:36Z</time>
   </trkpt>
   <trkpt lat="39.6928570" lon="-104.9693740">
    <ele>1621.3</ele>
    <time>2023-04-01T22:05:37Z</time>
   </trkpt>
   <trkpt lat="39.6928600" lon="-104.9693320">
    <ele>1621.3</ele>
    <time>2023-04-01T22:05:38Z</time>
   </trkpt>
   <trkpt lat="39.6928630" lon="-104.9692940">
    <ele>1621.3</ele>
    <time>2023-04-01T22:05:39Z</time>
   </trkpt>
   <trkpt lat="39.6928620" lon="-104.9692400">
    <ele>1621.4</ele>
    <time>2023-04-01T22:05:40Z</time>
   </trkpt>
   <trkpt lat="39.6928620" lon="-104.9692200">
    <ele>1621.4</ele>
    <time>2023-04-01T22:05:41Z</time>
   </trkpt>
   <trkpt lat="39.6928580" lon="-104.9691790">
    <ele>1621.4</ele>
    <time>2023-04-01T22:05:42Z</time>
   </trkpt>
   <trkpt lat="39.6928620" lon="-104.9691440">
    <ele>1621.4</ele>
    <time>2023-04-01T22:05:43Z</time>
   </trkpt>
   <trkpt lat="39.6928580" lon="-104.9690970">
    <ele>1621.5</ele>
    <time>2023-04-01T22:05:44Z</time>
   </trkpt>
   <trkpt lat="39.6928560" lon="-104.9690770">
    <ele>1621.5</ele>
    <time>2023-04-01T22:05:45Z</time>
   </trkpt>
   <trkpt lat="39.6928540" lon="-104.9690330">
    <ele>1621.5</ele>
    <time>2023-04-01T22:05:46Z</time>
   </trkpt>
   <trkpt lat="39.6928500" lon="-104.9689930">
    <ele>1621.6</ele>
    <time>2023-04-01T22:05:47Z</time>
   </trkpt>
   <trkpt lat="39.6928510" lon="-104.9689580">
    <ele>1621.6</ele>
    <time>2023-04-01T22:05:48Z</time>
   </trkpt>
   <trkpt lat="39.6928470" lon="-104.9689060">
    <ele>1621.7</ele>
    <time>2023-04-01T22:05:49Z</time>
   </trkpt>
   <trkpt lat="39.6928470" lon="-104.9688890">
    <ele>1621.7</ele>
    <time>2023-04-01T22:05:50Z</time>
   </trkpt>
   <trkpt lat="39.6928450" lon="-104.9688440">
    <ele>1622.0</ele>
    <time>2023-04-01T22:05:51Z</time>
   </trkpt>
   <trkpt lat="39.6928410" lon="-104.9688330">
    <ele>1622.0</ele>
    <time>2023-04-01T22:05:52Z</time>
   </trkpt>
   <trkpt lat="39.6928110" lon="-104.9688150">
    <ele>1622.0</ele>
    <time>2023-04-01T22:05:53Z</time>
   </trkpt>
   <trkpt lat="39.6927990" lon="-104.9688160">
    <ele>1622.0</ele>
    <time>2023-04-01T22:05:54Z</time>
   </trkpt>
   <trkpt lat="39.6927630" lon="-104.9688280">
    <ele>1622.0</ele>
    <time>2023-04-01T22:05:55Z</time>
   </trkpt>
   <trkpt lat="39.6927260" lon="-104.9688440">
    <ele>1622.0</ele>
    <time>2023-04-01T22:05:56Z</time>
   </trkpt>
   <trkpt lat="39.6926920" lon="-104.9688410">
    <ele>1622.0</ele>
    <time>2023-04-01T22:05:57Z</time>
   </trkpt>
   <trkpt lat="39.6926620" lon="-104.9688440">
    <ele>1622.0</ele>
    <time>2023-04-01T22:05:58Z</time>
   </trkpt>
   <trkpt lat="39.6926240" lon="-104.9688390">
    <ele>1622.1</ele>
    <time>2023-04-01T22:05:59Z</time>
   </trkpt>
   <trkpt lat="39.6926090" lon="-104.9688400">
    <ele>1622.1</ele>
    <time>2023-04-01T22:06:00Z</time>
   </trkpt>
   <trkpt lat="39.6925690" lon="-104.9688420">
    <ele>1622.1</ele>
    <time>2023-04-01T22:06:01Z</time>
   </trkpt>
   <trkpt lat="39.6925560" lon="-104.9688440">
    <ele>1622.1</ele>
    <time>2023-04-01T22:06:02Z</time>
   </trkpt>
   <trkpt lat="39.6925260" lon="-104.9688470">
    <ele>1622.1</ele>
    <time>2023-04-01T22:06:03Z</time>
   </trkpt>
   <trkpt lat="39.6924940" lon="-104.9688420">
    <ele>1622.1</ele>
    <time>2023-04-01T22:06:04Z</time>
   </trkpt>
   <trkpt lat="39.6924630" lon="-104.9688370">
    <ele>1622.2</ele>
    <time>2023-04-01T22:06:05Z</time>
   </trkpt>
   <trkpt lat="39.6924250" lon="-104.9688380">
    <ele>1622.2</ele>
    <time>2023-04-01T22:06:06Z</time>
   </trkpt>
   <trkpt lat="39.6924130" lon="-104.9688400">
    <ele>1622.2</ele>
    <time>2023-04-01T22:06:07Z</time>
   </trkpt>
   <trkpt lat="39.6923750" lon="-104.9688390">
    <ele>1622.2</ele>
    <time>2023-04-01T22:06:08Z</time>
   </trkpt>
   <trkpt lat="39.6923610" lon="-104.9688360">
    <ele>1622.2</ele>
    <time>2023-04-01T22:06:09Z</time>
   </trkpt>
   <trkpt lat="39.6923250" lon="-104.9688430">
    <ele>1622.2</ele>
    <time>2023-04-01T22:06:10Z</time>
   </trkpt>
   <trkpt lat="39.6923130" lon="-104.9688450">
    <ele>1622.2</ele>
    <time>2023-04-01T22:06:11Z</time>
   </trkpt>
   <trkpt lat="39.6922790" lon="-104.9688490">
    <ele>1622.2</ele>
    <time>2023-04-01T22:06:12Z</time>
   </trkpt>
   <trkpt lat="39.6922440" lon="-104.9688450">
    <ele>1622.2</ele>
    <time>2023-04-01T22:06:13Z</time>
   </trkpt>
   <trkpt lat="39.6922140" lon="-104.9688450">
    <ele>1622.3</ele>
    <time>2023-04-01T22:06:14Z</time>
   </trkpt>
   <trkpt lat="39.6921740" lon="-104.9688460">
    <ele>1622.3</ele>
    <time>2023-04-01T22:06:15Z</time>
   </trkpt>
   <trkpt lat="39.6921590" lon="-104.9688530">
    <ele>1622.3</ele>
    <time>2023-04-01T22:06:16Z</time>
   </trkpt>
   <trkpt lat="39.6921180" lon="-104.9688600">
    <ele>1622.3</ele>
    <time>2023-04-01T22:06:17Z</time>
   </trkpt>
   <trkpt lat="39.6921010" lon="-104.9688630">
    <ele>1622.3</ele>
    <time>2023-04-01T22:06:18Z</time>
   </trkpt>
   <trkpt lat="39.6920640" lon="-104.9688480">
    <ele>1622.3</ele>
    <time>2023-04-01T22:06:19Z</time>
   </trkpt>
   <trkpt lat="39.6920330" lon="-104.9688370">
    <ele>1622.3</ele>
    <time>2023-04-01T22:06:20Z</time>
   </trkpt>
   <trkpt lat="39.6919970" lon="-104.9688420">
    <ele>1622.3</ele>
    <time>2023-04-01T22:06:21Z</time>
   </trkpt>
   <trkpt lat="39.6919860" lon="-104.9688440">
    <ele>1622.3</ele>
    <time>2023-04-01T22:06:22Z</time>
   </trkpt>
   <trkpt lat="39.6919540" lon="-104.9688380">
    <ele>1622.3</ele>
    <time>2023-04-01T22:06:23Z</time>
   </trkpt>
   <trkpt lat="39.6919420" lon="-104.9688330">
    <ele>1622.3</ele>
    <time>2023-04-01T22:06:24Z</time>
   </trkpt>
   <trkpt lat="39.6919120" lon="-104.9688270">
    <ele>1622.4</ele>
    <time>2023-04-01T22:06:25Z</time>
   </trkpt>
   <trkpt lat="39.6918720" lon="-104.9688280">
    <ele>1622.4</ele>
    <time>2023-04-01T22:06:26Z</time>
   </trkpt>
   <trkpt lat="39.6918370" lon="-104.9688310">
    <ele>1622.4</ele>
    <time>2023-04-01T22:06:27Z</time>
   </trkpt>
   <trkpt lat="39.6918050" lon="-104.9688310">
    <ele>1622.4</ele>
    <time>2023-04-01T22:06:28Z</time>
   </trkpt>
   <trkpt lat="39.6917630" lon="-104.9688300">
    <ele>1622.4</ele>
    <time>2023-04-01T22:06:29Z</time>
   </trkpt>
   <trkpt lat="39.6917460" lon="-104.9688300">
    <ele>1622.4</ele>
    <time>2023-04-01T22:06:30Z</time>
   </trkpt>
   <trkpt lat="39.6917120" lon="-104.9688330">
    <ele>1622.4</ele>
    <time>2023-04-01T22:06:31Z</time>
   </trkpt>
   <trkpt lat="39.6916750" lon="-104.9688380">
    <ele>1622.4</ele>
    <time>2023-04-01T22:06:32Z</time>
   </trkpt>
   <trkpt lat="39.6916360" lon="-104.9688410">
    <ele>1622.4</ele>
    <time>2023-04-01T22:06:33Z</time>
   </trkpt>
   <trkpt lat="39.6915940" lon="-104.9688410">
    <ele>1622.4</ele>
    <time>2023-04-01T22:06:34Z</time>
   </trkpt>
   <trkpt lat="39.6915620" lon="-104.9688380">
    <ele>1622.4</ele>
    <time>2023-04-01T22:06:35Z</time>
   </trkpt>
   <trkpt lat="39.6915360" lon="-104.9688470">
    <ele>1622.4</ele>
    <time>2023-04-01T22:06:36Z</time>
   </trkpt>
   <trkpt lat="39.6915060" lon="-104.9688470">
    <ele>1622.4</ele>
    <time>2023-04-01T22:06:37Z</time>
   </trkpt>
   <trkpt lat="39.6914740" lon="-104.9688480">
    <ele>1622.4</ele>
    <time>2023-04-01T22:06:38Z</time>
   </trkpt>
   <trkpt lat="39.6914360" lon="-104.9688500">
    <ele>1622.4</ele>
    <time>2023-04-01T22:06:39Z</time>
   </trkpt>
   <trkpt lat="39.6914030" lon="-104.9688570">
    <ele>1622.4</ele>
    <time>2023-04-01T22:06:40Z</time>
   </trkpt>
   <trkpt lat="39.6913750" lon="-104.9688540">
    <ele>1622.4</ele>
    <time>2023-04-01T22:06:41Z</time>
   </trkpt>
   <trkpt lat="39.6913480" lon="-104.9688590">
    <ele>1622.4</ele>
    <time>2023-04-01T22:06:42Z</time>
   </trkpt>
   <trkpt lat="39.6913210" lon="-104.9688550">
    <ele>1622.4</ele>
    <time>2023-04-01T22:06:43Z</time>
   </trkpt>
   <trkpt lat="39.6912910" lon="-104.9688580">
    <ele>1622.4</ele>
    <time>2023-04-01T22:06:44Z</time>
   </trkpt>
   <trkpt lat="39.6912620" lon="-104.9688590">
    <ele>1622.4</ele>
    <time>2023-04-01T22:06:45Z</time>
   </trkpt>
   <trkpt lat="39.6912340" lon="-104.9688560">
    <ele>1622.4</ele>
    <time>2023-04-01T22:06:46Z</time>
   </trkpt>
   <trkpt lat="39.6911990" lon="-104.9688530">
    <ele>1622.4</ele>
    <time>2023-04-01T22:06:47Z</time>
   </trkpt>
   <trkpt lat="39.6911840" lon="-104.9688510">
    <ele>1622.4</ele>
    <time>2023-04-01T22:06:48Z</time>
   </trkpt>
   <trkpt lat="39.6911530" lon="-104.9688620">
    <ele>1622.4</ele>
    <time>2023-04-01T22:06:49Z</time>
   </trkpt>
   <trkpt lat="39.6911170" lon="-104.9688610">
    <ele>1622.4</ele>
    <time>2023-04-01T22:06:50Z</time>
   </trkpt>
   <trkpt lat="39.6910880" lon="-104.9688550">
    <ele>1622.4</ele>
    <time>2023-04-01T22:06:51Z</time>
   </trkpt>
   <trkpt lat="39.6910580" lon="-104.9688560">
    <ele>1622.3</ele>
    <time>2023-04-01T22:06:52Z</time>
   </trkpt>
   <trkpt lat="39.6910220" lon="-104.9688540">
    <ele>1622.3</ele>
    <time>2023-04-01T22:06:53Z</time>
   </trkpt>
   <trkpt lat="39.6909910" lon="-104.9688510">
    <ele>1622.3</ele>
    <time>2023-04-01T22:06:54Z</time>
   </trkpt>
   <trkpt lat="39.6909580" lon="-104.9688540">
    <ele>1622.2</ele>
    <time>2023-04-01T22:06:55Z</time>
   </trkpt>
   <trkpt lat="39.6909310" lon="-104.9688550">
    <ele>1622.2</ele>
    <time>2023-04-01T22:06:56Z</time>
   </trkpt>
   <trkpt lat="39.6908940" lon="-104.9688490">
    <ele>1622.2</ele>
    <time>2023-04-01T22:06:57Z</time>
   </trkpt>
   <trkpt lat="39.6908820" lon="-104.9688480">
    <ele>1622.1</ele>
    <time>2023-04-01T22:06:58Z</time>
   </trkpt>
   <trkpt lat="39.6908390" lon="-104.9688530">
    <ele>1622.1</ele>
    <time>2023-04-01T22:06:59Z</time>
   </trkpt>
   <trkpt lat="39.6908220" lon="-104.9688520">
    <ele>1622.0</ele>
    <time>2023-04-01T22:07:00Z</time>
   </trkpt>
   <trkpt lat="39.6907940" lon="-104.9688510">
    <ele>1622.0</ele>
    <time>2023-04-01T22:07:01Z</time>
   </trkpt>
   <trkpt lat="39.6907640" lon="-104.9688460">
    <ele>1621.9</ele>
    <time>2023-04-01T22:07:02Z</time>
   </trkpt>
   <trkpt lat="39.6907370" lon="-104.9688410">
    <ele>1621.9</ele>
    <time>2023-04-01T22:07:03Z</time>
   </trkpt>
   <trkpt lat="39.6907090" lon="-104.9688400">
    <ele>1621.8</ele>
    <time>2023-04-01T22:07:04Z</time>
   </trkpt>
   <trkpt lat="39.6906710" lon="-104.9688370">
    <ele>1621.8</ele>
    <time>2023-04-01T22:07:05Z</time>
   </trkpt>
   <trkpt lat="39.6906600" lon="-104.9688360">
    <ele>1621.7</ele>
    <time>2023-04-01T22:07:06Z</time>
   </trkpt>
   <trkpt lat="39.6906320" lon="-104.9688410">
    <ele>1621.7</ele>
    <time>2023-04-01T22:07:07Z</time>
   </trkpt>
   <trkpt lat="39.6905920" lon="-104.9688470">
    <ele>1621.6</ele>
    <time>2023-04-01T22:07:08Z</time>
   </trkpt>
   <trkpt lat="39.6905790" lon="-104.9688460">
    <ele>1621.6</ele>
    <time>2023-04-01T22:07:09Z</time>
   </trkpt>
   <trkpt lat="39.6905520" lon="-104.9688500">
    <ele>1621.6</ele>
    <time>2023-04-01T22:07:10Z</time>
   </trkpt>
   <trkpt lat="39.6905150" lon="-104.9688450">
    <ele>1621.5</ele>
    <time>2023-04-01T22:07:11Z</time>
   </trkpt>
   <trkpt lat="39.6905040" lon="-104.9688450">
    <ele>1621.5</ele>
    <time>2023-04-01T22:07:12Z</time>
   </trkpt>
   <trkpt lat="39.6904600" lon="-104.9688470">
    <ele>1621.5</ele>
    <time>2023-04-01T22:07:13Z</time>
   </trkpt>
   <trkpt lat="39.6904410" lon="-104.9688490">
    <ele>1621.4</ele>
    <time>2023-04-01T22:07:14Z</time>
   </trkpt>
   <trkpt lat="39.6904010" lon="-104.9688540">
    <ele>1621.4</ele>
    <time>2023-04-01T22:07:15Z</time>
   </trkpt>
   <trkpt lat="39.6903870" lon="-104.9688560">
    <ele>1621.4</ele>
    <time>2023-04-01T22:07:16Z</time>
   </trkpt>
   <trkpt lat="39.6903470" lon="-104.9688550">
    <ele>1621.3</ele>
    <time>2023-04-01T22:07:17Z</time>
   </trkpt>
   <trkpt lat="39.6903330" lon="-104.9688540">
    <ele>1621.3</ele>
    <time>2023-04-01T22:07:18Z</time>
   </trkpt>
   <trkpt lat="39.6903040" lon="-104.9688620">
    <ele>1621.3</ele>
    <time>2023-04-01T22:07:19Z</time>
   </trkpt>
   <trkpt lat="39.6902650" lon="-104.9688600">
    <ele>1621.2</ele>
    <time>2023-04-01T22:07:20Z</time>
   </trkpt>
   <trkpt lat="39.6902530" lon="-104.9688620">
    <ele>1621.2</ele>
    <time>2023-04-01T22:07:21Z</time>
   </trkpt>
   <trkpt lat="39.6902200" lon="-104.9688560">
    <ele>1621.2</ele>
    <time>2023-04-01T22:07:22Z</time>
   </trkpt>
   <trkpt lat="39.6901800" lon="-104.9688560">
    <ele>1621.1</ele>
    <time>2023-04-01T22:07:23Z</time>
   </trkpt>
   <trkpt lat="39.6901450" lon="-104.9688600">
    <ele>1621.1</ele>
    <time>2023-04-01T22:07:24Z</time>
   </trkpt>
   <trkpt lat="39.6901080" lon="-104.9688540">
    <ele>1621.0</ele>
    <time>2023-04-01T22:07:25Z</time>
   </trkpt>
   <trkpt lat="39.6900780" lon="-104.9688490">
    <ele>1621.0</ele>
    <time>2023-04-01T22:07:26Z</time>
   </trkpt>
   <trkpt lat="39.6900420" lon="-104.9688490">
    <ele>1621.0</ele>
    <time>2023-04-01T22:07:27Z</time>
   </trkpt>
   <trkpt lat="39.6900040" lon="-104.9688530">
    <ele>1620.9</ele>
    <time>2023-04-01T22:07:28Z</time>
   </trkpt>
   <trkpt lat="39.6899740" lon="-104.9688550">
    <ele>1620.9</ele>
    <time>2023-04-01T22:07:29Z</time>
   </trkpt>
   <trkpt lat="39.6899410" lon="-104.9688530">
    <ele>1620.9</ele>
    <time>2023-04-01T22:07:30Z</time>
   </trkpt>
   <trkpt lat="39.6899120" lon="-104.9688540">
    <ele>1620.8</ele>
    <time>2023-04-01T22:07:31Z</time>
   </trkpt>
   <trkpt lat="39.6898830" lon="-104.9688550">
    <ele>1620.8</ele>
    <time>2023-04-01T22:07:32Z</time>
   </trkpt>
   <trkpt lat="39.6898450" lon="-104.9688570">
    <ele>1620.8</ele>
    <time>2023-04-01T22:07:33Z</time>
   </trkpt>
   <trkpt lat="39.6898090" lon="-104.9688550">
    <ele>1620.7</ele>
    <time>2023-04-01T22:07:34Z</time>
   </trkpt>
   <trkpt lat="39.6897700" lon="-104.9688550">
    <ele>1620.7</ele>
    <time>2023-04-01T22:07:35Z</time>
   </trkpt>
   <trkpt lat="39.6897400" lon="-104.9688510">
    <ele>1620.6</ele>
    <time>2023-04-01T22:07:36Z</time>
   </trkpt>
   <trkpt lat="39.6897070" lon="-104.9688440">
    <ele>1620.6</ele>
    <time>2023-04-01T22:07:37Z</time>
   </trkpt>
   <trkpt lat="39.6896780" lon="-104.9688410">
    <ele>1620.5</ele>
    <time>2023-04-01T22:07:38Z</time>
   </trkpt>
   <trkpt lat="39.6896410" lon="-104.9688440">
    <ele>1620.5</ele>
    <time>2023-04-01T22:07:39Z</time>
   </trkpt>
   <trkpt lat="39.6896080" lon="-104.9688390">
    <ele>1620.4</ele>
    <time>2023-04-01T22:07:40Z</time>
   </trkpt>
   <trkpt lat="39.6895810" lon="-104.9688410">
    <ele>1620.4</ele>
    <time>2023-04-01T22:07:41Z</time>
   </trkpt>
   <trkpt lat="39.6895540" lon="-104.9688440">
    <ele>1620.4</ele>
    <time>2023-04-01T22:07:42Z</time>
   </trkpt>
   <trkpt lat="39.6895180" lon="-104.9688430">
    <ele>1620.4</ele>
    <time>2023-04-01T22:07:43Z</time>
   </trkpt>
   <trkpt lat="39.6894880" lon="-104.9688450">
    <ele>1620.3</ele>
    <time>2023-04-01T22:07:44Z</time>
   </trkpt>
   <trkpt lat="39.6894570" lon="-104.9688490">
    <ele>1620.3</ele>
    <time>2023-04-01T22:07:45Z</time>
   </trkpt>
   <trkpt lat="39.6894250" lon="-104.9688480">
    <ele>1620.3</ele>
    <time>2023-04-01T22:07:46Z</time>
   </trkpt>
   <trkpt lat="39.6893860" lon="-104.9688550">
    <ele>1620.3</ele>
    <time>2023-04-01T22:07:47Z</time>
   </trkpt>
   <trkpt lat="39.6893740" lon="-104.9688590">
    <ele>1620.3</ele>
    <time>2023-04-01T22:07:48Z</time>
   </trkpt>
   <trkpt lat="39.6893450" lon="-104.9688540">
    <ele>1620.3</ele>
    <time>2023-04-01T22:07:49Z</time>
   </trkpt>
   <trkpt lat="39.6893110" lon="-104.9688600">
    <ele>1620.3</ele>
    <time>2023-04-01T22:07:50Z</time>
   </trkpt>
   <trkpt lat="39.6892820" lon="-104.9688610">
    <ele>1620.3</ele>
    <time>2023-04-01T22:07:51Z</time>
   </trkpt>
   <trkpt lat="39.6892440" lon="-104.9688570">
    <ele>1620.3</ele>
    <time>2023-04-01T22:07:52Z</time>
   </trkpt>
   <trkpt lat="39.6892080" lon="-104.9688510">
    <ele>1620.3</ele>
    <time>2023-04-01T22:07:53Z</time>
   </trkpt>
   <trkpt lat="39.6891700" lon="-104.9688520">
    <ele>1620.3</ele>
    <time>2023-04-01T22:07:54Z</time>
   </trkpt>
   <trkpt lat="39.6891360" lon="-104.9688510">
    <ele>1620.3</ele>
    <time>2023-04-01T22:07:55Z</time>
   </trkpt>
   <trkpt lat="39.6891050" lon="-104.9688460">
    <ele>1620.3</ele>
    <time>2023-04-01T22:07:56Z</time>
   </trkpt>
   <trkpt lat="39.6890730" lon="-104.9688400">
    <ele>1620.3</ele>
    <time>2023-04-01T22:07:57Z</time>
   </trkpt>
   <trkpt lat="39.6890310" lon="-104.9688370">
    <ele>1620.3</ele>
    <time>2023-04-01T22:07:58Z</time>
   </trkpt>
   <trkpt lat="39.6890150" lon="-104.9688370">
    <ele>1620.3</ele>
    <time>2023-04-01T22:07:59Z</time>
   </trkpt>
   <trkpt lat="39.6889870" lon="-104.9688330">
    <ele>1620.3</ele>
    <time>2023-04-01T22:08:00Z</time>
   </trkpt>
   <trkpt lat="39.6889580" lon="-104.9688350">
    <ele>1620.3</ele>
    <time>2023-04-01T22:08:01Z</time>
   </trkpt>
   <trkpt lat="39.6889310" lon="-104.9688370">
    <ele>1620.3</ele>
    <time>2023-04-01T22:08:02Z</time>
   </trkpt>
   <trkpt lat="39.6888970" lon="-104.9688330">
    <ele>1620.3</ele>
    <time>2023-04-01T22:08:03Z</time>
   </trkpt>
   <trkpt lat="39.6888580" lon="-104.9688400">
    <ele>1620.4</ele>
    <time>2023-04-01T22:08:04Z</time>
   </trkpt>
   <trkpt lat="39.6888180" lon="-104.9688430">
    <ele>1620.4</ele>
    <time>2023-04-01T22:08:05Z</time>
   </trkpt>
   <trkpt lat="39.6887800" lon="-104.9688490">
    <ele>1620.4</ele>
    <time>2023-04-01T22:08:06Z</time>
   </trkpt>
   <trkpt lat="39.6887680" lon="-104.9688490">
    <ele>1620.4</ele>
    <time>2023-04-01T22:08:07Z</time>
   </trkpt>
   <trkpt lat="39.6887400" lon="-104.9688440">
    <ele>1620.4</ele>
    <time>2023-04-01T22:08:08Z</time>
   </trkpt>
   <trkpt lat="39.6887090" lon="-104.9688480">
    <ele>1620.5</ele>
    <time>2023-04-01T22:08:09Z</time>
   </trkpt>
   <trkpt lat="39.6886740" lon="-104.9688430">
    <ele>1620.5</ele>
    <time>2023-04-01T22:08:10Z</time>
   </trkpt>
   <trkpt lat="39.6886450" lon="-104.9688450">
    <ele>1620.5</ele>
    <time>2023-04-01T22:08:11Z</time>
   </trkpt>
   <trkpt lat="39.6886060" lon="-104.9688480">
    <ele>1620.5</ele>
    <time>2023-04-01T22:08:12Z</time>
   </trkpt>
   <trkpt lat="39.6885940" lon="-104.9688480">
    <ele>1620.6</ele>
    <time>2023-04-01T22:08:13Z</time>
   </trkpt>
   <trkpt lat="39.6885620" lon="-104.9688530">
    <ele>1620.6</ele>
    <time>2023-04-01T22:08:14Z</time>
   </trkpt>
   <trkpt lat="39.6885320" lon="-104.9688590">
    <ele>1620.6</ele>
    <time>2023-04-01T22:08:15Z</time>
   </trkpt>
   <trkpt lat="39.6885040" lon="-104.9688640">
    <ele>1620.6</ele>
    <time>2023-04-01T22:08:16Z</time>
   </trkpt>
   <trkpt lat="39.6884760" lon="-104.9688630">
    <ele>1620.7</ele>
    <time>2023-04-01T22:08:17Z</time>
   </trkpt>
   <trkpt lat="39.6884420" lon="-104.9688630">
    <ele>1620.7</ele>
    <time>2023-04-01T22:08:18Z</time>
   </trkpt>
   <trkpt lat="39.6884300" lon="-104.9688620">
    <ele>1620.7</ele>
    <time>2023-04-01T22:08:19Z</time>
   </trkpt>
   <trkpt lat="39.6884030" lon="-104.9688610">
    <ele>1620.8</ele>
    <time>2023-04-01T22:08:20Z</time>
   </trkpt>
   <trkpt lat="39.6883710" lon="-104.9688580">
    <ele>1620.8</ele>
    <time>2023-04-01T22:08:21Z</time>
   </trkpt>
   <trkpt lat="39.6883430" lon="-104.9688540">
    <ele>1620.8</ele>
    <time>2023-04-01T22:08:22Z</time>
   </trkpt>
   <trkpt lat="39.6882990" lon="-104.9688570">
    <ele>1620.9</ele>
    <time>2023-04-01T22:08:23Z</time>
   </trkpt>
   <trkpt lat="39.6882800" lon="-104.9688550">
    <ele>1620.9</ele>
    <time>2023-04-01T22:08:24Z</time>
   </trkpt>
   <trkpt lat="39.6882520" lon="-104.9688570">
    <ele>1620.9</ele>
    <time>2023-04-01T22:08:25Z</time>
   </trkpt>
   <trkpt lat="39.6882230" lon="-104.9688540">
    <ele>1621.0</ele>
    <time>2023-04-01T22:08:26Z</time>
   </trkpt>
   <trkpt lat="39.6881850" lon="-104.9688620">
    <ele>1621.0</ele>
    <time>2023-04-01T22:08:27Z</time>
   </trkpt>
   <trkpt lat="39.6881440" lon="-104.9688580">
    <ele>1621.1</ele>
    <time>2023-04-01T22:08:28Z</time>
   </trkpt>
   <trkpt lat="39.6881060" lon="-104.9688560">
    <ele>1621.1</ele>
    <time>2023-04-01T22:08:29Z</time>
   </trkpt>
   <trkpt lat="39.6880950" lon="-104.9688540">
    <ele>1621.2</ele>
    <time>2023-04-01T22:08:30Z</time>
   </trkpt>
   <trkpt lat="39.6880680" lon="-104.9688500">
    <ele>1621.2</ele>
    <time>2023-04-01T22:08:31Z</time>
   </trkpt>
   <trkpt lat="39.6880300" lon="-104.9688390">
    <ele>1621.3</ele>
    <time>2023-04-01T22:08:32Z</time>
   </trkpt>
   <trkpt lat="39.6879990" lon="-104.9688380">
    <ele>1621.3</ele>
    <time>2023-04-01T22:08:33Z</time>
   </trkpt>
   <trkpt lat="39.6879660" lon="-104.9688370">
    <ele>1621.4</ele>
    <time>2023-04-01T22:08:34Z</time>
   </trkpt>
   <trkpt lat="39.6879340" lon="-104.9688410">
    <ele>1621.4</ele>
    <time>2023-04-01T22:08:35Z</time>
   </trkpt>
   <trkpt lat="39.6878960" lon="-104.9688400">
    <ele>1621.5</ele>
    <time>2023-04-01T22:08:36Z</time>
   </trkpt>
   <trkpt lat="39.6878550" lon="-104.9688390">
    <ele>1621.6</ele>
    <time>2023-04-01T22:08:37Z</time>
   </trkpt>
   <trkpt lat="39.6878260" lon="-104.9688380">
    <ele>1621.7</ele>
    <time>2023-04-01T22:08:38Z</time>
   </trkpt>
   <trkpt lat="39.6877890" lon="-104.9688340">
    <ele>1621.8</ele>
    <time>2023-04-01T22:08:39Z</time>
   </trkpt>
   <trkpt lat="39.6877750" lon="-104.9688350">
    <ele>1621.9</ele>
    <time>2023-04-01T22:08:40Z</time>
   </trkpt>
   <trkpt lat="39.6877300" lon="-104.9688350">
    <ele>1622.0</ele>
    <time>2023-04-01T22:08:41Z</time>
   </trkpt>
   <trkpt lat="39.6876900" lon="-104.9688360">
    <ele>1622.1</ele>
    <time>2023-04-01T22:08:42Z</time>
   </trkpt>
   <trkpt lat="39.6876620" lon="-104.9688330">
    <ele>1622.1</ele>
    <time>2023-04-01T22:08:43Z</time>
   </trkpt>
   <trkpt lat="39.6876350" lon="-104.9688300">
    <ele>1622.2</ele>
    <time>2023-04-01T22:08:44Z</time>
   </trkpt>
   <trkpt lat="39.6875990" lon="-104.9688300">
    <ele>1622.3</ele>
    <time>2023-04-01T22:08:45Z</time>
   </trkpt>
   <trkpt lat="39.6875870" lon="-104.9688270">
    <ele>1622.3</ele>
    <time>2023-04-01T22:08:46Z</time>
   </trkpt>
   <trkpt lat="39.6875800" lon="-104.9688250">
    <ele>1622.3</ele>
    <time>2023-04-01T22:08:47Z</time>
   </trkpt>
   <trkpt lat="39.6875710" lon="-104.9688250">
    <ele>1622.4</ele>
    <time>2023-04-01T22:08:48Z</time>
   </trkpt>
   <trkpt lat="39.6875640" lon="-104.9688260">
    <ele>1622.4</ele>
    <time>2023-04-01T22:08:49Z</time>
   </trkpt>
   <trkpt lat="39.6875580" lon="-104.9688280">
    <ele>1622.4</ele>
    <time>2023-04-01T22:08:50Z</time>
   </trkpt>
   <trkpt lat="39.6875390" lon="-104.9688250">
    <ele>1622.4</ele>
    <time>2023-04-01T22:08:51Z</time>
   </trkpt>
   <trkpt lat="39.6875290" lon="-104.9688230">
    <ele>1622.5</ele>
    <time>2023-04-01T22:08:52Z</time>
   </trkpt>
   <trkpt lat="39.6875180" lon="-104.9688200">
    <ele>1622.5</ele>
    <time>2023-04-01T22:08:53Z</time>
   </trkpt>
   <trkpt lat="39.6875080" lon="-104.9688240">
    <ele>1622.5</ele>
    <time>2023-04-01T22:08:54Z</time>
   </trkpt>
   <trkpt lat="39.6874990" lon="-104.9688290">
    <ele>1622.5</ele>
    <time>2023-04-01T22:08:55Z</time>
   </trkpt>
   <trkpt lat="39.6874870" lon="-104.9688300">
    <ele>1622.6</ele>
    <time>2023-04-01T22:08:56Z</time>
   </trkpt>
   <trkpt lat="39.6873760" lon="-104.9688250">
    <ele>1622.9</ele>
    <time>2023-04-01T22:09:05Z</time>
   </trkpt>
   <trkpt lat="39.6873600" lon="-104.9688290">
    <ele>1622.9</ele>
    <time>2023-04-01T22:09:06Z</time>
   </trkpt>
   <trkpt lat="39.6873220" lon="-104.9688250">
    <ele>1623.0</ele>
    <time>2023-04-01T22:09:07Z</time>
   </trkpt>
   <trkpt lat="39.6873090" lon="-104.9688240">
    <ele>1623.1</ele>
    <time>2023-04-01T22:09:08Z</time>
   </trkpt>
   <trkpt lat="39.6872750" lon="-104.9688350">
    <ele>1623.2</ele>
    <time>2023-04-01T22:09:09Z</time>
   </trkpt>
   <trkpt lat="39.6872620" lon="-104.9688370">
    <ele>1623.2</ele>
    <time>2023-04-01T22:09:10Z</time>
   </trkpt>
   <trkpt lat="39.6872260" lon="-104.9688270">
    <ele>1623.3</ele>
    <time>2023-04-01T22:09:11Z</time>
   </trkpt>
   <trkpt lat="39.6872140" lon="-104.9688300">
    <ele>1623.4</ele>
    <time>2023-04-01T22:09:12Z</time>
   </trkpt>
   <trkpt lat="39.6871780" lon="-104.9688290">
    <ele>1623.5</ele>
    <time>2023-04-01T22:09:13Z</time>
   </trkpt>
   <trkpt lat="39.6871670" lon="-104.9688250">
    <ele>1623.5</ele>
    <time>2023-04-01T22:09:14Z</time>
   </trkpt>
   <trkpt lat="39.6871400" lon="-104.9688460">
    <ele>1623.6</ele>
    <time>2023-04-01T22:09:15Z</time>
   </trkpt>
   <trkpt lat="39.6871020" lon="-104.9688500">
    <ele>1623.7</ele>
    <time>2023-04-01T22:09:16Z</time>
   </trkpt>
   <trkpt lat="39.6870120" lon="-104.9688500">
    <ele>1624.0</ele>
    <time>2023-04-01T22:09:17Z</time>
   </trkpt>
   <trkpt lat="39.6869360" lon="-104.9688470">
    <ele>1624.1</ele>
    <time>2023-04-01T22:09:18Z</time>
   </trkpt>
   <trkpt lat="39.6868600" lon="-104.9688430">
    <ele>1624.2</ele>
    <time>2023-04-01T22:10:33Z</time>
   </trkpt>
   <trkpt lat="39.6867840" lon="-104.9688400">
    <ele>1624.3</ele>
    <time>2023-04-01T22:10:34Z</time>
   </trkpt>
   <trkpt lat="39.6867080" lon="-104.9688360">
    <ele>1624.5</ele>
    <time>2023-04-01T22:10:35Z</time>
   </trkpt>
   <trkpt lat="39.6866740" lon="-104.9688290">
    <ele>1624.5</ele>
    <time>2023-04-01T22:10:36Z</time>
   </trkpt>
   <trkpt lat="39.6866580" lon="-104.9688330">
    <ele>1624.6</ele>
    <time>2023-04-01T22:10:37Z</time>
   </trkpt>
   <trkpt lat="39.6866200" lon="-104.9688350">
    <ele>1624.6</ele>
    <time>2023-04-01T22:10:38Z</time>
   </trkpt>
   <trkpt lat="39.6865810" lon="-104.9688260">
    <ele>1624.7</ele>
    <time>2023-04-01T22:10:39Z</time>
   </trkpt>
   <trkpt lat="39.6865500" lon="-104.9688270">
    <ele>1624.8</ele>
    <time>2023-04-01T22:10:40Z</time>
   </trkpt>
   <trkpt lat="39.6865210" lon="-104.9688280">
    <ele>1624.8</ele>
    <time>2023-04-01T22:10:41Z</time>
   </trkpt>
   <trkpt lat="39.6865060" lon="-104.9688310">
    <ele>1624.9</ele>
    <time>2023-04-01T22:10:42Z</time>
   </trkpt>
   <trkpt lat="39.6864580" lon="-104.9688380">
    <ele>1625.0</ele>
    <time>2023-04-01T22:10:43Z</time>
   </trkpt>
   <trkpt lat="39.6864190" lon="-104.9688470">
    <ele>1625.0</ele>
    <time>2023-04-01T22:10:44Z</time>
   </trkpt>
   <trkpt lat="39.6863780" lon="-104.9688550">
    <ele>1625.1</ele>
    <time>2023-04-01T22:10:45Z</time>
   </trkpt>
   <trkpt lat="39.6863440" lon="-104.9688510">
    <ele>1625.2</ele>
    <time>2023-04-01T22:10:46Z</time>
   </trkpt>
   <trkpt lat="39.6863120" lon="-104.9688420">
    <ele>1625.2</ele>
    <time>2023-04-01T22:10:47Z</time>
   </trkpt>
   <trkpt lat="39.6862830" lon="-104.9688480">
    <ele>1625.3</ele>
    <time>2023-04-01T22:10:48Z</time>
   </trkpt>
   <trkpt lat="39.6862560" lon="-104.9688530">
    <ele>1625.3</ele>
    <time>2023-04-01T22:10:49Z</time>
   </trkpt>
   <trkpt lat="39.6862180" lon="-104.9688500">
    <ele>1625.4</ele>
    <time>2023-04-01T22:10:50Z</time>
   </trkpt>
   <trkpt lat="39.6861780" lon="-104.9688460">
    <ele>1625.4</ele>
    <time>2023-04-01T22:10:51Z</time>
   </trkpt>
   <trkpt lat="39.6861480" lon="-104.9688480">
    <ele>1625.5</ele>
    <time>2023-04-01T22:10:52Z</time>
   </trkpt>
   <trkpt lat="39.6861200" lon="-104.9688520">
    <ele>1625.6</ele>
    <time>2023-04-01T22:10:53Z</time>
   </trkpt>
   <trkpt lat="39.6860890" lon="-104.9688520">
    <ele>1625.6</ele>
    <time>2023-04-01T22:10:54Z</time>
   </trkpt>
   <trkpt lat="39.6860760" lon="-104.9688500">
    <ele>1625.6</ele>
    <time>2023-04-01T22:10:55Z</time>
   </trkpt>
   <trkpt lat="39.6860470" lon="-104.9688460">
    <ele>1625.7</ele>
    <time>2023-04-01T22:10:56Z</time>
   </trkpt>
   <trkpt lat="39.6860100" lon="-104.9688500">
    <ele>1625.8</ele>
    <time>2023-04-01T22:10:57Z</time>
   </trkpt>
   <trkpt lat="39.6859740" lon="-104.9688540">
    <ele>1625.8</ele>
    <time>2023-04-01T22:10:58Z</time>
   </trkpt>
   <trkpt lat="39.6859400" lon="-104.9688470">
    <ele>1625.9</ele>
    <time>2023-04-01T22:10:59Z</time>
   </trkpt>
   <trkpt lat="39.6859310" lon="-104.9688430">
    <ele>1625.9</ele>
    <time>2023-04-01T22:11:00Z</time>
   </trkpt>
   <trkpt lat="39.6858970" lon="-104.9688380">
    <ele>1626.0</ele>
    <time>2023-04-01T22:11:01Z</time>
   </trkpt>
   <trkpt lat="39.6858820" lon="-104.9688420">
    <ele>1626.0</ele>
    <time>2023-04-01T22:11:02Z</time>
   </trkpt>
   <trkpt lat="39.6858500" lon="-104.9688440">
    <ele>1626.0</ele>
    <time>2023-04-01T22:11:03Z</time>
   </trkpt>
   <trkpt lat="39.6858230" lon="-104.9688490">
    <ele>1626.1</ele>
    <time>2023-04-01T22:11:04Z</time>
   </trkpt>
   <trkpt lat="39.6857930" lon="-104.9688550">
    <ele>1626.1</ele>
    <time>2023-04-01T22:11:05Z</time>
   </trkpt>
   <trkpt lat="39.6857650" lon="-104.9688530">
    <ele>1626.1</ele>
    <time>2023-04-01T22:11:06Z</time>
   </trkpt>
   <trkpt lat="39.6857220" lon="-104.9688530">
    <ele>1626.2</ele>
    <time>2023-04-01T22:11:07Z</time>
   </trkpt>
   <trkpt lat="39.6857060" lon="-104.9688510">
    <ele>1626.2</ele>
    <time>2023-04-01T22:11:08Z</time>
   </trkpt>
   <trkpt lat="39.6856770" lon="-104.9688560">
    <ele>1626.3</ele>
    <time>2023-04-01T22:11:09Z</time>
   </trkpt>
   <trkpt lat="39.6856430" lon="-104.9688590">
    <ele>1626.3</ele>
    <time>2023-04-01T22:11:10Z</time>
   </trkpt>
   <trkpt lat="39.6856120" lon="-104.9688580">
    <ele>1626.3</ele>
    <time>2023-04-01T22:11:11Z</time>
   </trkpt>
   <trkpt lat="39.6855830" lon="-104.9688650">
    <ele>1626.3</ele>
    <time>2023-04-01T22:11:12Z</time>
   </trkpt>
   <trkpt lat="39.6855440" lon="-104.9688630">
    <ele>1626.4</ele>
    <time>2023-04-01T22:11:13Z</time>
   </trkpt>
   <trkpt lat="39.6855300" lon="-104.9688620">
    <ele>1626.4</ele>
    <time>2023-04-01T22:11:14Z</time>
   </trkpt>
   <trkpt lat="39.6855000" lon="-104.9688630">
    <ele>1626.4</ele>
    <time>2023-04-01T22:11:15Z</time>
   </trkpt>
   <trkpt lat="39.6854680" lon="-104.9688590">
    <ele>1626.4</ele>
    <time>2023-04-01T22:11:16Z</time>
   </trkpt>
   <trkpt lat="39.6854580" lon="-104.9688550">
    <ele>1626.5</ele>
    <time>2023-04-01T22:11:17Z</time>
   </trkpt>
   <trkpt lat="39.6854230" lon="-104.9688460">
    <ele>1626.5</ele>
    <time>2023-04-01T22:11:18Z</time>
   </trkpt>
   <trkpt lat="39.6854120" lon="-104.9688450">
    <ele>1626.5</ele>
    <time>2023-04-01T22:11:19Z</time>
   </trkpt>
   <trkpt lat="39.6853740" lon="-104.9688460">
    <ele>1626.5</ele>
    <time>2023-04-01T22:11:20Z</time>
   </trkpt>
   <trkpt lat="39.6853580" lon="-104.9688490">
    <ele>1626.5</ele>
    <time>2023-04-01T22:11:21Z</time>
   </trkpt>
   <trkpt lat="39.6853300" lon="-104.9688530">
    <ele>1626.5</ele>
    <time>2023-04-01T22:11:22Z</time>
   </trkpt>
   <trkpt lat="39.6853000" lon="-104.9688490">
    <ele>1626.6</ele>
    <time>2023-04-01T22:11:23Z</time>
   </trkpt>
   <trkpt lat="39.6852710" lon="-104.9688550">
    <ele>1626.6</ele>
    <time>2023-04-01T22:11:24Z</time>
   </trkpt>
   <trkpt lat="39.6852390" lon="-104.9688580">
    <ele>1626.6</ele>
    <time>2023-04-01T22:11:25Z</time>
   </trkpt>
   <trkpt lat="39.6851990" lon="-104.9688600">
    <ele>1626.6</ele>
    <time>2023-04-01T22:11:26Z</time>
   </trkpt>
   <trkpt lat="39.6851860" lon="-104.9688600">
    <ele>1626.7</ele>
    <time>2023-04-01T22:11:27Z</time>
   </trkpt>
   <trkpt lat="39.6851580" lon="-104.9688620">
    <ele>1626.7</ele>
    <time>2023-04-01T22:11:28Z</time>
   </trkpt>
   <trkpt lat="39.6851310" lon="-104.9688620">
    <ele>1626.7</ele>
    <time>2023-04-01T22:11:29Z</time>
   </trkpt>
   <trkpt lat="39.6851000" lon="-104.9688640">
    <ele>1626.7</ele>
    <time>2023-04-01T22:11:30Z</time>
   </trkpt>
   <trkpt lat="39.6850730" lon="-104.9688670">
    <ele>1626.7</ele>
    <time>2023-04-01T22:11:31Z</time>
   </trkpt>
   <trkpt lat="39.6850460" lon="-104.9688730">
    <ele>1626.8</ele>
    <time>2023-04-01T22:11:32Z</time>
   </trkpt>
   <trkpt lat="39.6850150" lon="-104.9688720">
    <ele>1626.8</ele>
    <time>2023-04-01T22:11:33Z</time>
   </trkpt>
   <trkpt lat="39.6849830" lon="-104.9688710">
    <ele>1626.8</ele>
    <time>2023-04-01T22:11:34Z</time>
   </trkpt>
   <trkpt lat="39.6849450" lon="-104.9688690">
    <ele>1626.8</ele>
    <time>2023-04-01T22:11:35Z</time>
   </trkpt>
   <trkpt lat="39.6849320" lon="-104.9688720">
    <ele>1626.8</ele>
    <time>2023-04-01T22:11:36Z</time>
   </trkpt>
   <trkpt lat="39.6848930" lon="-104.9688680">
    <ele>1626.8</ele>
    <time>2023-04-01T22:11:37Z</time>
   </trkpt>
   <trkpt lat="39.6848780" lon="-104.9688650">
    <ele>1626.8</ele>
    <time>2023-04-01T22:11:38Z</time>
   </trkpt>
   <trkpt lat="39.6848480" lon="-104.9688660">
    <ele>1626.8</ele>
    <time>2023-04-01T22:11:39Z</time>
   </trkpt>
   <trkpt lat="39.6848180" lon="-104.9688660">
    <ele>1626.9</ele>
    <time>2023-04-01T22:11:40Z</time>
   </trkpt>
   <trkpt lat="39.6847830" lon="-104.9688630">
    <ele>1626.9</ele>
    <time>2023-04-01T22:11:41Z</time>
   </trkpt>
   <trkpt lat="39.6847480" lon="-104.9688630">
    <ele>1626.9</ele>
    <time>2023-04-01T22:11:42Z</time>
   </trkpt>
   <trkpt lat="39.6847190" lon="-104.9688610">
    <ele>1626.9</ele>
    <time>2023-04-01T22:11:43Z</time>
   </trkpt>
   <trkpt lat="39.6846880" lon="-104.9688640">
    <ele>1626.9</ele>
    <time>2023-04-01T22:11:44Z</time>
   </trkpt>
   <trkpt lat="39.6846770" lon="-104.9688690">
    <ele>1626.9</ele>
    <time>2023-04-01T22:11:45Z</time>
   </trkpt>
   <trkpt lat="39.6846530" lon="-104.9688650">
    <ele>1626.9</ele>
    <time>2023-04-01T22:11:46Z</time>
   </trkpt>
   <trkpt lat="39.6846470" lon="-104.9688620">
    <ele>1626.9</ele>
    <time>2023-04-01T22:11:47Z</time>
   </trkpt>
   <trkpt lat="39.6846410" lon="-104.9688580">
    <ele>1626.9</ele>
    <time>2023-04-01T22:11:48Z</time>
   </trkpt>
   <trkpt lat="39.6846290" lon="-104.9688570">
    <ele>1627.0</ele>
    <time>2023-04-01T22:11:49Z</time>
   </trkpt>
   <trkpt lat="39.6846220" lon="-104.9688530">
    <ele>1627.0</ele>
    <time>2023-04-01T22:11:50Z</time>
   </trkpt>
   <trkpt lat="39.6846140" lon="-104.9688530">
    <ele>1627.0</ele>
    <time>2023-04-01T22:11:51Z</time>
   </trkpt>
  </trkseg>
 </trk>
</gpx>
