<?xml version="1.0" encoding="UTF-8"?>
<gpx creator="StravaGPX" version="1.1" xmlns="http://www.topografix.com/GPX/1/1" xmlns:xsi="http://www.w3.org/2001/XMLSchema-instance" xsi:schemaLocation="http://www.topografix.com/GPX/1/1 http://www.topografix.com/GPX/1/1/gpx.xsd">
 <metadata>
  <time>2023-04-01T19:57:02Z</time>
 </metadata>
 <trk>
  <name>Run part 1</name>
  <type>running</type>
  <trkseg>
   <trkpt lat="39.6827610" lon="-104.9599580">
    <ele>1631.2</ele>
    <time>2023-04-01T19:57:02Z</time>
   </trkpt>
   <trkpt lat="39.6827660" lon="-104.9599780">
    <ele>1631.2</ele>
    <time>2023-04-01T19:57:03Z</time>
   </trkpt>
   <trkpt lat="39.6827630" lon="-104.9600010">
    <ele>1631.1</ele>
    <time>2023-04-01T19:57:04Z</time>
   </trkpt>
   <trkpt lat="39.6827590" lon="-104.9600420">
    <ele>1631.1</ele>
    <time>2023-04-01T19:57:05Z</time>
   </trkpt>
   <trkpt lat="39.6827590" lon="-104.9600570">
    <ele>1631.0</ele>
    <time>2023-04-01T19:57:06Z</time>
   </trkpt>
   <trkpt lat="39.6827600" lon="-104.9601050">
    <ele>1631.0</ele>
    <time>2023-04-01T19:57:07Z</time>
   </trkpt>
   <trkpt lat="39.6827660" lon="-104.9601220">
    <ele>1631.0</ele>
    <time>2023-04-01T19:57:08Z</time>
   </trkpt>
   <trkpt lat="39.6827730" lon="-104.9601690">
    <ele>1630.9</ele>
    <time>2023-04-01T19:57:09Z</time>
   </trkpt>
   <trkpt lat="39.6827740" lon="-104.9601860">
    <ele>1630.9</ele>
    <time>2023-04-01T19:57:10Z</time>
   </trkpt>
   <trkpt lat="39.6827880" lon="-104.9602300">
    <ele>1630.8</ele>
    <time>2023-04-01T19:57:11Z</time>
   </trkpt>
   <trkpt lat="39.6827910" lon="-104.9602440">
    <ele>1630.8</ele>
    <time>2023-04-01T19:57:12Z</time>
   </trkpt>
   <trkpt lat="39.6827970" lon="-104.9602980">
    <ele>1630.8</ele>
    <time>2023-04-01T19:57:13Z</time>
   </trkpt>
   <trkpt lat="39.6827960" lon="-104.9603210">
    <ele>1630.7</ele>
    <time>2023-04-01T19:57:14Z</time>
   </trkpt>
   <trkpt lat="39.6827950" lon="-104.9603580">
    <ele>1630.7</ele>
    <time>2023-04-01T19:57:15Z</time>
   </trkpt>
   <trkpt lat="39.6828050" lon="-104.9603970">
    <ele>1630.6</ele>
    <time>2023-04-01T19:57:16Z</time>
   </trkpt>
   <trkpt lat="39.6828130" lon="-104.9604340">
    <ele>1630.6</ele>
    <time>2023-04-01T19:57:17Z</time>
   </trkpt>
   <trkpt lat="39.6828150" lon="-104.9604750">
    <ele>1630.5</ele>
    <time>2023-04-01T19:57:18Z</time>
   </trkpt>
   <trkpt lat="39.6828210" lon="-104.9605160">
    <ele>1630.5</ele>
    <time>2023-04-01T19:57:19Z</time>
   </trkpt>
   <trkpt lat="39.6828310" lon="-104.9605560">
    <ele>1630.5</ele>
    <time>2023-04-01T19:57:20Z</time>
   </trkpt>
   <trkpt lat="39.6828330" lon="-104.9605970">
    <ele>1630.4</ele>
    <time>2023-04-01T19:57:21Z</time>
   </trkpt>
   <trkpt lat="39.6828450" lon="-104.9606670">
    <ele>1630.3</ele>
    <time>2023-04-01T19:57:22Z</time>
   </trkpt>
   <trkpt lat="39.6828590" lon="-104.9607360">
    <ele>1630.3</ele>
    <time>2023-04-01T19:57:23Z</time>
   </trkpt>
   <trkpt lat="39.6828630" lon="-104.9607840">
    <ele>1630.2</ele>
    <time>2023-04-01T19:57:24Z</time>
   </trkpt>
   <trkpt lat="39.6828630" lon="-104.9608340">
    <ele>1630.2</ele>
    <time>2023-04-01T19:57:25Z</time>
   </trkpt>
   <trkpt lat="39.6828600" lon="-104.9608920">
    <ele>1630.1</ele>
    <time>2023-04-01T19:57:26Z</time>
   </trkpt>
   <trkpt lat="39.6828410" lon="-104.9609760">
    <ele>1630.0</ele>
    <time>2023-04-01T19:57:27Z</time>
   </trkpt>
   <trkpt lat="39.6828660" lon="-104.9609990">
    <ele>1629.9</ele>
    <time>2023-04-01T19:57:28Z</time>
   </trkpt>
   <trkpt lat="39.6829030" lon="-104.9610350">
    <ele>1629.9</ele>
    <time>2023-04-01T19:57:29Z</time>
   </trkpt>
   <trkpt lat="39.6829080" lon="-104.9610780">
    <ele>1629.8</ele>
    <time>2023-04-01T19:57:30Z</time>
   </trkpt>
   <trkpt lat="39.6829150" lon="-104.9611280">
    <ele>1629.7</ele>
    <time>2023-04-01T19:57:31Z</time>
   </trkpt>
   <trkpt lat="39.6829280" lon="-104.9611740">
    <ele>1629.7</ele>
    <time>2023-04-01T19:57:32Z</time>
   </trkpt>
   <trkpt lat="39.6829420" lon="-104.9612150">
    <ele>1629.6</ele>
    <time>2023-04-01T19:57:33Z</time>
   </trkpt>
   <trkpt lat="39.6829620" lon="-104.9612620">
    <ele>1629.5</ele>
    <time>2023-04-01T19:57:34Z</time>
   </trkpt>
   <trkpt lat="39.6829850" lon="-104.9613170">
    <ele>1629.5</ele>
    <time>2023-04-01T19:57:35Z</time>
   </trkpt>
   <trkpt lat="39.6829950" lon="-104.9613690">
    <ele>1629.4</ele>
    <time>2023-04-01T19:57:36Z</time>
   </trkpt>
   <trkpt lat="39.6830080" lon="-104.9614100">
    <ele>1629.3</ele>
    <time>2023-04-01T19:57:37Z</time>
   </trkpt>
   <trkpt lat="39.6830240" lon="-104.9614650">
    <ele>1629.3</ele>
    <time>2023-04-01T19:57:38Z</time>
   </trkpt>
   <trkpt lat="39.6830350" lon="-104.9615010">
    <ele>1629.2</ele>
    <time>2023-04-01T19:57:39Z</time>
   </trkpt>
   <trkpt lat="39.6830540" lon="-104.9615470">
    <ele>1629.1</ele>
    <time>2023-04-01T19:57:40Z</time>
   </trkpt>
   <trkpt lat="39.6830610" lon="-104.9616080">
    <ele>1629.1</ele>
    <time>2023-04-01T19:57:41Z</time>
   </trkpt>
   <trkpt lat="39.6830690" lon="-104.9616430">
    <ele>1629.0</ele>
    <time>2023-04-01T19:57:42Z</time>
   </trkpt>
   <trkpt lat="39.6830770" lon="-104.9616770">
    <ele>1629.0</ele>
    <time>2023-04-01T19:57:43Z</time>
   </trkpt>
   <trkpt lat="39.6830870" lon="-104.9617360">
    <ele>1629.0</ele>
    <time>2023-04-01T19:57:44Z</time>
   </trkpt>
   <trkpt lat="39.6830940" lon="-104.9617840">
    <ele>1629.0</ele>
    <time>2023-04-01T19:57:45Z</time>
   </trkpt>
   <trkpt lat="39.6831130" lon="-104.9618240">
    <ele>1628.9</ele>
    <time>2023-04-01T19:57:46Z</time>
   </trkpt>
   <trkpt lat="39.6831260" lon="-104.9618710">
    <ele>1628.9</ele>
    <time>2023-04-01T19:57:47Z</time>
   </trkpt>
   <trkpt lat="39.6831390" lon="-104.9619060">
    <ele>1628.9</ele>
    <time>2023-04-01T19:57:48Z</time>
   </trkpt>
   <trkpt lat="39.6831550" lon="-104.9619520">
    <ele>1628.8</ele>
    <time>2023-04-01T19:57:49Z</time>
   </trkpt>
   <trkpt lat="39.6831700" lon="-104.9620050">
    <ele>1628.7</ele>
    <time>2023-04-01T19:57:50Z</time>
   </trkpt>
   <trkpt lat="39.6831880" lon="-104.9620520">
    <ele>1628.7</ele>
    <time>2023-04-01T19:57:51Z</time>
   </trkpt>
   <trkpt lat="39.6832000" lon="-104.9620680">
    <ele>1628.6</ele>
    <time>2023-04-01T19:57:52Z</time>
   </trkpt>
   <trkpt lat="39.6832090" lon="-104.9621140">
    <ele>1628.6</ele>
    <time>2023-04-01T19:57:53Z</time>
   </trkpt>
   <trkpt lat="39.6832180" lon="-104.9621490">
    <ele>1628.5</ele>
    <time>2023-04-01T19:57:54Z</time>
   </trkpt>
   <trkpt lat="39.6832260" lon="-104.9622000">
    <ele>1628.4</ele>
    <time>2023-04-01T19:57:55Z</time>
   </trkpt>
   <trkpt lat="39.6832330" lon="-104.9622430">
    <ele>1628.3</ele>
    <time>2023-04-01T19:57:56Z</time>
   </trkpt>
   <trkpt lat="39.6832500" lon="-104.9622720">
    <ele>1628.3</ele>
    <time>2023-04-01T19:57:57Z</time>
   </trkpt>
   <trkpt lat="39.6832770" lon="-104.9623200">
    <ele>1628.2</ele>
    <time>2023-04-01T19:57:58Z</time>
   </trkpt>
   <trkpt lat="39.6832950" lon="-104.9623560">
    <ele>1628.1</ele>
    <time>2023-04-01T19:57:59Z</time>
   </trkpt>
   <trkpt lat="39.6833120" lon="-104.9623910">
    <ele>1628.1</ele>
    <time>2023-04-01T19:58:00Z</time>
   </trkpt>
   <trkpt lat="39.6833220" lon="-104.9624460">
    <ele>1628.0</ele>
    <time>2023-04-01T19:58:01Z</time>
   </trkpt>
   <trkpt lat="39.6833320" lon="-104.9624790">
    <ele>1627.9</ele>
    <time>2023-04-01T19:58:02Z</time>
   </trkpt>
   <trkpt lat="39.6833390" lon="-104.9625190">
    <ele>1627.9</ele>
    <time>2023-04-01T19:58:03Z</time>
   </trkpt>
   <trkpt lat="39.6833520" lon="-104.9625680">
    <ele>1627.8</ele>
    <time>2023-04-01T19:58:04Z</time>
   </trkpt>
   <trkpt lat="39.6833740" lon="-104.9626140">
    <ele>1627.7</ele>
    <time>2023-04-01T19:58:05Z</time>
   </trkpt>
   <trkpt lat="39.6833830" lon="-104.9626340">
    <ele>1627.7</ele>
    <time>2023-04-01T19:58:06Z</time>
   </trkpt>
   <trkpt lat="39.6834020" lon="-104.9626800">
    <ele>1627.6</ele>
    <time>2023-04-01T19:58:07Z</time>
   </trkpt>
   <trkpt lat="39.6834180" lon="-104.9627280">
    <ele>1627.6</ele>
    <time>2023-04-01T19:58:08Z</time>
   </trkpt>
   <trkpt lat="39.6834220" lon="-104.9627470">
    <ele>1627.6</ele>
    <time>2023-04-01T19:58:09Z</time>
   </trkpt>
   <trkpt lat="39.6834390" lon="-104.9627930">
    <ele>1627.5</ele>
    <time>2023-04-01T19:58:10Z</time>
   </trkpt>
   <trkpt lat="39.6834520" lon="-104.9628380">
    <ele>1627.4</ele>
    <time>2023-04-01T19:58:11Z</time>
   </trkpt>
   <trkpt lat="39.6834720" lon="-104.9628970">
    <ele>1627.3</ele>
    <time>2023-04-01T19:58:12Z</time>
   </trkpt>
   <trkpt lat="39.6834910" lon="-104.9629400">
    <ele>1627.3</ele>
    <time>2023-04-01T19:58:13Z</time>
   </trkpt>
   <trkpt lat="39.6835080" lon="-104.9629680">
    <ele>1627.2</ele>
    <time>2023-04-01T19:58:14Z</time>
   </trkpt>
   <trkpt lat="39.6835230" lon="-104.9630130">
    <ele>1627.2</ele>
    <time>2023-04-01T19:58:15Z</time>
   </trkpt>
   <trkpt lat="39.6835410" lon="-104.9630440">
    <ele>1627.1</ele>
    <time>2023-04-01T19:58:16Z</time>
   </trkpt>
   <trkpt lat="39.6835510" lon="-104.9630840">
    <ele>1627.0</ele>
    <time>2023-04-01T19:58:17Z</time>
   </trkpt>
   <trkpt lat="39.6835720" lon="-104.9631340">
    <ele>1627.0</ele>
    <time>2023-04-01T19:58:18Z</time>
   </trkpt>
   <trkpt lat="39.6835860" lon="-104.9631700">
    <ele>1626.9</ele>
    <time>2023-04-01T19:58:19Z</time>
   </trkpt>
   <trkpt lat="39.6836000" lon="-104.9632080">
    <ele>1626.9</ele>
    <time>2023-04-01T19:58:20Z</time>
   </trkpt>
   <trkpt lat="39.6836270" lon="-104.9632630">
    <ele>1626.8</ele>
    <time>2023-04-01T19:58:21Z</time>
   </trkpt>
   <trkpt lat="39.6836410" lon="-104.9633090">
    <ele>1626.7</ele>
    <time>2023-04-01T19:58:22Z</time>
   </trkpt>
   <trkpt lat="39.6836610" lon="-104.9633380">
    <ele>1626.7</ele>
    <time>2023-04-01T19:58:23Z</time>
   </trkpt>
   <trkpt lat="39.6836780" lon="-104.9633810">
    <ele>1626.6</ele>
    <time>2023-04-01T19:58:24Z</time>
   </trkpt>
   <trkpt lat="39.6836980" lon="-104.9634220">
    <ele>1626.5</ele>
    <time>2023-04-01T19:58:25Z</time>
   </trkpt>
   <trkpt lat="39.6837070" lon="-104.9634350">
    <ele>1626.5</ele>
    <time>2023-04-01T19:58:26Z</time>
   </trkpt>
   <trkpt lat="39.6837230" lon="-104.9634850">
    <ele>1626.5</ele>
    <time>2023-04-01T19:58:27Z</time>
   </trkpt>
   <trkpt lat="39.6837420" lon="-104.9635110">
    <ele>1626.4</ele>
    <time>2023-04-01T19:58:28Z</time>
   </trkpt>
   <trkpt lat="39.6837620" lon="-104.9635440">
    <ele>1626.4</ele>
    <time>2023-04-01T19:58:29Z</time>
   </trkpt>
   <trkpt lat="39.6837730" lon="-104.9635920">
    <ele>1626.4</ele>
    <time>2023-04-01T19:58:30Z</time>
   </trkpt>
   <trkpt lat="39.6837910" lon="-104.9636190">
    <ele>1626.3</ele>
    <time>2023-04-01T19:58:31Z</time>
   </trkpt>
   <trkpt lat="39.6838180" lon="-104.9636540">
    <ele>1626.3</ele>
    <time>2023-04-01T19:58:32Z</time>
   </trkpt>
   <trkpt lat="39.6838330" lon="-104.9636990">
    <ele>1626.3</ele>
    <time>2023-04-01T19:58:33Z</time>
   </trkpt>
   <trkpt lat="39.6838530" lon="-104.9637290">
    <ele>1626.3</ele>
    <time>2023-04-01T19:58:34Z</time>
   </trkpt>
   <trkpt lat="39.6838730" lon="-104.9637530">
    <ele>1626.2</ele>
    <time>2023-04-01T19:58:35Z</time>
   </trkpt>
   <trkpt lat="39.6838870" lon="-104.9637900">
    <ele>1626.2</ele>
    <time>2023-04-01T19:58:36Z</time>
   </trkpt>
   <trkpt lat="39.6839080" lon="-104.9638310">
    <ele>1626.2</ele>
    <time>2023-04-01T19:58:37Z</time>
   </trkpt>
   <trkpt lat="39.6839180" lon="-104.9638470">
    <ele>1626.2</ele>
    <time>2023-04-01T19:58:38Z</time>
   </trkpt>
   <trkpt lat="39.6839400" lon="-104.9638930">
    <ele>1626.2</ele>
    <time>2023-04-01T19:58:39Z</time>
   </trkpt>
   <trkpt lat="39.6839610" lon="-104.9639300">
    <ele>1626.1</ele>
    <time>2023-04-01T19:58:40Z</time>
   </trkpt>
   <trkpt lat="39.6839830" lon="-104.9639690">
    <ele>1626.1</ele>
    <time>2023-04-01T19:58:41Z</time>
   </trkpt>
   <trkpt lat="39.6839980" lon="-104.9640200">
    <ele>1626.1</ele>
    <time>2023-04-01T19:58:42Z</time>
   </trkpt>
   <trkpt lat="39.6840110" lon="-104.9640550">
    <ele>1626.1</ele>
    <time>2023-04-01T19:58:43Z</time>
   </trkpt>
   <trkpt lat="39.6840460" lon="-104.9640840">
    <ele>1626.1</ele>
    <time>2023-04-01T19:58:44Z</time>
   </trkpt>
   <trkpt lat="39.6840590" lon="-104.9641230">
    <ele>1626.1</ele>
    <time>2023-04-01T19:58:45Z</time>
   </trkpt>
   <trkpt lat="39.6840780" lon="-104.9641560">
    <ele>1626.1</ele>
    <time>2023-04-01T19:58:46Z</time>
   </trkpt>
   <trkpt lat="39.6841020" lon="-104.9641970">
    <ele>1626.0</ele>
    <time>2023-04-01T19:58:47Z</time>
   </trkpt>
   <trkpt lat="39.6841250" lon="-104.9642320">
    <ele>1626.0</ele>
    <time>2023-04-01T19:58:48Z</time>
   </trkpt>
   <trkpt lat="39.6841520" lon="-104.9642540">
    <ele>1626.0</ele>
    <time>2023-04-01T19:58:49Z</time>
   </trkpt>
   <trkpt lat="39.6841710" lon="-104.9642970">
    <ele>1625.9</ele>
    <time>2023-04-01T19:58:50Z</time>
   </trkpt>
   <trkpt lat="39.6841910" lon="-104.9643440">
    <ele>1625.9</ele>
    <time>2023-04-01T19:58:51Z</time>
   </trkpt>
   <trkpt lat="39.6842040" lon="-104.9643810">
    <ele>1625.9</ele>
    <time>2023-04-01T19:58:52Z</time>
   </trkpt>
   <trkpt lat="39.6842280" lon="-104.9644150">
    <ele>1625.9</ele>
    <time>2023-04-01T19:58:53Z</time>
   </trkpt>
   <trkpt lat="39.6842450" lon="-104.9644610">
    <ele>1625.8</ele>
    <time>2023-04-01T19:58:54Z</time>
   </trkpt>
   <trkpt lat="39.6842690" lon="-104.9644900">
    <ele>1625.8</ele>
    <time>2023-04-01T19:58:55Z</time>
   </trkpt>
   <trkpt lat="39.6842840" lon="-104.9645290">
    <ele>1625.8</ele>
    <time>2023-04-01T19:58:56Z</time>
   </trkpt>
   <trkpt lat="39.6842940" lon="-104.9645690">
    <ele>1625.8</ele>
    <time>2023-04-01T19:58:57Z</time>
   </trkpt>
   <trkpt lat="39.6843140" lon="-104.9645930">
    <ele>1625.7</ele>
    <time>2023-04-01T19:58:58Z</time>
   </trkpt>
   <trkpt lat="39.6843310" lon="-104.9646300">
    <ele>1625.7</ele>
    <time>2023-04-01T19:58:59Z</time>
   </trkpt>
   <trkpt lat="39.6843540" lon="-104.9646560">
    <ele>1625.7</ele>
    <time>2023-04-01T19:59:00Z</time>
   </trkpt>
   <trkpt lat="39.6843800" lon="-104.9646890">
    <ele>1625.7</ele>
    <time>2023-04-01T19:59:01Z</time>
   </trkpt>
   <trkpt lat="39.6843960" lon="-104.9647370">
    <ele>1625.7</ele>
    <time>2023-04-01T19:59:02Z</time>
   </trkpt>
   <trkpt lat="39.6844160" lon="-104.9647690">
    <ele>1625.7</ele>
    <time>2023-04-01T19:59:03Z</time>
   </trkpt>
   <trkpt lat="39.6844410" lon="-104.9648090">
    <ele>1625.7</ele>
    <time>2023-04-01T19:59:04Z</time>
   </trkpt>
   <trkpt lat="39.6844490" lon="-104.9648270">
    <ele>1625.6</ele>
    <time>2023-04-01T19:59:05Z</time>
   </trkpt>
   <trkpt lat="39.6844730" lon="-104.9648530">
    <ele>1625.6</ele>
    <time>2023-04-01T19:59:06Z</time>
   </trkpt>
   <trkpt lat="39.6844910" lon="-104.9648840">
    <ele>1625.6</ele>
    <time>2023-04-01T19:59:07Z</time>
   </trkpt>
   <trkpt lat="39.6845100" lon="-104.9649330">
    <ele>1625.6</ele>
    <time>2023-04-01T19:59:08Z</time>
   </trkpt>
   <trkpt lat="39.6845230" lon="-104.9649680">
    <ele>1625.6</ele>
    <time>2023-04-01T19:59:09Z</time>
   </trkpt>
   <trkpt lat="39.6845460" lon="-104.9649870">
    <ele>1625.6</ele>
    <time>2023-04-01T19:59:10Z</time>
   </trkpt>
   <trkpt lat="39.6845620" lon="-104.9650250">
    <ele>1625.6</ele>
    <time>2023-04-01T19:59:11Z</time>
   </trkpt>
   <trkpt lat="39.6845780" lon="-104.9650620">
    <ele>1625.5</ele>
    <time>2023-04-01T19:59:12Z</time>
   </trkpt>
   <trkpt lat="39.6845850" lon="-104.9650690">
    <ele>1625.5</ele>
    <time>2023-04-01T19:59:13Z</time>
   </trkpt>
   <trkpt lat="39.6845920" lon="-104.9650790">
    <ele>1625.5</ele>
    <time>2023-04-01T19:59:14Z</time>
   </trkpt>
   <trkpt lat="39.6845980" lon="-104.9650780">
    <ele>1625.5</ele>
    <time>2023-04-01T19:59:15Z</time>
   </trkpt>
   <trkpt lat="39.6846080" lon="-104.9650730">
    <ele>1625.5</ele>
    <time>2023-04-01T19:59:16Z</time>
   </trkpt>
   <trkpt lat="39.6846060" lon="-104.9650670">
    <ele>1625.5</ele>
    <time>2023-04-01T19:59:17Z</time>
   </trkpt>
   <trkpt lat="39.6846030" lon="-104.9650640">
    <ele>1625.5</ele>
    <time>2023-04-01T19:59:18Z</time>
   </trkpt>
   <trkpt lat="39.6846070" lon="-104.9650670">
    <ele>1625.5</ele>
    <time>2023-04-01T19:59:19Z</time>
   </trkpt>
   <trkpt lat="39.6846060" lon="-104.9650650">
    <ele>1625.5</ele>
    <time>2023-04-01T19:59:20Z</time>
   </trkpt>
   <trkpt lat="39.6846050" lon="-104.9650560">
    <ele>1625.5</ele>
    <time>2023-04-01T19:59:21Z</time>
   </trkpt>
   <trkpt lat="39.6850370" lon="-104.9651850">
    <ele>1625.0</ele>
    <time>2023-04-01T20:00:17Z</time>
   </trkpt>
   <trkpt lat="39.6850490" lon="-104.9652210">
    <ele>1625.0</ele>
    <time>2023-04-01T20:00:18Z</time>
   </trkpt>
   <trkpt lat="39.6850680" lon="-104.9652480">
    <ele>1624.9</ele>
    <time>2023-04-01T20:00:19Z</time>
   </trkpt>
   <trkpt lat="39.6850830" lon="-104.9652800">
    <ele>1624.9</ele>
    <time>2023-04-01T20:00:20Z</time>
   </trkpt>
   <trkpt lat="39.6850950" lon="-104.9653150">
    <ele>1624.9</ele>
    <time>2023-04-01T20:00:21Z</time>
   </trkpt>
   <trkpt lat="39.6851220" lon="-104.9653610">
    <ele>1624.9</ele>
    <time>2023-04-01T20:00:22Z</time>
   </trkpt>
   <trkpt lat="39.6851540" lon="-104.9653930">
    <ele>1624.9</ele>
    <time>2023-04-01T20:00:23Z</time>
   </trkpt>
   <trkpt lat="39.6851610" lon="-104.9654470">
    <ele>1624.8</ele>
    <time>2023-04-01T20:00:24Z</time>
   </trkpt>
   <trkpt lat="39.6851900" lon="-104.9654880">
    <ele>1624.8</ele>
    <time>2023-04-01T20:00:25Z</time>
   </trkpt>
   <trkpt lat="39.6852090" lon="-104.9655350">
    <ele>1624.8</ele>
    <time>2023-04-01T20:00:26Z</time>
   </trkpt>
   <trkpt lat="39.6852130" lon="-104.9655520">
    <ele>1624.8</ele>
    <time>2023-04-01T20:00:27Z</time>
   </trkpt>
   <trkpt lat="39.6852460" lon="-104.9655940">
    <ele>1624.7</ele>
    <time>2023-04-01T20:00:28Z</time>
   </trkpt>
   <trkpt lat="39.6852670" lon="-104.9656400">
    <ele>1624.7</ele>
    <time>2023-04-01T20:00:29Z</time>
   </trkpt>
   <trkpt lat="39.6852950" lon="-104.9656790">
    <ele>1624.7</ele>
    <time>2023-04-01T20:00:30Z</time>
   </trkpt>
   <trkpt lat="39.6853190" lon="-104.9657080">
    <ele>1624.7</ele>
    <time>2023-04-01T20:00:31Z</time>
   </trkpt>
   <trkpt lat="39.6853500" lon="-104.9657580">
    <ele>1624.7</ele>
    <time>2023-04-01T20:00:32Z</time>
   </trkpt>
   <trkpt lat="39.6853660" lon="-104.9657920">
    <ele>1624.6</ele>
    <time>2023-04-01T20:00:33Z</time>
   </trkpt>
   <trkpt lat="39.6854050" lon="-104.9658460">
    <ele>1624.6</ele>
    <time>2023-04-01T20:00:34Z</time>
   </trkpt>
   <trkpt lat="39.6854410" lon="-104.9659820">
    <ele>1624.6</ele>
    <time>2023-04-01T20:00:35Z</time>
   </trkpt>
   <trkpt lat="39.6854740" lon="-104.9660190">
    <ele>1624.6</ele>
    <time>2023-04-01T20:00:36Z</time>
   </trkpt>
   <trkpt lat="39.6855080" lon="-104.9660350">
    <ele>1624.7</ele>
    <time>2023-04-01T20:00:37Z</time>
   </trkpt>
   <trkpt lat="39.6855190" lon="-104.9660440">
    <ele>1624.7</ele>
    <time>2023-04-01T20:00:38Z</time>
   </trkpt>
   <trkpt lat="39.6855440" lon="-104.9660790">
    <ele>1624.7</ele>
    <time>2023-04-01T20:00:39Z</time>
   </trkpt>
   <trkpt lat="39.6855720" lon="-104.9661300">
    <ele>1624.7</ele>
    <time>2023-04-01T20:00:40Z</time>
   </trkpt>
   <trkpt lat="39.6855990" lon="-104.9661760">
    <ele>1624.7</ele>
    <time>2023-04-01T20:00:41Z</time>
   </trkpt>
   <trkpt lat="39.6856200" lon="-104.9662190">
    <ele>1624.7</ele>
    <time>2023-04-01T20:00:42Z</time>
   </trkpt>
   <trkpt lat="39.6856320" lon="-104.9662520">
    <ele>1624.7</ele>
    <time>2023-04-01T20:00:43Z</time>
   </trkpt>
   <trkpt lat="39.6856570" lon="-104.9662910">
    <ele>1624.8</ele>
    <time>2023-04-01T20:00:44Z</time>
   </trkpt>
   <trkpt lat="39.6856780" lon="-104.9663420">
    <ele>1624.8</ele>
    <time>2023-04-01T20:00:45Z</time>
   </trkpt>
   <trkpt lat="39.6857030" lon="-104.9663660">
    <ele>1624.8</ele>
    <time>2023-04-01T20:00:46Z</time>
   </trkpt>
   <trkpt lat="39.6857380" lon="-104.9664030">
    <ele>1624.8</ele>
    <time>2023-04-01T20:00:47Z</time>
   </trkpt>
   <trkpt lat="39.6857650" lon="-104.9664460">
    <ele>1624.8</ele>
    <time>2023-04-01T20:00:48Z</time>
   </trkpt>
   <trkpt lat="39.6857750" lon="-104.9664640">
    <ele>1624.9</ele>
    <time>2023-04-01T20:00:49Z</time>
   </trkpt>
   <trkpt lat="39.6858000" lon="-104.9665250">
    <ele>1624.9</ele>
    <time>2023-04-01T20:00:50Z</time>
   </trkpt>
   <trkpt lat="39.6858250" lon="-104.9665670">
    <ele>1624.9</ele>
    <time>2023-04-01T20:00:51Z</time>
   </trkpt>
   <trkpt lat="39.6858320" lon="-104.9665890">
    <ele>1624.9</ele>
    <time>2023-04-01T20:00:52Z</time>
   </trkpt>
   <trkpt lat="39.6858440" lon="-104.9666440">
    <ele>1625.0</ele>
    <time>2023-04-01T20:00:53Z</time>
   </trkpt>
   <trkpt lat="39.6858760" lon="-104.9666900">
    <ele>1625.0</ele>
    <time>2023-04-01T20:00:54Z</time>
   </trkpt>
   <trkpt lat="39.6858920" lon="-104.9667100">
    <ele>1625.1</ele>
    <time>2023-04-01T20:00:55Z</time>
   </trkpt>
   <trkpt lat="39.6859110" lon="-104.9667560">
    <ele>1625.1</ele>
    <time>2023-04-01T20:00:56Z</time>
   </trkpt>
   <trkpt lat="39.6859290" lon="-104.9667860">
    <ele>1625.1</ele>
    <time>2023-04-01T20:00:57Z</time>
   </trkpt>
   <trkpt lat="39.6859520" lon="-104.9668350">
    <ele>1625.1</ele>
    <time>2023-04-01T20:00:58Z</time>
   </trkpt>
   <trkpt lat="39.6859770" lon="-104.9668700">
    <ele>1625.2</ele>
    <time>2023-04-01T20:00:59Z</time>
   </trkpt>
   <trkpt lat="39.6859900" lon="-104.9668840">
    <ele>1625.2</ele>
    <time>2023-04-01T20:01:00Z</time>
   </trkpt>
   <trkpt lat="39.6860140" lon="-104.9669450">
    <ele>1625.2</ele>
    <time>2023-04-01T20:01:01Z</time>
   </trkpt>
   <trkpt lat="39.6860370" lon="-104.9669640">
    <ele>1625.2</ele>
    <time>2023-04-01T20:01:02Z</time>
   </trkpt>
   <trkpt lat="39.6860630" lon="-104.9670030">
    <ele>1625.2</ele>
    <time>2023-04-01T20:01:03Z</time>
   </trkpt>
   <trkpt lat="39.6860840" lon="-104.9670470">
    <ele>1625.2</ele>
    <time>2023-04-01T20:01:04Z</time>
   </trkpt>
   <trkpt lat="39.6861130" lon="-104.9670770">
    <ele>1625.3</ele>
    <time>2023-04-01T20:01:05Z</time>
   </trkpt>
   <trkpt lat="39.6861380" lon="-104.9671210">
    <ele>1625.3</ele>
    <time>2023-04-01T20:01:06Z</time>
   </trkpt>
   <trkpt lat="39.6861590" lon="-104.9671440">
    <ele>1625.3</ele>
    <time>2023-04-01T20:01:07Z</time>
   </trkpt>
   <trkpt lat="39.6861890" lon="-104.9671710">
    <ele>1625.3</ele>
    <time>2023-04-01T20:01:08Z</time>
   </trkpt>
   <trkpt lat="39.6862000" lon="-104.9672300">
    <ele>1625.2</ele>
    <time>2023-04-01T20:01:09Z</time>
   </trkpt>
   <trkpt lat="39.6862230" lon="-104.9672500">
    <ele>1625.2</ele>
    <time>2023-04-01T20:01:10Z</time>
   </trkpt>
   <trkpt lat="39.6862450" lon="-104.9672870">
    <ele>1625.2</ele>
    <time>2023-04-01T20:01:11Z</time>
   </trkpt>
   <trkpt lat="39.6862570" lon="-104.9673270">
    <ele>1625.2</ele>
    <time>2023-04-01T20:01:12Z</time>
   </trkpt>
   <trkpt lat="39.6862820" lon="-104.9673670">
    <ele>1625.1</ele>
    <time>2023-04-01T20:01:13Z</time>
   </trkpt>
   <trkpt lat="39.6862990" lon="-104.9674110">
    <ele>1625.1</ele>
    <time>2023-04-01T20:01:14Z</time>
   </trkpt>
   <trkpt lat="39.6863250" lon="-104.9674460">
    <ele>1625.1</ele>
    <time>2023-04-01T20:01:15Z</time>
   </trkpt>
   <trkpt lat="39.6863440" lon="-104.9674710">
    <ele>1625.0</ele>
    <time>2023-04-01T20:01:16Z</time>
   </trkpt>
   <trkpt lat="39.6863560" lon="-104.9675080">
    <ele>1625.0</ele>
    <time>2023-04-01T20:01:17Z</time>
   </trkpt>
   <trkpt lat="39.6863720" lon="-104.9675430">
    <ele>1625.0</ele>
    <time>2023-04-01T20:01:18Z</time>
   </trkpt>
   <trkpt lat="39.6863930" lon="-104.9675770">
    <ele>1625.0</ele>
    <time>2023-04-01T20:01:19Z</time>
   </trkpt>
   <trkpt lat="39.6864070" lon="-104.9676160">
    <ele>1625.0</ele>
    <time>2023-04-01T20:01:20Z</time>
   </trkpt>
   <trkpt lat="39.6864330" lon="-104.9676450">
    <ele>1625.0</ele>
    <time>2023-04-01T20:01:21Z</time>
   </trkpt>
   <trkpt lat="39.6864480" lon="-104.9676870">
    <ele>1624.9</ele>
    <time>2023-04-01T20:01:22Z</time>
   </trkpt>
   <trkpt lat="39.6864620" lon="-104.9677290">
    <ele>1624.9</ele>
    <time>2023-04-01T20:01:23Z</time>
   </trkpt>
   <trkpt lat="39.6864940" lon="-104.9677590">
    <ele>1624.9</ele>
    <time>2023-04-01T20:01:24Z</time>
   </trkpt>
   <trkpt lat="39.6865060" lon="-104.9677930">
    <ele>1624.8</ele>
    <time>2023-04-01T20:01:25Z</time>
   </trkpt>
   <trkpt lat="39.6865310" lon="-104.9678310">
    <ele>1624.8</ele>
    <time>2023-04-01T20:01:26Z</time>
   </trkpt>
   <trkpt lat="39.6865580" lon="-104.9678670">
    <ele>1624.7</ele>
    <time>2023-04-01T20:01:27Z</time>
   </trkpt>
   <trkpt lat="39.6865690" lon="-104.9679130">
    <ele>1624.7</ele>
    <time>2023-04-01T20:01:28Z</time>
   </trkpt>
   <trkpt lat="39.6865990" lon="-104.9679420">
    <ele>1624.6</ele>
    <time>2023-04-01T20:01:29Z</time>
   </trkpt>
   <trkpt lat="39.6866220" lon="-104.9679830">
    <ele>1624.6</ele>
    <time>2023-04-01T20:01:30Z</time>
   </trkpt>
   <trkpt lat="39.6866430" lon="-104.9680190">
    <ele>1624.5</ele>
    <time>2023-04-01T20:01:31Z</time>
   </trkpt>
   <trkpt lat="39.6866570" lon="-104.9680350">
    <ele>1624.5</ele>
    <time>2023-04-01T20:01:32Z</time>
   </trkpt>
   <trkpt lat="39.6866790" lon="-104.9680790">
    <ele>1624.5</ele>
    <time>2023-04-01T20:01:33Z</time>
   </trkpt>
   <trkpt lat="39.6866970" lon="-104.9681090">
    <ele>1624.4</ele>
    <time>2023-04-01T20:01:34Z</time>
   </trkpt>
   <trkpt lat="39.6867170" lon="-104.9681560">
    <ele>1624.4</ele>
    <time>2023-04-01T20:01:35Z</time>
   </trkpt>
   <trkpt lat="39.6867390" lon="-104.9682020">
    <ele>1624.3</ele>
    <time>2023-04-01T20:01:36Z</time>
   </trkpt>
   <trkpt lat="39.6867490" lon="-104.9682260">
    <ele>1624.3</ele>
    <time>2023-04-01T20:01:37Z</time>
   </trkpt>
   <trkpt lat="39.6867740" lon="-104.9682640">
    <ele>1624.3</ele>
    <time>2023-04-01T20:01:38Z</time>
   </trkpt>
   <trkpt lat="39.6867990" lon="-104.9683030">
    <ele>1624.2</ele>
    <time>2023-04-01T20:01:39Z</time>
   </trkpt>
   <trkpt lat="39.6868090" lon="-104.9683230">
    <ele>1624.2</ele>
    <time>2023-04-01T20:01:40Z</time>
   </trkpt>
   <trkpt lat="39.6868290" lon="-104.9683630">
    <ele>1624.2</ele>
    <time>2023-04-01T20:01:41Z</time>
   </trkpt>
   <trkpt lat="39.6868450" lon="-104.9683970">
    <ele>1624.1</ele>
    <time>2023-04-01T20:01:42Z</time>
   </trkpt>
   <trkpt lat="39.6868660" lon="-104.9684310">
    <ele>1624.1</ele>
    <time>2023-04-01T20:01:43Z</time>
   </trkpt>
   <trkpt lat="39.6868920" lon="-104.9684680">
    <ele>1624.1</ele>
    <time>2023-04-01T20:01:44Z</time>
   </trkpt>
   <trkpt lat="39.6869040" lon="-104.9684810">
    <ele>1624.0</ele>
    <time>2023-04-01T20:01:45Z</time>
   </trkpt>
   <trkpt lat="39.6869200" lon="-104.9685300">
    <ele>1624.0</ele>
    <time>2023-04-01T20:01:46Z</time>
   </trkpt>
   <trkpt lat="39.6869390" lon="-104.9685630">
    <ele>1623.9</ele>
    <time>2023-04-01T20:01:47Z</time>
   </trkpt>
   <trkpt lat="39.6869540" lon="-104.9686020">
    <ele>1623.9</ele>
    <time>2023-04-01T20:01:48Z</time>
   </trkpt>
   <trkpt lat="39.6869640" lon="-104.9686400">
    <ele>1624.0</ele>
    <time>2023-04-01T20:01:49Z</time>
   </trkpt>
   <trkpt lat="39.6869850" lon="-104.9686670">
    <ele>1624.0</ele>
    <time>2023-04-01T20:01:50Z</time>
   </trkpt>
   <trkpt lat="39.6869920" lon="-104.9686840">
    <ele>1624.0</ele>
    <time>2023-04-01T20:01:51Z</time>
   </trkpt>
   <trkpt lat="39.6869930" lon="-104.9687290">
    <ele>1624.0</ele>
    <time>2023-04-01T20:01:52Z</time>
   </trkpt>
   <trkpt lat="39.6870200" lon="-104.9687610">
    <ele>1623.9</ele>
    <time>2023-04-01T20:01:53Z</time>
   </trkpt>
   <trkpt lat="39.6870500" lon="-104.9687960">
    <ele>1623.9</ele>
    <time>2023-04-01T20:01:54Z</time>
   </trkpt>
   <trkpt lat="39.6870760" lon="-104.9688290">
    <ele>1623.8</ele>
    <time>2023-04-01T20:01:55Z</time>
   </trkpt>
   <trkpt lat="39.6870980" lon="-104.9688570">
    <ele>1623.7</ele>
    <time>2023-04-01T20:01:56Z</time>
   </trkpt>
   <trkpt lat="39.6871310" lon="-104.9688530">
    <ele>1623.6</ele>
    <time>2023-04-01T20:01:57Z</time>
   </trkpt>
   <trkpt lat="39.6871630" lon="-104.9688330">
    <ele>1623.5</ele>
    <time>2023-04-01T20:01:58Z</time>
   </trkpt>
   <trkpt lat="39.6871900" lon="-104.9688130">
    <ele>1623.4</ele>
    <time>2023-04-01T20:01:59Z</time>
   </trkpt>
   <trkpt lat="39.6872220" lon="-104.9688140">
    <ele>1623.3</ele>
    <time>2023-04-01T20:02:00Z</time>
   </trkpt>
   <trkpt lat="39.6872590" lon="-104.9688030">
    <ele>1623.2</ele>
    <time>2023-04-01T20:02:01Z</time>
   </trkpt>
   <trkpt lat="39.6872940" lon="-104.9688200">
    <ele>1623.1</ele>
    <time>2023-04-01T20:02:02Z</time>
   </trkpt>
   <trkpt lat="39.6873250" lon="-104.9688300">
    <ele>1623.0</ele>
    <time>2023-04-01T20:02:03Z</time>
   </trkpt>
   <trkpt lat="39.6873710" lon="-104.9688200">
    <ele>1622.8</ele>
    <time>2023-04-01T20:02:04Z</time>
   </trkpt>
   <trkpt lat="39.6873900" lon="-104.9688150">
    <ele>1622.8</ele>
    <time>2023-04-01T20:02:05Z</time>
   </trkpt>
   <trkpt lat="39.6874220" lon="-104.9688100">
    <ele>1622.7</ele>
    <time>2023-04-01T20:02:06Z</time>
   </trkpt>
   <trkpt lat="39.6874620" lon="-104.9688180">
    <ele>1622.6</ele>
    <time>2023-04-01T20:02:07Z</time>
   </trkpt>
   <trkpt lat="39.6874780" lon="-104.9688200">
    <ele>1622.6</ele>
    <time>2023-04-01T20:02:08Z</time>
   </trkpt>
   <trkpt lat="39.6875110" lon="-104.9688140">
    <ele>1622.5</ele>
    <time>2023-04-01T20:02:09Z</time>
   </trkpt>
   <trkpt lat="39.6875470" lon="-104.9688170">
    <ele>1622.4</ele>
    <time>2023-04-01T20:02:10Z</time>
   </trkpt>
   <trkpt lat="39.6875860" lon="-104.9688200">
    <ele>1622.3</ele>
    <time>2023-04-01T20:02:11Z</time>
   </trkpt>
   <trkpt lat="39.6876200" lon="-104.9688030">
    <ele>1622.2</ele>
    <time>2023-04-01T20:02:12Z</time>
   </trkpt>
   <trkpt lat="39.6876550" lon="-104.9688190">
    <ele>1622.2</ele>
    <time>2023-04-01T20:02:13Z</time>
   </trkpt>
   <trkpt lat="39.6876870" lon="-104.9688320">
    <ele>1622.1</ele>
    <time>2023-04-01T20:02:14Z</time>
   </trkpt>
   <trkpt lat="39.6877170" lon="-104.9688190">
    <ele>1622.0</ele>
    <time>2023-04-01T20:02:15Z</time>
   </trkpt>
   <trkpt lat="39.6877580" lon="-104.9688260">
    <ele>1621.9</ele>
    <time>2023-04-01T20:02:16Z</time>
   </trkpt>
   <trkpt lat="39.6877990" lon="-104.9688220">
    <ele>1621.8</ele>
    <time>2023-04-01T20:02:17Z</time>
   </trkpt>
   <trkpt lat="39.6878310" lon="-104.9688360">
    <ele>1621.7</ele>
    <time>2023-04-01T20:02:18Z</time>
   </trkpt>
   <trkpt lat="39.6878700" lon="-104.9688380">
    <ele>1621.6</ele>
    <time>2023-04-01T20:02:19Z</time>
   </trkpt>
   <trkpt lat="39.6879120" lon="-104.9688220">
    <ele>1621.5</ele>
    <time>2023-04-01T20:02:21Z</time>
   </trkpt>
   <trkpt lat="39.6879410" lon="-104.9688240">
    <ele>1621.4</ele>
    <time>2023-04-01T20:02:22Z</time>
   </trkpt>
   <trkpt lat="39.6879700" lon="-104.9688380">
    <ele>1621.4</ele>
    <time>2023-04-01T20:02:23Z</time>
   </trkpt>
   <trkpt lat="39.6880040" lon="-104.9688220">
    <ele>1621.3</ele>
    <time>2023-04-01T20:02:24Z</time>
   </trkpt>
   <trkpt lat="39.6880370" lon="-104.9688290">
    <ele>1621.3</ele>
    <time>2023-04-01T20:02:25Z</time>
   </trkpt>
   <trkpt lat="39.6880720" lon="-104.9688390">
    <ele>1621.2</ele>
    <time>2023-04-01T20:02:26Z</time>
   </trkpt>
   <trkpt lat="39.6880980" lon="-104.9688540">
    <ele>1621.2</ele>
    <time>2023-04-01T20:02:27Z</time>
   </trkpt>
   <trkpt lat="39.6881370" lon="-104.9688580">
    <ele>1621.1</ele>
    <time>2023-04-01T20:02:28Z</time>
   </trkpt>
   <trkpt lat="39.6881780" lon="-104.9688530">
    <ele>1621.0</ele>
    <time>2023-04-01T20:02:29Z</time>
   </trkpt>
   <trkpt lat="39.6882070" lon="-104.9688320">
    <ele>1621.0</ele>
    <time>2023-04-01T20:02:30Z</time>
   </trkpt>
   <trkpt lat="39.6882510" lon="-104.9687980">
    <ele>1620.9</ele>
    <time>2023-04-01T20:02:31Z</time>
   </trkpt>
   <trkpt lat="39.6882870" lon="-104.9688270">
    <ele>1620.9</ele>
    <time>2023-04-01T20:02:32Z</time>
   </trkpt>
   <trkpt lat="39.6883290" lon="-104.9688410">
    <ele>1620.8</ele>
    <time>2023-04-01T20:02:33Z</time>
   </trkpt>
   <trkpt lat="39.6883630" lon="-104.9688410">
    <ele>1620.8</ele>
    <time>2023-04-01T20:02:34Z</time>
   </trkpt>
   <trkpt lat="39.6884010" lon="-104.9688470">
    <ele>1620.8</ele>
    <time>2023-04-01T20:02:35Z</time>
   </trkpt>
   <trkpt lat="39.6884150" lon="-104.9688480">
    <ele>1620.7</ele>
    <time>2023-04-01T20:02:36Z</time>
   </trkpt>
   <trkpt lat="39.6884470" lon="-104.9688490">
    <ele>1620.7</ele>
    <time>2023-04-01T20:02:37Z</time>
   </trkpt>
   <trkpt lat="39.6884830" lon="-104.9688390">
    <ele>1620.7</ele>
    <time>2023-04-01T20:02:38Z</time>
   </trkpt>
   <trkpt lat="39.6885240" lon="-104.9688440">
    <ele>1620.6</ele>
    <time>2023-04-01T20:02:39Z</time>
   </trkpt>
   <trkpt lat="39.6885510" lon="-104.9688570">
    <ele>1620.6</ele>
    <time>2023-04-01T20:02:40Z</time>
   </trkpt>
   <trkpt lat="39.6886000" lon="-104.9688520">
    <ele>1620.6</ele>
    <time>2023-04-01T20:02:41Z</time>
   </trkpt>
   <trkpt lat="39.6886210" lon="-104.9688530">
    <ele>1620.5</ele>
    <time>2023-04-01T20:02:42Z</time>
   </trkpt>
   <trkpt lat="39.6886590" lon="-104.9688530">
    <ele>1620.5</ele>
    <time>2023-04-01T20:02:43Z</time>
   </trkpt>
   <trkpt lat="39.6886900" lon="-104.9688450">
    <ele>1620.5</ele>
    <time>2023-04-01T20:02:44Z</time>
   </trkpt>
   <trkpt lat="39.6887210" lon="-104.9688510">
    <ele>1620.5</ele>
    <time>2023-04-01T20:02:45Z</time>
   </trkpt>
   <trkpt lat="39.6887640" lon="-104.9688380">
    <ele>1620.4</ele>
    <time>2023-04-01T20:02:46Z</time>
   </trkpt>
   <trkpt lat="39.6887840" lon="-104.9688370">
    <ele>1620.4</ele>
    <time>2023-04-01T20:02:47Z</time>
   </trkpt>
   <trkpt lat="39.6888140" lon="-104.9688330">
    <ele>1620.4</ele>
    <time>2023-04-01T20:02:48Z</time>
   </trkpt>
   <trkpt lat="39.6888460" lon="-104.9688360">
    <ele>1620.4</ele>
    <time>2023-04-01T20:02:49Z</time>
   </trkpt>
   <trkpt lat="39.6888820" lon="-104.9688510">
    <ele>1620.4</ele>
    <time>2023-04-01T20:02:50Z</time>
   </trkpt>
   <trkpt lat="39.6889250" lon="-104.9688470">
    <ele>1620.3</ele>
    <time>2023-04-01T20:02:51Z</time>
   </trkpt>
   <trkpt lat="39.6889450" lon="-104.9688510">
    <ele>1620.3</ele>
    <time>2023-04-01T20:02:52Z</time>
   </trkpt>
   <trkpt lat="39.6889970" lon="-104.9688450">
    <ele>1620.3</ele>
    <time>2023-04-01T20:02:53Z</time>
   </trkpt>
   <trkpt lat="39.6890290" lon="-104.9688460">
    <ele>1620.3</ele>
    <time>2023-04-01T20:02:54Z</time>
   </trkpt>
   <trkpt lat="39.6890590" lon="-104.9688490">
    <ele>1620.3</ele>
    <time>2023-04-01T20:02:55Z</time>
   </trkpt>
   <trkpt lat="39.6890910" lon="-104.9688500">
    <ele>1620.3</ele>
    <time>2023-04-01T20:02:56Z</time>
   </trkpt>
   <trkpt lat="39.6891290" lon="-104.9688490">
    <ele>1620.3</ele>
    <time>2023-04-01T20:02:57Z</time>
   </trkpt>
   <trkpt lat="39.6891560" lon="-104.9688530">
    <ele>1620.3</ele>
    <time>2023-04-01T20:02:58Z</time>
   </trkpt>
   <trkpt lat="39.6891890" lon="-104.9688700">
    <ele>1620.3</ele>
    <time>2023-04-01T20:02:59Z</time>
   </trkpt>
   <trkpt lat="39.6892330" lon="-104.9688700">
    <ele>1620.3</ele>
    <time>2023-04-01T20:03:00Z</time>
   </trkpt>
   <trkpt lat="39.6892680" lon="-104.9688610">
    <ele>1620.3</ele>
    <time>2023-04-01T20:03:01Z</time>
   </trkpt>
   <trkpt lat="39.6892970" lon="-104.9688560">
    <ele>1620.3</ele>
    <time>2023-04-01T20:03:02Z</time>
   </trkpt>
   <trkpt lat="39.6893290" lon="-104.9688620">
    <ele>1620.3</ele>
    <time>2023-04-01T20:03:03Z</time>
   </trkpt>
   <trkpt lat="39.6893750" lon="-104.9688670">
    <ele>1620.3</ele>
    <time>2023-04-01T20:03:04Z</time>
   </trkpt>
   <trkpt lat="39.6893950" lon="-104.9688680">
    <ele>1620.3</ele>
    <time>2023-04-01T20:03:05Z</time>
   </trkpt>
   <trkpt lat="39.6894300" lon="-104.9688590">
    <ele>1620.3</ele>
    <time>2023-04-01T20:03:06Z</time>
   </trkpt>
   <trkpt lat="39.6894650" lon="-104.9688580">
    <ele>1620.3</ele>
    <time>2023-04-01T20:03:07Z</time>
   </trkpt>
   <trkpt lat="39.6894790" lon="-104.9688570">
    <ele>1620.3</ele>
    <time>2023-04-01T20:03:08Z</time>
   </trkpt>
   <trkpt lat="39.6895050" lon="-104.9688390">
    <ele>1620.3</ele>
    <time>2023-04-01T20:03:09Z</time>
   </trkpt>
   <trkpt lat="39.6895430" lon="-104.9688340">
    <ele>1620.4</ele>
    <time>2023-04-01T20:03:10Z</time>
   </trkpt>
   <trkpt lat="39.6895580" lon="-104.9688360">
    <ele>1620.4</ele>
    <time>2023-04-01T20:03:11Z</time>
   </trkpt>
   <trkpt lat="39.6895950" lon="-104.9688570">
    <ele>1620.4</ele>
    <time>2023-04-01T20:03:12Z</time>
   </trkpt>
   <trkpt lat="39.6896440" lon="-104.9688650">
    <ele>1620.5</ele>
    <time>2023-04-01T20:03:13Z</time>
   </trkpt>
   <trkpt lat="39.6896680" lon="-104.9688610">
    <ele>1620.5</ele>
    <time>2023-04-01T20:03:14Z</time>
   </trkpt>
   <trkpt lat="39.6897070" lon="-104.9688600">
    <ele>1620.6</ele>
    <time>2023-04-01T20:03:15Z</time>
   </trkpt>
   <trkpt lat="39.6897340" lon="-104.9688570">
    <ele>1620.6</ele>
    <time>2023-04-01T20:03:16Z</time>
   </trkpt>
   <trkpt lat="39.6897760" lon="-104.9688610">
    <ele>1620.7</ele>
    <time>2023-04-01T20:03:17Z</time>
   </trkpt>
   <trkpt lat="39.6898050" lon="-104.9688630">
    <ele>1620.7</ele>
    <time>2023-04-01T20:03:18Z</time>
   </trkpt>
   <trkpt lat="39.6898530" lon="-104.9688790">
    <ele>1620.8</ele>
    <time>2023-04-01T20:03:19Z</time>
   </trkpt>
   <trkpt lat="39.6898750" lon="-104.9688840">
    <ele>1620.8</ele>
    <time>2023-04-01T20:03:20Z</time>
   </trkpt>
   <trkpt lat="39.6899020" lon="-104.9688920">
    <ele>1620.8</ele>
    <time>2023-04-01T20:03:21Z</time>
   </trkpt>
   <trkpt lat="39.6899330" lon="-104.9688810">
    <ele>1620.9</ele>
    <time>2023-04-01T20:03:22Z</time>
   </trkpt>
   <trkpt lat="39.6899720" lon="-104.9688700">
    <ele>1620.9</ele>
    <time>2023-04-01T20:03:23Z</time>
   </trkpt>
   <trkpt lat="39.6900020" lon="-104.9688690">
    <ele>1620.9</ele>
    <time>2023-04-01T20:03:24Z</time>
   </trkpt>
   <trkpt lat="39.6900470" lon="-104.9688720">
    <ele>1621.0</ele>
    <time>2023-04-01T20:03:25Z</time>
   </trkpt>
   <trkpt lat="39.6900690" lon="-104.9688720">
    <ele>1621.0</ele>
    <time>2023-04-01T20:03:26Z</time>
   </trkpt>
   <trkpt lat="39.6900980" lon="-104.9688490">
    <ele>1621.0</ele>
    <time>2023-04-01T20:03:27Z</time>
   </trkpt>
   <trkpt lat="39.6901370" lon="-104.9688540">
    <ele>1621.1</ele>
    <time>2023-04-01T20:03:28Z</time>
   </trkpt>
   <trkpt lat="39.6901760" lon="-104.9688540">
    <ele>1621.1</ele>
    <time>2023-04-01T20:03:29Z</time>
   </trkpt>
   <trkpt lat="39.6901890" lon="-104.9688530">
    <ele>1621.1</ele>
    <time>2023-04-01T20:03:30Z</time>
   </trkpt>
   <trkpt lat="39.6902280" lon="-104.9688460">
    <ele>1621.2</ele>
    <time>2023-04-01T20:03:31Z</time>
   </trkpt>
   <trkpt lat="39.6902630" lon="-104.9688560">
    <ele>1621.2</ele>
    <time>2023-04-01T20:03:32Z</time>
   </trkpt>
   <trkpt lat="39.6902950" lon="-104.9688610">
    <ele>1621.3</ele>
    <time>2023-04-01T20:03:33Z</time>
   </trkpt>
   <trkpt lat="39.6903130" lon="-104.9688630">
    <ele>1621.3</ele>
    <time>2023-04-01T20:03:34Z</time>
   </trkpt>
   <trkpt lat="39.6903440" lon="-104.9688560">
    <ele>1621.3</ele>
    <time>2023-04-01T20:03:35Z</time>
   </trkpt>
   <trkpt lat="39.6903850" lon="-104.9688560">
    <ele>1621.4</ele>
    <time>2023-04-01T20:03:36Z</time>
   </trkpt>
   <trkpt lat="39.6904020" lon="-104.9688560">
    <ele>1621.4</ele>
    <time>2023-04-01T20:03:37Z</time>
   </trkpt>
   <trkpt lat="39.6904380" lon="-104.9688560">
    <ele>1621.4</ele>
    <time>2023-04-01T20:03:38Z</time>
   </trkpt>
   <trkpt lat="39.6904510" lon="-104.9688600">
    <ele>1621.4</ele>
    <time>2023-04-01T20:03:39Z</time>
   </trkpt>
   <trkpt lat="39.6904890" lon="-104.9688590">
    <ele>1621.5</ele>
    <time>2023-04-01T20:03:40Z</time>
   </trkpt>
   <trkpt lat="39.6905190" lon="-104.9688580">
    <ele>1621.5</ele>
    <time>2023-04-01T20:03:41Z</time>
   </trkpt>
   <trkpt lat="39.6905620" lon="-104.9688630">
    <ele>1621.6</ele>
    <time>2023-04-01T20:03:42Z</time>
   </trkpt>
   <trkpt lat="39.6905800" lon="-104.9688610">
    <ele>1621.6</ele>
    <time>2023-04-01T20:03:43Z</time>
   </trkpt>
   <trkpt lat="39.6906080" lon="-104.9688510">
    <ele>1621.7</ele>
    <time>2023-04-01T20:03:44Z</time>
   </trkpt>
   <trkpt lat="39.6906320" lon="-104.9688660">
    <ele>1621.7</ele>
    <time>2023-04-01T20:03:45Z</time>
   </trkpt>
   <trkpt lat="39.6906460" lon="-104.9688700">
    <ele>1621.7</ele>
    <time>2023-04-01T20:03:46Z</time>
   </trkpt>
   <trkpt lat="39.6906860" lon="-104.9688710">
    <ele>1621.8</ele>
    <time>2023-04-01T20:03:47Z</time>
   </trkpt>
   <trkpt lat="39.6907020" lon="-104.9688640">
    <ele>1621.8</ele>
    <time>2023-04-01T20:03:48Z</time>
   </trkpt>
   <trkpt lat="39.6907510" lon="-104.9688660">
    <ele>1621.9</ele>
    <time>2023-04-01T20:03:49Z</time>
   </trkpt>
   <trkpt lat="39.6907900" lon="-104.9688760">
    <ele>1622.0</ele>
    <time>2023-04-01T20:03:50Z</time>
   </trkpt>
   <trkpt lat="39.6908050" lon="-104.9688740">
    <ele>1622.0</ele>
    <time>2023-04-01T20:03:51Z</time>
   </trkpt>
   <trkpt lat="39.6908420" lon="-104.9688620">
    <ele>1622.1</ele>
    <time>2023-04-01T20:03:52Z</time>
   </trkpt>
   <trkpt lat="39.6908700" lon="-104.9688520">
    <ele>1622.1</ele>
    <time>2023-04-01T20:03:53Z</time>
   </trkpt>
   <trkpt lat="39.6908810" lon="-104.9688510">
    <ele>1622.1</ele>
    <time>2023-04-01T20:03:54Z</time>
   </trkpt>
   <trkpt lat="39.6909130" lon="-104.9688610">
    <ele>1622.2</ele>
    <time>2023-04-01T20:03:55Z</time>
   </trkpt>
   <trkpt lat="39.6909580" lon="-104.9688630">
    <ele>1622.2</ele>
    <time>2023-04-01T20:03:56Z</time>
   </trkpt>
   <trkpt lat="39.6909780" lon="-104.9688580">
    <ele>1622.3</ele>
    <time>2023-04-01T20:03:57Z</time>
   </trkpt>
   <trkpt lat="39.6910090" lon="-104.9688480">
    <ele>1622.3</ele>
    <time>2023-04-01T20:03:58Z</time>
   </trkpt>
   <trkpt lat="39.6910480" lon="-104.9688460">
    <ele>1622.3</ele>
    <time>2023-04-01T20:03:59Z</time>
   </trkpt>
   <trkpt lat="39.6910630" lon="-104.9688460">
    <ele>1622.4</ele>
    <time>2023-04-01T20:04:00Z</time>
   </trkpt>
   <trkpt lat="39.6910920" lon="-104.9688460">
    <ele>1622.4</ele>
    <time>2023-04-01T20:04:01Z</time>
   </trkpt>
   <trkpt lat="39.6911250" lon="-104.9688500">
    <ele>1622.4</ele>
    <time>2023-04-01T20:04:02Z</time>
   </trkpt>
   <trkpt lat="39.6911430" lon="-104.9688550">
    <ele>1622.4</ele>
    <time>2023-04-01T20:04:03Z</time>
   </trkpt>
   <trkpt lat="39.6911740" lon="-104.9688520">
    <ele>1622.4</ele>
    <time>2023-04-01T20:04:04Z</time>
   </trkpt>
   <trkpt lat="39.6912140" lon="-104.9688460">
    <ele>1622.4</ele>
    <time>2023-04-01T20:04:05Z</time>
   </trkpt>
   <trkpt lat="39.6912370" lon="-104.9688510">
    <ele>1622.4</ele>
    <time>2023-04-01T20:04:06Z</time>
   </trkpt>
   <trkpt lat="39.6912700" lon="-104.9688520">
    <ele>1622.4</ele>
    <time>2023-04-01T20:04:07Z</time>
   </trkpt>
   <trkpt lat="39.6913070" lon="-104.9688550">
    <ele>1622.4</ele>
    <time>2023-04-01T20:04:08Z</time>
   </trkpt>
   <trkpt lat="39.6913230" lon="-104.9688590">
    <ele>1622.4</ele>
    <time>2023-04-01T20:04:09Z</time>
   </trkpt>
   <trkpt lat="39.6913610" lon="-104.9688570">
    <ele>1622.4</ele>
    <time>2023-04-01T20:04:10Z</time>
   </trkpt>
   <trkpt lat="39.6913740" lon="-104.9688510">
    <ele>1622.4</ele>
    <time>2023-04-01T20:04:11Z</time>
   </trkpt>
   <trkpt lat="39.6914060" lon="-104.9688560">
    <ele>1622.4</ele>
    <time>2023-04-01T20:04:12Z</time>
   </trkpt>
   <trkpt lat="39.6914440" lon="-104.9688560">
    <ele>1622.4</ele>
    <time>2023-04-01T20:04:13Z</time>
   </trkpt>
   <trkpt lat="39.6914610" lon="-104.9688590">
    <ele>1622.4</ele>
    <time>2023-04-01T20:04:14Z</time>
   </trkpt>
   <trkpt lat="39.6914960" lon="-104.9688580">
    <ele>1622.4</ele>
    <time>2023-04-01T20:04:15Z</time>
   </trkpt>
   <trkpt lat="39.6915240" lon="-104.9688490">
    <ele>1622.4</ele>
    <time>2023-04-01T20:04:16Z</time>
   </trkpt>
   <trkpt lat="39.6915540" lon="-104.9688610">
    <ele>1622.4</ele>
    <time>2023-04-01T20:04:17Z</time>
   </trkpt>
   <trkpt lat="39.6915880" lon="-104.9688580">
    <ele>1622.4</ele>
    <time>2023-04-01T20:04:18Z</time>
   </trkpt>
   <trkpt lat="39.6916290" lon="-104.9688550">
    <ele>1622.4</ele>
    <time>2023-04-01T20:04:19Z</time>
   </trkpt>
   <trkpt lat="39.6916460" lon="-104.9688500">
    <ele>1622.4</ele>
    <time>2023-04-01T20:04:20Z</time>
   </trkpt>
   <trkpt lat="39.6916880" lon="-104.9688570">
    <ele>1622.4</ele>
    <time>2023-04-01T20:04:21Z</time>
   </trkpt>
   <trkpt lat="39.6917280" lon="-104.9688530">
    <ele>1622.4</ele>
    <time>2023-04-01T20:04:22Z</time>
   </trkpt>
   <trkpt lat="39.6917420" lon="-104.9688530">
    <ele>1622.4</ele>
    <time>2023-04-01T20:04:23Z</time>
   </trkpt>
   <trkpt lat="39.6917730" lon="-104.9688690">
    <ele>1622.4</ele>
    <time>2023-04-01T20:04:24Z</time>
   </trkpt>
   <trkpt lat="39.6918030" lon="-104.9688670">
    <ele>1622.4</ele>
    <time>2023-04-01T20:04:25Z</time>
   </trkpt>
   <trkpt lat="39.6918470" lon="-104.9688780">
    <ele>1622.4</ele>
    <time>2023-04-01T20:04:27Z</time>
   </trkpt>
   <trkpt lat="39.6918790" lon="-104.9688790">
    <ele>1622.4</ele>
    <time>2023-04-01T20:04:28Z</time>
   </trkpt>
   <trkpt lat="39.6919200" lon="-104.9688650">
    <ele>1622.3</ele>
    <time>2023-04-01T20:04:29Z</time>
   </trkpt>
   <trkpt lat="39.6919370" lon="-104.9688600">
    <ele>1622.3</ele>
    <time>2023-04-01T20:04:30Z</time>
   </trkpt>
   <trkpt lat="39.6919690" lon="-104.9688690">
    <ele>1622.3</ele>
    <time>2023-04-01T20:04:31Z</time>
   </trkpt>
   <trkpt lat="39.6919990" lon="-104.9688660">
    <ele>1622.3</ele>
    <time>2023-04-01T20:04:32Z</time>
   </trkpt>
   <trkpt lat="39.6920390" lon="-104.9688720">
    <ele>1622.3</ele>
    <time>2023-04-01T20:04:33Z</time>
   </trkpt>
   <trkpt lat="39.6920670" lon="-104.9688630">
    <ele>1622.3</ele>
    <time>2023-04-01T20:04:34Z</time>
   </trkpt>
   <trkpt lat="39.6921090" lon="-104.9688620">
    <ele>1622.3</ele>
    <time>2023-04-01T20:04:35Z</time>
   </trkpt>
   <trkpt lat="39.6921270" lon="-104.9688600">
    <ele>1622.3</ele>
    <time>2023-04-01T20:04:36Z</time>
   </trkpt>
   <trkpt lat="39.6921680" lon="-104.9688590">
    <ele>1622.3</ele>
    <time>2023-04-01T20:04:37Z</time>
   </trkpt>
   <trkpt lat="39.6921860" lon="-104.9688590">
    <ele>1622.3</ele>
    <time>2023-04-01T20:04:38Z</time>
   </trkpt>
   <trkpt lat="39.6922240" lon="-104.9688530">
    <ele>1622.3</ele>
    <time>2023-04-01T20:04:39Z</time>
   </trkpt>
   <trkpt lat="39.6922610" lon="-104.9688480">
    <ele>1622.2</ele>
    <time>2023-04-01T20:04:40Z</time>
   </trkpt>
   <trkpt lat="39.6922760" lon="-104.9688470">
    <ele>1622.2</ele>
    <time>2023-04-01T20:04:41Z</time>
   </trkpt>
   <trkpt lat="39.6923140" lon="-104.9688490">
    <ele>1622.2</ele>
    <time>2023-04-01T20:04:42Z</time>
   </trkpt>
   <trkpt lat="39.6923450" lon="-104.9688520">
    <ele>1622.2</ele>
    <time>2023-04-01T20:04:43Z</time>
   </trkpt>
   <trkpt lat="39.6923850" lon="-104.9688460">
    <ele>1622.2</ele>
    <time>2023-04-01T20:04:44Z</time>
   </trkpt>
   <trkpt lat="39.6924150" lon="-104.9688460">
    <ele>1622.2</ele>
    <time>2023-04-01T20:04:45Z</time>
   </trkpt>
   <trkpt lat="39.6924620" lon="-104.9688400">
    <ele>1622.2</ele>
    <time>2023-04-01T20:04:46Z</time>
   </trkpt>
   <trkpt lat="39.6924830" lon="-104.9688410">
    <ele>1622.1</ele>
    <time>2023-04-01T20:04:47Z</time>
   </trkpt>
   <trkpt lat="39.6925270" lon="-104.9688520">
    <ele>1622.1</ele>
    <time>2023-04-01T20:04:48Z</time>
   </trkpt>
   <trkpt lat="39.6925490" lon="-104.9688550">
    <ele>1622.1</ele>
    <time>2023-04-01T20:04:49Z</time>
   </trkpt>
   <trkpt lat="39.6925860" lon="-104.9688480">
    <ele>1622.1</ele>
    <time>2023-04-01T20:04:50Z</time>
   </trkpt>
   <trkpt lat="39.6926250" lon="-104.9688480">
    <ele>1622.0</ele>
    <time>2023-04-01T20:04:51Z</time>
   </trkpt>
   <trkpt lat="39.6926390" lon="-104.9688460">
    <ele>1622.0</ele>
    <time>2023-04-01T20:04:52Z</time>
   </trkpt>
   <trkpt lat="39.6926720" lon="-104.9688530">
    <ele>1622.0</ele>
    <time>2023-04-01T20:04:53Z</time>
   </trkpt>
   <trkpt lat="39.6927150" lon="-104.9688460">
    <ele>1622.0</ele>
    <time>2023-04-01T20:04:54Z</time>
   </trkpt>
   <trkpt lat="39.6927310" lon="-104.9688400">
    <ele>1622.0</ele>
    <time>2023-04-01T20:04:55Z</time>
   </trkpt>
   <trkpt lat="39.6927610" lon="-104.9688450">
    <ele>1622.0</ele>
    <time>2023-04-01T20:04:56Z</time>
   </trkpt>
   <trkpt lat="39.6928060" lon="-104.9688420">
    <ele>1622.0</ele>
    <time>2023-04-01T20:04:57Z</time>
   </trkpt>
   <trkpt lat="39.6928250" lon="-104.9688420">
    <ele>1621.9</ele>
    <time>2023-04-01T20:04:58Z</time>
   </trkpt>
   <trkpt lat="39.6928520" lon="-104.9688430">
    <ele>1621.9</ele>
    <time>2023-04-01T20:04:59Z</time>
   </trkpt>
   <trkpt lat="39.6929140" lon="-104.9688570">
    <ele>1621.8</ele>
    <time>2023-04-01T20:05:00Z</time>
   </trkpt>
   <trkpt lat="39.6929630" lon="-104.9688580">
    <ele>1621.8</ele>
    <time>2023-04-01T20:05:01Z</time>
   </trkpt>
   <trkpt lat="39.6930130" lon="-104.9688600">
    <ele>1621.7</ele>
    <time>2023-04-01T20:05:19Z</time>
   </trkpt>
   <trkpt lat="39.6930620" lon="-104.9688610">
    <ele>1621.6</ele>
    <time>2023-04-01T20:05:20Z</time>
   </trkpt>
   <trkpt lat="39.6931120" lon="-104.9688630">
    <ele>1621.5</ele>
    <time>2023-04-01T20:05:21Z</time>
   </trkpt>
   <trkpt lat="39.6931390" lon="-104.9688760">
    <ele>1621.5</ele>
    <time>2023-04-01T20:05:22Z</time>
   </trkpt>
   <trkpt lat="39.6931790" lon="-104.9688710">
    <ele>1621.4</ele>
    <time>2023-04-01T20:05:23Z</time>
   </trkpt>
   <trkpt lat="39.6931940" lon="-104.9688750">
    <ele>1621.4</ele>
    <time>2023-04-01T20:05:24Z</time>
   </trkpt>
   <trkpt lat="39.6932250" lon="-104.9689090">
    <ele>1621.3</ele>
    <time>2023-04-01T20:05:25Z</time>
   </trkpt>
   <trkpt lat="39.6932430" lon="-104.9689440">
    <ele>1621.0</ele>
    <time>2023-04-01T20:05:26Z</time>
   </trkpt>
   <trkpt lat="39.6932630" lon="-104.9689900">
    <ele>1621.0</ele>
    <time>2023-04-01T20:05:27Z</time>
   </trkpt>
   <trkpt lat="39.6932740" lon="-104.9690280">
    <ele>1621.0</ele>
    <time>2023-04-01T20:05:28Z</time>
   </trkpt>
   <trkpt lat="39.6933090" lon="-104.9690560">
    <ele>1621.0</ele>
    <time>2023-04-01T20:05:29Z</time>
   </trkpt>
   <trkpt lat="39.6933220" lon="-104.9690700">
    <ele>1621.0</ele>
    <time>2023-04-01T20:05:30Z</time>
   </trkpt>
   <trkpt lat="39.6933310" lon="-104.9691110">
    <ele>1621.0</ele>
    <time>2023-04-01T20:05:31Z</time>
   </trkpt>
   <trkpt lat="39.6933430" lon="-104.9691490">
    <ele>1621.0</ele>
    <time>2023-04-01T20:05:32Z</time>
   </trkpt>
   <trkpt lat="39.6933300" lon="-104.9692090">
    <ele>1621.0</ele>
    <time>2023-04-01T20:05:33Z</time>
   </trkpt>
   <trkpt lat="39.6933060" lon="-104.9692460">
    <ele>1621.0</ele>
    <time>2023-04-01T20:05:34Z</time>
   </trkpt>
   <trkpt lat="39.6932800" lon="-104.9692750">
    <ele>1621.0</ele>
    <time>2023-04-01T20:05:35Z</time>
   </trkpt>
   <trkpt lat="39.6932650" lon="-104.9693130">
    <ele>1621.1</ele>
    <time>2023-04-01T20:05:36Z</time>
   </trkpt>
   <trkpt lat="39.6932460" lon="-104.9693510">
    <ele>1621.1</ele>
    <time>2023-04-01T20:05:37Z</time>
   </trkpt>
   <trkpt lat="39.6932400" lon="-104.9693640">
    <ele>1621.1</ele>
    <time>2023-04-01T20:05:38Z</time>
   </trkpt>
   <trkpt lat="39.6932220" lon="-104.9694020">
    <ele>1621.1</ele>
    <time>2023-04-01T20:05:39Z</time>
   </trkpt>
   <trkpt lat="39.6931990" lon="-104.9694390">
    <ele>1621.1</ele>
    <time>2023-04-01T20:05:40Z</time>
   </trkpt>
   <trkpt lat="39.6931900" lon="-104.9694500">
    <ele>1621.1</ele>
    <time>2023-04-01T20:05:41Z</time>
   </trkpt>
   <trkpt lat="39.6931630" lon="-104.9694840">
    <ele>1621.1</ele>
    <time>2023-04-01T20:05:42Z</time>
   </trkpt>
   <trkpt lat="39.6931520" lon="-104.9695270">
    <ele>1621.1</ele>
    <time>2023-04-01T20:05:43Z</time>
   </trkpt>
   <trkpt lat="39.6931460" lon="-104.9695650">
    <ele>1621.2</ele>
    <time>2023-04-01T20:05:44Z</time>
   </trkpt>
   <trkpt lat="39.6931320" lon="-104.9696140">
    <ele>1621.2</ele>
    <time>2023-04-01T20:05:45Z</time>
   </trkpt>
   <trkpt lat="39.6931300" lon="-104.9696640">
    <ele>1621.2</ele>
    <time>2023-04-01T20:05:46Z</time>
   </trkpt>
   <trkpt lat="39.6931310" lon="-104.9696870">
    <ele>1621.2</ele>
    <time>2023-04-01T20:05:47Z</time>
   </trkpt>
   <trkpt lat="39.6931280" lon="-104.9697300">
    <ele>1621.2</ele>
    <time>2023-04-01T20:05:48Z</time>
   </trkpt>
   <trkpt lat="39.6931290" lon="-104.9697710">
    <ele>1621.2</ele>
    <time>2023-04-01T20:05:49Z</time>
   </trkpt>
   <trkpt lat="39.6931330" lon="-104.9698220">
    <ele>1621.3</ele>
    <time>2023-04-01T20:05:50Z</time>
   </trkpt>
   <trkpt lat="39.6931310" lon="-104.9698690">
    <ele>1621.3</ele>
    <time>2023-04-01T20:05:51Z</time>
   </trkpt>
   <trkpt lat="39.6931240" lon="-104.9699220">
    <ele>1621.3</ele>
    <time>2023-04-01T20:05:52Z</time>
   </trkpt>
   <trkpt lat="39.6931230" lon="-104.9699470">
    <ele>1621.3</ele>
    <time>2023-04-01T20:05:53Z</time>
   </trkpt>
   <trkpt lat="39.6931260" lon="-104.9699880">
    <ele>1621.3</ele>
    <time>2023-04-01T20:05:54Z</time>
   </trkpt>
   <trkpt lat="39.6931420" lon="-104.9700390">
    <ele>1621.3</ele>
    <time>2023-04-01T20:05:55Z</time>
   </trkpt>
   <trkpt lat="39.6931450" lon="-104.9700600">
    <ele>1621.3</ele>
    <time>2023-04-01T20:05:56Z</time>
   </trkpt>
   <trkpt lat="39.6931570" lon="-104.9701000">
    <ele>1621.3</ele>
    <time>2023-04-01T20:05:57Z</time>
   </trkpt>
   <trkpt lat="39.6931610" lon="-104.9701160">
    <ele>1621.3</ele>
    <time>2023-04-01T20:05:58Z</time>
   </trkpt>
   <trkpt lat="39.6931650" lon="-104.9701680">
    <ele>1621.3</ele>
    <time>2023-04-01T20:05:59Z</time>
   </trkpt>
   <trkpt lat="39.6931660" lon="-104.9702110">
    <ele>1621.3</ele>
    <time>2023-04-01T20:06:00Z</time>
   </trkpt>
   <trkpt lat="39.6931630" lon="-104.9702570">
    <ele>1621.3</ele>
    <time>2023-04-01T20:06:01Z</time>
   </trkpt>
   <trkpt lat="39.6931520" lon="-104.9703020">
    <ele>1621.3</ele>
    <time>2023-04-01T20:06:02Z</time>
   </trkpt>
   <trkpt lat="39.6931360" lon="-104.9703370">
    <ele>1621.3</ele>
    <time>2023-04-01T20:06:03Z</time>
   </trkpt>
   <trkpt lat="39.6931400" lon="-104.9703970">
    <ele>1621.3</ele>
    <time>2023-04-01T20:06:04Z</time>
   </trkpt>
   <trkpt lat="39.6931410" lon="-104.9704250">
    <ele>1621.3</ele>
    <time>2023-04-01T20:06:05Z</time>
   </trkpt>
   <trkpt lat="39.6931450" lon="-104.9704640">
    <ele>1621.3</ele>
    <time>2023-04-01T20:06:06Z</time>
   </trkpt>
   <trkpt lat="39.6931420" lon="-104.9705200">
    <ele>1621.3</ele>
    <time>2023-04-01T20:06:07Z</time>
   </trkpt>
   <trkpt lat="39.6931280" lon="-104.9705510">
    <ele>1621.3</ele>
    <time>2023-04-01T20:06:08Z</time>
   </trkpt>
   <trkpt lat="39.6931220" lon="-104.9705880">
    <ele>1621.3</ele>
    <time>2023-04-01T20:06:09Z</time>
   </trkpt>
   <trkpt lat="39.6931240" lon="-104.9706440">
    <ele>1621.3</ele>
    <time>2023-04-01T20:06:10Z</time>
   </trkpt>
   <trkpt lat="39.6931250" lon="-104.9706890">
    <ele>1621.3</ele>
    <time>2023-04-01T20:06:11Z</time>
   </trkpt>
   <trkpt lat="39.6931270" lon="-104.9707340">
    <ele>1621.3</ele>
    <time>2023-04-01T20:06:12Z</time>
   </trkpt>
   <trkpt lat="39.6931200" lon="-104.9708020">
    <ele>1621.3</ele>
    <time>2023-04-01T20:06:13Z</time>
   </trkpt>
   <trkpt lat="39.6931190" lon="-104.9708530">
    <ele>1621.2</ele>
    <time>2023-04-01T20:06:14Z</time>
   </trkpt>
   <trkpt lat="39.6931200" lon="-104.9708750">
    <ele>1621.2</ele>
    <time>2023-04-01T20:06:15Z</time>
   </trkpt>
   <trkpt lat="39.6931130" lon="-104.9709200">
    <ele>1621.2</ele>
    <time>2023-04-01T20:06:16Z</time>
   </trkpt>
   <trkpt lat="39.6931050" lon="-104.9709580">
    <ele>1621.2</ele>
    <time>2023-04-01T20:06:17Z</time>
   </trkpt>
   <trkpt lat="39.6931050" lon="-104.9710010">
    <ele>1621.2</ele>
    <time>2023-04-01T20:06:18Z</time>
   </trkpt>
   <trkpt lat="39.6931080" lon="-104.9710470">
    <ele>1621.2</ele>
    <time>2023-04-01T20:06:19Z</time>
   </trkpt>
   <trkpt lat="39.6931160" lon="-104.9711070">
    <ele>1621.1</ele>
    <time>2023-04-01T20:06:20Z</time>
   </trkpt>
   <trkpt lat="39.6931180" lon="-104.9711350">
    <ele>1621.1</ele>
    <time>2023-04-01T20:06:21Z</time>
   </trkpt>
   <trkpt lat="39.6931140" lon="-104.9711770">
    <ele>1621.1</ele>
    <time>2023-04-01T20:06:22Z</time>
   </trkpt>
   <trkpt lat="39.6931240" lon="-104.9712290">
    <ele>1621.1</ele>
    <time>2023-04-01T20:06:23Z</time>
   </trkpt>
   <trkpt lat="39.6931240" lon="-104.9712490">
    <ele>1621.1</ele>
    <time>2023-04-01T20:06:24Z</time>
   </trkpt>
   <trkpt lat="39.6931230" lon="-104.9713020">
    <ele>1621.1</ele>
    <time>2023-04-01T20:06:25Z</time>
   </trkpt>
   <trkpt lat="39.6931230" lon="-104.9713200">
    <ele>1621.1</ele>
    <time>2023-04-01T20:06:26Z</time>
   </trkpt>
   <trkpt lat="39.6931250" lon="-104.9713610">
    <ele>1621.1</ele>
    <time>2023-04-01T20:06:27Z</time>
   </trkpt>
   <trkpt lat="39.6931300" lon="-104.9713980">
    <ele>1621.1</ele>
    <time>2023-04-01T20:06:28Z</time>
   </trkpt>
   <trkpt lat="39.6931330" lon="-104.9714380">
    <ele>1621.0</ele>
    <time>2023-04-01T20:06:29Z</time>
   </trkpt>
   <trkpt lat="39.6931360" lon="-104.9714810">
    <ele>1621.0</ele>
    <time>2023-04-01T20:06:30Z</time>
   </trkpt>
   <trkpt lat="39.6931360" lon="-104.9715190">
    <ele>1621.0</ele>
    <time>2023-04-01T20:06:32Z</time>
   </trkpt>
   <trkpt lat="39.6931350" lon="-104.9715600">
    <ele>1620.9</ele>
    <time>2023-04-01T20:06:33Z</time>
   </trkpt>
   <trkpt lat="39.6931400" lon="-104.9715960">
    <ele>1620.9</ele>
    <time>2023-04-01T20:06:34Z</time>
   </trkpt>
   <trkpt lat="39.6931270" lon="-104.9716490">
    <ele>1620.9</ele>
    <time>2023-04-01T20:06:35Z</time>
   </trkpt>
   <trkpt lat="39.6931200" lon="-104.9716730">
    <ele>1620.9</ele>
    <time>2023-04-01T20:06:36Z</time>
   </trkpt>
   <trkpt lat="39.6931300" lon="-104.9717080">
    <ele>1620.8</ele>
    <time>2023-04-01T20:06:37Z</time>
   </trkpt>
   <trkpt lat="39.6931350" lon="-104.9717440">
    <ele>1620.8</ele>
    <time>2023-04-01T20:06:38Z</time>
   </trkpt>
   <trkpt lat="39.6931330" lon="-104.9717980">
    <ele>1620.8</ele>
    <time>2023-04-01T20:06:39Z</time>
   </trkpt>
   <trkpt lat="39.6931230" lon="-104.9718390">
    <ele>1620.8</ele>
    <time>2023-04-01T20:06:40Z</time>
   </trkpt>
   <trkpt lat="39.6931190" lon="-104.9718750">
    <ele>1620.7</ele>
    <time>2023-04-01T20:06:41Z</time>
   </trkpt>
   <trkpt lat="39.6931010" lon="-104.9719220">
    <ele>1620.7</ele>
    <time>2023-04-01T20:06:42Z</time>
   </trkpt>
   <trkpt lat="39.6930910" lon="-104.9719760">
    <ele>1620.7</ele>
    <time>2023-04-01T20:06:43Z</time>
   </trkpt>
   <trkpt lat="39.6930860" lon="-104.9719950">
    <ele>1620.7</ele>
    <time>2023-04-01T20:06:44Z</time>
   </trkpt>
   <trkpt lat="39.6930850" lon="-104.9720450">
    <ele>1620.6</ele>
    <time>2023-04-01T20:06:45Z</time>
   </trkpt>
   <trkpt lat="39.6930900" lon="-104.9720820">
    <ele>1620.6</ele>
    <time>2023-04-01T20:06:46Z</time>
   </trkpt>
   <trkpt lat="39.6930810" lon="-104.9721230">
    <ele>1620.6</ele>
    <time>2023-04-01T20:06:47Z</time>
   </trkpt>
   <trkpt lat="39.6930800" lon="-104.9721600">
    <ele>1620.6</ele>
    <time>2023-04-01T20:06:48Z</time>
   </trkpt>
   <trkpt lat="39.6930900" lon="-104.9722010">
    <ele>1620.6</ele>
    <time>2023-04-01T20:06:49Z</time>
   </trkpt>
   <trkpt lat="39.6930800" lon="-104.9722480">
    <ele>1620.5</ele>
    <time>2023-04-01T20:06:50Z</time>
   </trkpt>
   <trkpt lat="39.6930880" lon="-104.9723030">
    <ele>1620.5</ele>
    <time>2023-04-01T20:06:51Z</time>
   </trkpt>
   <trkpt lat="39.6930900" lon="-104.9723240">
    <ele>1620.5</ele>
    <time>2023-04-01T20:06:52Z</time>
   </trkpt>
   <trkpt lat="39.6930910" lon="-104.9723690">
    <ele>1620.5</ele>
    <time>2023-04-01T20:06:53Z</time>
   </trkpt>
   <trkpt lat="39.6930930" lon="-104.9724160">
    <ele>1620.5</ele>
    <time>2023-04-01T20:06:54Z</time>
   </trkpt>
   <trkpt lat="39.6930960" lon="-104.9724670">
    <ele>1620.5</ele>
    <time>2023-04-01T20:06:55Z</time>
   </trkpt>
   <trkpt lat="39.6930960" lon="-104.9725070">
    <ele>1620.5</ele>
    <time>2023-04-01T20:06:56Z</time>
   </trkpt>
   <trkpt lat="39.6931100" lon="-104.9725420">
    <ele>1620.5</ele>
    <time>2023-04-01T20:06:57Z</time>
   </trkpt>
   <trkpt lat="39.6931030" lon="-104.9725890">
    <ele>1620.5</ele>
    <time>2023-04-01T20:06:58Z</time>
   </trkpt>
   <trkpt lat="39.6931100" lon="-104.9726250">
    <ele>1620.5</ele>
    <time>2023-04-01T20:06:59Z</time>
   </trkpt>
   <trkpt lat="39.6931070" lon="-104.9726650">
    <ele>1620.5</ele>
    <time>2023-04-01T20:07:00Z</time>
   </trkpt>
   <trkpt lat="39.6931010" lon="-104.9727210">
    <ele>1620.5</ele>
    <time>2023-04-01T20:07:01Z</time>
   </trkpt>
   <trkpt lat="39.6931060" lon="-104.9727650">
    <ele>1620.5</ele>
    <time>2023-04-01T20:07:02Z</time>
   </trkpt>
   <trkpt lat="39.6931190" lon="-104.9728070">
    <ele>1620.5</ele>
    <time>2023-04-01T20:07:03Z</time>
   </trkpt>
   <trkpt lat="39.6931240" lon="-104.9728490">
    <ele>1620.5</ele>
    <time>2023-04-01T20:07:04Z</time>
   </trkpt>
   <trkpt lat="39.6931470" lon="-104.9728930">
    <ele>1620.5</ele>
    <time>2023-04-01T20:07:05Z</time>
   </trkpt>
   <trkpt lat="39.6931530" lon="-104.9729150">
    <ele>1620.5</ele>
    <time>2023-04-01T20:07:06Z</time>
   </trkpt>
   <trkpt lat="39.6931660" lon="-104.9729530">
    <ele>1620.5</ele>
    <time>2023-04-01T20:07:07Z</time>
   </trkpt>
   <trkpt lat="39.6931990" lon="-104.9729760">
    <ele>1620.5</ele>
    <time>2023-04-01T20:07:08Z</time>
   </trkpt>
   <trkpt lat="39.6932230" lon="-104.9730230">
    <ele>1620.5</ele>
    <time>2023-04-01T20:07:09Z</time>
   </trkpt>
   <trkpt lat="39.6932520" lon="-104.9730420">
    <ele>1620.4</ele>
    <time>2023-04-01T20:07:10Z</time>
   </trkpt>
   <trkpt lat="39.6932820" lon="-104.9730500">
    <ele>1620.4</ele>
    <time>2023-04-01T20:07:11Z</time>
   </trkpt>
   <trkpt lat="39.6933060" lon="-104.9730710">
    <ele>1620.4</ele>
    <time>2023-04-01T20:07:12Z</time>
   </trkpt>
   <trkpt lat="39.6933340" lon="-104.9730980">
    <ele>1620.4</ele>
    <time>2023-04-01T20:07:13Z</time>
   </trkpt>
   <trkpt lat="39.6933660" lon="-104.9731170">
    <ele>1620.4</ele>
    <time>2023-04-01T20:07:14Z</time>
   </trkpt>
   <trkpt lat="39.6933970" lon="-104.9731360">
    <ele>1620.3</ele>
    <time>2023-04-01T20:07:15Z</time>
   </trkpt>
   <trkpt lat="39.6934340" lon="-104.9731310">
    <ele>1620.3</ele>
    <time>2023-04-01T20:07:16Z</time>
   </trkpt>
   <trkpt lat="39.6934660" lon="-104.9731480">
    <ele>1620.2</ele>
    <time>2023-04-01T20:07:17Z</time>
   </trkpt>
   <trkpt lat="39.6934860" lon="-104.9731730">
    <ele>1620.1</ele>
    <time>2023-04-01T20:07:18Z</time>
   </trkpt>
   <trkpt lat="39.6935120" lon="-104.9731820">
    <ele>1620.1</ele>
    <time>2023-04-01T20:07:19Z</time>
   </trkpt>
   <trkpt lat="39.6935660" lon="-104.9732140">
    <ele>1620.0</ele>
    <time>2023-04-01T20:07:20Z</time>
   </trkpt>
   <trkpt lat="39.6935960" lon="-104.9732310">
    <ele>1619.9</ele>
    <time>2023-04-01T20:07:21Z</time>
   </trkpt>
   <trkpt lat="39.6936190" lon="-104.9732620">
    <ele>1619.9</ele>
    <time>2023-04-01T20:07:22Z</time>
   </trkpt>
   <trkpt lat="39.6936470" lon="-104.9732710">
    <ele>1619.8</ele>
    <time>2023-04-01T20:07:23Z</time>
   </trkpt>
   <trkpt lat="39.6936750" lon="-104.9732760">
    <ele>1619.7</ele>
    <time>2023-04-01T20:07:24Z</time>
   </trkpt>
   <trkpt lat="39.6937050" lon="-104.9732910">
    <ele>1619.7</ele>
    <time>2023-04-01T20:07:25Z</time>
   </trkpt>
   <trkpt lat="39.6937350" lon="-104.9733050">
    <ele>1619.6</ele>
    <time>2023-04-01T20:07:26Z</time>
   </trkpt>
   <trkpt lat="39.6937760" lon="-104.9733160">
    <ele>1619.6</ele>
    <time>2023-04-01T20:07:27Z</time>
   </trkpt>
   <trkpt lat="39.6938030" lon="-104.9733450">
    <ele>1619.6</ele>
    <time>2023-04-01T20:07:28Z</time>
   </trkpt>
   <trkpt lat="39.6938300" lon="-104.9733300">
    <ele>1619.5</ele>
    <time>2023-04-01T20:07:29Z</time>
   </trkpt>
   <trkpt lat="39.6938600" lon="-104.9733260">
    <ele>1619.5</ele>
    <time>2023-04-01T20:07:30Z</time>
   </trkpt>
   <trkpt lat="39.6939000" lon="-104.9733250">
    <ele>1619.5</ele>
    <time>2023-04-01T20:07:31Z</time>
   </trkpt>
   <trkpt lat="39.6939150" lon="-104.9733200">
    <ele>1619.5</ele>
    <time>2023-04-01T20:07:32Z</time>
   </trkpt>
   <trkpt lat="39.6939440" lon="-104.9733250">
    <ele>1619.4</ele>
    <time>2023-04-01T20:07:33Z</time>
   </trkpt>
   <trkpt lat="39.6939760" lon="-104.9733310">
    <ele>1619.4</ele>
    <time>2023-04-01T20:07:34Z</time>
   </trkpt>
   <trkpt lat="39.6940080" lon="-104.9733270">
    <ele>1619.4</ele>
    <time>2023-04-01T20:07:35Z</time>
   </trkpt>
   <trkpt lat="39.6940370" lon="-104.9733400">
    <ele>1619.3</ele>
    <time>2023-04-01T20:07:36Z</time>
   </trkpt>
   <trkpt lat="39.6940680" lon="-104.9733300">
    <ele>1619.3</ele>
    <time>2023-04-01T20:07:37Z</time>
   </trkpt>
   <trkpt lat="39.6940980" lon="-104.9733200">
    <ele>1619.3</ele>
    <time>2023-04-01T20:07:38Z</time>
   </trkpt>
   <trkpt lat="39.6941300" lon="-104.9733180">
    <ele>1619.3</ele>
    <time>2023-04-01T20:07:39Z</time>
   </trkpt>
   <trkpt lat="39.6941640" lon="-104.9733160">
    <ele>1619.3</ele>
    <time>2023-04-01T20:07:40Z</time>
   </trkpt>
   <trkpt lat="39.6941930" lon="-104.9733130">
    <ele>1619.3</ele>
    <time>2023-04-01T20:07:41Z</time>
   </trkpt>
   <trkpt lat="39.6942360" lon="-104.9733130">
    <ele>1619.2</ele>
    <time>2023-04-01T20:07:42Z</time>
   </trkpt>
   <trkpt lat="39.6942540" lon="-104.9733070">
    <ele>1619.2</ele>
    <time>2023-04-01T20:07:43Z</time>
   </trkpt>
   <trkpt lat="39.6942890" lon="-104.9732970">
    <ele>1619.2</ele>
    <time>2023-04-01T20:07:44Z</time>
   </trkpt>
   <trkpt lat="39.6943190" lon="-104.9733090">
    <ele>1619.2</ele>
    <time>2023-04-01T20:07:45Z</time>
   </trkpt>
   <trkpt lat="39.6943650" lon="-104.9733040">
    <ele>1619.3</ele>
    <time>2023-04-01T20:07:46Z</time>
   </trkpt>
   <trkpt lat="39.6943850" lon="-104.9733010">
    <ele>1619.3</ele>
    <time>2023-04-01T20:07:47Z</time>
   </trkpt>
   <trkpt lat="39.6944170" lon="-104.9733050">
    <ele>1619.3</ele>
    <time>2023-04-01T20:07:48Z</time>
   </trkpt>
   <trkpt lat="39.6944480" lon="-104.9732730">
    <ele>1619.3</ele>
    <time>2023-04-01T20:07:49Z</time>
   </trkpt>
   <trkpt lat="39.6944840" lon="-104.9732570">
    <ele>1619.3</ele>
    <time>2023-04-01T20:07:50Z</time>
   </trkpt>
   <trkpt lat="39.6945200" lon="-104.9732610">
    <ele>1619.3</ele>
    <time>2023-04-01T20:07:51Z</time>
   </trkpt>
   <trkpt lat="39.6945580" lon="-104.9732470">
    <ele>1619.3</ele>
    <time>2023-04-01T20:07:52Z</time>
   </trkpt>
   <trkpt lat="39.6945870" lon="-104.9732710">
    <ele>1619.2</ele>
    <time>2023-04-01T20:07:53Z</time>
   </trkpt>
   <trkpt lat="39.6946210" lon="-104.9732550">
    <ele>1619.2</ele>
    <time>2023-04-01T20:07:54Z</time>
   </trkpt>
   <trkpt lat="39.6946530" lon="-104.9732290">
    <ele>1619.2</ele>
    <time>2023-04-01T20:07:55Z</time>
   </trkpt>
   <trkpt lat="39.6946870" lon="-104.9732340">
    <ele>1619.1</ele>
    <time>2023-04-01T20:07:56Z</time>
   </trkpt>
   <trkpt lat="39.6947220" lon="-104.9732330">
    <ele>1619.1</ele>
    <time>2023-04-01T20:07:57Z</time>
   </trkpt>
   <trkpt lat="39.6947610" lon="-104.9732210">
    <ele>1619.0</ele>
    <time>2023-04-01T20:07:58Z</time>
   </trkpt>
   <trkpt lat="39.6947880" lon="-104.9732310">
    <ele>1619.0</ele>
    <time>2023-04-01T20:07:59Z</time>
   </trkpt>
   <trkpt lat="39.6948150" lon="-104.9732330">
    <ele>1618.9</ele>
    <time>2023-04-01T20:08:00Z</time>
   </trkpt>
   <trkpt lat="39.6948520" lon="-104.9732340">
    <ele>1618.9</ele>
    <time>2023-04-01T20:08:01Z</time>
   </trkpt>
   <trkpt lat="39.6948990" lon="-104.9732430">
    <ele>1618.8</ele>
    <time>2023-04-01T20:08:02Z</time>
   </trkpt>
   <trkpt lat="39.6949200" lon="-104.9732410">
    <ele>1618.8</ele>
    <time>2023-04-01T20:08:03Z</time>
   </trkpt>
   <trkpt lat="39.6949490" lon="-104.9732500">
    <ele>1618.7</ele>
    <time>2023-04-01T20:08:04Z</time>
   </trkpt>
   <trkpt lat="39.6949960" lon="-104.9732490">
    <ele>1618.7</ele>
    <time>2023-04-01T20:08:05Z</time>
   </trkpt>
   <trkpt lat="39.6950180" lon="-104.9732470">
    <ele>1618.7</ele>
    <time>2023-04-01T20:08:06Z</time>
   </trkpt>
   <trkpt lat="39.6950450" lon="-104.9732370">
    <ele>1618.6</ele>
    <time>2023-04-01T20:08:07Z</time>
   </trkpt>
   <trkpt lat="39.6950860" lon="-104.9732360">
    <ele>1618.6</ele>
    <time>2023-04-01T20:08:08Z</time>
   </trkpt>
   <trkpt lat="39.6951030" lon="-104.9732360">
    <ele>1618.6</ele>
    <time>2023-04-01T20:08:09Z</time>
   </trkpt>
   <trkpt lat="39.6951360" lon="-104.9732400">
    <ele>1618.6</ele>
    <time>2023-04-01T20:08:10Z</time>
   </trkpt>
   <trkpt lat="39.6951760" lon="-104.9732460">
    <ele>1618.5</ele>
    <time>2023-04-01T20:08:11Z</time>
   </trkpt>
   <trkpt lat="39.6951940" lon="-104.9732530">
    <ele>1618.5</ele>
    <time>2023-04-01T20:08:12Z</time>
   </trkpt>
   <trkpt lat="39.6952320" lon="-104.9732520">
    <ele>1618.5</ele>
    <time>2023-04-01T20:08:13Z</time>
   </trkpt>
   <trkpt lat="39.6952480" lon="-104.9732500">
    <ele>1618.5</ele>
    <time>2023-04-01T20:08:14Z</time>
   </trkpt>
   <trkpt lat="39.6952800" lon="-104.9732600">
    <ele>1618.4</ele>
    <time>2023-04-01T20:08:15Z</time>
   </trkpt>
   <trkpt lat="39.6953200" lon="-104.9732610">
    <ele>1618.4</ele>
    <time>2023-04-01T20:08:16Z</time>
   </trkpt>
   <trkpt lat="39.6953350" lon="-104.9732580">
    <ele>1618.4</ele>
    <time>2023-04-01T20:08:17Z</time>
   </trkpt>
   <trkpt lat="39.6953660" lon="-104.9732570">
    <ele>1618.4</ele>
    <time>2023-04-01T20:08:18Z</time>
   </trkpt>
   <trkpt lat="39.6953990" lon="-104.9732610">
    <ele>1618.4</ele>
    <time>2023-04-01T20:08:19Z</time>
   </trkpt>
   <trkpt lat="39.6954440" lon="-104.9732780">
    <ele>1618.4</ele>
    <time>2023-04-01T20:08:20Z</time>
   </trkpt>
   <trkpt lat="39.6954710" lon="-104.9732870">
    <ele>1618.4</ele>
    <time>2023-04-01T20:08:21Z</time>
   </trkpt>
   <trkpt lat="39.6955030" lon="-104.9732900">
    <ele>1618.4</ele>
    <time>2023-04-01T20:08:22Z</time>
   </trkpt>
   <trkpt lat="39.6955380" lon="-104.9732940">
    <ele>1618.4</ele>
    <time>2023-04-01T20:08:23Z</time>
   </trkpt>
   <trkpt lat="39.6955740" lon="-104.9732920">
    <ele>1618.4</ele>
    <time>2023-04-01T20:08:24Z</time>
   </trkpt>
   <trkpt lat="39.6956030" lon="-104.9732890">
    <ele>1618.4</ele>
    <time>2023-04-01T20:08:25Z</time>
   </trkpt>
   <trkpt lat="39.6956400" lon="-104.9732850">
    <ele>1618.3</ele>
    <time>2023-04-01T20:08:26Z</time>
   </trkpt>
   <trkpt lat="39.6956720" lon="-104.9732840">
    <ele>1618.3</ele>
    <time>2023-04-01T20:08:27Z</time>
   </trkpt>
   <trkpt lat="39.6957040" lon="-104.9732840">
    <ele>1618.3</ele>
    <time>2023-04-01T20:08:28Z</time>
   </trkpt>
   <trkpt lat="39.6957470" lon="-104.9732820">
    <ele>1618.3</ele>
    <time>2023-04-01T20:08:29Z</time>
   </trkpt>
   <trkpt lat="39.6957720" lon="-104.9732680">
    <ele>1618.3</ele>
    <time>2023-04-01T20:08:30Z</time>
   </trkpt>
   <trkpt lat="39.6958060" lon="-104.9732680">
    <ele>1618.3</ele>
    <time>2023-04-01T20:08:31Z</time>
   </trkpt>
   <trkpt lat="39.6958390" lon="-104.9732630">
    <ele>1618.2</ele>
    <time>2023-04-01T20:08:32Z</time>
   </trkpt>
   <trkpt lat="39.6958790" lon="-104.9732620">
    <ele>1618.2</ele>
    <time>2023-04-01T20:08:33Z</time>
   </trkpt>
   <trkpt lat="39.6958950" lon="-104.9732620">
    <ele>1618.2</ele>
    <time>2023-04-01T20:08:34Z</time>
   </trkpt>
   <trkpt lat="39.6959300" lon="-104.9732650">
    <ele>1618.2</ele>
    <time>2023-04-01T20:08:35Z</time>
   </trkpt>
   <trkpt lat="39.6959540" lon="-104.9732560">
    <ele>1618.2</ele>
    <time>2023-04-01T20:08:36Z</time>
   </trkpt>
   <trkpt lat="39.6959810" lon="-104.9732590">
    <ele>1618.1</ele>
    <time>2023-04-01T20:08:38Z</time>
   </trkpt>
   <trkpt lat="39.6960180" lon="-104.9732620">
    <ele>1618.1</ele>
    <time>2023-04-01T20:08:39Z</time>
   </trkpt>
   <trkpt lat="39.6960540" lon="-104.9732630">
    <ele>1618.1</ele>
    <time>2023-04-01T20:08:40Z</time>
   </trkpt>
   <trkpt lat="39.6960730" lon="-104.9732670">
    <ele>1618.1</ele>
    <time>2023-04-01T20:08:41Z</time>
   </trkpt>
   <trkpt lat="39.6961070" lon="-104.9732840">
    <ele>1618.0</ele>
    <time>2023-04-01T20:08:42Z</time>
   </trkpt>
   <trkpt lat="39.6961540" lon="-104.9732850">
    <ele>1618.0</ele>
    <time>2023-04-01T20:08:43Z</time>
   </trkpt>
   <trkpt lat="39.6961760" lon="-104.9732870">
    <ele>1618.0</ele>
    <time>2023-04-01T20:08:44Z</time>
   </trkpt>
   <trkpt lat="39.6962080" lon="-104.9732990">
    <ele>1618.0</ele>
    <time>2023-04-01T20:08:45Z</time>
   </trkpt>
   <trkpt lat="39.6962370" lon="-104.9733030">
    <ele>1618.0</ele>
    <time>2023-04-01T20:08:46Z</time>
   </trkpt>
   <trkpt lat="39.6962730" lon="-104.9732940">
    <ele>1617.9</ele>
    <time>2023-04-01T20:08:47Z</time>
   </trkpt>
   <trkpt lat="39.6963030" lon="-104.9732960">
    <ele>1617.9</ele>
    <time>2023-04-01T20:08:48Z</time>
   </trkpt>
   <trkpt lat="39.6963300" lon="-104.9733020">
    <ele>1617.9</ele>
    <time>2023-04-01T20:08:49Z</time>
   </trkpt>
   <trkpt lat="39.6963630" lon="-104.9733080">
    <ele>1617.9</ele>
    <time>2023-04-01T20:08:50Z</time>
   </trkpt>
   <trkpt lat="39.6964050" lon="-104.9733040">
    <ele>1617.9</ele>
    <time>2023-04-01T20:08:51Z</time>
   </trkpt>
   <trkpt lat="39.6964260" lon="-104.9733000">
    <ele>1617.9</ele>
    <time>2023-04-01T20:08:52Z</time>
   </trkpt>
   <trkpt lat="39.6964650" lon="-104.9733100">
    <ele>1617.9</ele>
    <time>2023-04-01T20:08:53Z</time>
   </trkpt>
   <trkpt lat="39.6964990" lon="-104.9732960">
    <ele>1617.9</ele>
    <time>2023-04-01T20:08:54Z</time>
   </trkpt>
   <trkpt lat="39.6965110" lon="-104.9732900">
    <ele>1617.9</ele>
    <time>2023-04-01T20:08:55Z</time>
   </trkpt>
   <trkpt lat="39.6965450" lon="-104.9732890">
    <ele>1617.9</ele>
    <time>2023-04-01T20:08:56Z</time>
   </trkpt>
   <trkpt lat="39.6965810" lon="-104.9732780">
    <ele>1618.0</ele>
    <time>2023-04-01T20:08:57Z</time>
   </trkpt>
   <trkpt lat="39.6965980" lon="-104.9732730">
    <ele>1618.0</ele>
    <time>2023-04-01T20:08:58Z</time>
   </trkpt>
   <trkpt lat="39.6966360" lon="-104.9732680">
    <ele>1618.0</ele>
    <time>2023-04-01T20:08:59Z</time>
   </trkpt>
   <trkpt lat="39.6966700" lon="-104.9732540">
    <ele>1618.0</ele>
    <time>2023-04-01T20:09:00Z</time>
   </trkpt>
   <trkpt lat="39.6967100" lon="-104.9732540">
    <ele>1618.1</ele>
    <time>2023-04-01T20:09:01Z</time>
   </trkpt>
   <trkpt lat="39.6967460" lon="-104.9732480">
    <ele>1618.2</ele>
    <time>2023-04-01T20:09:02Z</time>
   </trkpt>
   <trkpt lat="39.6967560" lon="-104.9732430">
    <ele>1618.2</ele>
    <time>2023-04-01T20:09:03Z</time>
   </trkpt>
   <trkpt lat="39.6967940" lon="-104.9732380">
    <ele>1618.2</ele>
    <time>2023-04-01T20:09:04Z</time>
   </trkpt>
   <trkpt lat="39.6968370" lon="-104.9732260">
    <ele>1618.3</ele>
    <time>2023-04-01T20:09:05Z</time>
   </trkpt>
   <trkpt lat="39.6968590" lon="-104.9732150">
    <ele>1618.3</ele>
    <time>2023-04-01T20:09:06Z</time>
   </trkpt>
   <trkpt lat="39.6968890" lon="-104.9732000">
    <ele>1618.4</ele>
    <time>2023-04-01T20:09:07Z</time>
   </trkpt>
   <trkpt lat="39.6969270" lon="-104.9731980">
    <ele>1618.4</ele>
    <time>2023-04-01T20:09:08Z</time>
   </trkpt>
   <trkpt lat="39.6969470" lon="-104.9731950">
    <ele>1618.5</ele>
    <time>2023-04-01T20:09:09Z</time>
   </trkpt>
   <trkpt lat="39.6970150" lon="-104.9731760">
    <ele>1618.6</ele>
    <time>2023-04-01T20:09:10Z</time>
   </trkpt>
   <trkpt lat="39.6970530" lon="-104.9731640">
    <ele>1618.7</ele>
    <time>2023-04-01T20:09:11Z</time>
   </trkpt>
   <trkpt lat="39.6970860" lon="-104.9731690">
    <ele>1618.7</ele>
    <time>2023-04-01T20:09:12Z</time>
   </trkpt>
   <trkpt lat="39.6971290" lon="-104.9731680">
    <ele>1618.8</ele>
    <time>2023-04-01T20:09:13Z</time>
   </trkpt>
   <trkpt lat="39.6971480" lon="-104.9731650">
    <ele>1618.8</ele>
    <time>2023-04-01T20:09:14Z</time>
   </trkpt>
   <trkpt lat="39.6971780" lon="-104.9731570">
    <ele>1618.8</ele>
    <time>2023-04-01T20:09:15Z</time>
   </trkpt>
   <trkpt lat="39.6972050" lon="-104.9731570">
    <ele>1618.9</ele>
    <time>2023-04-01T20:09:16Z</time>
   </trkpt>
   <trkpt lat="39.6972380" lon="-104.9731630">
    <ele>1618.9</ele>
    <time>2023-04-01T20:09:17Z</time>
   </trkpt>
   <trkpt lat="39.6972610" lon="-104.9731590">
    <ele>1618.9</ele>
    <time>2023-04-01T20:09:18Z</time>
   </trkpt>
   <trkpt lat="39.6972690" lon="-104.9731440">
    <ele>1618.9</ele>
    <time>2023-04-01T20:09:19Z</time>
   </trkpt>
   <trkpt lat="39.6974860" lon="-104.9730920">
    <ele>1619.1</ele>
    <time>2023-04-01T20:10:03Z</time>
   </trkpt>
   <trkpt lat="39.6975040" lon="-104.9730950">
    <ele>1619.1</ele>
    <time>2023-04-01T20:10:04Z</time>
   </trkpt>
   <trkpt lat="39.6975210" lon="-104.9730980">
    <ele>1619.1</ele>
    <time>2023-04-01T20:10:05Z</time>
   </trkpt>
   <trkpt lat="39.6975480" lon="-104.9730960">
    <ele>1619.2</ele>
    <time>2023-04-01T20:10:06Z</time>
   </trkpt>
   <trkpt lat="39.6975880" lon="-104.9730990">
    <ele>1619.2</ele>
    <time>2023-04-01T20:10:07Z</time>
   </trkpt>
   <trkpt lat="39.6976180" lon="-104.9730810">
    <ele>1619.2</ele>
    <time>2023-04-01T20:10:08Z</time>
   </trkpt>
   <trkpt lat="39.6976310" lon="-104.9730660">
    <ele>1619.2</ele>
    <time>2023-04-01T20:10:09Z</time>
   </trkpt>
   <trkpt lat="39.6976630" lon="-104.9730920">
    <ele>1619.3</ele>
    <time>2023-04-01T20:10:10Z</time>
   </trkpt>
   <trkpt lat="39.6976780" lon="-104.9730950">
    <ele>1619.3</ele>
    <time>2023-04-01T20:10:11Z</time>
   </trkpt>
   <trkpt lat="39.6977100" lon="-104.9731000">
    <ele>1619.3</ele>
    <time>2023-04-01T20:10:12Z</time>
   </trkpt>
   <trkpt lat="39.6977210" lon="-104.9731030">
    <ele>1619.4</ele>
    <time>2023-04-01T20:10:13Z</time>
   </trkpt>
   <trkpt lat="39.6977580" lon="-104.9730930">
    <ele>1619.4</ele>
    <time>2023-04-01T20:10:14Z</time>
   </trkpt>
   <trkpt lat="39.6978030" lon="-104.9730650">
    <ele>1619.5</ele>
    <time>2023-04-01T20:10:15Z</time>
   </trkpt>
   <trkpt lat="39.6978530" lon="-104.9730620">
    <ele>1619.6</ele>
    <time>2023-04-01T20:10:16Z</time>
   </trkpt>
   <trkpt lat="39.6978890" lon="-104.9730600">
    <ele>1619.7</ele>
    <time>2023-04-01T20:10:17Z</time>
   </trkpt>
   <trkpt lat="39.6979050" lon="-104.9730570">
    <ele>1619.7</ele>
    <time>2023-04-01T20:10:18Z</time>
   </trkpt>
   <trkpt lat="39.6979430" lon="-104.9730550">
    <ele>1619.9</ele>
    <time>2023-04-01T20:10:19Z</time>
   </trkpt>
   <trkpt lat="39.6979760" lon="-104.9730550">
    <ele>1619.9</ele>
    <time>2023-04-01T20:10:20Z</time>
   </trkpt>
   <trkpt lat="39.6979880" lon="-104.9730490">
    <ele>1619.9</ele>
    <time>2023-04-01T20:10:21Z</time>
   </trkpt>
   <trkpt lat="39.6980370" lon="-104.9730550">
    <ele>1619.9</ele>
    <time>2023-04-01T20:10:22Z</time>
   </trkpt>
   <trkpt lat="39.6980740" lon="-104.9730500">
    <ele>1619.9</ele>
    <time>2023-04-01T20:10:23Z</time>
   </trkpt>
   <trkpt lat="39.6981090" lon="-104.9730700">
    <ele>1619.9</ele>
    <time>2023-04-01T20:10:24Z</time>
   </trkpt>
   <trkpt lat="39.6981480" lon="-104.9730480">
    <ele>1619.9</ele>
    <time>2023-04-01T20:10:25Z</time>
   </trkpt>
   <trkpt lat="39.6981620" lon="-104.9730370">
    <ele>1620.0</ele>
    <time>2023-04-01T20:10:26Z</time>
   </trkpt>
   <trkpt lat="39.6981990" lon="-104.9730430">
    <ele>1620.0</ele>
    <time>2023-04-01T20:10:27Z</time>
   </trkpt>
   <trkpt lat="39.6982420" lon="-104.9730480">
    <ele>1620.0</ele>
    <time>2023-04-01T20:10:28Z</time>
   </trkpt>
   <trkpt lat="39.6982590" lon="-104.9730450">
    <ele>1620.0</ele>
    <time>2023-04-01T20:10:29Z</time>
   </trkpt>
   <trkpt lat="39.6982940" lon="-104.9730480">
    <ele>1620.0</ele>
    <time>2023-04-01T20:10:30Z</time>
   </trkpt>
   <trkpt lat="39.6983340" lon="-104.9730530">
    <ele>1620.0</ele>
    <time>2023-04-01T20:10:31Z</time>
   </trkpt>
   <trkpt lat="39.6983740" lon="-104.9730500">
    <ele>1620.5</ele>
    <time>2023-04-01T20:10:32Z</time>
   </trkpt>
   <trkpt lat="39.6984120" lon="-104.9730450">
    <ele>1620.5</ele>
    <time>2023-04-01T20:10:33Z</time>
   </trkpt>
   <trkpt lat="39.6984490" lon="-104.9730360">
    <ele>1620.5</ele>
    <time>2023-04-01T20:10:34Z</time>
   </trkpt>
   <trkpt lat="39.6984660" lon="-104.9730340">
    <ele>1620.6</ele>
    <time>2023-04-01T20:10:35Z</time>
   </trkpt>
   <trkpt lat="39.6984980" lon="-104.9730300">
    <ele>1620.6</ele>
    <time>2023-04-01T20:10:36Z</time>
   </trkpt>
   <trkpt lat="39.6985300" lon="-104.9730230">
    <ele>1620.6</ele>
    <time>2023-04-01T20:10:37Z</time>
   </trkpt>
   <trkpt lat="39.6985640" lon="-104.9730350">
    <ele>1620.6</ele>
    <time>2023-04-01T20:10:38Z</time>
   </trkpt>
   <trkpt lat="39.6985930" lon="-104.9730320">
    <ele>1620.6</ele>
    <time>2023-04-01T20:10:39Z</time>
   </trkpt>
   <trkpt lat="39.6986330" lon="-104.9730380">
    <ele>1620.6</ele>
    <time>2023-04-01T20:10:40Z</time>
   </trkpt>
   <trkpt lat="39.6986480" lon="-104.9730470">
    <ele>1620.7</ele>
    <time>2023-04-01T20:10:41Z</time>
   </trkpt>
   <trkpt lat="39.6986760" lon="-104.9730550">
    <ele>1620.7</ele>
    <time>2023-04-01T20:10:42Z</time>
   </trkpt>
   <trkpt lat="39.6987100" lon="-104.9730340">
    <ele>1620.7</ele>
    <time>2023-04-01T20:10:44Z</time>
   </trkpt>
   <trkpt lat="39.6987480" lon="-104.9730170">
    <ele>1620.7</ele>
    <time>2023-04-01T20:10:45Z</time>
   </trkpt>
   <trkpt lat="39.6987770" lon="-104.9730060">
    <ele>1620.7</ele>
    <time>2023-04-01T20:10:46Z</time>
   </trkpt>
   <trkpt lat="39.6988160" lon="-104.9730030">
    <ele>1620.7</ele>
    <time>2023-04-01T20:10:47Z</time>
   </trkpt>
   <trkpt lat="39.6988440" lon="-104.9730060">
    <ele>1620.7</ele>
    <time>2023-04-01T20:10:48Z</time>
   </trkpt>
   <trkpt lat="39.6988730" lon="-104.9729950">
    <ele>1620.7</ele>
    <time>2023-04-01T20:10:49Z</time>
   </trkpt>
   <trkpt lat="39.6989130" lon="-104.9730030">
    <ele>1620.8</ele>
    <time>2023-04-01T20:10:50Z</time>
   </trkpt>
   <trkpt lat="39.6989410" lon="-104.9729720">
    <ele>1620.8</ele>
    <time>2023-04-01T20:10:51Z</time>
   </trkpt>
   <trkpt lat="39.6989610" lon="-104.9729430">
    <ele>1620.8</ele>
    <time>2023-04-01T20:10:52Z</time>
   </trkpt>
   <trkpt lat="39.6990010" lon="-104.9729370">
    <ele>1620.8</ele>
    <time>2023-04-01T20:10:53Z</time>
   </trkpt>
   <trkpt lat="39.6990340" lon="-104.9729390">
    <ele>1620.8</ele>
    <time>2023-04-01T20:10:54Z</time>
   </trkpt>
   <trkpt lat="39.6990700" lon="-104.9729240">
    <ele>1620.8</ele>
    <time>2023-04-01T20:10:55Z</time>
   </trkpt>
   <trkpt lat="39.6990970" lon="-104.9729350">
    <ele>1620.8</ele>
    <time>2023-04-01T20:10:56Z</time>
   </trkpt>
   <trkpt lat="39.6991330" lon="-104.9729070">
    <ele>1620.9</ele>
    <time>2023-04-01T20:10:57Z</time>
   </trkpt>
   <trkpt lat="39.6991480" lon="-104.9729020">
    <ele>1620.9</ele>
    <time>2023-04-01T20:10:58Z</time>
   </trkpt>
   <trkpt lat="39.6991780" lon="-104.9728880">
    <ele>1620.9</ele>
    <time>2023-04-01T20:10:59Z</time>
   </trkpt>
   <trkpt lat="39.6992000" lon="-104.9728610">
    <ele>1620.9</ele>
    <time>2023-04-01T20:11:00Z</time>
   </trkpt>
   <trkpt lat="39.6992330" lon="-104.9728500">
    <ele>1620.9</ele>
    <time>2023-04-01T20:11:01Z</time>
   </trkpt>
   <trkpt lat="39.6992630" lon="-104.9728420">
    <ele>1620.9</ele>
    <time>2023-04-01T20:11:02Z</time>
   </trkpt>
   <trkpt lat="39.6992900" lon="-104.9728190">
    <ele>1621.0</ele>
    <time>2023-04-01T20:11:03Z</time>
   </trkpt>
   <trkpt lat="39.6993600" lon="-104.9728130">
    <ele>1621.0</ele>
    <time>2023-04-01T20:11:04Z</time>
   </trkpt>
   <trkpt lat="39.6994040" lon="-104.9728000">
    <ele>1621.0</ele>
    <time>2023-04-01T20:11:05Z</time>
   </trkpt>
   <trkpt lat="39.6994360" lon="-104.9728010">
    <ele>1621.0</ele>
    <time>2023-04-01T20:11:06Z</time>
   </trkpt>
   <trkpt lat="39.6994600" lon="-104.9727750">
    <ele>1621.0</ele>
    <time>2023-04-01T20:11:07Z</time>
   </trkpt>
   <trkpt lat="39.6994880" lon="-104.9727640">
    <ele>1621.1</ele>
    <time>2023-04-01T20:11:08Z</time>
   </trkpt>
   <trkpt lat="39.6995290" lon="-104.9727410">
    <ele>1621.1</ele>
    <time>2023-04-01T20:11:09Z</time>
   </trkpt>
   <trkpt lat="39.6995470" lon="-104.9727330">
    <ele>1621.1</ele>
    <time>2023-04-01T20:11:10Z</time>
   </trkpt>
   <trkpt lat="39.6995890" lon="-104.9727270">
    <ele>1621.1</ele>
    <time>2023-04-01T20:11:11Z</time>
   </trkpt>
   <trkpt lat="39.6996050" lon="-104.9727290">
    <ele>1621.1</ele>
    <time>2023-04-01T20:11:12Z</time>
   </trkpt>
   <trkpt lat="39.6996440" lon="-104.9727220">
    <ele>1621.1</ele>
    <time>2023-04-01T20:11:13Z</time>
   </trkpt>
   <trkpt lat="39.6996740" lon="-104.9727040">
    <ele>1621.1</ele>
    <time>2023-04-01T20:11:14Z</time>
   </trkpt>
   <trkpt lat="39.6996840" lon="-104.9726930">
    <ele>1621.1</ele>
    <time>2023-04-01T20:11:15Z</time>
   </trkpt>
   <trkpt lat="39.6997080" lon="-104.9726690">
    <ele>1621.1</ele>
    <time>2023-04-01T20:11:16Z</time>
   </trkpt>
   <trkpt lat="39.6997480" lon="-104.9726600">
    <ele>1621.1</ele>
    <time>2023-04-01T20:11:17Z</time>
   </trkpt>
   <trkpt lat="39.6997620" lon="-104.9726480">
    <ele>1621.1</ele>
    <time>2023-04-01T20:11:18Z</time>
   </trkpt>
   <trkpt lat="39.6997900" lon="-104.9726220">
    <ele>1621.1</ele>
    <time>2023-04-01T20:11:19Z</time>
   </trkpt>
   <trkpt lat="39.6998180" lon="-104.9726120">
    <ele>1621.1</ele>
    <time>2023-04-01T20:11:20Z</time>
   </trkpt>
   <trkpt lat="39.6998470" lon="-104.9725970">
    <ele>1621.1</ele>
    <time>2023-04-01T20:11:21Z</time>
   </trkpt>
   <trkpt lat="39.6998780" lon="-104.9725990">
    <ele>1621.1</ele>
    <time>2023-04-01T20:11:22Z</time>
   </trkpt>
   <trkpt lat="39.6999120" lon="-104.9725990">
    <ele>1621.1</ele>
    <time>2023-04-01T20:11:23Z</time>
   </trkpt>
   <trkpt lat="39.6999440" lon="-104.9725940">
    <ele>1621.1</ele>
    <time>2023-04-01T20:11:24Z</time>
   </trkpt>
   <trkpt lat="39.6999750" lon="-104.9726060">
    <ele>1621.1</ele>
    <time>2023-04-01T20:11:25Z</time>
   </trkpt>
   <trkpt lat="39.7000140" lon="-104.9726060">
    <ele>1621.0</ele>
    <time>2023-04-01T20:11:26Z</time>
   </trkpt>
   <trkpt lat="39.7000260" lon="-104.9726010">
    <ele>1621.0</ele>
    <time>2023-04-01T20:11:27Z</time>
   </trkpt>
   <trkpt lat="39.7000660" lon="-104.9726050">
    <ele>1621.0</ele>
    <time>2023-04-01T20:11:28Z</time>
   </trkpt>
   <trkpt lat="39.7000810" lon="-104.9726030">
    <ele>1621.0</ele>
    <time>2023-04-01T20:11:29Z</time>
   </trkpt>
   <trkpt lat="39.7001120" lon="-104.9725870">
    <ele>1621.0</ele>
    <time>2023-04-01T20:11:30Z</time>
   </trkpt>
   <trkpt lat="39.7001420" lon="-104.9725850">
    <ele>1621.0</ele>
    <time>2023-04-01T20:11:31Z</time>
   </trkpt>
   <trkpt lat="39.7001820" lon="-104.9725850">
    <ele>1621.0</ele>
    <time>2023-04-01T20:11:32Z</time>
   </trkpt>
   <trkpt lat="39.7001970" lon="-104.9725830">
    <ele>1621.0</ele>
    <time>2023-04-01T20:11:33Z</time>
   </trkpt>
   <trkpt lat="39.7002270" lon="-104.9726080">
    <ele>1621.0</ele>
    <time>2023-04-01T20:11:34Z</time>
   </trkpt>
   <trkpt lat="39.7002620" lon="-104.9726060">
    <ele>1621.0</ele>
    <time>2023-04-01T20:11:35Z</time>
   </trkpt>
   <trkpt lat="39.7002950" lon="-104.9726160">
    <ele>1621.0</ele>
    <time>2023-04-01T20:11:36Z</time>
   </trkpt>
   <trkpt lat="39.7003250" lon="-104.9726260">
    <ele>1621.0</ele>
    <time>2023-04-01T20:11:37Z</time>
   </trkpt>
   <trkpt lat="39.7003520" lon="-104.9726180">
    <ele>1621.0</ele>
    <time>2023-04-01T20:11:38Z</time>
   </trkpt>
   <trkpt lat="39.7003830" lon="-104.9726300">
    <ele>1621.0</ele>
    <time>2023-04-01T20:11:39Z</time>
   </trkpt>
   <trkpt lat="39.7004170" lon="-104.9726270">
    <ele>1621.0</ele>
    <time>2023-04-01T20:11:40Z</time>
   </trkpt>
   <trkpt lat="39.7004470" lon="-104.9726270">
    <ele>1621.0</ele>
    <time>2023-04-01T20:11:41Z</time>
   </trkpt>
   <trkpt lat="39.7004840" lon="-104.9726410">
    <ele>1621.0</ele>
    <time>2023-04-01T20:11:42Z</time>
   </trkpt>
   <trkpt lat="39.7005170" lon="-104.9726330">
    <ele>1621.0</ele>
    <time>2023-04-01T20:11:43Z</time>
   </trkpt>
   <trkpt lat="39.7005500" lon="-104.9726340">
    <ele>1621.0</ele>
    <time>2023-04-01T20:11:44Z</time>
   </trkpt>
   <trkpt lat="39.7005820" lon="-104.9726310">
    <ele>1621.0</ele>
    <time>2023-04-01T20:11:45Z</time>
   </trkpt>
   <trkpt lat="39.7006220" lon="-104.9726340">
    <ele>1621.0</ele>
    <time>2023-04-01T20:11:46Z</time>
   </trkpt>
   <trkpt lat="39.7006350" lon="-104.9726380">
    <ele>1621.0</ele>
    <time>2023-04-01T20:11:47Z</time>
   </trkpt>
   <trkpt lat="39.7006670" lon="-104.9726470">
    <ele>1621.0</ele>
    <time>2023-04-01T20:11:48Z</time>
   </trkpt>
   <trkpt lat="39.7006950" lon="-104.9726450">
    <ele>1621.0</ele>
    <time>2023-04-01T20:11:49Z</time>
   </trkpt>
   <trkpt lat="39.7007240" lon="-104.9726540">
    <ele>1621.0</ele>
    <time>2023-04-01T20:11:50Z</time>
   </trkpt>
   <trkpt lat="39.7007540" lon="-104.9726540">
    <ele>1621.0</ele>
    <time>2023-04-01T20:11:51Z</time>
   </trkpt>
   <trkpt lat="39.7007850" lon="-104.9726540">
    <ele>1621.0</ele>
    <time>2023-04-01T20:11:52Z</time>
   </trkpt>
   <trkpt lat="39.7008160" lon="-104.9726770">
    <ele>1621.0</ele>
    <time>2023-04-01T20:11:53Z</time>
   </trkpt>
   <trkpt lat="39.7008530" lon="-104.9726790">
    <ele>1621.0</ele>
    <time>2023-04-01T20:11:54Z</time>
   </trkpt>
   <trkpt lat="39.7008850" lon="-104.9726860">
    <ele>1621.0</ele>
    <time>2023-04-01T20:11:55Z</time>
   </trkpt>
   <trkpt lat="39.7009140" lon="-104.9727020">
    <ele>1620.9</ele>
    <time>2023-04-01T20:11:56Z</time>
   </trkpt>
   <trkpt lat="39.7009470" lon="-104.9727040">
    <ele>1620.9</ele>
    <time>2023-04-01T20:11:57Z</time>
   </trkpt>
   <trkpt lat="39.7009840" lon="-104.9726960">
    <ele>1620.9</ele>
    <time>2023-04-01T20:11:58Z</time>
   </trkpt>
   <trkpt lat="39.7010130" lon="-104.9727190">
    <ele>1620.9</ele>
    <time>2023-04-01T20:11:59Z</time>
   </trkpt>
   <trkpt lat="39.7010510" lon="-104.9727100">
    <ele>1620.8</ele>
    <time>2023-04-01T20:12:00Z</time>
   </trkpt>
   <trkpt lat="39.7010670" lon="-104.9727130">
    <ele>1620.8</ele>
    <time>2023-04-01T20:12:01Z</time>
   </trkpt>
   <trkpt lat="39.7011030" lon="-104.9727140">
    <ele>1620.8</ele>
    <time>2023-04-01T20:12:02Z</time>
   </trkpt>
   <trkpt lat="39.7011130" lon="-104.9727150">
    <ele>1620.8</ele>
    <time>2023-04-01T20:12:03Z</time>
   </trkpt>
   <trkpt lat="39.7011410" lon="-104.9727200">
    <ele>1620.8</ele>
    <time>2023-04-01T20:12:04Z</time>
   </trkpt>
   <trkpt lat="39.7011750" lon="-104.9727370">
    <ele>1620.7</ele>
    <time>2023-04-01T20:12:05Z</time>
   </trkpt>
   <trkpt lat="39.7012050" lon="-104.9727310">
    <ele>1620.7</ele>
    <time>2023-04-01T20:12:06Z</time>
   </trkpt>
   <trkpt lat="39.7012330" lon="-104.9727320">
    <ele>1620.7</ele>
    <time>2023-04-01T20:12:07Z</time>
   </trkpt>
   <trkpt lat="39.7012640" lon="-104.9727250">
    <ele>1620.7</ele>
    <time>2023-04-01T20:12:08Z</time>
   </trkpt>
   <trkpt lat="39.7012980" lon="-104.9727040">
    <ele>1620.6</ele>
    <time>2023-04-01T20:12:09Z</time>
   </trkpt>
   <trkpt lat="39.7013390" lon="-104.9726960">
    <ele>1620.6</ele>
    <time>2023-04-01T20:12:10Z</time>
   </trkpt>
   <trkpt lat="39.7013740" lon="-104.9726720">
    <ele>1620.6</ele>
    <time>2023-04-01T20:12:11Z</time>
   </trkpt>
   <trkpt lat="39.7013910" lon="-104.9726680">
    <ele>1620.6</ele>
    <time>2023-04-01T20:12:12Z</time>
   </trkpt>
   <trkpt lat="39.7014290" lon="-104.9726880">
    <ele>1620.5</ele>
    <time>2023-04-01T20:12:13Z</time>
   </trkpt>
   <trkpt lat="39.7014700" lon="-104.9726780">
    <ele>1620.5</ele>
    <time>2023-04-01T20:12:14Z</time>
   </trkpt>
   <trkpt lat="39.7014840" lon="-104.9726740">
    <ele>1620.5</ele>
    <time>2023-04-01T20:12:15Z</time>
   </trkpt>
   <trkpt lat="39.7015210" lon="-104.9726670">
    <ele>1620.4</ele>
    <time>2023-04-01T20:12:16Z</time>
   </trkpt>
   <trkpt lat="39.7015580" lon="-104.9726420">
    <ele>1620.4</ele>
    <time>2023-04-01T20:12:17Z</time>
   </trkpt>
   <trkpt lat="39.7015740" lon="-104.9726330">
    <ele>1620.4</ele>
    <time>2023-04-01T20:12:18Z</time>
   </trkpt>
   <trkpt lat="39.7016040" lon="-104.9726310">
    <ele>1620.3</ele>
    <time>2023-04-01T20:12:19Z</time>
   </trkpt>
   <trkpt lat="39.7016290" lon="-104.9726060">
    <ele>1620.3</ele>
    <time>2023-04-01T20:12:20Z</time>
   </trkpt>
   <trkpt lat="39.7016710" lon="-104.9725970">
    <ele>1620.2</ele>
    <time>2023-04-01T20:12:21Z</time>
   </trkpt>
   <trkpt lat="39.7016980" lon="-104.9725800">
    <ele>1620.2</ele>
    <time>2023-04-01T20:12:22Z</time>
   </trkpt>
   <trkpt lat="39.7017360" lon="-104.9725660">
    <ele>1620.1</ele>
    <time>2023-04-01T20:12:23Z</time>
   </trkpt>
   <trkpt lat="39.7017530" lon="-104.9725690">
    <ele>1620.1</ele>
    <time>2023-04-01T20:12:24Z</time>
   </trkpt>
   <trkpt lat="39.7017820" lon="-104.9725540">
    <ele>1620.1</ele>
    <time>2023-04-01T20:12:25Z</time>
   </trkpt>
   <trkpt lat="39.7018230" lon="-104.9725350">
    <ele>1620.0</ele>
    <time>2023-04-01T20:12:26Z</time>
   </trkpt>
   <trkpt lat="39.7018400" lon="-104.9725270">
    <ele>1620.0</ele>
    <time>2023-04-01T20:12:27Z</time>
   </trkpt>
   <trkpt lat="39.7018600" lon="-104.9725010">
    <ele>1619.9</ele>
    <time>2023-04-01T20:12:28Z</time>
   </trkpt>
   <trkpt lat="39.7018870" lon="-104.9724960">
    <ele>1619.8</ele>
    <time>2023-04-01T20:12:29Z</time>
   </trkpt>
   <trkpt lat="39.7019270" lon="-104.9724980">
    <ele>1619.7</ele>
    <time>2023-04-01T20:12:30Z</time>
   </trkpt>
   <trkpt lat="39.7019570" lon="-104.9724990">
    <ele>1619.7</ele>
    <time>2023-04-01T20:12:31Z</time>
   </trkpt>
   <trkpt lat="39.7019930" lon="-104.9724880">
    <ele>1619.6</ele>
    <time>2023-04-01T20:12:32Z</time>
   </trkpt>
   <trkpt lat="39.7020260" lon="-104.9724960">
    <ele>1619.5</ele>
    <time>2023-04-01T20:12:33Z</time>
   </trkpt>
   <trkpt lat="39.7020560" lon="-104.9724800">
    <ele>1619.5</ele>
    <time>2023-04-01T20:12:34Z</time>
   </trkpt>
   <trkpt lat="39.7020680" lon="-104.9724680">
    <ele>1619.5</ele>
    <time>2023-04-01T20:12:35Z</time>
   </trkpt>
   <trkpt lat="39.7021000" lon="-104.9724640">
    <ele>1619.4</ele>
    <time>2023-04-01T20:12:36Z</time>
   </trkpt>
   <trkpt lat="39.7021400" lon="-104.9724420">
    <ele>1619.3</ele>
    <time>2023-04-01T20:12:37Z</time>
   </trkpt>
   <trkpt lat="39.7021550" lon="-104.9724340">
    <ele>1619.3</ele>
    <time>2023-04-01T20:12:38Z</time>
   </trkpt>
   <trkpt lat="39.7021890" lon="-104.9724290">
    <ele>1619.2</ele>
    <time>2023-04-01T20:12:39Z</time>
   </trkpt>
   <trkpt lat="39.7022130" lon="-104.9724010">
    <ele>1619.1</ele>
    <time>2023-04-01T20:12:40Z</time>
   </trkpt>
   <trkpt lat="39.7022410" lon="-104.9723860">
    <ele>1619.1</ele>
    <time>2023-04-01T20:12:41Z</time>
   </trkpt>
   <trkpt lat="39.7022790" lon="-104.9723710">
    <ele>1618.9</ele>
    <time>2023-04-01T20:12:42Z</time>
   </trkpt>
   <trkpt lat="39.7022900" lon="-104.9723610">
    <ele>1618.9</ele>
    <time>2023-04-01T20:12:43Z</time>
   </trkpt>
   <trkpt lat="39.7023150" lon="-104.9723390">
    <ele>1618.8</ele>
    <time>2023-04-01T20:12:44Z</time>
   </trkpt>
   <trkpt lat="39.7023340" lon="-104.9723260">
    <ele>1618.7</ele>
    <time>2023-04-01T20:12:45Z</time>
   </trkpt>
   <trkpt lat="39.7023400" lon="-104.9723060">
    <ele>1618.6</ele>
    <time>2023-04-01T20:12:46Z</time>
   </trkpt>
   <trkpt lat="39.7023400" lon="-104.9722950">
    <ele>1618.6</ele>
    <time>2023-04-01T20:12:47Z</time>
   </trkpt>
   <trkpt lat="39.7023470" lon="-104.9722920">
    <ele>1618.6</ele>
    <time>2023-04-01T20:12:48Z</time>
   </trkpt>
   <trkpt lat="39.7023590" lon="-104.9722750">
    <ele>1618.5</ele>
    <time>2023-04-01T20:12:50Z</time>
   </trkpt>
   <trkpt lat="39.7023720" lon="-104.9722640">
    <ele>1618.5</ele>
    <time>2023-04-01T20:12:51Z</time>
   </trkpt>
   <trkpt lat="39.7023820" lon="-104.9722580">
    <ele>1618.5</ele>
    <time>2023-04-01T20:12:52Z</time>
   </trkpt>
   <trkpt lat="39.7023890" lon="-104.9722490">
    <ele>1618.5</ele>
    <time>2023-04-01T20:12:53Z</time>
   </trkpt>
  </trkseg>
 </trk>
</gpx>
