<?xml version="1.0" encoding="UTF-8"?>
<gpx creator="StravaGPX" version="1.1" xmlns="http://www.topografix.com/GPX/1/1" xmlns:xsi="http://www.w3.org/2001/XMLSchema-instance" xsi:schemaLocation="http://www.topografix.com/GPX/1/1 http://www.topografix.com/GPX/1/1/gpx.xsd">
 <metadata>
  <time>2023-05-23T18:49:55Z</time>
 </metadata>
 <trk>
  <name>Afternoon Walk</name>
  <type>walking</type>
  <trkseg>
   <trkpt lat="39.5741080" lon="-104.8565370">
    <ele>1759.9</ele>
    <time>2023-05-23T18:49:55Z</time>
   </trkpt>
   <trkpt lat="39.5740920" lon="-104.8565340">
    <ele>1759.9</ele>
    <time>2023-05-23T18:49:56Z</time>
   </trkpt>
   <trkpt lat="39.5740790" lon="-104.8565250">
    <ele>1759.9</ele>
    <time>2023-05-23T18:49:57Z</time>
   </trkpt>
   <trkpt lat="39.5740670" lon="-104.8565110">
    <ele>1759.9</ele>
    <time>2023-05-23T18:49:58Z</time>
   </trkpt>
   <trkpt lat="39.5740540" lon="-104.8565000">
    <ele>1759.9</ele>
    <time>2023-05-23T18:49:59Z</time>
   </trkpt>
   <trkpt lat="39.5740410" lon="-104.8564940">
    <ele>1760.0</ele>
    <time>2023-05-23T18:50:00Z</time>
   </trkpt>
   <trkpt lat="39.5740280" lon="-104.8564850">
    <ele>1760.0</ele>
    <time>2023-05-23T18:50:01Z</time>
   </trkpt>
   <trkpt lat="39.5740180" lon="-104.8564730">
    <ele>1760.0</ele>
    <time>2023-05-23T18:50:02Z</time>
   </trkpt>
   <trkpt lat="39.5740060" lon="-104.8564590">
    <ele>1760.1</ele>
    <time>2023-05-23T18:50:03Z</time>
   </trkpt>
   <trkpt lat="39.5739920" lon="-104.8564530">
    <ele>1760.1</ele>
    <time>2023-05-23T18:50:04Z</time>
   </trkpt>
   <trkpt lat="39.5739760" lon="-104.8564500">
    <ele>1760.1</ele>
    <time>2023-05-23T18:50:05Z</time>
   </trkpt>
   <trkpt lat="39.5739620" lon="-104.8564460">
    <ele>1760.2</ele>
    <time>2023-05-23T18:50:06Z</time>
   </trkpt>
   <trkpt lat="39.5739480" lon="-104.8564390">
    <ele>1760.2</ele>
    <time>2023-05-23T18:50:07Z</time>
   </trkpt>
   <trkpt lat="39.5739340" lon="-104.8564330">
    <ele>1760.2</ele>
    <time>2023-05-23T18:50:08Z</time>
   </trkpt>
   <trkpt lat="39.5739210" lon="-104.8564250">
    <ele>1760.3</ele>
    <time>2023-05-23T18:50:09Z</time>
   </trkpt>
   <trkpt lat="39.5739080" lon="-104.8564170">
    <ele>1760.3</ele>
    <time>2023-05-23T18:50:10Z</time>
   </trkpt>
   <trkpt lat="39.5738940" lon="-104.8564160">
    <ele>1760.3</ele>
    <time>2023-05-23T18:50:11Z</time>
   </trkpt>
   <trkpt lat="39.5738720" lon="-104.8564120">
    <ele>1760.4</ele>
    <time>2023-05-23T18:50:12Z</time>
   </trkpt>
   <trkpt lat="39.5738640" lon="-104.8564100">
    <ele>1760.4</ele>
    <time>2023-05-23T18:50:13Z</time>
   </trkpt>
   <trkpt lat="39.5738550" lon="-104.8564070">
    <ele>1760.4</ele>
    <time>2023-05-23T18:50:14Z</time>
   </trkpt>
   <trkpt lat="39.5738340" lon="-104.8564070">
    <ele>1760.5</ele>
    <time>2023-05-23T18:50:15Z</time>
   </trkpt>
   <trkpt lat="39.5738250" lon="-104.8564080">
    <ele>1760.5</ele>
    <time>2023-05-23T18:50:16Z</time>
   </trkpt>
   <trkpt lat="39.5738170" lon="-104.8564090">
    <ele>1760.5</ele>
    <time>2023-05-23T18:50:17Z</time>
   </trkpt>
   <trkpt lat="39.5737940" lon="-104.8564130">
    <ele>1760.6</ele>
    <time>2023-05-23T18:50:18Z</time>
   </trkpt>
   <trkpt lat="39.5737850" lon="-104.8564110">
    <ele>1760.6</ele>
    <time>2023-05-23T18:50:19Z</time>
   </trkpt>
   <trkpt lat="39.5737760" lon="-104.8564100">
    <ele>1760.6</ele>
    <time>2023-05-23T18:50:20Z</time>
   </trkpt>
   <trkpt lat="39.5737540" lon="-104.8564060">
    <ele>1760.7</ele>
    <time>2023-05-23T18:50:21Z</time>
   </trkpt>
   <trkpt lat="39.5737460" lon="-104.8564050">
    <ele>1760.7</ele>
    <time>2023-05-23T18:50:22Z</time>
   </trkpt>
   <trkpt lat="39.5737370" lon="-104.8564040">
    <ele>1760.8</ele>
    <time>2023-05-23T18:50:23Z</time>
   </trkpt>
   <trkpt lat="39.5737240" lon="-104.8564020">
    <ele>1760.8</ele>
    <time>2023-05-23T18:50:24Z</time>
   </trkpt>
   <trkpt lat="39.5737090" lon="-104.8564050">
    <ele>1760.8</ele>
    <time>2023-05-23T18:50:25Z</time>
   </trkpt>
   <trkpt lat="39.5736940" lon="-104.8564040">
    <ele>1760.9</ele>
    <time>2023-05-23T18:50:26Z</time>
   </trkpt>
   <trkpt lat="39.5736810" lon="-104.8564000">
    <ele>1760.9</ele>
    <time>2023-05-23T18:50:27Z</time>
   </trkpt>
   <trkpt lat="39.5736590" lon="-104.8564000">
    <ele>1761.0</ele>
    <time>2023-05-23T18:50:28Z</time>
   </trkpt>
   <trkpt lat="39.5736500" lon="-104.8564000">
    <ele>1761.0</ele>
    <time>2023-05-23T18:50:29Z</time>
   </trkpt>
   <trkpt lat="39.5736410" lon="-104.8564010">
    <ele>1761.0</ele>
    <time>2023-05-23T18:50:30Z</time>
   </trkpt>
   <trkpt lat="39.5736200" lon="-104.8563970">
    <ele>1761.1</ele>
    <time>2023-05-23T18:50:31Z</time>
   </trkpt>
   <trkpt lat="39.5736120" lon="-104.8563940">
    <ele>1761.1</ele>
    <time>2023-05-23T18:50:32Z</time>
   </trkpt>
   <trkpt lat="39.5736050" lon="-104.8563920">
    <ele>1761.1</ele>
    <time>2023-05-23T18:50:33Z</time>
   </trkpt>
   <trkpt lat="39.5735840" lon="-104.8563980">
    <ele>1761.1</ele>
    <time>2023-05-23T18:50:34Z</time>
   </trkpt>
   <trkpt lat="39.5735750" lon="-104.8563970">
    <ele>1761.2</ele>
    <time>2023-05-23T18:50:35Z</time>
   </trkpt>
   <trkpt lat="39.5735650" lon="-104.8563960">
    <ele>1761.2</ele>
    <time>2023-05-23T18:50:36Z</time>
   </trkpt>
   <trkpt lat="39.5735500" lon="-104.8563980">
    <ele>1761.2</ele>
    <time>2023-05-23T18:50:37Z</time>
   </trkpt>
   <trkpt lat="39.5735340" lon="-104.8563960">
    <ele>1761.3</ele>
    <time>2023-05-23T18:50:38Z</time>
   </trkpt>
   <trkpt lat="39.5735190" lon="-104.8563980">
    <ele>1761.3</ele>
    <time>2023-05-23T18:50:39Z</time>
   </trkpt>
   <trkpt lat="39.5735040" lon="-104.8563970">
    <ele>1761.3</ele>
    <time>2023-05-23T18:50:40Z</time>
   </trkpt>
   <trkpt lat="39.5734890" lon="-104.8563990">
    <ele>1761.4</ele>
    <time>2023-05-23T18:50:41Z</time>
   </trkpt>
   <trkpt lat="39.5734750" lon="-104.8564050">
    <ele>1761.4</ele>
    <time>2023-05-23T18:50:42Z</time>
   </trkpt>
   <trkpt lat="39.5734610" lon="-104.8564110">
    <ele>1761.4</ele>
    <time>2023-05-23T18:50:43Z</time>
   </trkpt>
   <trkpt lat="39.5734460" lon="-104.8564140">
    <ele>1761.5</ele>
    <time>2023-05-23T18:50:44Z</time>
   </trkpt>
   <trkpt lat="39.5734320" lon="-104.8564170">
    <ele>1761.5</ele>
    <time>2023-05-23T18:50:45Z</time>
   </trkpt>
   <trkpt lat="39.5734190" lon="-104.8564200">
    <ele>1761.5</ele>
    <time>2023-05-23T18:50:46Z</time>
   </trkpt>
   <trkpt lat="39.5733990" lon="-104.8564170">
    <ele>1761.5</ele>
    <time>2023-05-23T18:50:47Z</time>
   </trkpt>
   <trkpt lat="39.5733910" lon="-104.8564120">
    <ele>1761.6</ele>
    <time>2023-05-23T18:50:48Z</time>
   </trkpt>
   <trkpt lat="39.5733830" lon="-104.8564080">
    <ele>1761.6</ele>
    <time>2023-05-23T18:50:49Z</time>
   </trkpt>
   <trkpt lat="39.5733710" lon="-104.8563990">
    <ele>1761.6</ele>
    <time>2023-05-23T18:50:50Z</time>
   </trkpt>
   <trkpt lat="39.5733570" lon="-104.8564000">
    <ele>1761.6</ele>
    <time>2023-05-23T18:50:51Z</time>
   </trkpt>
   <trkpt lat="39.5733570" lon="-104.8563970">
    <ele>1761.6</ele>
    <time>2023-05-23T18:50:52Z</time>
   </trkpt>
   <trkpt lat="39.5733580" lon="-104.8563980">
    <ele>1761.6</ele>
    <time>2023-05-23T18:50:53Z</time>
   </trkpt>
   <trkpt lat="39.5733450" lon="-104.8563940">
    <ele>1761.7</ele>
    <time>2023-05-23T18:50:54Z</time>
   </trkpt>
   <trkpt lat="39.5733270" lon="-104.8563920">
    <ele>1761.7</ele>
    <time>2023-05-23T18:50:55Z</time>
   </trkpt>
   <trkpt lat="39.5733120" lon="-104.8563910">
    <ele>1761.7</ele>
    <time>2023-05-23T18:50:56Z</time>
   </trkpt>
   <trkpt lat="39.5732970" lon="-104.8563950">
    <ele>1761.8</ele>
    <time>2023-05-23T18:50:57Z</time>
   </trkpt>
   <trkpt lat="39.5732840" lon="-104.8563940">
    <ele>1761.8</ele>
    <time>2023-05-23T18:50:58Z</time>
   </trkpt>
   <trkpt lat="39.5732690" lon="-104.8563920">
    <ele>1761.8</ele>
    <time>2023-05-23T18:50:59Z</time>
   </trkpt>
   <trkpt lat="39.5732550" lon="-104.8563890">
    <ele>1761.8</ele>
    <time>2023-05-23T18:51:00Z</time>
   </trkpt>
   <trkpt lat="39.5732420" lon="-104.8563870">
    <ele>1761.9</ele>
    <time>2023-05-23T18:51:01Z</time>
   </trkpt>
   <trkpt lat="39.5732200" lon="-104.8563830">
    <ele>1761.9</ele>
    <time>2023-05-23T18:51:02Z</time>
   </trkpt>
   <trkpt lat="39.5732120" lon="-104.8563820">
    <ele>1761.9</ele>
    <time>2023-05-23T18:51:03Z</time>
   </trkpt>
   <trkpt lat="39.5732030" lon="-104.8563810">
    <ele>1761.9</ele>
    <time>2023-05-23T18:51:04Z</time>
   </trkpt>
   <trkpt lat="39.5731820" lon="-104.8563860">
    <ele>1762.0</ele>
    <time>2023-05-23T18:51:05Z</time>
   </trkpt>
   <trkpt lat="39.5731720" lon="-104.8563870">
    <ele>1762.0</ele>
    <time>2023-05-23T18:51:06Z</time>
   </trkpt>
   <trkpt lat="39.5731620" lon="-104.8563880">
    <ele>1762.0</ele>
    <time>2023-05-23T18:51:07Z</time>
   </trkpt>
   <trkpt lat="39.5731450" lon="-104.8563870">
    <ele>1762.0</ele>
    <time>2023-05-23T18:51:08Z</time>
   </trkpt>
   <trkpt lat="39.5731310" lon="-104.8563830">
    <ele>1762.1</ele>
    <time>2023-05-23T18:51:09Z</time>
   </trkpt>
   <trkpt lat="39.5731090" lon="-104.8563830">
    <ele>1762.1</ele>
    <time>2023-05-23T18:51:10Z</time>
   </trkpt>
   <trkpt lat="39.5731000" lon="-104.8563820">
    <ele>1762.1</ele>
    <time>2023-05-23T18:51:11Z</time>
   </trkpt>
   <trkpt lat="39.5730910" lon="-104.8563810">
    <ele>1762.1</ele>
    <time>2023-05-23T18:51:12Z</time>
   </trkpt>
   <trkpt lat="39.5730770" lon="-104.8563790">
    <ele>1762.1</ele>
    <time>2023-05-23T18:51:13Z</time>
   </trkpt>
   <trkpt lat="39.5730620" lon="-104.8563780">
    <ele>1762.2</ele>
    <time>2023-05-23T18:51:14Z</time>
   </trkpt>
   <trkpt lat="39.5730470" lon="-104.8563820">
    <ele>1762.2</ele>
    <time>2023-05-23T18:51:15Z</time>
   </trkpt>
   <trkpt lat="39.5730340" lon="-104.8563900">
    <ele>1762.2</ele>
    <time>2023-05-23T18:51:16Z</time>
   </trkpt>
   <trkpt lat="39.5730110" lon="-104.8563960">
    <ele>1762.2</ele>
    <time>2023-05-23T18:51:17Z</time>
   </trkpt>
   <trkpt lat="39.5730010" lon="-104.8563950">
    <ele>1762.2</ele>
    <time>2023-05-23T18:51:18Z</time>
   </trkpt>
   <trkpt lat="39.5729910" lon="-104.8563940">
    <ele>1762.3</ele>
    <time>2023-05-23T18:51:19Z</time>
   </trkpt>
   <trkpt lat="39.5729770" lon="-104.8563920">
    <ele>1762.3</ele>
    <time>2023-05-23T18:51:20Z</time>
   </trkpt>
   <trkpt lat="39.5729630" lon="-104.8563940">
    <ele>1762.3</ele>
    <time>2023-05-23T18:51:21Z</time>
   </trkpt>
   <trkpt lat="39.5729490" lon="-104.8563960">
    <ele>1762.3</ele>
    <time>2023-05-23T18:51:22Z</time>
   </trkpt>
   <trkpt lat="39.5729350" lon="-104.8563950">
    <ele>1762.3</ele>
    <time>2023-05-23T18:51:23Z</time>
   </trkpt>
   <trkpt lat="39.5729210" lon="-104.8563950">
    <ele>1762.3</ele>
    <time>2023-05-23T18:51:24Z</time>
   </trkpt>
   <trkpt lat="39.5729070" lon="-104.8563940">
    <ele>1762.3</ele>
    <time>2023-05-23T18:51:25Z</time>
   </trkpt>
   <trkpt lat="39.5728890" lon="-104.8564000">
    <ele>1762.4</ele>
    <time>2023-05-23T18:51:26Z</time>
   </trkpt>
   <trkpt lat="39.5728820" lon="-104.8564010">
    <ele>1762.4</ele>
    <time>2023-05-23T18:51:27Z</time>
   </trkpt>
   <trkpt lat="39.5728760" lon="-104.8564020">
    <ele>1762.4</ele>
    <time>2023-05-23T18:51:28Z</time>
   </trkpt>
   <trkpt lat="39.5728690" lon="-104.8564030">
    <ele>1762.4</ele>
    <time>2023-05-23T18:51:29Z</time>
   </trkpt>
   <trkpt lat="39.5728610" lon="-104.8564070">
    <ele>1762.4</ele>
    <time>2023-05-23T18:51:30Z</time>
   </trkpt>
   <trkpt lat="39.5728540" lon="-104.8564120">
    <ele>1762.4</ele>
    <time>2023-05-23T18:51:31Z</time>
   </trkpt>
   <trkpt lat="39.5728430" lon="-104.8564120">
    <ele>1762.4</ele>
    <time>2023-05-23T18:51:32Z</time>
   </trkpt>
   <trkpt lat="39.5728290" lon="-104.8564090">
    <ele>1762.4</ele>
    <time>2023-05-23T18:51:33Z</time>
   </trkpt>
   <trkpt lat="39.5728140" lon="-104.8564080">
    <ele>1762.4</ele>
    <time>2023-05-23T18:51:34Z</time>
   </trkpt>
   <trkpt lat="39.5728030" lon="-104.8564060">
    <ele>1762.4</ele>
    <time>2023-05-23T18:51:35Z</time>
   </trkpt>
   <trkpt lat="39.5727940" lon="-104.8564070">
    <ele>1762.4</ele>
    <time>2023-05-23T18:51:36Z</time>
   </trkpt>
   <trkpt lat="39.5727840" lon="-104.8564100">
    <ele>1762.5</ele>
    <time>2023-05-23T18:51:37Z</time>
   </trkpt>
   <trkpt lat="39.5727650" lon="-104.8564040">
    <ele>1762.5</ele>
    <time>2023-05-23T18:51:38Z</time>
   </trkpt>
   <trkpt lat="39.5727560" lon="-104.8564040">
    <ele>1762.5</ele>
    <time>2023-05-23T18:51:39Z</time>
   </trkpt>
   <trkpt lat="39.5727470" lon="-104.8564040">
    <ele>1762.5</ele>
    <time>2023-05-23T18:51:40Z</time>
   </trkpt>
   <trkpt lat="39.5727260" lon="-104.8564030">
    <ele>1762.5</ele>
    <time>2023-05-23T18:51:41Z</time>
   </trkpt>
   <trkpt lat="39.5727180" lon="-104.8564010">
    <ele>1762.6</ele>
    <time>2023-05-23T18:51:42Z</time>
   </trkpt>
   <trkpt lat="39.5727100" lon="-104.8563990">
    <ele>1762.6</ele>
    <time>2023-05-23T18:51:43Z</time>
   </trkpt>
   <trkpt lat="39.5727000" lon="-104.8564000">
    <ele>1762.6</ele>
    <time>2023-05-23T18:51:44Z</time>
   </trkpt>
   <trkpt lat="39.5726910" lon="-104.8564010">
    <ele>1762.6</ele>
    <time>2023-05-23T18:51:45Z</time>
   </trkpt>
   <trkpt lat="39.5726790" lon="-104.8564020">
    <ele>1762.6</ele>
    <time>2023-05-23T18:51:46Z</time>
   </trkpt>
   <trkpt lat="39.5726650" lon="-104.8563990">
    <ele>1762.6</ele>
    <time>2023-05-23T18:51:47Z</time>
   </trkpt>
   <trkpt lat="39.5726500" lon="-104.8563960">
    <ele>1762.7</ele>
    <time>2023-05-23T18:51:48Z</time>
   </trkpt>
   <trkpt lat="39.5726280" lon="-104.8563910">
    <ele>1762.7</ele>
    <time>2023-05-23T18:51:49Z</time>
   </trkpt>
   <trkpt lat="39.5726190" lon="-104.8563880">
    <ele>1762.7</ele>
    <time>2023-05-23T18:51:50Z</time>
   </trkpt>
   <trkpt lat="39.5726100" lon="-104.8563840">
    <ele>1762.7</ele>
    <time>2023-05-23T18:51:51Z</time>
   </trkpt>
   <trkpt lat="39.5725950" lon="-104.8563820">
    <ele>1762.7</ele>
    <time>2023-05-23T18:51:52Z</time>
   </trkpt>
   <trkpt lat="39.5725820" lon="-104.8563840">
    <ele>1762.8</ele>
    <time>2023-05-23T18:51:53Z</time>
   </trkpt>
   <trkpt lat="39.5725600" lon="-104.8563880">
    <ele>1762.8</ele>
    <time>2023-05-23T18:51:54Z</time>
   </trkpt>
   <trkpt lat="39.5725510" lon="-104.8563880">
    <ele>1762.8</ele>
    <time>2023-05-23T18:51:55Z</time>
   </trkpt>
   <trkpt lat="39.5725430" lon="-104.8563870">
    <ele>1762.8</ele>
    <time>2023-05-23T18:51:56Z</time>
   </trkpt>
   <trkpt lat="39.5725210" lon="-104.8563870">
    <ele>1762.8</ele>
    <time>2023-05-23T18:51:57Z</time>
   </trkpt>
   <trkpt lat="39.5725120" lon="-104.8563890">
    <ele>1762.8</ele>
    <time>2023-05-23T18:51:58Z</time>
   </trkpt>
   <trkpt lat="39.5725020" lon="-104.8563910">
    <ele>1762.9</ele>
    <time>2023-05-23T18:51:59Z</time>
   </trkpt>
   <trkpt lat="39.5724880" lon="-104.8563970">
    <ele>1762.9</ele>
    <time>2023-05-23T18:52:00Z</time>
   </trkpt>
   <trkpt lat="39.5724750" lon="-104.8564030">
    <ele>1762.9</ele>
    <time>2023-05-23T18:52:01Z</time>
   </trkpt>
   <trkpt lat="39.5724540" lon="-104.8563990">
    <ele>1762.9</ele>
    <time>2023-05-23T18:52:02Z</time>
   </trkpt>
   <trkpt lat="39.5724440" lon="-104.8563980">
    <ele>1762.9</ele>
    <time>2023-05-23T18:52:03Z</time>
   </trkpt>
   <trkpt lat="39.5724340" lon="-104.8563970">
    <ele>1762.9</ele>
    <time>2023-05-23T18:52:04Z</time>
   </trkpt>
   <trkpt lat="39.5724210" lon="-104.8564030">
    <ele>1762.9</ele>
    <time>2023-05-23T18:52:05Z</time>
   </trkpt>
   <trkpt lat="39.5724040" lon="-104.8564090">
    <ele>1762.9</ele>
    <time>2023-05-23T18:52:06Z</time>
   </trkpt>
   <trkpt lat="39.5723900" lon="-104.8564110">
    <ele>1762.9</ele>
    <time>2023-05-23T18:52:07Z</time>
   </trkpt>
   <trkpt lat="39.5723750" lon="-104.8564140">
    <ele>1762.9</ele>
    <time>2023-05-23T18:52:08Z</time>
   </trkpt>
   <trkpt lat="39.5723550" lon="-104.8564210">
    <ele>1762.9</ele>
    <time>2023-05-23T18:52:09Z</time>
   </trkpt>
   <trkpt lat="39.5723460" lon="-104.8564240">
    <ele>1762.9</ele>
    <time>2023-05-23T18:52:10Z</time>
   </trkpt>
   <trkpt lat="39.5723370" lon="-104.8564270">
    <ele>1762.8</ele>
    <time>2023-05-23T18:52:11Z</time>
   </trkpt>
   <trkpt lat="39.5723170" lon="-104.8564390">
    <ele>1762.8</ele>
    <time>2023-05-23T18:52:12Z</time>
   </trkpt>
   <trkpt lat="39.5723100" lon="-104.8564440">
    <ele>1762.8</ele>
    <time>2023-05-23T18:52:13Z</time>
   </trkpt>
   <trkpt lat="39.5723020" lon="-104.8564490">
    <ele>1762.8</ele>
    <time>2023-05-23T18:52:14Z</time>
   </trkpt>
   <trkpt lat="39.5722820" lon="-104.8564590">
    <ele>1762.8</ele>
    <time>2023-05-23T18:52:15Z</time>
   </trkpt>
   <trkpt lat="39.5722750" lon="-104.8564610">
    <ele>1762.8</ele>
    <time>2023-05-23T18:52:16Z</time>
   </trkpt>
   <trkpt lat="39.5722670" lon="-104.8564640">
    <ele>1762.7</ele>
    <time>2023-05-23T18:52:17Z</time>
   </trkpt>
   <trkpt lat="39.5722540" lon="-104.8564680">
    <ele>1762.7</ele>
    <time>2023-05-23T18:52:18Z</time>
   </trkpt>
   <trkpt lat="39.5722400" lon="-104.8564710">
    <ele>1762.7</ele>
    <time>2023-05-23T18:52:19Z</time>
   </trkpt>
   <trkpt lat="39.5722270" lon="-104.8564770">
    <ele>1762.7</ele>
    <time>2023-05-23T18:52:20Z</time>
   </trkpt>
   <trkpt lat="39.5722150" lon="-104.8564850">
    <ele>1762.6</ele>
    <time>2023-05-23T18:52:21Z</time>
   </trkpt>
   <trkpt lat="39.5721960" lon="-104.8564970">
    <ele>1762.6</ele>
    <time>2023-05-23T18:52:22Z</time>
   </trkpt>
   <trkpt lat="39.5721880" lon="-104.8565000">
    <ele>1762.6</ele>
    <time>2023-05-23T18:52:23Z</time>
   </trkpt>
   <trkpt lat="39.5721800" lon="-104.8565030">
    <ele>1762.5</ele>
    <time>2023-05-23T18:52:24Z</time>
   </trkpt>
   <trkpt lat="39.5721630" lon="-104.8565170">
    <ele>1762.5</ele>
    <time>2023-05-23T18:52:25Z</time>
   </trkpt>
   <trkpt lat="39.5721540" lon="-104.8565220">
    <ele>1762.4</ele>
    <time>2023-05-23T18:52:26Z</time>
   </trkpt>
   <trkpt lat="39.5721450" lon="-104.8565280">
    <ele>1762.4</ele>
    <time>2023-05-23T18:52:27Z</time>
   </trkpt>
   <trkpt lat="39.5721280" lon="-104.8565450">
    <ele>1762.3</ele>
    <time>2023-05-23T18:52:28Z</time>
   </trkpt>
   <trkpt lat="39.5721220" lon="-104.8565520">
    <ele>1762.3</ele>
    <time>2023-05-23T18:52:29Z</time>
   </trkpt>
   <trkpt lat="39.5721150" lon="-104.8565590">
    <ele>1762.3</ele>
    <time>2023-05-23T18:52:30Z</time>
   </trkpt>
   <trkpt lat="39.5721050" lon="-104.8565660">
    <ele>1762.2</ele>
    <time>2023-05-23T18:52:31Z</time>
   </trkpt>
   <trkpt lat="39.5720970" lon="-104.8565740">
    <ele>1762.2</ele>
    <time>2023-05-23T18:52:32Z</time>
   </trkpt>
   <trkpt lat="39.5720880" lon="-104.8565850">
    <ele>1762.1</ele>
    <time>2023-05-23T18:52:33Z</time>
   </trkpt>
   <trkpt lat="39.5720720" lon="-104.8566000">
    <ele>1762.1</ele>
    <time>2023-05-23T18:52:34Z</time>
   </trkpt>
   <trkpt lat="39.5720660" lon="-104.8566070">
    <ele>1762.0</ele>
    <time>2023-05-23T18:52:35Z</time>
   </trkpt>
   <trkpt lat="39.5720600" lon="-104.8566150">
    <ele>1762.0</ele>
    <time>2023-05-23T18:52:36Z</time>
   </trkpt>
   <trkpt lat="39.5720540" lon="-104.8566220">
    <ele>1762.0</ele>
    <time>2023-05-23T18:52:37Z</time>
   </trkpt>
   <trkpt lat="39.5720460" lon="-104.8566320">
    <ele>1761.9</ele>
    <time>2023-05-23T18:52:38Z</time>
   </trkpt>
   <trkpt lat="39.5720410" lon="-104.8566420">
    <ele>1761.9</ele>
    <time>2023-05-23T18:52:39Z</time>
   </trkpt>
   <trkpt lat="39.5720360" lon="-104.8566540">
    <ele>1761.9</ele>
    <time>2023-05-23T18:52:40Z</time>
   </trkpt>
   <trkpt lat="39.5720260" lon="-104.8566620">
    <ele>1761.8</ele>
    <time>2023-05-23T18:52:41Z</time>
   </trkpt>
   <trkpt lat="39.5720140" lon="-104.8566710">
    <ele>1761.7</ele>
    <time>2023-05-23T18:52:42Z</time>
   </trkpt>
   <trkpt lat="39.5720060" lon="-104.8566790">
    <ele>1761.7</ele>
    <time>2023-05-23T18:52:43Z</time>
   </trkpt>
   <trkpt lat="39.5720030" lon="-104.8566870">
    <ele>1761.7</ele>
    <time>2023-05-23T18:52:44Z</time>
   </trkpt>
   <trkpt lat="39.5719950" lon="-104.8567000">
    <ele>1761.6</ele>
    <time>2023-05-23T18:52:45Z</time>
   </trkpt>
   <trkpt lat="39.5719890" lon="-104.8567060">
    <ele>1761.6</ele>
    <time>2023-05-23T18:52:46Z</time>
   </trkpt>
   <trkpt lat="39.5719750" lon="-104.8567260">
    <ele>1761.5</ele>
    <time>2023-05-23T18:52:47Z</time>
   </trkpt>
   <trkpt lat="39.5719640" lon="-104.8567370">
    <ele>1761.4</ele>
    <time>2023-05-23T18:52:48Z</time>
   </trkpt>
   <trkpt lat="39.5719490" lon="-104.8567420">
    <ele>1761.4</ele>
    <time>2023-05-23T18:52:49Z</time>
   </trkpt>
   <trkpt lat="39.5719320" lon="-104.8567550">
    <ele>1761.3</ele>
    <time>2023-05-23T18:52:50Z</time>
   </trkpt>
   <trkpt lat="39.5719260" lon="-104.8567630">
    <ele>1761.2</ele>
    <time>2023-05-23T18:52:51Z</time>
   </trkpt>
   <trkpt lat="39.5719190" lon="-104.8567700">
    <ele>1761.2</ele>
    <time>2023-05-23T18:52:52Z</time>
   </trkpt>
   <trkpt lat="39.5719100" lon="-104.8567790">
    <ele>1761.2</ele>
    <time>2023-05-23T18:52:53Z</time>
   </trkpt>
   <trkpt lat="39.5719010" lon="-104.8567900">
    <ele>1761.1</ele>
    <time>2023-05-23T18:52:54Z</time>
   </trkpt>
   <trkpt lat="39.5718950" lon="-104.8568040">
    <ele>1761.0</ele>
    <time>2023-05-23T18:52:55Z</time>
   </trkpt>
   <trkpt lat="39.5718840" lon="-104.8568240">
    <ele>1761.0</ele>
    <time>2023-05-23T18:52:56Z</time>
   </trkpt>
   <trkpt lat="39.5718790" lon="-104.8568350">
    <ele>1760.9</ele>
    <time>2023-05-23T18:52:57Z</time>
   </trkpt>
   <trkpt lat="39.5718740" lon="-104.8568460">
    <ele>1760.9</ele>
    <time>2023-05-23T18:52:58Z</time>
   </trkpt>
   <trkpt lat="39.5718610" lon="-104.8568660">
    <ele>1760.8</ele>
    <time>2023-05-23T18:52:59Z</time>
   </trkpt>
   <trkpt lat="39.5718570" lon="-104.8568750">
    <ele>1760.8</ele>
    <time>2023-05-23T18:53:00Z</time>
   </trkpt>
   <trkpt lat="39.5718530" lon="-104.8568840">
    <ele>1760.7</ele>
    <time>2023-05-23T18:53:01Z</time>
   </trkpt>
   <trkpt lat="39.5718430" lon="-104.8569030">
    <ele>1760.7</ele>
    <time>2023-05-23T18:53:02Z</time>
   </trkpt>
   <trkpt lat="39.5718360" lon="-104.8569120">
    <ele>1760.6</ele>
    <time>2023-05-23T18:53:03Z</time>
   </trkpt>
   <trkpt lat="39.5718300" lon="-104.8569210">
    <ele>1760.6</ele>
    <time>2023-05-23T18:53:04Z</time>
   </trkpt>
   <trkpt lat="39.5718230" lon="-104.8569370">
    <ele>1760.5</ele>
    <time>2023-05-23T18:53:05Z</time>
   </trkpt>
   <trkpt lat="39.5718120" lon="-104.8569520">
    <ele>1760.5</ele>
    <time>2023-05-23T18:53:06Z</time>
   </trkpt>
   <trkpt lat="39.5718010" lon="-104.8569650">
    <ele>1760.4</ele>
    <time>2023-05-23T18:53:07Z</time>
   </trkpt>
   <trkpt lat="39.5717930" lon="-104.8569770">
    <ele>1760.4</ele>
    <time>2023-05-23T18:53:08Z</time>
   </trkpt>
   <trkpt lat="39.5717760" lon="-104.8569960">
    <ele>1760.3</ele>
    <time>2023-05-23T18:53:09Z</time>
   </trkpt>
   <trkpt lat="39.5717690" lon="-104.8570030">
    <ele>1760.3</ele>
    <time>2023-05-23T18:53:10Z</time>
   </trkpt>
   <trkpt lat="39.5717620" lon="-104.8570110">
    <ele>1760.3</ele>
    <time>2023-05-23T18:53:11Z</time>
   </trkpt>
   <trkpt lat="39.5717450" lon="-104.8570270">
    <ele>1760.2</ele>
    <time>2023-05-23T18:53:12Z</time>
   </trkpt>
   <trkpt lat="39.5717380" lon="-104.8570340">
    <ele>1760.2</ele>
    <time>2023-05-23T18:53:13Z</time>
   </trkpt>
   <trkpt lat="39.5717320" lon="-104.8570410">
    <ele>1760.1</ele>
    <time>2023-05-23T18:53:14Z</time>
   </trkpt>
   <trkpt lat="39.5717270" lon="-104.8570590">
    <ele>1760.1</ele>
    <time>2023-05-23T18:53:15Z</time>
   </trkpt>
   <trkpt lat="39.5717280" lon="-104.8570810">
    <ele>1760.0</ele>
    <time>2023-05-23T18:53:16Z</time>
   </trkpt>
   <trkpt lat="39.5717240" lon="-104.8571000">
    <ele>1760.0</ele>
    <time>2023-05-23T18:53:17Z</time>
   </trkpt>
   <trkpt lat="39.5717170" lon="-104.8571170">
    <ele>1759.9</ele>
    <time>2023-05-23T18:53:18Z</time>
   </trkpt>
   <trkpt lat="39.5717110" lon="-104.8571340">
    <ele>1759.9</ele>
    <time>2023-05-23T18:53:19Z</time>
   </trkpt>
   <trkpt lat="39.5717080" lon="-104.8571510">
    <ele>1759.9</ele>
    <time>2023-05-23T18:53:20Z</time>
   </trkpt>
   <trkpt lat="39.5717050" lon="-104.8571640">
    <ele>1759.9</ele>
    <time>2023-05-23T18:53:21Z</time>
   </trkpt>
   <trkpt lat="39.5716960" lon="-104.8571720">
    <ele>1759.9</ele>
    <time>2023-05-23T18:53:22Z</time>
   </trkpt>
   <trkpt lat="39.5716910" lon="-104.8571850">
    <ele>1759.8</ele>
    <time>2023-05-23T18:53:23Z</time>
   </trkpt>
   <trkpt lat="39.5716850" lon="-104.8572020">
    <ele>1759.8</ele>
    <time>2023-05-23T18:53:24Z</time>
   </trkpt>
   <trkpt lat="39.5716810" lon="-104.8572180">
    <ele>1759.8</ele>
    <time>2023-05-23T18:53:25Z</time>
   </trkpt>
   <trkpt lat="39.5716760" lon="-104.8572450">
    <ele>1759.8</ele>
    <time>2023-05-23T18:53:26Z</time>
   </trkpt>
   <trkpt lat="39.5716750" lon="-104.8572540">
    <ele>1759.8</ele>
    <time>2023-05-23T18:53:27Z</time>
   </trkpt>
   <trkpt lat="39.5716740" lon="-104.8572640">
    <ele>1759.8</ele>
    <time>2023-05-23T18:53:28Z</time>
   </trkpt>
   <trkpt lat="39.5716710" lon="-104.8572800">
    <ele>1759.7</ele>
    <time>2023-05-23T18:53:29Z</time>
   </trkpt>
   <trkpt lat="39.5716680" lon="-104.8572990">
    <ele>1759.7</ele>
    <time>2023-05-23T18:53:30Z</time>
   </trkpt>
   <trkpt lat="39.5716660" lon="-104.8573160">
    <ele>1759.7</ele>
    <time>2023-05-23T18:53:31Z</time>
   </trkpt>
   <trkpt lat="39.5716610" lon="-104.8573330">
    <ele>1759.7</ele>
    <time>2023-05-23T18:53:32Z</time>
   </trkpt>
   <trkpt lat="39.5716580" lon="-104.8573520">
    <ele>1759.7</ele>
    <time>2023-05-23T18:53:33Z</time>
   </trkpt>
   <trkpt lat="39.5716570" lon="-104.8573700">
    <ele>1759.7</ele>
    <time>2023-05-23T18:53:34Z</time>
   </trkpt>
   <trkpt lat="39.5716590" lon="-104.8573890">
    <ele>1759.6</ele>
    <time>2023-05-23T18:53:35Z</time>
   </trkpt>
   <trkpt lat="39.5716590" lon="-104.8574070">
    <ele>1759.6</ele>
    <time>2023-05-23T18:53:36Z</time>
   </trkpt>
   <trkpt lat="39.5716580" lon="-104.8574360">
    <ele>1759.6</ele>
    <time>2023-05-23T18:53:37Z</time>
   </trkpt>
   <trkpt lat="39.5716590" lon="-104.8574470">
    <ele>1759.6</ele>
    <time>2023-05-23T18:53:38Z</time>
   </trkpt>
   <trkpt lat="39.5716590" lon="-104.8574580">
    <ele>1759.6</ele>
    <time>2023-05-23T18:53:39Z</time>
   </trkpt>
   <trkpt lat="39.5716590" lon="-104.8574870">
    <ele>1759.5</ele>
    <time>2023-05-23T18:53:40Z</time>
   </trkpt>
   <trkpt lat="39.5716570" lon="-104.8574990">
    <ele>1759.5</ele>
    <time>2023-05-23T18:53:41Z</time>
   </trkpt>
   <trkpt lat="39.5716560" lon="-104.8575120">
    <ele>1759.5</ele>
    <time>2023-05-23T18:53:42Z</time>
   </trkpt>
   <trkpt lat="39.5716570" lon="-104.8575400">
    <ele>1759.5</ele>
    <time>2023-05-23T18:53:43Z</time>
   </trkpt>
   <trkpt lat="39.5716580" lon="-104.8575510">
    <ele>1759.5</ele>
    <time>2023-05-23T18:53:44Z</time>
   </trkpt>
   <trkpt lat="39.5716580" lon="-104.8575620">
    <ele>1759.5</ele>
    <time>2023-05-23T18:53:45Z</time>
   </trkpt>
   <trkpt lat="39.5716580" lon="-104.8575800">
    <ele>1759.5</ele>
    <time>2023-05-23T18:53:46Z</time>
   </trkpt>
   <trkpt lat="39.5716560" lon="-104.8575970">
    <ele>1759.5</ele>
    <time>2023-05-23T18:53:47Z</time>
   </trkpt>
   <trkpt lat="39.5716560" lon="-104.8576130">
    <ele>1759.5</ele>
    <time>2023-05-23T18:53:48Z</time>
   </trkpt>
   <trkpt lat="39.5716610" lon="-104.8576280">
    <ele>1759.5</ele>
    <time>2023-05-23T18:53:49Z</time>
   </trkpt>
   <trkpt lat="39.5716630" lon="-104.8576400">
    <ele>1759.4</ele>
    <time>2023-05-23T18:53:50Z</time>
   </trkpt>
   <trkpt lat="39.5716620" lon="-104.8576580">
    <ele>1759.4</ele>
    <time>2023-05-23T18:53:51Z</time>
   </trkpt>
   <trkpt lat="39.5716580" lon="-104.8576760">
    <ele>1759.4</ele>
    <time>2023-05-23T18:53:52Z</time>
   </trkpt>
   <trkpt lat="39.5716570" lon="-104.8576940">
    <ele>1759.4</ele>
    <time>2023-05-23T18:53:53Z</time>
   </trkpt>
   <trkpt lat="39.5716550" lon="-104.8577120">
    <ele>1759.4</ele>
    <time>2023-05-23T18:53:54Z</time>
   </trkpt>
   <trkpt lat="39.5716540" lon="-104.8577300">
    <ele>1759.4</ele>
    <time>2023-05-23T18:53:55Z</time>
   </trkpt>
   <trkpt lat="39.5716510" lon="-104.8577470">
    <ele>1759.4</ele>
    <time>2023-05-23T18:53:56Z</time>
   </trkpt>
   <trkpt lat="39.5716500" lon="-104.8577760">
    <ele>1759.4</ele>
    <time>2023-05-23T18:53:57Z</time>
   </trkpt>
   <trkpt lat="39.5716490" lon="-104.8577870">
    <ele>1759.4</ele>
    <time>2023-05-23T18:53:58Z</time>
   </trkpt>
   <trkpt lat="39.5716480" lon="-104.8577980">
    <ele>1759.4</ele>
    <time>2023-05-23T18:53:59Z</time>
   </trkpt>
   <trkpt lat="39.5716450" lon="-104.8578270">
    <ele>1759.4</ele>
    <time>2023-05-23T18:54:00Z</time>
   </trkpt>
   <trkpt lat="39.5716450" lon="-104.8578380">
    <ele>1759.4</ele>
    <time>2023-05-23T18:54:01Z</time>
   </trkpt>
   <trkpt lat="39.5716440" lon="-104.8578500">
    <ele>1759.3</ele>
    <time>2023-05-23T18:54:02Z</time>
   </trkpt>
   <trkpt lat="39.5716420" lon="-104.8578780">
    <ele>1759.3</ele>
    <time>2023-05-23T18:54:03Z</time>
   </trkpt>
   <trkpt lat="39.5716420" lon="-104.8578890">
    <ele>1759.3</ele>
    <time>2023-05-23T18:54:04Z</time>
   </trkpt>
   <trkpt lat="39.5716420" lon="-104.8579010">
    <ele>1759.3</ele>
    <time>2023-05-23T18:54:05Z</time>
   </trkpt>
   <trkpt lat="39.5716410" lon="-104.8579190">
    <ele>1759.3</ele>
    <time>2023-05-23T18:54:06Z</time>
   </trkpt>
   <trkpt lat="39.5716390" lon="-104.8579370">
    <ele>1759.3</ele>
    <time>2023-05-23T18:54:07Z</time>
   </trkpt>
   <trkpt lat="39.5716380" lon="-104.8579660">
    <ele>1759.3</ele>
    <time>2023-05-23T18:54:08Z</time>
   </trkpt>
   <trkpt lat="39.5716380" lon="-104.8579770">
    <ele>1759.3</ele>
    <time>2023-05-23T18:54:09Z</time>
   </trkpt>
   <trkpt lat="39.5716380" lon="-104.8579890">
    <ele>1759.3</ele>
    <time>2023-05-23T18:54:10Z</time>
   </trkpt>
   <trkpt lat="39.5716340" lon="-104.8580160">
    <ele>1759.3</ele>
    <time>2023-05-23T18:54:11Z</time>
   </trkpt>
   <trkpt lat="39.5716330" lon="-104.8580270">
    <ele>1759.3</ele>
    <time>2023-05-23T18:54:12Z</time>
   </trkpt>
   <trkpt lat="39.5716320" lon="-104.8580380">
    <ele>1759.3</ele>
    <time>2023-05-23T18:54:13Z</time>
   </trkpt>
   <trkpt lat="39.5716290" lon="-104.8580660">
    <ele>1759.3</ele>
    <time>2023-05-23T18:54:14Z</time>
   </trkpt>
   <trkpt lat="39.5716280" lon="-104.8580780">
    <ele>1759.3</ele>
    <time>2023-05-23T18:54:15Z</time>
   </trkpt>
   <trkpt lat="39.5716260" lon="-104.8580890">
    <ele>1759.3</ele>
    <time>2023-05-23T18:54:16Z</time>
   </trkpt>
   <trkpt lat="39.5716220" lon="-104.8581150">
    <ele>1759.3</ele>
    <time>2023-05-23T18:54:17Z</time>
   </trkpt>
   <trkpt lat="39.5716200" lon="-104.8581260">
    <ele>1759.3</ele>
    <time>2023-05-23T18:54:18Z</time>
   </trkpt>
   <trkpt lat="39.5716180" lon="-104.8581370">
    <ele>1759.3</ele>
    <time>2023-05-23T18:54:19Z</time>
   </trkpt>
   <trkpt lat="39.5716170" lon="-104.8581640">
    <ele>1759.3</ele>
    <time>2023-05-23T18:54:20Z</time>
   </trkpt>
   <trkpt lat="39.5716150" lon="-104.8581750">
    <ele>1759.3</ele>
    <time>2023-05-23T18:54:21Z</time>
   </trkpt>
   <trkpt lat="39.5716140" lon="-104.8581860">
    <ele>1759.2</ele>
    <time>2023-05-23T18:54:22Z</time>
   </trkpt>
   <trkpt lat="39.5716140" lon="-104.8582010">
    <ele>1759.2</ele>
    <time>2023-05-23T18:54:23Z</time>
   </trkpt>
   <trkpt lat="39.5716110" lon="-104.8582170">
    <ele>1759.2</ele>
    <time>2023-05-23T18:54:24Z</time>
   </trkpt>
   <trkpt lat="39.5716070" lon="-104.8582310">
    <ele>1759.2</ele>
    <time>2023-05-23T18:54:25Z</time>
   </trkpt>
   <trkpt lat="39.5716040" lon="-104.8582600">
    <ele>1759.2</ele>
    <time>2023-05-23T18:54:26Z</time>
   </trkpt>
   <trkpt lat="39.5716020" lon="-104.8582710">
    <ele>1759.2</ele>
    <time>2023-05-23T18:54:27Z</time>
   </trkpt>
   <trkpt lat="39.5716000" lon="-104.8582820">
    <ele>1759.2</ele>
    <time>2023-05-23T18:54:28Z</time>
   </trkpt>
   <trkpt lat="39.5715950" lon="-104.8583100">
    <ele>1759.2</ele>
    <time>2023-05-23T18:54:29Z</time>
   </trkpt>
   <trkpt lat="39.5715930" lon="-104.8583220">
    <ele>1759.2</ele>
    <time>2023-05-23T18:54:30Z</time>
   </trkpt>
   <trkpt lat="39.5715900" lon="-104.8583340">
    <ele>1759.2</ele>
    <time>2023-05-23T18:54:31Z</time>
   </trkpt>
   <trkpt lat="39.5715810" lon="-104.8583600">
    <ele>1759.2</ele>
    <time>2023-05-23T18:54:32Z</time>
   </trkpt>
   <trkpt lat="39.5715780" lon="-104.8583700">
    <ele>1759.2</ele>
    <time>2023-05-23T18:54:33Z</time>
   </trkpt>
   <trkpt lat="39.5715750" lon="-104.8583810">
    <ele>1759.1</ele>
    <time>2023-05-23T18:54:34Z</time>
   </trkpt>
   <trkpt lat="39.5715690" lon="-104.8583970">
    <ele>1759.1</ele>
    <time>2023-05-23T18:54:35Z</time>
   </trkpt>
   <trkpt lat="39.5715670" lon="-104.8584170">
    <ele>1759.1</ele>
    <time>2023-05-23T18:54:36Z</time>
   </trkpt>
   <trkpt lat="39.5715610" lon="-104.8584460">
    <ele>1759.1</ele>
    <time>2023-05-23T18:54:37Z</time>
   </trkpt>
   <trkpt lat="39.5715570" lon="-104.8584550">
    <ele>1759.1</ele>
    <time>2023-05-23T18:54:38Z</time>
   </trkpt>
   <trkpt lat="39.5715530" lon="-104.8584630">
    <ele>1759.1</ele>
    <time>2023-05-23T18:54:39Z</time>
   </trkpt>
   <trkpt lat="39.5715460" lon="-104.8584840">
    <ele>1759.1</ele>
    <time>2023-05-23T18:54:40Z</time>
   </trkpt>
   <trkpt lat="39.5715410" lon="-104.8585040">
    <ele>1759.1</ele>
    <time>2023-05-23T18:54:41Z</time>
   </trkpt>
   <trkpt lat="39.5715340" lon="-104.8585310">
    <ele>1759.1</ele>
    <time>2023-05-23T18:54:42Z</time>
   </trkpt>
   <trkpt lat="39.5715290" lon="-104.8585410">
    <ele>1759.1</ele>
    <time>2023-05-23T18:54:43Z</time>
   </trkpt>
   <trkpt lat="39.5715240" lon="-104.8585510">
    <ele>1759.1</ele>
    <time>2023-05-23T18:54:44Z</time>
   </trkpt>
   <trkpt lat="39.5715190" lon="-104.8585680">
    <ele>1759.1</ele>
    <time>2023-05-23T18:54:45Z</time>
   </trkpt>
   <trkpt lat="39.5715110" lon="-104.8585840">
    <ele>1759.1</ele>
    <time>2023-05-23T18:54:46Z</time>
   </trkpt>
   <trkpt lat="39.5715050" lon="-104.8586000">
    <ele>1759.1</ele>
    <time>2023-05-23T18:54:47Z</time>
   </trkpt>
   <trkpt lat="39.5714980" lon="-104.8586160">
    <ele>1759.0</ele>
    <time>2023-05-23T18:54:48Z</time>
   </trkpt>
   <trkpt lat="39.5714920" lon="-104.8586320">
    <ele>1759.0</ele>
    <time>2023-05-23T18:54:49Z</time>
   </trkpt>
   <trkpt lat="39.5714850" lon="-104.8586480">
    <ele>1759.0</ele>
    <time>2023-05-23T18:54:50Z</time>
   </trkpt>
   <trkpt lat="39.5714780" lon="-104.8586630">
    <ele>1759.0</ele>
    <time>2023-05-23T18:54:51Z</time>
   </trkpt>
   <trkpt lat="39.5714710" lon="-104.8586790">
    <ele>1759.0</ele>
    <time>2023-05-23T18:54:52Z</time>
   </trkpt>
   <trkpt lat="39.5714640" lon="-104.8586940">
    <ele>1759.0</ele>
    <time>2023-05-23T18:54:53Z</time>
   </trkpt>
   <trkpt lat="39.5714570" lon="-104.8587090">
    <ele>1759.0</ele>
    <time>2023-05-23T18:54:54Z</time>
   </trkpt>
   <trkpt lat="39.5714490" lon="-104.8587250">
    <ele>1759.0</ele>
    <time>2023-05-23T18:54:55Z</time>
   </trkpt>
   <trkpt lat="39.5714440" lon="-104.8587400">
    <ele>1759.0</ele>
    <time>2023-05-23T18:54:56Z</time>
   </trkpt>
   <trkpt lat="39.5714300" lon="-104.8587630">
    <ele>1759.0</ele>
    <time>2023-05-23T18:54:57Z</time>
   </trkpt>
   <trkpt lat="39.5714230" lon="-104.8587710">
    <ele>1759.0</ele>
    <time>2023-05-23T18:54:58Z</time>
   </trkpt>
   <trkpt lat="39.5714170" lon="-104.8587800">
    <ele>1759.0</ele>
    <time>2023-05-23T18:54:59Z</time>
   </trkpt>
   <trkpt lat="39.5714060" lon="-104.8587920">
    <ele>1759.0</ele>
    <time>2023-05-23T18:55:00Z</time>
   </trkpt>
   <trkpt lat="39.5713980" lon="-104.8588070">
    <ele>1759.0</ele>
    <time>2023-05-23T18:55:01Z</time>
   </trkpt>
   <trkpt lat="39.5713890" lon="-104.8588220">
    <ele>1759.0</ele>
    <time>2023-05-23T18:55:02Z</time>
   </trkpt>
   <trkpt lat="39.5713820" lon="-104.8588370">
    <ele>1759.0</ele>
    <time>2023-05-23T18:55:03Z</time>
   </trkpt>
   <trkpt lat="39.5713730" lon="-104.8588510">
    <ele>1759.0</ele>
    <time>2023-05-23T18:55:04Z</time>
   </trkpt>
   <trkpt lat="39.5713650" lon="-104.8588650">
    <ele>1759.0</ele>
    <time>2023-05-23T18:55:05Z</time>
   </trkpt>
   <trkpt lat="39.5713510" lon="-104.8588840">
    <ele>1759.0</ele>
    <time>2023-05-23T18:55:06Z</time>
   </trkpt>
   <trkpt lat="39.5713450" lon="-104.8588910">
    <ele>1759.0</ele>
    <time>2023-05-23T18:55:07Z</time>
   </trkpt>
   <trkpt lat="39.5713390" lon="-104.8588990">
    <ele>1759.0</ele>
    <time>2023-05-23T18:55:08Z</time>
   </trkpt>
   <trkpt lat="39.5713250" lon="-104.8589210">
    <ele>1759.0</ele>
    <time>2023-05-23T18:55:09Z</time>
   </trkpt>
   <trkpt lat="39.5713190" lon="-104.8589290">
    <ele>1759.0</ele>
    <time>2023-05-23T18:55:10Z</time>
   </trkpt>
   <trkpt lat="39.5713130" lon="-104.8589370">
    <ele>1759.0</ele>
    <time>2023-05-23T18:55:11Z</time>
   </trkpt>
   <trkpt lat="39.5712960" lon="-104.8589550">
    <ele>1759.0</ele>
    <time>2023-05-23T18:55:12Z</time>
   </trkpt>
   <trkpt lat="39.5712890" lon="-104.8589630">
    <ele>1759.0</ele>
    <time>2023-05-23T18:55:13Z</time>
   </trkpt>
   <trkpt lat="39.5712830" lon="-104.8589700">
    <ele>1759.0</ele>
    <time>2023-05-23T18:55:14Z</time>
   </trkpt>
   <trkpt lat="39.5712660" lon="-104.8589880">
    <ele>1759.0</ele>
    <time>2023-05-23T18:55:15Z</time>
   </trkpt>
   <trkpt lat="39.5712600" lon="-104.8589970">
    <ele>1759.0</ele>
    <time>2023-05-23T18:55:16Z</time>
   </trkpt>
   <trkpt lat="39.5712540" lon="-104.8590060">
    <ele>1759.0</ele>
    <time>2023-05-23T18:55:17Z</time>
   </trkpt>
   <trkpt lat="39.5712370" lon="-104.8590240">
    <ele>1759.0</ele>
    <time>2023-05-23T18:55:18Z</time>
   </trkpt>
   <trkpt lat="39.5712300" lon="-104.8590320">
    <ele>1759.0</ele>
    <time>2023-05-23T18:55:19Z</time>
   </trkpt>
   <trkpt lat="39.5712240" lon="-104.8590400">
    <ele>1759.0</ele>
    <time>2023-05-23T18:55:20Z</time>
   </trkpt>
   <trkpt lat="39.5712120" lon="-104.8590500">
    <ele>1759.0</ele>
    <time>2023-05-23T18:55:21Z</time>
   </trkpt>
   <trkpt lat="39.5712010" lon="-104.8590610">
    <ele>1759.0</ele>
    <time>2023-05-23T18:55:22Z</time>
   </trkpt>
   <trkpt lat="39.5711810" lon="-104.8590760">
    <ele>1759.0</ele>
    <time>2023-05-23T18:55:23Z</time>
   </trkpt>
   <trkpt lat="39.5711750" lon="-104.8590830">
    <ele>1759.0</ele>
    <time>2023-05-23T18:55:24Z</time>
   </trkpt>
   <trkpt lat="39.5711680" lon="-104.8590910">
    <ele>1759.0</ele>
    <time>2023-05-23T18:55:25Z</time>
   </trkpt>
   <trkpt lat="39.5711560" lon="-104.8591000">
    <ele>1759.0</ele>
    <time>2023-05-23T18:55:26Z</time>
   </trkpt>
   <trkpt lat="39.5711450" lon="-104.8591100">
    <ele>1759.0</ele>
    <time>2023-05-23T18:55:27Z</time>
   </trkpt>
   <trkpt lat="39.5711260" lon="-104.8591250">
    <ele>1759.0</ele>
    <time>2023-05-23T18:55:28Z</time>
   </trkpt>
   <trkpt lat="39.5711190" lon="-104.8591320">
    <ele>1759.0</ele>
    <time>2023-05-23T18:55:29Z</time>
   </trkpt>
   <trkpt lat="39.5711120" lon="-104.8591380">
    <ele>1759.0</ele>
    <time>2023-05-23T18:55:30Z</time>
   </trkpt>
   <trkpt lat="39.5710920" lon="-104.8591510">
    <ele>1759.0</ele>
    <time>2023-05-23T18:55:31Z</time>
   </trkpt>
   <trkpt lat="39.5710840" lon="-104.8591570">
    <ele>1759.0</ele>
    <time>2023-05-23T18:55:32Z</time>
   </trkpt>
   <trkpt lat="39.5710770" lon="-104.8591620">
    <ele>1759.1</ele>
    <time>2023-05-23T18:55:33Z</time>
   </trkpt>
   <trkpt lat="39.5710580" lon="-104.8591780">
    <ele>1759.1</ele>
    <time>2023-05-23T18:55:34Z</time>
   </trkpt>
   <trkpt lat="39.5710500" lon="-104.8591830">
    <ele>1759.1</ele>
    <time>2023-05-23T18:55:35Z</time>
   </trkpt>
   <trkpt lat="39.5710420" lon="-104.8591890">
    <ele>1759.1</ele>
    <time>2023-05-23T18:55:36Z</time>
   </trkpt>
   <trkpt lat="39.5710310" lon="-104.8591990">
    <ele>1759.1</ele>
    <time>2023-05-23T18:55:37Z</time>
   </trkpt>
   <trkpt lat="39.5710200" lon="-104.8592100">
    <ele>1759.1</ele>
    <time>2023-05-23T18:55:38Z</time>
   </trkpt>
   <trkpt lat="39.5710050" lon="-104.8592170">
    <ele>1759.1</ele>
    <time>2023-05-23T18:55:39Z</time>
   </trkpt>
   <trkpt lat="39.5709930" lon="-104.8592260">
    <ele>1759.1</ele>
    <time>2023-05-23T18:55:40Z</time>
   </trkpt>
   <trkpt lat="39.5709750" lon="-104.8592420">
    <ele>1759.1</ele>
    <time>2023-05-23T18:55:41Z</time>
   </trkpt>
   <trkpt lat="39.5709670" lon="-104.8592480">
    <ele>1759.1</ele>
    <time>2023-05-23T18:55:42Z</time>
   </trkpt>
   <trkpt lat="39.5709590" lon="-104.8592530">
    <ele>1759.1</ele>
    <time>2023-05-23T18:55:43Z</time>
   </trkpt>
   <trkpt lat="39.5709400" lon="-104.8592660">
    <ele>1759.1</ele>
    <time>2023-05-23T18:55:44Z</time>
   </trkpt>
   <trkpt lat="39.5709330" lon="-104.8592720">
    <ele>1759.1</ele>
    <time>2023-05-23T18:55:45Z</time>
   </trkpt>
   <trkpt lat="39.5709250" lon="-104.8592780">
    <ele>1759.2</ele>
    <time>2023-05-23T18:55:46Z</time>
   </trkpt>
   <trkpt lat="39.5709140" lon="-104.8592880">
    <ele>1759.2</ele>
    <time>2023-05-23T18:55:47Z</time>
   </trkpt>
   <trkpt lat="39.5709040" lon="-104.8592990">
    <ele>1759.2</ele>
    <time>2023-05-23T18:55:48Z</time>
   </trkpt>
   <trkpt lat="39.5708860" lon="-104.8593150">
    <ele>1759.2</ele>
    <time>2023-05-23T18:55:49Z</time>
   </trkpt>
   <trkpt lat="39.5708780" lon="-104.8593220">
    <ele>1759.2</ele>
    <time>2023-05-23T18:55:50Z</time>
   </trkpt>
   <trkpt lat="39.5708710" lon="-104.8593280">
    <ele>1759.2</ele>
    <time>2023-05-23T18:55:51Z</time>
   </trkpt>
   <trkpt lat="39.5708600" lon="-104.8593370">
    <ele>1759.2</ele>
    <time>2023-05-23T18:55:52Z</time>
   </trkpt>
   <trkpt lat="39.5708470" lon="-104.8593440">
    <ele>1759.2</ele>
    <time>2023-05-23T18:55:53Z</time>
   </trkpt>
   <trkpt lat="39.5708280" lon="-104.8593580">
    <ele>1759.2</ele>
    <time>2023-05-23T18:55:54Z</time>
   </trkpt>
   <trkpt lat="39.5708200" lon="-104.8593640">
    <ele>1759.3</ele>
    <time>2023-05-23T18:55:55Z</time>
   </trkpt>
   <trkpt lat="39.5708120" lon="-104.8593690">
    <ele>1759.3</ele>
    <time>2023-05-23T18:55:56Z</time>
   </trkpt>
   <trkpt lat="39.5707930" lon="-104.8593840">
    <ele>1759.3</ele>
    <time>2023-05-23T18:55:57Z</time>
   </trkpt>
   <trkpt lat="39.5707860" lon="-104.8593900">
    <ele>1759.3</ele>
    <time>2023-05-23T18:55:58Z</time>
   </trkpt>
   <trkpt lat="39.5707780" lon="-104.8593960">
    <ele>1759.3</ele>
    <time>2023-05-23T18:55:59Z</time>
   </trkpt>
   <trkpt lat="39.5707600" lon="-104.8594110">
    <ele>1759.3</ele>
    <time>2023-05-23T18:56:00Z</time>
   </trkpt>
   <trkpt lat="39.5707530" lon="-104.8594170">
    <ele>1759.3</ele>
    <time>2023-05-23T18:56:01Z</time>
   </trkpt>
   <trkpt lat="39.5707450" lon="-104.8594230">
    <ele>1759.3</ele>
    <time>2023-05-23T18:56:02Z</time>
   </trkpt>
   <trkpt lat="39.5707260" lon="-104.8594350">
    <ele>1759.4</ele>
    <time>2023-05-23T18:56:03Z</time>
   </trkpt>
   <trkpt lat="39.5707180" lon="-104.8594410">
    <ele>1759.4</ele>
    <time>2023-05-23T18:56:04Z</time>
   </trkpt>
   <trkpt lat="39.5707110" lon="-104.8594470">
    <ele>1759.4</ele>
    <time>2023-05-23T18:56:05Z</time>
   </trkpt>
   <trkpt lat="39.5707000" lon="-104.8594530">
    <ele>1759.4</ele>
    <time>2023-05-23T18:56:06Z</time>
   </trkpt>
   <trkpt lat="39.5706900" lon="-104.8594600">
    <ele>1759.4</ele>
    <time>2023-05-23T18:56:07Z</time>
   </trkpt>
   <trkpt lat="39.5706800" lon="-104.8594700">
    <ele>1759.4</ele>
    <time>2023-05-23T18:56:08Z</time>
   </trkpt>
   <trkpt lat="39.5706630" lon="-104.8594850">
    <ele>1759.4</ele>
    <time>2023-05-23T18:56:09Z</time>
   </trkpt>
   <trkpt lat="39.5706560" lon="-104.8594910">
    <ele>1759.4</ele>
    <time>2023-05-23T18:56:10Z</time>
   </trkpt>
   <trkpt lat="39.5706500" lon="-104.8594970">
    <ele>1759.4</ele>
    <time>2023-05-23T18:56:11Z</time>
   </trkpt>
   <trkpt lat="39.5706300" lon="-104.8595090">
    <ele>1759.5</ele>
    <time>2023-05-23T18:56:12Z</time>
   </trkpt>
   <trkpt lat="39.5706230" lon="-104.8595140">
    <ele>1759.5</ele>
    <time>2023-05-23T18:56:13Z</time>
   </trkpt>
   <trkpt lat="39.5706160" lon="-104.8595190">
    <ele>1759.5</ele>
    <time>2023-05-23T18:56:14Z</time>
   </trkpt>
   <trkpt lat="39.5706030" lon="-104.8595220">
    <ele>1759.5</ele>
    <time>2023-05-23T18:56:15Z</time>
   </trkpt>
   <trkpt lat="39.5705920" lon="-104.8595290">
    <ele>1759.5</ele>
    <time>2023-05-23T18:56:16Z</time>
   </trkpt>
   <trkpt lat="39.5705830" lon="-104.8595370">
    <ele>1759.5</ele>
    <time>2023-05-23T18:56:17Z</time>
   </trkpt>
   <trkpt lat="39.5705720" lon="-104.8595440">
    <ele>1759.5</ele>
    <time>2023-05-23T18:56:18Z</time>
   </trkpt>
   <trkpt lat="39.5705610" lon="-104.8595520">
    <ele>1759.5</ele>
    <time>2023-05-23T18:56:19Z</time>
   </trkpt>
   <trkpt lat="39.5705510" lon="-104.8595590">
    <ele>1759.5</ele>
    <time>2023-05-23T18:56:20Z</time>
   </trkpt>
   <trkpt lat="39.5705410" lon="-104.8595660">
    <ele>1759.5</ele>
    <time>2023-05-23T18:56:21Z</time>
   </trkpt>
   <trkpt lat="39.5705300" lon="-104.8595750">
    <ele>1759.6</ele>
    <time>2023-05-23T18:56:22Z</time>
   </trkpt>
   <trkpt lat="39.5705210" lon="-104.8595810">
    <ele>1759.6</ele>
    <time>2023-05-23T18:56:23Z</time>
   </trkpt>
   <trkpt lat="39.5705270" lon="-104.8595690">
    <ele>1759.6</ele>
    <time>2023-05-23T18:56:24Z</time>
   </trkpt>
   <trkpt lat="39.5705350" lon="-104.8595640">
    <ele>1759.6</ele>
    <time>2023-05-23T18:56:25Z</time>
   </trkpt>
   <trkpt lat="39.5705430" lon="-104.8595580">
    <ele>1759.6</ele>
    <time>2023-05-23T18:56:26Z</time>
   </trkpt>
   <trkpt lat="39.5705510" lon="-104.8595530">
    <ele>1759.6</ele>
    <time>2023-05-23T18:56:27Z</time>
   </trkpt>
   <trkpt lat="39.5705590" lon="-104.8595480">
    <ele>1759.6</ele>
    <time>2023-05-23T18:56:28Z</time>
   </trkpt>
   <trkpt lat="39.5705670" lon="-104.8595380">
    <ele>1759.6</ele>
    <time>2023-05-23T18:56:29Z</time>
   </trkpt>
   <trkpt lat="39.5705770" lon="-104.8595300">
    <ele>1759.6</ele>
    <time>2023-05-23T18:56:30Z</time>
   </trkpt>
   <trkpt lat="39.5705950" lon="-104.8595150">
    <ele>1759.6</ele>
    <time>2023-05-23T18:56:31Z</time>
   </trkpt>
   <trkpt lat="39.5706020" lon="-104.8595100">
    <ele>1759.6</ele>
    <time>2023-05-23T18:56:32Z</time>
   </trkpt>
   <trkpt lat="39.5706100" lon="-104.8595060">
    <ele>1759.6</ele>
    <time>2023-05-23T18:56:33Z</time>
   </trkpt>
   <trkpt lat="39.5706220" lon="-104.8594970">
    <ele>1759.6</ele>
    <time>2023-05-23T18:56:34Z</time>
   </trkpt>
   <trkpt lat="39.5706360" lon="-104.8594900">
    <ele>1759.6</ele>
    <time>2023-05-23T18:56:35Z</time>
   </trkpt>
   <trkpt lat="39.5706480" lon="-104.8594810">
    <ele>1759.6</ele>
    <time>2023-05-23T18:56:36Z</time>
   </trkpt>
   <trkpt lat="39.5706620" lon="-104.8594730">
    <ele>1759.6</ele>
    <time>2023-05-23T18:56:37Z</time>
   </trkpt>
   <trkpt lat="39.5706740" lon="-104.8594640">
    <ele>1759.6</ele>
    <time>2023-05-23T18:56:38Z</time>
   </trkpt>
   <trkpt lat="39.5706880" lon="-104.8594540">
    <ele>1759.6</ele>
    <time>2023-05-23T18:56:39Z</time>
   </trkpt>
   <trkpt lat="39.5707000" lon="-104.8594440">
    <ele>1759.6</ele>
    <time>2023-05-23T18:56:40Z</time>
   </trkpt>
   <trkpt lat="39.5707160" lon="-104.8594380">
    <ele>1759.5</ele>
    <time>2023-05-23T18:56:41Z</time>
   </trkpt>
   <trkpt lat="39.5707310" lon="-104.8594290">
    <ele>1759.5</ele>
    <time>2023-05-23T18:56:42Z</time>
   </trkpt>
   <trkpt lat="39.5707430" lon="-104.8594200">
    <ele>1759.5</ele>
    <time>2023-05-23T18:56:43Z</time>
   </trkpt>
   <trkpt lat="39.5707490" lon="-104.8594090">
    <ele>1759.5</ele>
    <time>2023-05-23T18:56:44Z</time>
   </trkpt>
   <trkpt lat="39.5707630" lon="-104.8594020">
    <ele>1759.5</ele>
    <time>2023-05-23T18:56:45Z</time>
   </trkpt>
   <trkpt lat="39.5707720" lon="-104.8593940">
    <ele>1759.5</ele>
    <time>2023-05-23T18:56:46Z</time>
   </trkpt>
   <trkpt lat="39.5707850" lon="-104.8593830">
    <ele>1759.5</ele>
    <time>2023-05-23T18:56:47Z</time>
   </trkpt>
   <trkpt lat="39.5707980" lon="-104.8593700">
    <ele>1759.4</ele>
    <time>2023-05-23T18:56:48Z</time>
   </trkpt>
   <trkpt lat="39.5708120" lon="-104.8593610">
    <ele>1759.4</ele>
    <time>2023-05-23T18:56:49Z</time>
   </trkpt>
   <trkpt lat="39.5708230" lon="-104.8593510">
    <ele>1759.4</ele>
    <time>2023-05-23T18:56:50Z</time>
   </trkpt>
   <trkpt lat="39.5708370" lon="-104.8593410">
    <ele>1759.4</ele>
    <time>2023-05-23T18:56:51Z</time>
   </trkpt>
   <trkpt lat="39.5708480" lon="-104.8593310">
    <ele>1759.4</ele>
    <time>2023-05-23T18:56:52Z</time>
   </trkpt>
   <trkpt lat="39.5708630" lon="-104.8593220">
    <ele>1759.4</ele>
    <time>2023-05-23T18:56:53Z</time>
   </trkpt>
   <trkpt lat="39.5708730" lon="-104.8593120">
    <ele>1759.3</ele>
    <time>2023-05-23T18:56:54Z</time>
   </trkpt>
   <trkpt lat="39.5708840" lon="-104.8593010">
    <ele>1759.3</ele>
    <time>2023-05-23T18:56:55Z</time>
   </trkpt>
   <trkpt lat="39.5708990" lon="-104.8592900">
    <ele>1759.3</ele>
    <time>2023-05-23T18:56:56Z</time>
   </trkpt>
   <trkpt lat="39.5709130" lon="-104.8592830">
    <ele>1759.3</ele>
    <time>2023-05-23T18:56:57Z</time>
   </trkpt>
   <trkpt lat="39.5709250" lon="-104.8592750">
    <ele>1759.3</ele>
    <time>2023-05-23T18:56:58Z</time>
   </trkpt>
   <trkpt lat="39.5709360" lon="-104.8592670">
    <ele>1759.3</ele>
    <time>2023-05-23T18:56:59Z</time>
   </trkpt>
   <trkpt lat="39.5709500" lon="-104.8592600">
    <ele>1759.3</ele>
    <time>2023-05-23T18:57:00Z</time>
   </trkpt>
   <trkpt lat="39.5709680" lon="-104.8592480">
    <ele>1759.2</ele>
    <time>2023-05-23T18:57:01Z</time>
   </trkpt>
   <trkpt lat="39.5709750" lon="-104.8592430">
    <ele>1759.2</ele>
    <time>2023-05-23T18:57:02Z</time>
   </trkpt>
   <trkpt lat="39.5709820" lon="-104.8592390">
    <ele>1759.2</ele>
    <time>2023-05-23T18:57:03Z</time>
   </trkpt>
   <trkpt lat="39.5709950" lon="-104.8592270">
    <ele>1759.2</ele>
    <time>2023-05-23T18:57:04Z</time>
   </trkpt>
   <trkpt lat="39.5710070" lon="-104.8592190">
    <ele>1759.2</ele>
    <time>2023-05-23T18:57:05Z</time>
   </trkpt>
   <trkpt lat="39.5710260" lon="-104.8592050">
    <ele>1759.2</ele>
    <time>2023-05-23T18:57:06Z</time>
   </trkpt>
   <trkpt lat="39.5710330" lon="-104.8592000">
    <ele>1759.2</ele>
    <time>2023-05-23T18:57:07Z</time>
   </trkpt>
   <trkpt lat="39.5710400" lon="-104.8591950">
    <ele>1759.2</ele>
    <time>2023-05-23T18:57:08Z</time>
   </trkpt>
   <trkpt lat="39.5710520" lon="-104.8591850">
    <ele>1759.1</ele>
    <time>2023-05-23T18:57:09Z</time>
   </trkpt>
   <trkpt lat="39.5710640" lon="-104.8591760">
    <ele>1759.1</ele>
    <time>2023-05-23T18:57:10Z</time>
   </trkpt>
   <trkpt lat="39.5710750" lon="-104.8591670">
    <ele>1759.1</ele>
    <time>2023-05-23T18:57:11Z</time>
   </trkpt>
   <trkpt lat="39.5710900" lon="-104.8591570">
    <ele>1759.1</ele>
    <time>2023-05-23T18:57:12Z</time>
   </trkpt>
   <trkpt lat="39.5711090" lon="-104.8591420">
    <ele>1759.1</ele>
    <time>2023-05-23T18:57:13Z</time>
   </trkpt>
   <trkpt lat="39.5711170" lon="-104.8591350">
    <ele>1759.1</ele>
    <time>2023-05-23T18:57:14Z</time>
   </trkpt>
   <trkpt lat="39.5711250" lon="-104.8591280">
    <ele>1759.1</ele>
    <time>2023-05-23T18:57:15Z</time>
   </trkpt>
   <trkpt lat="39.5711360" lon="-104.8591190">
    <ele>1759.1</ele>
    <time>2023-05-23T18:57:16Z</time>
   </trkpt>
   <trkpt lat="39.5711490" lon="-104.8591100">
    <ele>1759.1</ele>
    <time>2023-05-23T18:57:17Z</time>
   </trkpt>
   <trkpt lat="39.5711670" lon="-104.8590930">
    <ele>1759.1</ele>
    <time>2023-05-23T18:57:18Z</time>
   </trkpt>
   <trkpt lat="39.5711750" lon="-104.8590860">
    <ele>1759.1</ele>
    <time>2023-05-23T18:57:19Z</time>
   </trkpt>
   <trkpt lat="39.5711830" lon="-104.8590780">
    <ele>1759.1</ele>
    <time>2023-05-23T18:57:20Z</time>
   </trkpt>
   <trkpt lat="39.5711930" lon="-104.8590690">
    <ele>1759.0</ele>
    <time>2023-05-23T18:57:21Z</time>
   </trkpt>
   <trkpt lat="39.5712050" lon="-104.8590570">
    <ele>1759.0</ele>
    <time>2023-05-23T18:57:22Z</time>
   </trkpt>
   <trkpt lat="39.5712150" lon="-104.8590430">
    <ele>1759.0</ele>
    <time>2023-05-23T18:57:23Z</time>
   </trkpt>
   <trkpt lat="39.5712270" lon="-104.8590320">
    <ele>1759.0</ele>
    <time>2023-05-23T18:57:24Z</time>
   </trkpt>
   <trkpt lat="39.5712400" lon="-104.8590210">
    <ele>1759.0</ele>
    <time>2023-05-23T18:57:25Z</time>
   </trkpt>
   <trkpt lat="39.5712480" lon="-104.8590070">
    <ele>1759.0</ele>
    <time>2023-05-23T18:57:26Z</time>
   </trkpt>
   <trkpt lat="39.5712600" lon="-104.8589980">
    <ele>1759.0</ele>
    <time>2023-05-23T18:57:27Z</time>
   </trkpt>
   <trkpt lat="39.5712710" lon="-104.8589850">
    <ele>1759.0</ele>
    <time>2023-05-23T18:57:28Z</time>
   </trkpt>
   <trkpt lat="39.5712880" lon="-104.8589670">
    <ele>1759.0</ele>
    <time>2023-05-23T18:57:29Z</time>
   </trkpt>
   <trkpt lat="39.5712950" lon="-104.8589610">
    <ele>1759.0</ele>
    <time>2023-05-23T18:57:30Z</time>
   </trkpt>
   <trkpt lat="39.5713020" lon="-104.8589540">
    <ele>1759.0</ele>
    <time>2023-05-23T18:57:31Z</time>
   </trkpt>
   <trkpt lat="39.5713090" lon="-104.8589400">
    <ele>1759.0</ele>
    <time>2023-05-23T18:57:32Z</time>
   </trkpt>
   <trkpt lat="39.5713190" lon="-104.8589270">
    <ele>1759.0</ele>
    <time>2023-05-23T18:57:33Z</time>
   </trkpt>
   <trkpt lat="39.5713280" lon="-104.8589130">
    <ele>1759.0</ele>
    <time>2023-05-23T18:57:34Z</time>
   </trkpt>
   <trkpt lat="39.5713350" lon="-104.8588990">
    <ele>1759.0</ele>
    <time>2023-05-23T18:57:35Z</time>
   </trkpt>
   <trkpt lat="39.5713470" lon="-104.8588740">
    <ele>1759.0</ele>
    <time>2023-05-23T18:57:36Z</time>
   </trkpt>
   <trkpt lat="39.5713530" lon="-104.8588650">
    <ele>1759.0</ele>
    <time>2023-05-23T18:57:37Z</time>
   </trkpt>
   <trkpt lat="39.5713590" lon="-104.8588550">
    <ele>1759.0</ele>
    <time>2023-05-23T18:57:38Z</time>
   </trkpt>
   <trkpt lat="39.5713690" lon="-104.8588430">
    <ele>1759.0</ele>
    <time>2023-05-23T18:57:39Z</time>
   </trkpt>
   <trkpt lat="39.5713790" lon="-104.8588280">
    <ele>1759.0</ele>
    <time>2023-05-23T18:57:40Z</time>
   </trkpt>
   <trkpt lat="39.5713890" lon="-104.8588130">
    <ele>1759.0</ele>
    <time>2023-05-23T18:57:41Z</time>
   </trkpt>
   <trkpt lat="39.5713980" lon="-104.8588000">
    <ele>1759.0</ele>
    <time>2023-05-23T18:57:42Z</time>
   </trkpt>
   <trkpt lat="39.5714070" lon="-104.8587830">
    <ele>1759.0</ele>
    <time>2023-05-23T18:57:43Z</time>
   </trkpt>
   <trkpt lat="39.5714180" lon="-104.8587680">
    <ele>1759.0</ele>
    <time>2023-05-23T18:57:44Z</time>
   </trkpt>
   <trkpt lat="39.5714310" lon="-104.8587450">
    <ele>1759.0</ele>
    <time>2023-05-23T18:57:45Z</time>
   </trkpt>
   <trkpt lat="39.5714360" lon="-104.8587360">
    <ele>1759.0</ele>
    <time>2023-05-23T18:57:46Z</time>
   </trkpt>
   <trkpt lat="39.5714420" lon="-104.8587270">
    <ele>1759.0</ele>
    <time>2023-05-23T18:57:47Z</time>
   </trkpt>
   <trkpt lat="39.5714540" lon="-104.8587040">
    <ele>1759.0</ele>
    <time>2023-05-23T18:57:48Z</time>
   </trkpt>
   <trkpt lat="39.5714590" lon="-104.8586940">
    <ele>1759.0</ele>
    <time>2023-05-23T18:57:49Z</time>
   </trkpt>
   <trkpt lat="39.5714630" lon="-104.8586840">
    <ele>1759.0</ele>
    <time>2023-05-23T18:57:50Z</time>
   </trkpt>
   <trkpt lat="39.5714770" lon="-104.8586620">
    <ele>1759.0</ele>
    <time>2023-05-23T18:57:51Z</time>
   </trkpt>
   <trkpt lat="39.5714820" lon="-104.8586510">
    <ele>1759.0</ele>
    <time>2023-05-23T18:57:52Z</time>
   </trkpt>
   <trkpt lat="39.5714860" lon="-104.8586410">
    <ele>1759.0</ele>
    <time>2023-05-23T18:57:53Z</time>
   </trkpt>
   <trkpt lat="39.5714960" lon="-104.8586160">
    <ele>1759.0</ele>
    <time>2023-05-23T18:57:54Z</time>
   </trkpt>
   <trkpt lat="39.5715010" lon="-104.8586060">
    <ele>1759.0</ele>
    <time>2023-05-23T18:57:55Z</time>
   </trkpt>
   <trkpt lat="39.5715050" lon="-104.8585950">
    <ele>1759.0</ele>
    <time>2023-05-23T18:57:56Z</time>
   </trkpt>
   <trkpt lat="39.5715110" lon="-104.8585800">
    <ele>1759.0</ele>
    <time>2023-05-23T18:57:57Z</time>
   </trkpt>
   <trkpt lat="39.5715150" lon="-104.8585630">
    <ele>1759.0</ele>
    <time>2023-05-23T18:57:58Z</time>
   </trkpt>
   <trkpt lat="39.5715220" lon="-104.8585450">
    <ele>1759.0</ele>
    <time>2023-05-23T18:57:59Z</time>
   </trkpt>
   <trkpt lat="39.5715290" lon="-104.8585280">
    <ele>1759.1</ele>
    <time>2023-05-23T18:58:00Z</time>
   </trkpt>
   <trkpt lat="39.5715370" lon="-104.8585120">
    <ele>1759.1</ele>
    <time>2023-05-23T18:58:01Z</time>
   </trkpt>
   <trkpt lat="39.5715420" lon="-104.8584950">
    <ele>1759.1</ele>
    <time>2023-05-23T18:58:02Z</time>
   </trkpt>
   <trkpt lat="39.5715460" lon="-104.8584780">
    <ele>1759.1</ele>
    <time>2023-05-23T18:58:03Z</time>
   </trkpt>
   <trkpt lat="39.5715500" lon="-104.8584500">
    <ele>1759.1</ele>
    <time>2023-05-23T18:58:04Z</time>
   </trkpt>
   <trkpt lat="39.5715590" lon="-104.8584250">
    <ele>1759.1</ele>
    <time>2023-05-23T18:58:05Z</time>
   </trkpt>
   <trkpt lat="39.5715650" lon="-104.8584080">
    <ele>1759.1</ele>
    <time>2023-05-23T18:58:06Z</time>
   </trkpt>
   <trkpt lat="39.5715720" lon="-104.8583910">
    <ele>1759.1</ele>
    <time>2023-05-23T18:58:07Z</time>
   </trkpt>
   <trkpt lat="39.5715760" lon="-104.8583720">
    <ele>1759.1</ele>
    <time>2023-05-23T18:58:08Z</time>
   </trkpt>
   <trkpt lat="39.5715790" lon="-104.8583540">
    <ele>1759.1</ele>
    <time>2023-05-23T18:58:09Z</time>
   </trkpt>
   <trkpt lat="39.5715830" lon="-104.8583350">
    <ele>1759.1</ele>
    <time>2023-05-23T18:58:10Z</time>
   </trkpt>
   <trkpt lat="39.5715840" lon="-104.8583170">
    <ele>1759.2</ele>
    <time>2023-05-23T18:58:11Z</time>
   </trkpt>
   <trkpt lat="39.5715840" lon="-104.8582970">
    <ele>1759.2</ele>
    <time>2023-05-23T18:58:12Z</time>
   </trkpt>
   <trkpt lat="39.5715890" lon="-104.8582790">
    <ele>1759.2</ele>
    <time>2023-05-23T18:58:13Z</time>
   </trkpt>
   <trkpt lat="39.5715930" lon="-104.8582600">
    <ele>1759.2</ele>
    <time>2023-05-23T18:58:14Z</time>
   </trkpt>
   <trkpt lat="39.5715960" lon="-104.8582420">
    <ele>1759.2</ele>
    <time>2023-05-23T18:58:15Z</time>
   </trkpt>
   <trkpt lat="39.5716000" lon="-104.8582240">
    <ele>1759.2</ele>
    <time>2023-05-23T18:58:16Z</time>
   </trkpt>
   <trkpt lat="39.5716040" lon="-104.8582050">
    <ele>1759.2</ele>
    <time>2023-05-23T18:58:17Z</time>
   </trkpt>
   <trkpt lat="39.5716080" lon="-104.8581850">
    <ele>1759.2</ele>
    <time>2023-05-23T18:58:18Z</time>
   </trkpt>
   <trkpt lat="39.5716140" lon="-104.8581670">
    <ele>1759.2</ele>
    <time>2023-05-23T18:58:19Z</time>
   </trkpt>
   <trkpt lat="39.5716180" lon="-104.8581490">
    <ele>1759.3</ele>
    <time>2023-05-23T18:58:20Z</time>
   </trkpt>
   <trkpt lat="39.5716180" lon="-104.8581300">
    <ele>1759.3</ele>
    <time>2023-05-23T18:58:21Z</time>
   </trkpt>
   <trkpt lat="39.5716200" lon="-104.8581110">
    <ele>1759.3</ele>
    <time>2023-05-23T18:58:22Z</time>
   </trkpt>
   <trkpt lat="39.5716240" lon="-104.8580920">
    <ele>1759.3</ele>
    <time>2023-05-23T18:58:23Z</time>
   </trkpt>
   <trkpt lat="39.5716310" lon="-104.8580750">
    <ele>1759.3</ele>
    <time>2023-05-23T18:58:24Z</time>
   </trkpt>
   <trkpt lat="39.5716330" lon="-104.8580550">
    <ele>1759.3</ele>
    <time>2023-05-23T18:58:25Z</time>
   </trkpt>
   <trkpt lat="39.5716340" lon="-104.8580350">
    <ele>1759.3</ele>
    <time>2023-05-23T18:58:26Z</time>
   </trkpt>
   <trkpt lat="39.5716380" lon="-104.8580160">
    <ele>1759.3</ele>
    <time>2023-05-23T18:58:27Z</time>
   </trkpt>
   <trkpt lat="39.5716400" lon="-104.8579970">
    <ele>1759.3</ele>
    <time>2023-05-23T18:58:28Z</time>
   </trkpt>
   <trkpt lat="39.5716430" lon="-104.8579790">
    <ele>1759.3</ele>
    <time>2023-05-23T18:58:29Z</time>
   </trkpt>
   <trkpt lat="39.5716430" lon="-104.8579610">
    <ele>1759.3</ele>
    <time>2023-05-23T18:58:30Z</time>
   </trkpt>
   <trkpt lat="39.5716420" lon="-104.8579410">
    <ele>1759.3</ele>
    <time>2023-05-23T18:58:31Z</time>
   </trkpt>
   <trkpt lat="39.5716480" lon="-104.8579230">
    <ele>1759.3</ele>
    <time>2023-05-23T18:58:32Z</time>
   </trkpt>
   <trkpt lat="39.5716490" lon="-104.8579050">
    <ele>1759.3</ele>
    <time>2023-05-23T18:58:33Z</time>
   </trkpt>
   <trkpt lat="39.5716470" lon="-104.8578870">
    <ele>1759.3</ele>
    <time>2023-05-23T18:58:34Z</time>
   </trkpt>
   <trkpt lat="39.5716460" lon="-104.8578680">
    <ele>1759.3</ele>
    <time>2023-05-23T18:58:35Z</time>
   </trkpt>
   <trkpt lat="39.5716510" lon="-104.8578500">
    <ele>1759.3</ele>
    <time>2023-05-23T18:58:36Z</time>
   </trkpt>
   <trkpt lat="39.5716550" lon="-104.8578310">
    <ele>1759.4</ele>
    <time>2023-05-23T18:58:37Z</time>
   </trkpt>
   <trkpt lat="39.5716560" lon="-104.8578120">
    <ele>1759.4</ele>
    <time>2023-05-23T18:58:38Z</time>
   </trkpt>
   <trkpt lat="39.5716560" lon="-104.8577940">
    <ele>1759.4</ele>
    <time>2023-05-23T18:58:39Z</time>
   </trkpt>
   <trkpt lat="39.5716570" lon="-104.8577750">
    <ele>1759.4</ele>
    <time>2023-05-23T18:58:40Z</time>
   </trkpt>
   <trkpt lat="39.5716540" lon="-104.8577540">
    <ele>1759.4</ele>
    <time>2023-05-23T18:58:41Z</time>
   </trkpt>
   <trkpt lat="39.5716560" lon="-104.8577350">
    <ele>1759.4</ele>
    <time>2023-05-23T18:58:42Z</time>
   </trkpt>
   <trkpt lat="39.5716560" lon="-104.8577170">
    <ele>1759.4</ele>
    <time>2023-05-23T18:58:43Z</time>
   </trkpt>
   <trkpt lat="39.5716550" lon="-104.8576970">
    <ele>1759.4</ele>
    <time>2023-05-23T18:58:44Z</time>
   </trkpt>
   <trkpt lat="39.5716560" lon="-104.8576790">
    <ele>1759.4</ele>
    <time>2023-05-23T18:58:45Z</time>
   </trkpt>
   <trkpt lat="39.5716540" lon="-104.8576620">
    <ele>1759.4</ele>
    <time>2023-05-23T18:58:46Z</time>
   </trkpt>
   <trkpt lat="39.5716560" lon="-104.8576430">
    <ele>1759.4</ele>
    <time>2023-05-23T18:58:47Z</time>
   </trkpt>
   <trkpt lat="39.5716600" lon="-104.8576240">
    <ele>1759.5</ele>
    <time>2023-05-23T18:58:48Z</time>
   </trkpt>
   <trkpt lat="39.5716600" lon="-104.8576050">
    <ele>1759.5</ele>
    <time>2023-05-23T18:58:49Z</time>
   </trkpt>
   <trkpt lat="39.5716590" lon="-104.8575850">
    <ele>1759.5</ele>
    <time>2023-05-23T18:58:50Z</time>
   </trkpt>
   <trkpt lat="39.5716610" lon="-104.8575640">
    <ele>1759.5</ele>
    <time>2023-05-23T18:58:51Z</time>
   </trkpt>
   <trkpt lat="39.5716590" lon="-104.8575440">
    <ele>1759.5</ele>
    <time>2023-05-23T18:58:52Z</time>
   </trkpt>
   <trkpt lat="39.5716570" lon="-104.8575220">
    <ele>1759.5</ele>
    <time>2023-05-23T18:58:53Z</time>
   </trkpt>
   <trkpt lat="39.5716580" lon="-104.8575010">
    <ele>1759.5</ele>
    <time>2023-05-23T18:58:54Z</time>
   </trkpt>
   <trkpt lat="39.5716590" lon="-104.8574810">
    <ele>1759.5</ele>
    <time>2023-05-23T18:58:55Z</time>
   </trkpt>
   <trkpt lat="39.5716580" lon="-104.8574610">
    <ele>1759.6</ele>
    <time>2023-05-23T18:58:56Z</time>
   </trkpt>
   <trkpt lat="39.5716590" lon="-104.8574410">
    <ele>1759.6</ele>
    <time>2023-05-23T18:58:57Z</time>
   </trkpt>
   <trkpt lat="39.5716570" lon="-104.8574220">
    <ele>1759.6</ele>
    <time>2023-05-23T18:58:58Z</time>
   </trkpt>
   <trkpt lat="39.5716590" lon="-104.8574020">
    <ele>1759.6</ele>
    <time>2023-05-23T18:58:59Z</time>
   </trkpt>
   <trkpt lat="39.5716590" lon="-104.8573830">
    <ele>1759.6</ele>
    <time>2023-05-23T18:59:00Z</time>
   </trkpt>
   <trkpt lat="39.5716610" lon="-104.8573650">
    <ele>1759.7</ele>
    <time>2023-05-23T18:59:01Z</time>
   </trkpt>
   <trkpt lat="39.5716630" lon="-104.8573450">
    <ele>1759.7</ele>
    <time>2023-05-23T18:59:02Z</time>
   </trkpt>
   <trkpt lat="39.5716660" lon="-104.8573260">
    <ele>1759.7</ele>
    <time>2023-05-23T18:59:03Z</time>
   </trkpt>
   <trkpt lat="39.5716680" lon="-104.8573070">
    <ele>1759.7</ele>
    <time>2023-05-23T18:59:04Z</time>
   </trkpt>
   <trkpt lat="39.5716700" lon="-104.8572880">
    <ele>1759.7</ele>
    <time>2023-05-23T18:59:05Z</time>
   </trkpt>
   <trkpt lat="39.5716720" lon="-104.8572710">
    <ele>1759.8</ele>
    <time>2023-05-23T18:59:06Z</time>
   </trkpt>
   <trkpt lat="39.5716740" lon="-104.8572540">
    <ele>1759.8</ele>
    <time>2023-05-23T18:59:07Z</time>
   </trkpt>
   <trkpt lat="39.5716800" lon="-104.8572370">
    <ele>1759.8</ele>
    <time>2023-05-23T18:59:08Z</time>
   </trkpt>
   <trkpt lat="39.5716850" lon="-104.8572210">
    <ele>1759.8</ele>
    <time>2023-05-23T18:59:09Z</time>
   </trkpt>
   <trkpt lat="39.5716900" lon="-104.8572030">
    <ele>1759.8</ele>
    <time>2023-05-23T18:59:10Z</time>
   </trkpt>
   <trkpt lat="39.5716950" lon="-104.8571860">
    <ele>1759.8</ele>
    <time>2023-05-23T18:59:11Z</time>
   </trkpt>
   <trkpt lat="39.5717010" lon="-104.8571700">
    <ele>1759.9</ele>
    <time>2023-05-23T18:59:12Z</time>
   </trkpt>
   <trkpt lat="39.5717110" lon="-104.8571540">
    <ele>1759.9</ele>
    <time>2023-05-23T18:59:13Z</time>
   </trkpt>
   <trkpt lat="39.5717180" lon="-104.8571370">
    <ele>1759.9</ele>
    <time>2023-05-23T18:59:14Z</time>
   </trkpt>
   <trkpt lat="39.5717230" lon="-104.8571150">
    <ele>1759.9</ele>
    <time>2023-05-23T18:59:15Z</time>
   </trkpt>
   <trkpt lat="39.5717280" lon="-104.8570940">
    <ele>1760.0</ele>
    <time>2023-05-23T18:59:16Z</time>
   </trkpt>
   <trkpt lat="39.5717350" lon="-104.8570750">
    <ele>1760.0</ele>
    <time>2023-05-23T18:59:17Z</time>
   </trkpt>
   <trkpt lat="39.5717400" lon="-104.8570540">
    <ele>1760.1</ele>
    <time>2023-05-23T18:59:18Z</time>
   </trkpt>
   <trkpt lat="39.5717450" lon="-104.8570340">
    <ele>1760.1</ele>
    <time>2023-05-23T18:59:19Z</time>
   </trkpt>
   <trkpt lat="39.5717520" lon="-104.8570160">
    <ele>1760.2</ele>
    <time>2023-05-23T18:59:20Z</time>
   </trkpt>
   <trkpt lat="39.5717620" lon="-104.8570010">
    <ele>1760.2</ele>
    <time>2023-05-23T18:59:21Z</time>
   </trkpt>
   <trkpt lat="39.5717730" lon="-104.8569890">
    <ele>1760.3</ele>
    <time>2023-05-23T18:59:22Z</time>
   </trkpt>
   <trkpt lat="39.5717840" lon="-104.8569740">
    <ele>1760.3</ele>
    <time>2023-05-23T18:59:23Z</time>
   </trkpt>
   <trkpt lat="39.5717930" lon="-104.8569590">
    <ele>1760.4</ele>
    <time>2023-05-23T18:59:24Z</time>
   </trkpt>
   <trkpt lat="39.5718050" lon="-104.8569490">
    <ele>1760.4</ele>
    <time>2023-05-23T18:59:25Z</time>
   </trkpt>
   <trkpt lat="39.5718160" lon="-104.8569380">
    <ele>1760.5</ele>
    <time>2023-05-23T18:59:26Z</time>
   </trkpt>
   <trkpt lat="39.5718290" lon="-104.8569150">
    <ele>1760.6</ele>
    <time>2023-05-23T18:59:27Z</time>
   </trkpt>
   <trkpt lat="39.5718340" lon="-104.8569050">
    <ele>1760.6</ele>
    <time>2023-05-23T18:59:28Z</time>
   </trkpt>
   <trkpt lat="39.5718390" lon="-104.8568960">
    <ele>1760.6</ele>
    <time>2023-05-23T18:59:29Z</time>
   </trkpt>
   <trkpt lat="39.5718520" lon="-104.8568730">
    <ele>1760.7</ele>
    <time>2023-05-23T18:59:30Z</time>
   </trkpt>
   <trkpt lat="39.5718570" lon="-104.8568640">
    <ele>1760.7</ele>
    <time>2023-05-23T18:59:31Z</time>
   </trkpt>
   <trkpt lat="39.5718620" lon="-104.8568550">
    <ele>1760.8</ele>
    <time>2023-05-23T18:59:32Z</time>
   </trkpt>
   <trkpt lat="39.5718700" lon="-104.8568410">
    <ele>1760.8</ele>
    <time>2023-05-23T18:59:33Z</time>
   </trkpt>
   <trkpt lat="39.5718770" lon="-104.8568260">
    <ele>1760.9</ele>
    <time>2023-05-23T18:59:34Z</time>
   </trkpt>
   <trkpt lat="39.5718890" lon="-104.8568020">
    <ele>1761.0</ele>
    <time>2023-05-23T18:59:35Z</time>
   </trkpt>
   <trkpt lat="39.5718940" lon="-104.8567930">
    <ele>1761.0</ele>
    <time>2023-05-23T18:59:36Z</time>
   </trkpt>
   <trkpt lat="39.5718990" lon="-104.8567840">
    <ele>1761.0</ele>
    <time>2023-05-23T18:59:37Z</time>
   </trkpt>
   <trkpt lat="39.5719090" lon="-104.8567710">
    <ele>1761.1</ele>
    <time>2023-05-23T18:59:38Z</time>
   </trkpt>
   <trkpt lat="39.5719190" lon="-104.8567590">
    <ele>1761.2</ele>
    <time>2023-05-23T18:59:39Z</time>
   </trkpt>
   <trkpt lat="39.5719310" lon="-104.8567470">
    <ele>1761.2</ele>
    <time>2023-05-23T18:59:40Z</time>
   </trkpt>
   <trkpt lat="39.5719440" lon="-104.8567380">
    <ele>1761.3</ele>
    <time>2023-05-23T18:59:41Z</time>
   </trkpt>
   <trkpt lat="39.5719630" lon="-104.8567220">
    <ele>1761.4</ele>
    <time>2023-05-23T18:59:42Z</time>
   </trkpt>
   <trkpt lat="39.5719700" lon="-104.8567140">
    <ele>1761.4</ele>
    <time>2023-05-23T18:59:43Z</time>
   </trkpt>
   <trkpt lat="39.5719760" lon="-104.8567070">
    <ele>1761.5</ele>
    <time>2023-05-23T18:59:44Z</time>
   </trkpt>
   <trkpt lat="39.5719860" lon="-104.8566940">
    <ele>1761.5</ele>
    <time>2023-05-23T18:59:45Z</time>
   </trkpt>
   <trkpt lat="39.5719940" lon="-104.8566800">
    <ele>1761.6</ele>
    <time>2023-05-23T18:59:46Z</time>
   </trkpt>
   <trkpt lat="39.5720020" lon="-104.8566670">
    <ele>1761.6</ele>
    <time>2023-05-23T18:59:47Z</time>
   </trkpt>
   <trkpt lat="39.5720110" lon="-104.8566570">
    <ele>1761.7</ele>
    <time>2023-05-23T18:59:48Z</time>
   </trkpt>
   <trkpt lat="39.5720210" lon="-104.8566490">
    <ele>1761.7</ele>
    <time>2023-05-23T18:59:49Z</time>
   </trkpt>
   <trkpt lat="39.5720290" lon="-104.8566430">
    <ele>1761.8</ele>
    <time>2023-05-23T18:59:50Z</time>
   </trkpt>
   <trkpt lat="39.5720370" lon="-104.8566420">
    <ele>1761.8</ele>
    <time>2023-05-23T18:59:51Z</time>
   </trkpt>
   <trkpt lat="39.5720270" lon="-104.8566540">
    <ele>1761.9</ele>
    <time>2023-05-23T18:59:52Z</time>
   </trkpt>
   <trkpt lat="39.5720260" lon="-104.8566530">
    <ele>1761.9</ele>
    <time>2023-05-23T18:59:53Z</time>
   </trkpt>
   <trkpt lat="39.5720290" lon="-104.8566470">
    <ele>1761.9</ele>
    <time>2023-05-23T18:59:54Z</time>
   </trkpt>
   <trkpt lat="39.5720380" lon="-104.8566300">
    <ele>1761.9</ele>
    <time>2023-05-23T18:59:55Z</time>
   </trkpt>
   <trkpt lat="39.5720480" lon="-104.8566220">
    <ele>1762.0</ele>
    <time>2023-05-23T18:59:56Z</time>
   </trkpt>
   <trkpt lat="39.5720570" lon="-104.8566140">
    <ele>1762.0</ele>
    <time>2023-05-23T18:59:57Z</time>
   </trkpt>
   <trkpt lat="39.5720650" lon="-104.8566080">
    <ele>1762.1</ele>
    <time>2023-05-23T18:59:58Z</time>
   </trkpt>
   <trkpt lat="39.5720740" lon="-104.8566010">
    <ele>1762.1</ele>
    <time>2023-05-23T18:59:59Z</time>
   </trkpt>
   <trkpt lat="39.5720850" lon="-104.8565940">
    <ele>1762.1</ele>
    <time>2023-05-23T19:00:00Z</time>
   </trkpt>
   <trkpt lat="39.5720890" lon="-104.8565900">
    <ele>1762.2</ele>
    <time>2023-05-23T19:00:01Z</time>
   </trkpt>
   <trkpt lat="39.5720930" lon="-104.8565870">
    <ele>1762.2</ele>
    <time>2023-05-23T19:00:02Z</time>
   </trkpt>
   <trkpt lat="39.5720970" lon="-104.8565840">
    <ele>1762.2</ele>
    <time>2023-05-23T19:00:03Z</time>
   </trkpt>
   <trkpt lat="39.5721010" lon="-104.8565810">
    <ele>1762.2</ele>
    <time>2023-05-23T19:00:04Z</time>
   </trkpt>
   <trkpt lat="39.5721060" lon="-104.8565780">
    <ele>1762.2</ele>
    <time>2023-05-23T19:00:05Z</time>
   </trkpt>
   <trkpt lat="39.5721150" lon="-104.8565610">
    <ele>1762.3</ele>
    <time>2023-05-23T19:00:06Z</time>
   </trkpt>
   <trkpt lat="39.5721260" lon="-104.8565470">
    <ele>1762.3</ele>
    <time>2023-05-23T19:00:07Z</time>
   </trkpt>
   <trkpt lat="39.5721350" lon="-104.8565320">
    <ele>1762.4</ele>
    <time>2023-05-23T19:00:08Z</time>
   </trkpt>
   <trkpt lat="39.5721480" lon="-104.8565220">
    <ele>1762.4</ele>
    <time>2023-05-23T19:00:09Z</time>
   </trkpt>
   <trkpt lat="39.5721620" lon="-104.8565130">
    <ele>1762.5</ele>
    <time>2023-05-23T19:00:10Z</time>
   </trkpt>
   <trkpt lat="39.5721720" lon="-104.8565010">
    <ele>1762.5</ele>
    <time>2023-05-23T19:00:11Z</time>
   </trkpt>
   <trkpt lat="39.5721920" lon="-104.8564870">
    <ele>1762.6</ele>
    <time>2023-05-23T19:00:12Z</time>
   </trkpt>
   <trkpt lat="39.5722000" lon="-104.8564830">
    <ele>1762.6</ele>
    <time>2023-05-23T19:00:13Z</time>
   </trkpt>
   <trkpt lat="39.5722090" lon="-104.8564790">
    <ele>1762.6</ele>
    <time>2023-05-23T19:00:14Z</time>
   </trkpt>
   <trkpt lat="39.5722170" lon="-104.8564680">
    <ele>1762.7</ele>
    <time>2023-05-23T19:00:15Z</time>
   </trkpt>
   <trkpt lat="39.5722270" lon="-104.8564600">
    <ele>1762.7</ele>
    <time>2023-05-23T19:00:16Z</time>
   </trkpt>
   <trkpt lat="39.5722390" lon="-104.8564580">
    <ele>1762.7</ele>
    <time>2023-05-23T19:00:17Z</time>
   </trkpt>
   <trkpt lat="39.5722480" lon="-104.8564560">
    <ele>1762.7</ele>
    <time>2023-05-23T19:00:18Z</time>
   </trkpt>
   <trkpt lat="39.5722610" lon="-104.8564500">
    <ele>1762.8</ele>
    <time>2023-05-23T19:00:19Z</time>
   </trkpt>
   <trkpt lat="39.5722730" lon="-104.8564470">
    <ele>1762.8</ele>
    <time>2023-05-23T19:00:20Z</time>
   </trkpt>
   <trkpt lat="39.5722860" lon="-104.8564430">
    <ele>1762.8</ele>
    <time>2023-05-23T19:00:21Z</time>
   </trkpt>
   <trkpt lat="39.5722990" lon="-104.8564360">
    <ele>1762.8</ele>
    <time>2023-05-23T19:00:22Z</time>
   </trkpt>
   <trkpt lat="39.5723200" lon="-104.8564230">
    <ele>1762.8</ele>
    <time>2023-05-23T19:00:23Z</time>
   </trkpt>
   <trkpt lat="39.5723290" lon="-104.8564170">
    <ele>1762.8</ele>
    <time>2023-05-23T19:00:24Z</time>
   </trkpt>
   <trkpt lat="39.5723380" lon="-104.8564100">
    <ele>1762.9</ele>
    <time>2023-05-23T19:00:25Z</time>
   </trkpt>
   <trkpt lat="39.5723550" lon="-104.8564070">
    <ele>1762.9</ele>
    <time>2023-05-23T19:00:26Z</time>
   </trkpt>
   <trkpt lat="39.5723720" lon="-104.8564070">
    <ele>1762.9</ele>
    <time>2023-05-23T19:00:27Z</time>
   </trkpt>
   <trkpt lat="39.5723890" lon="-104.8564050">
    <ele>1762.9</ele>
    <time>2023-05-23T19:00:28Z</time>
   </trkpt>
   <trkpt lat="39.5724040" lon="-104.8564000">
    <ele>1762.9</ele>
    <time>2023-05-23T19:00:29Z</time>
   </trkpt>
   <trkpt lat="39.5724190" lon="-104.8563950">
    <ele>1762.9</ele>
    <time>2023-05-23T19:00:30Z</time>
   </trkpt>
   <trkpt lat="39.5724340" lon="-104.8563930">
    <ele>1762.9</ele>
    <time>2023-05-23T19:00:31Z</time>
   </trkpt>
   <trkpt lat="39.5724490" lon="-104.8563940">
    <ele>1762.9</ele>
    <time>2023-05-23T19:00:32Z</time>
   </trkpt>
   <trkpt lat="39.5724630" lon="-104.8563930">
    <ele>1762.9</ele>
    <time>2023-05-23T19:00:33Z</time>
   </trkpt>
   <trkpt lat="39.5724780" lon="-104.8563950">
    <ele>1762.9</ele>
    <time>2023-05-23T19:00:34Z</time>
   </trkpt>
   <trkpt lat="39.5724910" lon="-104.8563920">
    <ele>1762.9</ele>
    <time>2023-05-23T19:00:35Z</time>
   </trkpt>
   <trkpt lat="39.5725050" lon="-104.8563890">
    <ele>1762.8</ele>
    <time>2023-05-23T19:00:36Z</time>
   </trkpt>
   <trkpt lat="39.5725180" lon="-104.8563870">
    <ele>1762.8</ele>
    <time>2023-05-23T19:00:37Z</time>
   </trkpt>
   <trkpt lat="39.5725380" lon="-104.8563860">
    <ele>1762.8</ele>
    <time>2023-05-23T19:00:38Z</time>
   </trkpt>
   <trkpt lat="39.5725470" lon="-104.8563850">
    <ele>1762.8</ele>
    <time>2023-05-23T19:00:39Z</time>
   </trkpt>
   <trkpt lat="39.5725560" lon="-104.8563850">
    <ele>1762.8</ele>
    <time>2023-05-23T19:00:40Z</time>
   </trkpt>
   <trkpt lat="39.5725680" lon="-104.8563840">
    <ele>1762.8</ele>
    <time>2023-05-23T19:00:41Z</time>
   </trkpt>
   <trkpt lat="39.5725830" lon="-104.8563870">
    <ele>1762.8</ele>
    <time>2023-05-23T19:00:42Z</time>
   </trkpt>
   <trkpt lat="39.5726000" lon="-104.8563890">
    <ele>1762.7</ele>
    <time>2023-05-23T19:00:43Z</time>
   </trkpt>
   <trkpt lat="39.5726110" lon="-104.8563880">
    <ele>1762.7</ele>
    <time>2023-05-23T19:00:44Z</time>
   </trkpt>
   <trkpt lat="39.5726220" lon="-104.8563880">
    <ele>1762.7</ele>
    <time>2023-05-23T19:00:45Z</time>
   </trkpt>
   <trkpt lat="39.5726350" lon="-104.8563890">
    <ele>1762.7</ele>
    <time>2023-05-23T19:00:46Z</time>
   </trkpt>
   <trkpt lat="39.5726530" lon="-104.8563920">
    <ele>1762.7</ele>
    <time>2023-05-23T19:00:47Z</time>
   </trkpt>
   <trkpt lat="39.5726690" lon="-104.8563920">
    <ele>1762.6</ele>
    <time>2023-05-23T19:00:48Z</time>
   </trkpt>
   <trkpt lat="39.5726840" lon="-104.8563920">
    <ele>1762.6</ele>
    <time>2023-05-23T19:00:49Z</time>
   </trkpt>
   <trkpt lat="39.5726970" lon="-104.8563900">
    <ele>1762.6</ele>
    <time>2023-05-23T19:00:50Z</time>
   </trkpt>
   <trkpt lat="39.5727120" lon="-104.8563940">
    <ele>1762.6</ele>
    <time>2023-05-23T19:00:51Z</time>
   </trkpt>
   <trkpt lat="39.5727270" lon="-104.8563960">
    <ele>1762.5</ele>
    <time>2023-05-23T19:00:52Z</time>
   </trkpt>
   <trkpt lat="39.5727420" lon="-104.8563970">
    <ele>1762.5</ele>
    <time>2023-05-23T19:00:53Z</time>
   </trkpt>
   <trkpt lat="39.5727560" lon="-104.8564000">
    <ele>1762.5</ele>
    <time>2023-05-23T19:00:54Z</time>
   </trkpt>
   <trkpt lat="39.5727710" lon="-104.8564000">
    <ele>1762.5</ele>
    <time>2023-05-23T19:00:55Z</time>
   </trkpt>
   <trkpt lat="39.5727930" lon="-104.8563970">
    <ele>1762.4</ele>
    <time>2023-05-23T19:00:56Z</time>
   </trkpt>
   <trkpt lat="39.5728010" lon="-104.8563970">
    <ele>1762.4</ele>
    <time>2023-05-23T19:00:57Z</time>
   </trkpt>
   <trkpt lat="39.5728100" lon="-104.8563970">
    <ele>1762.4</ele>
    <time>2023-05-23T19:00:58Z</time>
   </trkpt>
   <trkpt lat="39.5728260" lon="-104.8564010">
    <ele>1762.4</ele>
    <time>2023-05-23T19:00:59Z</time>
   </trkpt>
   <trkpt lat="39.5728410" lon="-104.8564030">
    <ele>1762.4</ele>
    <time>2023-05-23T19:01:00Z</time>
   </trkpt>
   <trkpt lat="39.5728550" lon="-104.8564000">
    <ele>1762.4</ele>
    <time>2023-05-23T19:01:01Z</time>
   </trkpt>
   <trkpt lat="39.5728690" lon="-104.8563960">
    <ele>1762.4</ele>
    <time>2023-05-23T19:01:02Z</time>
   </trkpt>
   <trkpt lat="39.5728820" lon="-104.8563960">
    <ele>1762.4</ele>
    <time>2023-05-23T19:01:03Z</time>
   </trkpt>
   <trkpt lat="39.5728960" lon="-104.8563940">
    <ele>1762.3</ele>
    <time>2023-05-23T19:01:04Z</time>
   </trkpt>
   <trkpt lat="39.5729040" lon="-104.8563960">
    <ele>1762.3</ele>
    <time>2023-05-23T19:01:05Z</time>
   </trkpt>
   <trkpt lat="39.5729160" lon="-104.8563960">
    <ele>1762.3</ele>
    <time>2023-05-23T19:01:06Z</time>
   </trkpt>
   <trkpt lat="39.5729300" lon="-104.8563980">
    <ele>1762.3</ele>
    <time>2023-05-23T19:01:07Z</time>
   </trkpt>
   <trkpt lat="39.5729460" lon="-104.8563960">
    <ele>1762.3</ele>
    <time>2023-05-23T19:01:08Z</time>
   </trkpt>
   <trkpt lat="39.5729610" lon="-104.8563970">
    <ele>1762.3</ele>
    <time>2023-05-23T19:01:09Z</time>
   </trkpt>
   <trkpt lat="39.5729750" lon="-104.8563960">
    <ele>1762.3</ele>
    <time>2023-05-23T19:01:10Z</time>
   </trkpt>
   <trkpt lat="39.5729880" lon="-104.8563960">
    <ele>1762.3</ele>
    <time>2023-05-23T19:01:11Z</time>
   </trkpt>
   <trkpt lat="39.5730040" lon="-104.8563960">
    <ele>1762.2</ele>
    <time>2023-05-23T19:01:12Z</time>
   </trkpt>
   <trkpt lat="39.5730170" lon="-104.8563900">
    <ele>1762.2</ele>
    <time>2023-05-23T19:01:13Z</time>
   </trkpt>
   <trkpt lat="39.5730310" lon="-104.8563850">
    <ele>1762.2</ele>
    <time>2023-05-23T19:01:14Z</time>
   </trkpt>
   <trkpt lat="39.5730420" lon="-104.8563770">
    <ele>1762.2</ele>
    <time>2023-05-23T19:01:15Z</time>
   </trkpt>
   <trkpt lat="39.5730640" lon="-104.8563730">
    <ele>1762.2</ele>
    <time>2023-05-23T19:01:16Z</time>
   </trkpt>
   <trkpt lat="39.5730730" lon="-104.8563740">
    <ele>1762.1</ele>
    <time>2023-05-23T19:01:17Z</time>
   </trkpt>
   <trkpt lat="39.5730820" lon="-104.8563760">
    <ele>1762.1</ele>
    <time>2023-05-23T19:01:18Z</time>
   </trkpt>
   <trkpt lat="39.5730960" lon="-104.8563750">
    <ele>1762.1</ele>
    <time>2023-05-23T19:01:19Z</time>
   </trkpt>
   <trkpt lat="39.5731110" lon="-104.8563740">
    <ele>1762.1</ele>
    <time>2023-05-23T19:01:20Z</time>
   </trkpt>
   <trkpt lat="39.5731250" lon="-104.8563750">
    <ele>1762.1</ele>
    <time>2023-05-23T19:01:21Z</time>
   </trkpt>
   <trkpt lat="39.5731370" lon="-104.8563850">
    <ele>1762.0</ele>
    <time>2023-05-23T19:01:22Z</time>
   </trkpt>
   <trkpt lat="39.5731510" lon="-104.8563860">
    <ele>1762.0</ele>
    <time>2023-05-23T19:01:23Z</time>
   </trkpt>
   <trkpt lat="39.5731670" lon="-104.8563840">
    <ele>1762.0</ele>
    <time>2023-05-23T19:01:24Z</time>
   </trkpt>
   <trkpt lat="39.5731800" lon="-104.8563910">
    <ele>1762.0</ele>
    <time>2023-05-23T19:01:25Z</time>
   </trkpt>
   <trkpt lat="39.5731950" lon="-104.8563910">
    <ele>1761.9</ele>
    <time>2023-05-23T19:01:26Z</time>
   </trkpt>
   <trkpt lat="39.5732110" lon="-104.8563890">
    <ele>1761.9</ele>
    <time>2023-05-23T19:01:27Z</time>
   </trkpt>
   <trkpt lat="39.5732260" lon="-104.8563900">
    <ele>1761.9</ele>
    <time>2023-05-23T19:01:28Z</time>
   </trkpt>
   <trkpt lat="39.5732410" lon="-104.8563910">
    <ele>1761.9</ele>
    <time>2023-05-23T19:01:29Z</time>
   </trkpt>
   <trkpt lat="39.5732550" lon="-104.8563900">
    <ele>1761.8</ele>
    <time>2023-05-23T19:01:30Z</time>
   </trkpt>
   <trkpt lat="39.5732770" lon="-104.8563890">
    <ele>1761.8</ele>
    <time>2023-05-23T19:01:31Z</time>
   </trkpt>
   <trkpt lat="39.5732850" lon="-104.8563880">
    <ele>1761.8</ele>
    <time>2023-05-23T19:01:32Z</time>
   </trkpt>
   <trkpt lat="39.5732940" lon="-104.8563880">
    <ele>1761.8</ele>
    <time>2023-05-23T19:01:33Z</time>
   </trkpt>
   <trkpt lat="39.5733060" lon="-104.8563890">
    <ele>1761.7</ele>
    <time>2023-05-23T19:01:34Z</time>
   </trkpt>
   <trkpt lat="39.5733180" lon="-104.8563900">
    <ele>1761.7</ele>
    <time>2023-05-23T19:01:35Z</time>
   </trkpt>
   <trkpt lat="39.5733300" lon="-104.8563930">
    <ele>1761.7</ele>
    <time>2023-05-23T19:01:36Z</time>
   </trkpt>
   <trkpt lat="39.5733500" lon="-104.8563950">
    <ele>1761.6</ele>
    <time>2023-05-23T19:01:37Z</time>
   </trkpt>
   <trkpt lat="39.5733590" lon="-104.8563950">
    <ele>1761.6</ele>
    <time>2023-05-23T19:01:38Z</time>
   </trkpt>
   <trkpt lat="39.5733680" lon="-104.8563950">
    <ele>1761.6</ele>
    <time>2023-05-23T19:01:39Z</time>
   </trkpt>
   <trkpt lat="39.5733840" lon="-104.8564020">
    <ele>1761.6</ele>
    <time>2023-05-23T19:01:40Z</time>
   </trkpt>
   <trkpt lat="39.5733980" lon="-104.8564090">
    <ele>1761.5</ele>
    <time>2023-05-23T19:01:41Z</time>
   </trkpt>
   <trkpt lat="39.5734110" lon="-104.8564150">
    <ele>1761.5</ele>
    <time>2023-05-23T19:01:42Z</time>
   </trkpt>
   <trkpt lat="39.5734260" lon="-104.8564170">
    <ele>1761.5</ele>
    <time>2023-05-23T19:01:43Z</time>
   </trkpt>
   <trkpt lat="39.5734430" lon="-104.8564110">
    <ele>1761.5</ele>
    <time>2023-05-23T19:01:44Z</time>
   </trkpt>
   <trkpt lat="39.5734570" lon="-104.8564070">
    <ele>1761.4</ele>
    <time>2023-05-23T19:01:45Z</time>
   </trkpt>
   <trkpt lat="39.5734720" lon="-104.8564010">
    <ele>1761.4</ele>
    <time>2023-05-23T19:01:46Z</time>
   </trkpt>
   <trkpt lat="39.5734870" lon="-104.8563960">
    <ele>1761.4</ele>
    <time>2023-05-23T19:01:47Z</time>
   </trkpt>
   <trkpt lat="39.5735020" lon="-104.8563920">
    <ele>1761.3</ele>
    <time>2023-05-23T19:01:48Z</time>
   </trkpt>
   <trkpt lat="39.5735180" lon="-104.8563940">
    <ele>1761.3</ele>
    <time>2023-05-23T19:01:49Z</time>
   </trkpt>
   <trkpt lat="39.5735330" lon="-104.8563930">
    <ele>1761.3</ele>
    <time>2023-05-23T19:01:50Z</time>
   </trkpt>
   <trkpt lat="39.5735460" lon="-104.8563890">
    <ele>1761.2</ele>
    <time>2023-05-23T19:01:51Z</time>
   </trkpt>
   <trkpt lat="39.5735590" lon="-104.8563850">
    <ele>1761.2</ele>
    <time>2023-05-23T19:01:52Z</time>
   </trkpt>
   <trkpt lat="39.5735740" lon="-104.8563870">
    <ele>1761.2</ele>
    <time>2023-05-23T19:01:53Z</time>
   </trkpt>
   <trkpt lat="39.5735890" lon="-104.8563870">
    <ele>1761.1</ele>
    <time>2023-05-23T19:01:54Z</time>
   </trkpt>
   <trkpt lat="39.5736030" lon="-104.8563870">
    <ele>1761.1</ele>
    <time>2023-05-23T19:01:55Z</time>
   </trkpt>
   <trkpt lat="39.5736180" lon="-104.8563860">
    <ele>1761.1</ele>
    <time>2023-05-23T19:01:56Z</time>
   </trkpt>
   <trkpt lat="39.5736330" lon="-104.8563920">
    <ele>1761.0</ele>
    <time>2023-05-23T19:01:57Z</time>
   </trkpt>
   <trkpt lat="39.5736470" lon="-104.8563950">
    <ele>1761.0</ele>
    <time>2023-05-23T19:01:58Z</time>
   </trkpt>
   <trkpt lat="39.5736610" lon="-104.8564000">
    <ele>1761.0</ele>
    <time>2023-05-23T19:01:59Z</time>
   </trkpt>
   <trkpt lat="39.5736760" lon="-104.8564000">
    <ele>1760.9</ele>
    <time>2023-05-23T19:02:00Z</time>
   </trkpt>
   <trkpt lat="39.5736900" lon="-104.8564020">
    <ele>1760.9</ele>
    <time>2023-05-23T19:02:01Z</time>
   </trkpt>
   <trkpt lat="39.5737040" lon="-104.8564050">
    <ele>1760.8</ele>
    <time>2023-05-23T19:02:02Z</time>
   </trkpt>
   <trkpt lat="39.5737180" lon="-104.8564030">
    <ele>1760.8</ele>
    <time>2023-05-23T19:02:03Z</time>
   </trkpt>
   <trkpt lat="39.5737390" lon="-104.8564040">
    <ele>1760.7</ele>
    <time>2023-05-23T19:02:04Z</time>
   </trkpt>
   <trkpt lat="39.5737480" lon="-104.8564050">
    <ele>1760.7</ele>
    <time>2023-05-23T19:02:05Z</time>
   </trkpt>
   <trkpt lat="39.5737580" lon="-104.8564050">
    <ele>1760.7</ele>
    <time>2023-05-23T19:02:06Z</time>
   </trkpt>
   <trkpt lat="39.5737700" lon="-104.8564050">
    <ele>1760.7</ele>
    <time>2023-05-23T19:02:07Z</time>
   </trkpt>
   <trkpt lat="39.5737850" lon="-104.8564050">
    <ele>1760.6</ele>
    <time>2023-05-23T19:02:08Z</time>
   </trkpt>
   <trkpt lat="39.5738060" lon="-104.8564070">
    <ele>1760.6</ele>
    <time>2023-05-23T19:02:09Z</time>
   </trkpt>
   <trkpt lat="39.5738150" lon="-104.8564090">
    <ele>1760.5</ele>
    <time>2023-05-23T19:02:10Z</time>
   </trkpt>
   <trkpt lat="39.5738230" lon="-104.8564110">
    <ele>1760.5</ele>
    <time>2023-05-23T19:02:11Z</time>
   </trkpt>
   <trkpt lat="39.5738390" lon="-104.8564100">
    <ele>1760.5</ele>
    <time>2023-05-23T19:02:12Z</time>
   </trkpt>
   <trkpt lat="39.5738530" lon="-104.8564160">
    <ele>1760.4</ele>
    <time>2023-05-23T19:02:13Z</time>
   </trkpt>
   <trkpt lat="39.5738700" lon="-104.8564230">
    <ele>1760.4</ele>
    <time>2023-05-23T19:02:14Z</time>
   </trkpt>
   <trkpt lat="39.5738840" lon="-104.8564270">
    <ele>1760.4</ele>
    <time>2023-05-23T19:02:15Z</time>
   </trkpt>
   <trkpt lat="39.5738990" lon="-104.8564320">
    <ele>1760.3</ele>
    <time>2023-05-23T19:02:16Z</time>
   </trkpt>
   <trkpt lat="39.5739130" lon="-104.8564330">
    <ele>1760.3</ele>
    <time>2023-05-23T19:02:17Z</time>
   </trkpt>
   <trkpt lat="39.5739260" lon="-104.8564380">
    <ele>1760.3</ele>
    <time>2023-05-23T19:02:18Z</time>
   </trkpt>
   <trkpt lat="39.5739390" lon="-104.8564440">
    <ele>1760.2</ele>
    <time>2023-05-23T19:02:19Z</time>
   </trkpt>
   <trkpt lat="39.5739600" lon="-104.8564550">
    <ele>1760.2</ele>
    <time>2023-05-23T19:02:20Z</time>
   </trkpt>
   <trkpt lat="39.5739680" lon="-104.8564590">
    <ele>1760.2</ele>
    <time>2023-05-23T19:02:21Z</time>
   </trkpt>
   <trkpt lat="39.5739760" lon="-104.8564640">
    <ele>1760.1</ele>
    <time>2023-05-23T19:02:22Z</time>
   </trkpt>
   <trkpt lat="39.5739900" lon="-104.8564690">
    <ele>1760.1</ele>
    <time>2023-05-23T19:02:23Z</time>
   </trkpt>
   <trkpt lat="39.5740070" lon="-104.8564690">
    <ele>1760.1</ele>
    <time>2023-05-23T19:02:24Z</time>
   </trkpt>
   <trkpt lat="39.5740350" lon="-104.8564690">
    <ele>1760.0</ele>
    <time>2023-05-23T19:02:25Z</time>
   </trkpt>
   <trkpt lat="39.5740450" lon="-104.8564750">
    <ele>1759.9</ele>
    <time>2023-05-23T19:02:26Z</time>
   </trkpt>
   <trkpt lat="39.5740710" lon="-104.8564980">
    <ele>1759.9</ele>
    <time>2023-05-23T19:02:27Z</time>
   </trkpt>
   <trkpt lat="39.5740790" lon="-104.8565060">
    <ele>1759.9</ele>
    <time>2023-05-23T19:02:28Z</time>
   </trkpt>
   <trkpt lat="39.5740890" lon="-104.8565230">
    <ele>1759.8</ele>
    <time>2023-05-23T19:02:29Z</time>
   </trkpt>
   <trkpt lat="39.5741000" lon="-104.8565380">
    <ele>1759.8</ele>
    <time>2023-05-23T19:02:30Z</time>
   </trkpt>
   <trkpt lat="39.5741150" lon="-104.8565460">
    <ele>1759.8</ele>
    <time>2023-05-23T19:02:31Z</time>
   </trkpt>
   <trkpt lat="39.5741300" lon="-104.8565550">
    <ele>1759.7</ele>
    <time>2023-05-23T19:02:32Z</time>
   </trkpt>
   <trkpt lat="39.5741480" lon="-104.8565620">
    <ele>1759.7</ele>
    <time>2023-05-23T19:02:33Z</time>
   </trkpt>
   <trkpt lat="39.5741620" lon="-104.8565690">
    <ele>1759.7</ele>
    <time>2023-05-23T19:02:34Z</time>
   </trkpt>
   <trkpt lat="39.5741750" lon="-104.8565790">
    <ele>1759.7</ele>
    <time>2023-05-23T19:02:35Z</time>
   </trkpt>
   <trkpt lat="39.5741900" lon="-104.8565830">
    <ele>1759.6</ele>
    <time>2023-05-23T19:02:36Z</time>
   </trkpt>
   <trkpt lat="39.5742050" lon="-104.8566060">
    <ele>1759.6</ele>
    <time>2023-05-23T19:02:37Z</time>
   </trkpt>
   <trkpt lat="39.5742120" lon="-104.8566130">
    <ele>1759.6</ele>
    <time>2023-05-23T19:02:38Z</time>
   </trkpt>
   <trkpt lat="39.5742180" lon="-104.8566200">
    <ele>1759.5</ele>
    <time>2023-05-23T19:02:39Z</time>
   </trkpt>
   <trkpt lat="39.5742340" lon="-104.8566380">
    <ele>1759.5</ele>
    <time>2023-05-23T19:02:40Z</time>
   </trkpt>
   <trkpt lat="39.5742410" lon="-104.8566440">
    <ele>1759.5</ele>
    <time>2023-05-23T19:02:41Z</time>
   </trkpt>
   <trkpt lat="39.5742490" lon="-104.8566490">
    <ele>1759.5</ele>
    <time>2023-05-23T19:02:42Z</time>
   </trkpt>
   <trkpt lat="39.5742640" lon="-104.8566670">
    <ele>1759.4</ele>
    <time>2023-05-23T19:02:43Z</time>
   </trkpt>
   <trkpt lat="39.5742710" lon="-104.8566740">
    <ele>1759.4</ele>
    <time>2023-05-23T19:02:44Z</time>
   </trkpt>
   <trkpt lat="39.5742770" lon="-104.8566810">
    <ele>1759.4</ele>
    <time>2023-05-23T19:02:45Z</time>
   </trkpt>
   <trkpt lat="39.5742950" lon="-104.8566950">
    <ele>1759.4</ele>
    <time>2023-05-23T19:02:46Z</time>
   </trkpt>
   <trkpt lat="39.5743020" lon="-104.8567000">
    <ele>1759.3</ele>
    <time>2023-05-23T19:02:47Z</time>
   </trkpt>
   <trkpt lat="39.5743080" lon="-104.8567050">
    <ele>1759.3</ele>
    <time>2023-05-23T19:02:48Z</time>
   </trkpt>
   <trkpt lat="39.5743210" lon="-104.8567290">
    <ele>1759.3</ele>
    <time>2023-05-23T19:02:49Z</time>
   </trkpt>
   <trkpt lat="39.5743270" lon="-104.8567400">
    <ele>1759.2</ele>
    <time>2023-05-23T19:02:50Z</time>
   </trkpt>
   <trkpt lat="39.5743330" lon="-104.8567520">
    <ele>1759.2</ele>
    <time>2023-05-23T19:02:51Z</time>
   </trkpt>
   <trkpt lat="39.5743370" lon="-104.8567690">
    <ele>1759.2</ele>
    <time>2023-05-23T19:02:52Z</time>
   </trkpt>
   <trkpt lat="39.5743420" lon="-104.8567880">
    <ele>1759.2</ele>
    <time>2023-05-23T19:02:53Z</time>
   </trkpt>
   <trkpt lat="39.5743470" lon="-104.8568040">
    <ele>1759.1</ele>
    <time>2023-05-23T19:02:54Z</time>
   </trkpt>
   <trkpt lat="39.5743460" lon="-104.8568270">
    <ele>1759.1</ele>
    <time>2023-05-23T19:02:55Z</time>
   </trkpt>
   <trkpt lat="39.5743350" lon="-104.8568420">
    <ele>1759.0</ele>
    <time>2023-05-23T19:02:56Z</time>
   </trkpt>
   <trkpt lat="39.5743220" lon="-104.8568570">
    <ele>1759.0</ele>
    <time>2023-05-23T19:02:57Z</time>
   </trkpt>
   <trkpt lat="39.5743050" lon="-104.8568710">
    <ele>1759.0</ele>
    <time>2023-05-23T19:02:58Z</time>
   </trkpt>
   <trkpt lat="39.5742950" lon="-104.8568730">
    <ele>1758.9</ele>
    <time>2023-05-23T19:02:59Z</time>
   </trkpt>
   <trkpt lat="39.5742850" lon="-104.8568740">
    <ele>1758.9</ele>
    <time>2023-05-23T19:03:00Z</time>
   </trkpt>
   <trkpt lat="39.5742670" lon="-104.8568850">
    <ele>1758.7</ele>
    <time>2023-05-23T19:03:01Z</time>
   </trkpt>
   <trkpt lat="39.5742630" lon="-104.8568940">
    <ele>1758.7</ele>
    <time>2023-05-23T19:03:02Z</time>
   </trkpt>
   <trkpt lat="39.5742590" lon="-104.8569030">
    <ele>1758.7</ele>
    <time>2023-05-23T19:03:03Z</time>
   </trkpt>
   <trkpt lat="39.5742550" lon="-104.8569110">
    <ele>1758.7</ele>
    <time>2023-05-23T19:03:04Z</time>
   </trkpt>
   <trkpt lat="39.5742460" lon="-104.8569290">
    <ele>1758.7</ele>
    <time>2023-05-23T19:03:05Z</time>
   </trkpt>
   <trkpt lat="39.5742360" lon="-104.8569390">
    <ele>1758.7</ele>
    <time>2023-05-23T19:03:06Z</time>
   </trkpt>
   <trkpt lat="39.5742260" lon="-104.8569430">
    <ele>1758.7</ele>
    <time>2023-05-23T19:03:07Z</time>
   </trkpt>
   <trkpt lat="39.5742200" lon="-104.8569380">
    <ele>1758.7</ele>
    <time>2023-05-23T19:03:08Z</time>
   </trkpt>
   <trkpt lat="39.5742220" lon="-104.8569350">
    <ele>1758.7</ele>
    <time>2023-05-23T19:03:09Z</time>
   </trkpt>
   <trkpt lat="39.5742210" lon="-104.8569280">
    <ele>1758.7</ele>
    <time>2023-05-23T19:03:10Z</time>
   </trkpt>
   <trkpt lat="39.5742170" lon="-104.8569240">
    <ele>1758.7</ele>
    <time>2023-05-23T19:03:11Z</time>
   </trkpt>
   <trkpt lat="39.5742260" lon="-104.8569260">
    <ele>1758.7</ele>
    <time>2023-05-23T19:03:12Z</time>
   </trkpt>
   <trkpt lat="39.5742240" lon="-104.8569210">
    <ele>1758.7</ele>
    <time>2023-05-23T19:03:13Z</time>
   </trkpt>
  </trkseg>
 </trk>
</gpx>
