<?xml version="1.0" encoding="UTF-8"?>
<gpx creator="StravaGPX" version="1.1" xmlns="http://www.topografix.com/GPX/1/1" xmlns:xsi="http://www.w3.org/2001/XMLSchema-instance" xsi:schemaLocation="http://www.topografix.com/GPX/1/1 http://www.topografix.com/GPX/1/1/gpx.xsd">
 <metadata>
  <time>2023-08-11T00:27:16Z</time>
 </metadata>
 <trk>
  <name>Hottttt out 🏃</name>
  <type>running</type>
  <trkseg>
   <trkpt lat="39.6827150" lon="-104.9598900">
    <ele>1631.3</ele>
    <time>2023-08-11T00:27:16Z</time>
   </trkpt>
   <trkpt lat="39.6827280" lon="-104.9599340">
    <ele>1631.2</ele>
    <time>2023-08-11T00:27:17Z</time>
   </trkpt>
   <trkpt lat="39.6827320" lon="-104.9599480">
    <ele>1631.2</ele>
    <time>2023-08-11T00:27:18Z</time>
   </trkpt>
   <trkpt lat="39.6827390" lon="-104.9599860">
    <ele>1631.2</ele>
    <time>2023-08-11T00:27:19Z</time>
   </trkpt>
   <trkpt lat="39.6827420" lon="-104.9600310">
    <ele>1631.1</ele>
    <time>2023-08-11T00:27:20Z</time>
   </trkpt>
   <trkpt lat="39.6827450" lon="-104.9600500">
    <ele>1631.1</ele>
    <time>2023-08-11T00:27:21Z</time>
   </trkpt>
   <trkpt lat="39.6827460" lon="-104.9600920">
    <ele>1631.0</ele>
    <time>2023-08-11T00:27:22Z</time>
   </trkpt>
   <trkpt lat="39.6827460" lon="-104.9601350">
    <ele>1631.0</ele>
    <time>2023-08-11T00:27:23Z</time>
   </trkpt>
   <trkpt lat="39.6827470" lon="-104.9601760">
    <ele>1631.0</ele>
    <time>2023-08-11T00:27:24Z</time>
   </trkpt>
   <trkpt lat="39.6827490" lon="-104.9602150">
    <ele>1630.9</ele>
    <time>2023-08-11T00:27:25Z</time>
   </trkpt>
   <trkpt lat="39.6827550" lon="-104.9602520">
    <ele>1630.9</ele>
    <time>2023-08-11T00:27:26Z</time>
   </trkpt>
   <trkpt lat="39.6827620" lon="-104.9602900">
    <ele>1630.9</ele>
    <time>2023-08-11T00:27:27Z</time>
   </trkpt>
   <trkpt lat="39.6827670" lon="-104.9603270">
    <ele>1630.9</ele>
    <time>2023-08-11T00:27:28Z</time>
   </trkpt>
   <trkpt lat="39.6827760" lon="-104.9603670">
    <ele>1630.8</ele>
    <time>2023-08-11T00:27:29Z</time>
   </trkpt>
   <trkpt lat="39.6827860" lon="-104.9604080">
    <ele>1630.8</ele>
    <time>2023-08-11T00:27:30Z</time>
   </trkpt>
   <trkpt lat="39.6828000" lon="-104.9604430">
    <ele>1630.7</ele>
    <time>2023-08-11T00:27:31Z</time>
   </trkpt>
   <trkpt lat="39.6828120" lon="-104.9604880">
    <ele>1630.7</ele>
    <time>2023-08-11T00:27:32Z</time>
   </trkpt>
   <trkpt lat="39.6828250" lon="-104.9605340">
    <ele>1630.6</ele>
    <time>2023-08-11T00:27:33Z</time>
   </trkpt>
   <trkpt lat="39.6828320" lon="-104.9605780">
    <ele>1630.6</ele>
    <time>2023-08-11T00:27:34Z</time>
   </trkpt>
   <trkpt lat="39.6828400" lon="-104.9606220">
    <ele>1630.5</ele>
    <time>2023-08-11T00:27:35Z</time>
   </trkpt>
   <trkpt lat="39.6828460" lon="-104.9606640">
    <ele>1630.5</ele>
    <time>2023-08-11T00:27:36Z</time>
   </trkpt>
   <trkpt lat="39.6828520" lon="-104.9607070">
    <ele>1630.4</ele>
    <time>2023-08-11T00:27:37Z</time>
   </trkpt>
   <trkpt lat="39.6828580" lon="-104.9607490">
    <ele>1630.4</ele>
    <time>2023-08-11T00:27:38Z</time>
   </trkpt>
   <trkpt lat="39.6828660" lon="-104.9607910">
    <ele>1630.4</ele>
    <time>2023-08-11T00:27:39Z</time>
   </trkpt>
   <trkpt lat="39.6828790" lon="-104.9608220">
    <ele>1630.3</ele>
    <time>2023-08-11T00:27:40Z</time>
   </trkpt>
   <trkpt lat="39.6828840" lon="-104.9608640">
    <ele>1630.3</ele>
    <time>2023-08-11T00:27:41Z</time>
   </trkpt>
   <trkpt lat="39.6828960" lon="-104.9609030">
    <ele>1630.2</ele>
    <time>2023-08-11T00:27:42Z</time>
   </trkpt>
   <trkpt lat="39.6829080" lon="-104.9609470">
    <ele>1630.2</ele>
    <time>2023-08-11T00:27:43Z</time>
   </trkpt>
   <trkpt lat="39.6829220" lon="-104.9609800">
    <ele>1630.1</ele>
    <time>2023-08-11T00:27:44Z</time>
   </trkpt>
   <trkpt lat="39.6829100" lon="-104.9610310">
    <ele>1630.0</ele>
    <time>2023-08-11T00:27:45Z</time>
   </trkpt>
   <trkpt lat="39.6829410" lon="-104.9610700">
    <ele>1630.0</ele>
    <time>2023-08-11T00:27:46Z</time>
   </trkpt>
   <trkpt lat="39.6829600" lon="-104.9611350">
    <ele>1629.9</ele>
    <time>2023-08-11T00:27:47Z</time>
   </trkpt>
   <trkpt lat="39.6829620" lon="-104.9611720">
    <ele>1629.8</ele>
    <time>2023-08-11T00:27:48Z</time>
   </trkpt>
   <trkpt lat="39.6829830" lon="-104.9612010">
    <ele>1629.7</ele>
    <time>2023-08-11T00:27:49Z</time>
   </trkpt>
   <trkpt lat="39.6829850" lon="-104.9612650">
    <ele>1629.7</ele>
    <time>2023-08-11T00:27:50Z</time>
   </trkpt>
   <trkpt lat="39.6829860" lon="-104.9612990">
    <ele>1629.6</ele>
    <time>2023-08-11T00:27:51Z</time>
   </trkpt>
   <trkpt lat="39.6830040" lon="-104.9613290">
    <ele>1629.5</ele>
    <time>2023-08-11T00:27:52Z</time>
   </trkpt>
   <trkpt lat="39.6830100" lon="-104.9613750">
    <ele>1629.5</ele>
    <time>2023-08-11T00:27:53Z</time>
   </trkpt>
   <trkpt lat="39.6830140" lon="-104.9613960">
    <ele>1629.4</ele>
    <time>2023-08-11T00:27:54Z</time>
   </trkpt>
   <trkpt lat="39.6830360" lon="-104.9614370">
    <ele>1629.4</ele>
    <time>2023-08-11T00:27:55Z</time>
   </trkpt>
   <trkpt lat="39.6830420" lon="-104.9615000">
    <ele>1629.3</ele>
    <time>2023-08-11T00:27:56Z</time>
   </trkpt>
   <trkpt lat="39.6830480" lon="-104.9615410">
    <ele>1629.2</ele>
    <time>2023-08-11T00:27:57Z</time>
   </trkpt>
   <trkpt lat="39.6830590" lon="-104.9615840">
    <ele>1629.2</ele>
    <time>2023-08-11T00:27:58Z</time>
   </trkpt>
   <trkpt lat="39.6830690" lon="-104.9616270">
    <ele>1629.1</ele>
    <time>2023-08-11T00:27:59Z</time>
   </trkpt>
   <trkpt lat="39.6830890" lon="-104.9616770">
    <ele>1629.0</ele>
    <time>2023-08-11T00:28:00Z</time>
   </trkpt>
   <trkpt lat="39.6831000" lon="-104.9617040">
    <ele>1629.0</ele>
    <time>2023-08-11T00:28:01Z</time>
   </trkpt>
   <trkpt lat="39.6831130" lon="-104.9617380">
    <ele>1629.0</ele>
    <time>2023-08-11T00:28:02Z</time>
   </trkpt>
   <trkpt lat="39.6831290" lon="-104.9617760">
    <ele>1629.0</ele>
    <time>2023-08-11T00:28:03Z</time>
   </trkpt>
   <trkpt lat="39.6831290" lon="-104.9618250">
    <ele>1628.9</ele>
    <time>2023-08-11T00:28:04Z</time>
   </trkpt>
   <trkpt lat="39.6831410" lon="-104.9618570">
    <ele>1628.9</ele>
    <time>2023-08-11T00:28:05Z</time>
   </trkpt>
   <trkpt lat="39.6831620" lon="-104.9619070">
    <ele>1628.9</ele>
    <time>2023-08-11T00:28:06Z</time>
   </trkpt>
   <trkpt lat="39.6831700" lon="-104.9619590">
    <ele>1628.8</ele>
    <time>2023-08-11T00:28:07Z</time>
   </trkpt>
   <trkpt lat="39.6831870" lon="-104.9619900">
    <ele>1628.8</ele>
    <time>2023-08-11T00:28:08Z</time>
   </trkpt>
   <trkpt lat="39.6832080" lon="-104.9620290">
    <ele>1628.7</ele>
    <time>2023-08-11T00:28:09Z</time>
   </trkpt>
   <trkpt lat="39.6832160" lon="-104.9620420">
    <ele>1628.7</ele>
    <time>2023-08-11T00:28:10Z</time>
   </trkpt>
   <trkpt lat="39.6832280" lon="-104.9620840">
    <ele>1628.7</ele>
    <time>2023-08-11T00:28:11Z</time>
   </trkpt>
   <trkpt lat="39.6832440" lon="-104.9621450">
    <ele>1628.6</ele>
    <time>2023-08-11T00:28:12Z</time>
   </trkpt>
   <trkpt lat="39.6832660" lon="-104.9621760">
    <ele>1628.5</ele>
    <time>2023-08-11T00:28:13Z</time>
   </trkpt>
   <trkpt lat="39.6832740" lon="-104.9622300">
    <ele>1628.5</ele>
    <time>2023-08-11T00:28:14Z</time>
   </trkpt>
   <trkpt lat="39.6832790" lon="-104.9622700">
    <ele>1628.4</ele>
    <time>2023-08-11T00:28:15Z</time>
   </trkpt>
   <trkpt lat="39.6832930" lon="-104.9623250">
    <ele>1628.4</ele>
    <time>2023-08-11T00:28:16Z</time>
   </trkpt>
   <trkpt lat="39.6833040" lon="-104.9623510">
    <ele>1628.3</ele>
    <time>2023-08-11T00:28:17Z</time>
   </trkpt>
   <trkpt lat="39.6833110" lon="-104.9623880">
    <ele>1628.3</ele>
    <time>2023-08-11T00:28:18Z</time>
   </trkpt>
   <trkpt lat="39.6833310" lon="-104.9624260">
    <ele>1628.2</ele>
    <time>2023-08-11T00:28:19Z</time>
   </trkpt>
   <trkpt lat="39.6833480" lon="-104.9624650">
    <ele>1628.1</ele>
    <time>2023-08-11T00:28:20Z</time>
   </trkpt>
   <trkpt lat="39.6833680" lon="-104.9624970">
    <ele>1628.1</ele>
    <time>2023-08-11T00:28:21Z</time>
   </trkpt>
   <trkpt lat="39.6833790" lon="-104.9625480">
    <ele>1628.0</ele>
    <time>2023-08-11T00:28:22Z</time>
   </trkpt>
   <trkpt lat="39.6833920" lon="-104.9625870">
    <ele>1628.0</ele>
    <time>2023-08-11T00:28:23Z</time>
   </trkpt>
   <trkpt lat="39.6833970" lon="-104.9626010">
    <ele>1628.0</ele>
    <time>2023-08-11T00:28:24Z</time>
   </trkpt>
   <trkpt lat="39.6834120" lon="-104.9626480">
    <ele>1627.9</ele>
    <time>2023-08-11T00:28:25Z</time>
   </trkpt>
   <trkpt lat="39.6834190" lon="-104.9626880">
    <ele>1627.9</ele>
    <time>2023-08-11T00:28:26Z</time>
   </trkpt>
   <trkpt lat="39.6834390" lon="-104.9627210">
    <ele>1627.8</ele>
    <time>2023-08-11T00:28:27Z</time>
   </trkpt>
   <trkpt lat="39.6834490" lon="-104.9627640">
    <ele>1627.7</ele>
    <time>2023-08-11T00:28:28Z</time>
   </trkpt>
   <trkpt lat="39.6834690" lon="-104.9627900">
    <ele>1627.7</ele>
    <time>2023-08-11T00:28:29Z</time>
   </trkpt>
   <trkpt lat="39.6834800" lon="-104.9628260">
    <ele>1627.6</ele>
    <time>2023-08-11T00:28:30Z</time>
   </trkpt>
   <trkpt lat="39.6834900" lon="-104.9628670">
    <ele>1627.6</ele>
    <time>2023-08-11T00:28:31Z</time>
   </trkpt>
   <trkpt lat="39.6835010" lon="-104.9629030">
    <ele>1627.5</ele>
    <time>2023-08-11T00:28:32Z</time>
   </trkpt>
   <trkpt lat="39.6835350" lon="-104.9629560">
    <ele>1627.4</ele>
    <time>2023-08-11T00:28:33Z</time>
   </trkpt>
   <trkpt lat="39.6835340" lon="-104.9629970">
    <ele>1627.4</ele>
    <time>2023-08-11T00:28:34Z</time>
   </trkpt>
   <trkpt lat="39.6835500" lon="-104.9630300">
    <ele>1627.3</ele>
    <time>2023-08-11T00:28:35Z</time>
   </trkpt>
   <trkpt lat="39.6835580" lon="-104.9630700">
    <ele>1627.2</ele>
    <time>2023-08-11T00:28:36Z</time>
   </trkpt>
   <trkpt lat="39.6835840" lon="-104.9631050">
    <ele>1627.2</ele>
    <time>2023-08-11T00:28:37Z</time>
   </trkpt>
   <trkpt lat="39.6836050" lon="-104.9631360">
    <ele>1627.1</ele>
    <time>2023-08-11T00:28:38Z</time>
   </trkpt>
   <trkpt lat="39.6836110" lon="-104.9631940">
    <ele>1627.0</ele>
    <time>2023-08-11T00:28:39Z</time>
   </trkpt>
   <trkpt lat="39.6836280" lon="-104.9632360">
    <ele>1627.0</ele>
    <time>2023-08-11T00:28:40Z</time>
   </trkpt>
   <trkpt lat="39.6836470" lon="-104.9632650">
    <ele>1626.9</ele>
    <time>2023-08-11T00:28:41Z</time>
   </trkpt>
   <trkpt lat="39.6836740" lon="-104.9632950">
    <ele>1626.9</ele>
    <time>2023-08-11T00:28:42Z</time>
   </trkpt>
   <trkpt lat="39.6836950" lon="-104.9633370">
    <ele>1626.8</ele>
    <time>2023-08-11T00:28:43Z</time>
   </trkpt>
   <trkpt lat="39.6837100" lon="-104.9633820">
    <ele>1626.7</ele>
    <time>2023-08-11T00:28:44Z</time>
   </trkpt>
   <trkpt lat="39.6837240" lon="-104.9634250">
    <ele>1626.7</ele>
    <time>2023-08-11T00:28:45Z</time>
   </trkpt>
   <trkpt lat="39.6837350" lon="-104.9634390">
    <ele>1626.7</ele>
    <time>2023-08-11T00:28:46Z</time>
   </trkpt>
   <trkpt lat="39.6837500" lon="-104.9634780">
    <ele>1626.6</ele>
    <time>2023-08-11T00:28:47Z</time>
   </trkpt>
   <trkpt lat="39.6837690" lon="-104.9635160">
    <ele>1626.6</ele>
    <time>2023-08-11T00:28:48Z</time>
   </trkpt>
   <trkpt lat="39.6837900" lon="-104.9635450">
    <ele>1626.6</ele>
    <time>2023-08-11T00:28:49Z</time>
   </trkpt>
   <trkpt lat="39.6837950" lon="-104.9635800">
    <ele>1626.5</ele>
    <time>2023-08-11T00:28:50Z</time>
   </trkpt>
   <trkpt lat="39.6838190" lon="-104.9636230">
    <ele>1626.5</ele>
    <time>2023-08-11T00:28:51Z</time>
   </trkpt>
   <trkpt lat="39.6838300" lon="-104.9636400">
    <ele>1626.5</ele>
    <time>2023-08-11T00:28:52Z</time>
   </trkpt>
   <trkpt lat="39.6838510" lon="-104.9636870">
    <ele>1626.4</ele>
    <time>2023-08-11T00:28:53Z</time>
   </trkpt>
   <trkpt lat="39.6838730" lon="-104.9637270">
    <ele>1626.4</ele>
    <time>2023-08-11T00:28:54Z</time>
   </trkpt>
   <trkpt lat="39.6838880" lon="-104.9637740">
    <ele>1626.4</ele>
    <time>2023-08-11T00:28:55Z</time>
   </trkpt>
   <trkpt lat="39.6839120" lon="-104.9638120">
    <ele>1626.3</ele>
    <time>2023-08-11T00:28:56Z</time>
   </trkpt>
   <trkpt lat="39.6839240" lon="-104.9638220">
    <ele>1626.3</ele>
    <time>2023-08-11T00:28:57Z</time>
   </trkpt>
   <trkpt lat="39.6839380" lon="-104.9638610">
    <ele>1626.3</ele>
    <time>2023-08-11T00:28:58Z</time>
   </trkpt>
   <trkpt lat="39.6839570" lon="-104.9639000">
    <ele>1626.2</ele>
    <time>2023-08-11T00:28:59Z</time>
   </trkpt>
   <trkpt lat="39.6839860" lon="-104.9639440">
    <ele>1626.2</ele>
    <time>2023-08-11T00:29:00Z</time>
   </trkpt>
   <trkpt lat="39.6840010" lon="-104.9639820">
    <ele>1626.2</ele>
    <time>2023-08-11T00:29:01Z</time>
   </trkpt>
   <trkpt lat="39.6840130" lon="-104.9639960">
    <ele>1626.2</ele>
    <time>2023-08-11T00:29:02Z</time>
   </trkpt>
   <trkpt lat="39.6840280" lon="-104.9640430">
    <ele>1626.1</ele>
    <time>2023-08-11T00:29:03Z</time>
   </trkpt>
   <trkpt lat="39.6840520" lon="-104.9640880">
    <ele>1626.1</ele>
    <time>2023-08-11T00:29:04Z</time>
   </trkpt>
   <trkpt lat="39.6840650" lon="-104.9641030">
    <ele>1626.1</ele>
    <time>2023-08-11T00:29:05Z</time>
   </trkpt>
   <trkpt lat="39.6840970" lon="-104.9641480">
    <ele>1626.0</ele>
    <time>2023-08-11T00:29:06Z</time>
   </trkpt>
   <trkpt lat="39.6841110" lon="-104.9641690">
    <ele>1626.0</ele>
    <time>2023-08-11T00:29:07Z</time>
   </trkpt>
   <trkpt lat="39.6841320" lon="-104.9642280">
    <ele>1626.0</ele>
    <time>2023-08-11T00:29:08Z</time>
   </trkpt>
   <trkpt lat="39.6841610" lon="-104.9642640">
    <ele>1626.0</ele>
    <time>2023-08-11T00:29:09Z</time>
   </trkpt>
   <trkpt lat="39.6841760" lon="-104.9642810">
    <ele>1626.0</ele>
    <time>2023-08-11T00:29:10Z</time>
   </trkpt>
   <trkpt lat="39.6841940" lon="-104.9643170">
    <ele>1625.9</ele>
    <time>2023-08-11T00:29:11Z</time>
   </trkpt>
   <trkpt lat="39.6842080" lon="-104.9643540">
    <ele>1625.9</ele>
    <time>2023-08-11T00:29:12Z</time>
   </trkpt>
   <trkpt lat="39.6842290" lon="-104.9643910">
    <ele>1625.9</ele>
    <time>2023-08-11T00:29:13Z</time>
   </trkpt>
   <trkpt lat="39.6842540" lon="-104.9644340">
    <ele>1625.9</ele>
    <time>2023-08-11T00:29:14Z</time>
   </trkpt>
   <trkpt lat="39.6842640" lon="-104.9644520">
    <ele>1625.9</ele>
    <time>2023-08-11T00:29:15Z</time>
   </trkpt>
   <trkpt lat="39.6842900" lon="-104.9644940">
    <ele>1625.9</ele>
    <time>2023-08-11T00:29:16Z</time>
   </trkpt>
   <trkpt lat="39.6843110" lon="-104.9645420">
    <ele>1625.9</ele>
    <time>2023-08-11T00:29:17Z</time>
   </trkpt>
   <trkpt lat="39.6843210" lon="-104.9645580">
    <ele>1625.8</ele>
    <time>2023-08-11T00:29:18Z</time>
   </trkpt>
   <trkpt lat="39.6843470" lon="-104.9645970">
    <ele>1625.8</ele>
    <time>2023-08-11T00:29:19Z</time>
   </trkpt>
   <trkpt lat="39.6843700" lon="-104.9646320">
    <ele>1625.8</ele>
    <time>2023-08-11T00:29:20Z</time>
   </trkpt>
   <trkpt lat="39.6843860" lon="-104.9646640">
    <ele>1625.8</ele>
    <time>2023-08-11T00:29:21Z</time>
   </trkpt>
   <trkpt lat="39.6843940" lon="-104.9647080">
    <ele>1625.8</ele>
    <time>2023-08-11T00:29:22Z</time>
   </trkpt>
   <trkpt lat="39.6844200" lon="-104.9647410">
    <ele>1625.8</ele>
    <time>2023-08-11T00:29:23Z</time>
   </trkpt>
   <trkpt lat="39.6844340" lon="-104.9647630">
    <ele>1625.8</ele>
    <time>2023-08-11T00:29:24Z</time>
   </trkpt>
   <trkpt lat="39.6844550" lon="-104.9647920">
    <ele>1625.7</ele>
    <time>2023-08-11T00:29:25Z</time>
   </trkpt>
   <trkpt lat="39.6844800" lon="-104.9648290">
    <ele>1625.7</ele>
    <time>2023-08-11T00:29:26Z</time>
   </trkpt>
   <trkpt lat="39.6844950" lon="-104.9648800">
    <ele>1625.7</ele>
    <time>2023-08-11T00:29:27Z</time>
   </trkpt>
   <trkpt lat="39.6845250" lon="-104.9649130">
    <ele>1625.7</ele>
    <time>2023-08-11T00:29:28Z</time>
   </trkpt>
   <trkpt lat="39.6845360" lon="-104.9649240">
    <ele>1625.7</ele>
    <time>2023-08-11T00:29:29Z</time>
   </trkpt>
   <trkpt lat="39.6845510" lon="-104.9649650">
    <ele>1625.6</ele>
    <time>2023-08-11T00:29:30Z</time>
   </trkpt>
   <trkpt lat="39.6845750" lon="-104.9649980">
    <ele>1625.6</ele>
    <time>2023-08-11T00:29:31Z</time>
   </trkpt>
   <trkpt lat="39.6845810" lon="-104.9650070">
    <ele>1625.6</ele>
    <time>2023-08-11T00:29:32Z</time>
   </trkpt>
   <trkpt lat="39.6846250" lon="-104.9650820">
    <ele>1625.6</ele>
    <time>2023-08-11T00:29:33Z</time>
   </trkpt>
   <trkpt lat="39.6846620" lon="-104.9651440">
    <ele>1625.5</ele>
    <time>2023-08-11T00:29:34Z</time>
   </trkpt>
   <trkpt lat="39.6846990" lon="-104.9652060">
    <ele>1625.5</ele>
    <time>2023-08-11T00:29:35Z</time>
   </trkpt>
   <trkpt lat="39.6847360" lon="-104.9652670">
    <ele>1625.4</ele>
    <time>2023-08-11T00:29:59Z</time>
   </trkpt>
   <trkpt lat="39.6847740" lon="-104.9653290">
    <ele>1625.4</ele>
    <time>2023-08-11T00:30:00Z</time>
   </trkpt>
   <trkpt lat="39.6848110" lon="-104.9653910">
    <ele>1625.4</ele>
    <time>2023-08-11T00:30:01Z</time>
   </trkpt>
   <trkpt lat="39.6848340" lon="-104.9654310">
    <ele>1625.4</ele>
    <time>2023-08-11T00:30:02Z</time>
   </trkpt>
   <trkpt lat="39.6848510" lon="-104.9654610">
    <ele>1625.4</ele>
    <time>2023-08-11T00:30:03Z</time>
   </trkpt>
   <trkpt lat="39.6848490" lon="-104.9654730">
    <ele>1625.3</ele>
    <time>2023-08-11T00:30:04Z</time>
   </trkpt>
   <trkpt lat="39.6848690" lon="-104.9655000">
    <ele>1625.3</ele>
    <time>2023-08-11T00:30:05Z</time>
   </trkpt>
   <trkpt lat="39.6848850" lon="-104.9655430">
    <ele>1625.3</ele>
    <time>2023-08-11T00:30:06Z</time>
   </trkpt>
   <trkpt lat="39.6849000" lon="-104.9655740">
    <ele>1625.3</ele>
    <time>2023-08-11T00:30:07Z</time>
   </trkpt>
   <trkpt lat="39.6849300" lon="-104.9656070">
    <ele>1625.3</ele>
    <time>2023-08-11T00:30:08Z</time>
   </trkpt>
   <trkpt lat="39.6849400" lon="-104.9656180">
    <ele>1625.2</ele>
    <time>2023-08-11T00:30:09Z</time>
   </trkpt>
   <trkpt lat="39.6849600" lon="-104.9656470">
    <ele>1625.2</ele>
    <time>2023-08-11T00:30:10Z</time>
   </trkpt>
   <trkpt lat="39.6849780" lon="-104.9656770">
    <ele>1625.2</ele>
    <time>2023-08-11T00:30:11Z</time>
   </trkpt>
   <trkpt lat="39.6850000" lon="-104.9657020">
    <ele>1625.2</ele>
    <time>2023-08-11T00:30:12Z</time>
   </trkpt>
   <trkpt lat="39.6850220" lon="-104.9657250">
    <ele>1625.1</ele>
    <time>2023-08-11T00:30:13Z</time>
   </trkpt>
   <trkpt lat="39.6850370" lon="-104.9657560">
    <ele>1625.1</ele>
    <time>2023-08-11T00:30:14Z</time>
   </trkpt>
   <trkpt lat="39.6850600" lon="-104.9657820">
    <ele>1625.1</ele>
    <time>2023-08-11T00:30:15Z</time>
   </trkpt>
   <trkpt lat="39.6850770" lon="-104.9658180">
    <ele>1625.1</ele>
    <time>2023-08-11T00:30:16Z</time>
   </trkpt>
   <trkpt lat="39.6851000" lon="-104.9658650">
    <ele>1625.1</ele>
    <time>2023-08-11T00:30:17Z</time>
   </trkpt>
   <trkpt lat="39.6851150" lon="-104.9659130">
    <ele>1625.0</ele>
    <time>2023-08-11T00:30:18Z</time>
   </trkpt>
   <trkpt lat="39.6851410" lon="-104.9659500">
    <ele>1625.0</ele>
    <time>2023-08-11T00:30:19Z</time>
   </trkpt>
   <trkpt lat="39.6851570" lon="-104.9659850">
    <ele>1625.0</ele>
    <time>2023-08-11T00:30:20Z</time>
   </trkpt>
   <trkpt lat="39.6851740" lon="-104.9660170">
    <ele>1625.0</ele>
    <time>2023-08-11T00:30:21Z</time>
   </trkpt>
   <trkpt lat="39.6851940" lon="-104.9660540">
    <ele>1625.0</ele>
    <time>2023-08-11T00:30:22Z</time>
   </trkpt>
   <trkpt lat="39.6852140" lon="-104.9660780">
    <ele>1625.0</ele>
    <time>2023-08-11T00:30:23Z</time>
   </trkpt>
   <trkpt lat="39.6852390" lon="-104.9661140">
    <ele>1625.0</ele>
    <time>2023-08-11T00:30:24Z</time>
   </trkpt>
   <trkpt lat="39.6852650" lon="-104.9661500">
    <ele>1625.0</ele>
    <time>2023-08-11T00:30:25Z</time>
   </trkpt>
   <trkpt lat="39.6852850" lon="-104.9661910">
    <ele>1625.0</ele>
    <time>2023-08-11T00:30:26Z</time>
   </trkpt>
   <trkpt lat="39.6852980" lon="-104.9662270">
    <ele>1625.0</ele>
    <time>2023-08-11T00:30:27Z</time>
   </trkpt>
   <trkpt lat="39.6853190" lon="-104.9662570">
    <ele>1625.0</ele>
    <time>2023-08-11T00:30:28Z</time>
   </trkpt>
   <trkpt lat="39.6853410" lon="-104.9662930">
    <ele>1625.0</ele>
    <time>2023-08-11T00:30:29Z</time>
   </trkpt>
   <trkpt lat="39.6853650" lon="-104.9663220">
    <ele>1625.0</ele>
    <time>2023-08-11T00:30:30Z</time>
   </trkpt>
   <trkpt lat="39.6853860" lon="-104.9663650">
    <ele>1625.0</ele>
    <time>2023-08-11T00:30:31Z</time>
   </trkpt>
   <trkpt lat="39.6853950" lon="-104.9664080">
    <ele>1625.0</ele>
    <time>2023-08-11T00:30:32Z</time>
   </trkpt>
   <trkpt lat="39.6854160" lon="-104.9664440">
    <ele>1625.0</ele>
    <time>2023-08-11T00:30:33Z</time>
   </trkpt>
   <trkpt lat="39.6854440" lon="-104.9664610">
    <ele>1625.0</ele>
    <time>2023-08-11T00:30:34Z</time>
   </trkpt>
   <trkpt lat="39.6854710" lon="-104.9664780">
    <ele>1625.0</ele>
    <time>2023-08-11T00:30:35Z</time>
   </trkpt>
   <trkpt lat="39.6854960" lon="-104.9665030">
    <ele>1625.0</ele>
    <time>2023-08-11T00:30:36Z</time>
   </trkpt>
   <trkpt lat="39.6855030" lon="-104.9665190">
    <ele>1625.0</ele>
    <time>2023-08-11T00:30:37Z</time>
   </trkpt>
   <trkpt lat="39.6855210" lon="-104.9665590">
    <ele>1625.0</ele>
    <time>2023-08-11T00:30:38Z</time>
   </trkpt>
   <trkpt lat="39.6855390" lon="-104.9666000">
    <ele>1625.0</ele>
    <time>2023-08-11T00:30:39Z</time>
   </trkpt>
   <trkpt lat="39.6855550" lon="-104.9666310">
    <ele>1625.0</ele>
    <time>2023-08-11T00:30:40Z</time>
   </trkpt>
   <trkpt lat="39.6855690" lon="-104.9666630">
    <ele>1625.1</ele>
    <time>2023-08-11T00:30:41Z</time>
   </trkpt>
   <trkpt lat="39.6855840" lon="-104.9666970">
    <ele>1625.1</ele>
    <time>2023-08-11T00:30:42Z</time>
   </trkpt>
   <trkpt lat="39.6855910" lon="-104.9667330">
    <ele>1625.1</ele>
    <time>2023-08-11T00:30:43Z</time>
   </trkpt>
   <trkpt lat="39.6856070" lon="-104.9667690">
    <ele>1625.1</ele>
    <time>2023-08-11T00:30:44Z</time>
   </trkpt>
   <trkpt lat="39.6856210" lon="-104.9668120">
    <ele>1625.1</ele>
    <time>2023-08-11T00:30:45Z</time>
   </trkpt>
   <trkpt lat="39.6856270" lon="-104.9668310">
    <ele>1625.1</ele>
    <time>2023-08-11T00:30:46Z</time>
   </trkpt>
   <trkpt lat="39.6856370" lon="-104.9668680">
    <ele>1625.1</ele>
    <time>2023-08-11T00:30:47Z</time>
   </trkpt>
   <trkpt lat="39.6856650" lon="-104.9669110">
    <ele>1625.2</ele>
    <time>2023-08-11T00:30:48Z</time>
   </trkpt>
   <trkpt lat="39.6856780" lon="-104.9669260">
    <ele>1625.2</ele>
    <time>2023-08-11T00:30:49Z</time>
   </trkpt>
   <trkpt lat="39.6857060" lon="-104.9669700">
    <ele>1625.2</ele>
    <time>2023-08-11T00:30:50Z</time>
   </trkpt>
   <trkpt lat="39.6857150" lon="-104.9669900">
    <ele>1625.2</ele>
    <time>2023-08-11T00:30:51Z</time>
   </trkpt>
   <trkpt lat="39.6857400" lon="-104.9670200">
    <ele>1625.3</ele>
    <time>2023-08-11T00:30:52Z</time>
   </trkpt>
   <trkpt lat="39.6857660" lon="-104.9670460">
    <ele>1625.3</ele>
    <time>2023-08-11T00:30:53Z</time>
   </trkpt>
   <trkpt lat="39.6857900" lon="-104.9670770">
    <ele>1625.3</ele>
    <time>2023-08-11T00:30:54Z</time>
   </trkpt>
   <trkpt lat="39.6858150" lon="-104.9671040">
    <ele>1625.4</ele>
    <time>2023-08-11T00:30:55Z</time>
   </trkpt>
   <trkpt lat="39.6858410" lon="-104.9671220">
    <ele>1625.4</ele>
    <time>2023-08-11T00:30:56Z</time>
   </trkpt>
   <trkpt lat="39.6858690" lon="-104.9671510">
    <ele>1625.4</ele>
    <time>2023-08-11T00:30:57Z</time>
   </trkpt>
   <trkpt lat="39.6858900" lon="-104.9671850">
    <ele>1625.4</ele>
    <time>2023-08-11T00:30:58Z</time>
   </trkpt>
   <trkpt lat="39.6859090" lon="-104.9672230">
    <ele>1625.5</ele>
    <time>2023-08-11T00:30:59Z</time>
   </trkpt>
   <trkpt lat="39.6859290" lon="-104.9672620">
    <ele>1625.5</ele>
    <time>2023-08-11T00:31:00Z</time>
   </trkpt>
   <trkpt lat="39.6859370" lon="-104.9672750">
    <ele>1625.5</ele>
    <time>2023-08-11T00:31:01Z</time>
   </trkpt>
   <trkpt lat="39.6859580" lon="-104.9673090">
    <ele>1625.5</ele>
    <time>2023-08-11T00:31:02Z</time>
   </trkpt>
   <trkpt lat="39.6859810" lon="-104.9673490">
    <ele>1625.5</ele>
    <time>2023-08-11T00:31:03Z</time>
   </trkpt>
   <trkpt lat="39.6859960" lon="-104.9673890">
    <ele>1625.5</ele>
    <time>2023-08-11T00:31:04Z</time>
   </trkpt>
   <trkpt lat="39.6860170" lon="-104.9674120">
    <ele>1625.5</ele>
    <time>2023-08-11T00:31:05Z</time>
   </trkpt>
   <trkpt lat="39.6860360" lon="-104.9674470">
    <ele>1625.5</ele>
    <time>2023-08-11T00:31:06Z</time>
   </trkpt>
   <trkpt lat="39.6860500" lon="-104.9674900">
    <ele>1625.5</ele>
    <time>2023-08-11T00:31:07Z</time>
   </trkpt>
   <trkpt lat="39.6860700" lon="-104.9675300">
    <ele>1625.5</ele>
    <time>2023-08-11T00:31:08Z</time>
   </trkpt>
   <trkpt lat="39.6860810" lon="-104.9675410">
    <ele>1625.5</ele>
    <time>2023-08-11T00:31:09Z</time>
   </trkpt>
   <trkpt lat="39.6861030" lon="-104.9675820">
    <ele>1625.5</ele>
    <time>2023-08-11T00:31:10Z</time>
   </trkpt>
   <trkpt lat="39.6861200" lon="-104.9676170">
    <ele>1625.5</ele>
    <time>2023-08-11T00:31:11Z</time>
   </trkpt>
   <trkpt lat="39.6861440" lon="-104.9676450">
    <ele>1625.5</ele>
    <time>2023-08-11T00:31:12Z</time>
   </trkpt>
   <trkpt lat="39.6861800" lon="-104.9676750">
    <ele>1625.4</ele>
    <time>2023-08-11T00:31:13Z</time>
   </trkpt>
   <trkpt lat="39.6861920" lon="-104.9676880">
    <ele>1625.4</ele>
    <time>2023-08-11T00:31:14Z</time>
   </trkpt>
   <trkpt lat="39.6862030" lon="-104.9677370">
    <ele>1625.4</ele>
    <time>2023-08-11T00:31:15Z</time>
   </trkpt>
   <trkpt lat="39.6862030" lon="-104.9677870">
    <ele>1625.4</ele>
    <time>2023-08-11T00:31:16Z</time>
   </trkpt>
   <trkpt lat="39.6862180" lon="-104.9678200">
    <ele>1625.3</ele>
    <time>2023-08-11T00:31:17Z</time>
   </trkpt>
   <trkpt lat="39.6862400" lon="-104.9678450">
    <ele>1625.3</ele>
    <time>2023-08-11T00:31:18Z</time>
   </trkpt>
   <trkpt lat="39.6862660" lon="-104.9678780">
    <ele>1625.3</ele>
    <time>2023-08-11T00:31:19Z</time>
   </trkpt>
   <trkpt lat="39.6862890" lon="-104.9679110">
    <ele>1625.2</ele>
    <time>2023-08-11T00:31:20Z</time>
   </trkpt>
   <trkpt lat="39.6863120" lon="-104.9679400">
    <ele>1625.2</ele>
    <time>2023-08-11T00:31:21Z</time>
   </trkpt>
   <trkpt lat="39.6863230" lon="-104.9679810">
    <ele>1625.2</ele>
    <time>2023-08-11T00:31:22Z</time>
   </trkpt>
   <trkpt lat="39.6863420" lon="-104.9680120">
    <ele>1625.1</ele>
    <time>2023-08-11T00:31:23Z</time>
   </trkpt>
   <trkpt lat="39.6863640" lon="-104.9680410">
    <ele>1625.1</ele>
    <time>2023-08-11T00:31:24Z</time>
   </trkpt>
   <trkpt lat="39.6863830" lon="-104.9680690">
    <ele>1625.0</ele>
    <time>2023-08-11T00:31:25Z</time>
   </trkpt>
   <trkpt lat="39.6863870" lon="-104.9681190">
    <ele>1625.0</ele>
    <time>2023-08-11T00:31:26Z</time>
   </trkpt>
   <trkpt lat="39.6863990" lon="-104.9681590">
    <ele>1624.9</ele>
    <time>2023-08-11T00:31:27Z</time>
   </trkpt>
   <trkpt lat="39.6864180" lon="-104.9681910">
    <ele>1624.9</ele>
    <time>2023-08-11T00:31:28Z</time>
   </trkpt>
   <trkpt lat="39.6864360" lon="-104.9682190">
    <ele>1624.9</ele>
    <time>2023-08-11T00:31:29Z</time>
   </trkpt>
   <trkpt lat="39.6864560" lon="-104.9682480">
    <ele>1624.8</ele>
    <time>2023-08-11T00:31:30Z</time>
   </trkpt>
   <trkpt lat="39.6864730" lon="-104.9682820">
    <ele>1624.8</ele>
    <time>2023-08-11T00:31:31Z</time>
   </trkpt>
   <trkpt lat="39.6864920" lon="-104.9683110">
    <ele>1624.8</ele>
    <time>2023-08-11T00:31:32Z</time>
   </trkpt>
   <trkpt lat="39.6865080" lon="-104.9683480">
    <ele>1624.7</ele>
    <time>2023-08-11T00:31:33Z</time>
   </trkpt>
   <trkpt lat="39.6865200" lon="-104.9683810">
    <ele>1624.7</ele>
    <time>2023-08-11T00:31:34Z</time>
   </trkpt>
   <trkpt lat="39.6865380" lon="-104.9684110">
    <ele>1624.6</ele>
    <time>2023-08-11T00:31:35Z</time>
   </trkpt>
   <trkpt lat="39.6865650" lon="-104.9684420">
    <ele>1624.6</ele>
    <time>2023-08-11T00:31:36Z</time>
   </trkpt>
   <trkpt lat="39.6865830" lon="-104.9684770">
    <ele>1624.5</ele>
    <time>2023-08-11T00:31:37Z</time>
   </trkpt>
   <trkpt lat="39.6866000" lon="-104.9685080">
    <ele>1624.5</ele>
    <time>2023-08-11T00:31:38Z</time>
   </trkpt>
   <trkpt lat="39.6866180" lon="-104.9685400">
    <ele>1624.5</ele>
    <time>2023-08-11T00:31:39Z</time>
   </trkpt>
   <trkpt lat="39.6866290" lon="-104.9685600">
    <ele>1624.4</ele>
    <time>2023-08-11T00:31:40Z</time>
   </trkpt>
   <trkpt lat="39.6866360" lon="-104.9685730">
    <ele>1624.4</ele>
    <time>2023-08-11T00:31:41Z</time>
   </trkpt>
   <trkpt lat="39.6866420" lon="-104.9685780">
    <ele>1624.4</ele>
    <time>2023-08-11T00:31:42Z</time>
   </trkpt>
   <trkpt lat="39.6866470" lon="-104.9685860">
    <ele>1624.4</ele>
    <time>2023-08-11T00:31:43Z</time>
   </trkpt>
   <trkpt lat="39.6866490" lon="-104.9686000">
    <ele>1624.4</ele>
    <time>2023-08-11T00:31:44Z</time>
   </trkpt>
   <trkpt lat="39.6866500" lon="-104.9686080">
    <ele>1624.4</ele>
    <time>2023-08-11T00:31:45Z</time>
   </trkpt>
   <trkpt lat="39.6873390" lon="-104.9688280">
    <ele>1623.0</ele>
    <time>2023-08-11T00:32:26Z</time>
   </trkpt>
   <trkpt lat="39.6873700" lon="-104.9688280">
    <ele>1622.9</ele>
    <time>2023-08-11T00:32:27Z</time>
   </trkpt>
   <trkpt lat="39.6874020" lon="-104.9688310">
    <ele>1622.8</ele>
    <time>2023-08-11T00:32:28Z</time>
   </trkpt>
   <trkpt lat="39.6874350" lon="-104.9688320">
    <ele>1622.7</ele>
    <time>2023-08-11T00:32:29Z</time>
   </trkpt>
   <trkpt lat="39.6874640" lon="-104.9688250">
    <ele>1622.6</ele>
    <time>2023-08-11T00:32:30Z</time>
   </trkpt>
   <trkpt lat="39.6875040" lon="-104.9688030">
    <ele>1622.5</ele>
    <time>2023-08-11T00:32:31Z</time>
   </trkpt>
   <trkpt lat="39.6875450" lon="-104.9688160">
    <ele>1622.4</ele>
    <time>2023-08-11T00:32:32Z</time>
   </trkpt>
   <trkpt lat="39.6875710" lon="-104.9688230">
    <ele>1622.3</ele>
    <time>2023-08-11T00:32:33Z</time>
   </trkpt>
   <trkpt lat="39.6876010" lon="-104.9688160">
    <ele>1622.2</ele>
    <time>2023-08-11T00:32:34Z</time>
   </trkpt>
   <trkpt lat="39.6876310" lon="-104.9688230">
    <ele>1622.2</ele>
    <time>2023-08-11T00:32:35Z</time>
   </trkpt>
   <trkpt lat="39.6876620" lon="-104.9688240">
    <ele>1622.1</ele>
    <time>2023-08-11T00:32:36Z</time>
   </trkpt>
   <trkpt lat="39.6877070" lon="-104.9688250">
    <ele>1622.0</ele>
    <time>2023-08-11T00:32:37Z</time>
   </trkpt>
   <trkpt lat="39.6877250" lon="-104.9688240">
    <ele>1621.9</ele>
    <time>2023-08-11T00:32:38Z</time>
   </trkpt>
   <trkpt lat="39.6877640" lon="-104.9688110">
    <ele>1621.8</ele>
    <time>2023-08-11T00:32:39Z</time>
   </trkpt>
   <trkpt lat="39.6878050" lon="-104.9688110">
    <ele>1621.7</ele>
    <time>2023-08-11T00:32:40Z</time>
   </trkpt>
   <trkpt lat="39.6878360" lon="-104.9688290">
    <ele>1621.7</ele>
    <time>2023-08-11T00:32:41Z</time>
   </trkpt>
   <trkpt lat="39.6878680" lon="-104.9688200">
    <ele>1621.6</ele>
    <time>2023-08-11T00:32:42Z</time>
   </trkpt>
   <trkpt lat="39.6879120" lon="-104.9688250">
    <ele>1621.5</ele>
    <time>2023-08-11T00:32:43Z</time>
   </trkpt>
   <trkpt lat="39.6879290" lon="-104.9688240">
    <ele>1621.4</ele>
    <time>2023-08-11T00:32:44Z</time>
   </trkpt>
   <trkpt lat="39.6879610" lon="-104.9688230">
    <ele>1621.4</ele>
    <time>2023-08-11T00:32:45Z</time>
   </trkpt>
   <trkpt lat="39.6880060" lon="-104.9688440">
    <ele>1621.3</ele>
    <time>2023-08-11T00:32:46Z</time>
   </trkpt>
   <trkpt lat="39.6880360" lon="-104.9688460">
    <ele>1621.2</ele>
    <time>2023-08-11T00:32:47Z</time>
   </trkpt>
   <trkpt lat="39.6880730" lon="-104.9688500">
    <ele>1621.2</ele>
    <time>2023-08-11T00:32:48Z</time>
   </trkpt>
   <trkpt lat="39.6881100" lon="-104.9688550">
    <ele>1621.1</ele>
    <time>2023-08-11T00:32:49Z</time>
   </trkpt>
   <trkpt lat="39.6881420" lon="-104.9688550">
    <ele>1621.0</ele>
    <time>2023-08-11T00:32:50Z</time>
   </trkpt>
   <trkpt lat="39.6881780" lon="-104.9688410">
    <ele>1621.0</ele>
    <time>2023-08-11T00:32:51Z</time>
   </trkpt>
   <trkpt lat="39.6882160" lon="-104.9688470">
    <ele>1620.9</ele>
    <time>2023-08-11T00:32:52Z</time>
   </trkpt>
   <trkpt lat="39.6882550" lon="-104.9688510">
    <ele>1620.8</ele>
    <time>2023-08-11T00:32:53Z</time>
   </trkpt>
   <trkpt lat="39.6882710" lon="-104.9688580">
    <ele>1620.8</ele>
    <time>2023-08-11T00:32:54Z</time>
   </trkpt>
   <trkpt lat="39.6883090" lon="-104.9688610">
    <ele>1620.8</ele>
    <time>2023-08-11T00:32:55Z</time>
   </trkpt>
   <trkpt lat="39.6883510" lon="-104.9688450">
    <ele>1620.7</ele>
    <time>2023-08-11T00:32:56Z</time>
   </trkpt>
   <trkpt lat="39.6883690" lon="-104.9688440">
    <ele>1620.7</ele>
    <time>2023-08-11T00:32:57Z</time>
   </trkpt>
   <trkpt lat="39.6884000" lon="-104.9688520">
    <ele>1620.7</ele>
    <time>2023-08-11T00:32:58Z</time>
   </trkpt>
   <trkpt lat="39.6884330" lon="-104.9688370">
    <ele>1620.7</ele>
    <time>2023-08-11T00:32:59Z</time>
   </trkpt>
   <trkpt lat="39.6884780" lon="-104.9688470">
    <ele>1620.6</ele>
    <time>2023-08-11T00:33:00Z</time>
   </trkpt>
   <trkpt lat="39.6885170" lon="-104.9688570">
    <ele>1620.6</ele>
    <time>2023-08-11T00:33:01Z</time>
   </trkpt>
   <trkpt lat="39.6885320" lon="-104.9688630">
    <ele>1620.6</ele>
    <time>2023-08-11T00:33:02Z</time>
   </trkpt>
   <trkpt lat="39.6885700" lon="-104.9688540">
    <ele>1620.6</ele>
    <time>2023-08-11T00:33:03Z</time>
   </trkpt>
   <trkpt lat="39.6885990" lon="-104.9688340">
    <ele>1620.5</ele>
    <time>2023-08-11T00:33:04Z</time>
   </trkpt>
   <trkpt lat="39.6886260" lon="-104.9688190">
    <ele>1620.5</ele>
    <time>2023-08-11T00:33:05Z</time>
   </trkpt>
   <trkpt lat="39.6886620" lon="-104.9688240">
    <ele>1620.5</ele>
    <time>2023-08-11T00:33:06Z</time>
   </trkpt>
   <trkpt lat="39.6886930" lon="-104.9688370">
    <ele>1620.5</ele>
    <time>2023-08-11T00:33:07Z</time>
   </trkpt>
   <trkpt lat="39.6887330" lon="-104.9688420">
    <ele>1620.4</ele>
    <time>2023-08-11T00:33:08Z</time>
   </trkpt>
   <trkpt lat="39.6887760" lon="-104.9688500">
    <ele>1620.4</ele>
    <time>2023-08-11T00:33:09Z</time>
   </trkpt>
   <trkpt lat="39.6888170" lon="-104.9688510">
    <ele>1620.4</ele>
    <time>2023-08-11T00:33:10Z</time>
   </trkpt>
   <trkpt lat="39.6888320" lon="-104.9688520">
    <ele>1620.3</ele>
    <time>2023-08-11T00:33:11Z</time>
   </trkpt>
   <trkpt lat="39.6888610" lon="-104.9688470">
    <ele>1620.3</ele>
    <time>2023-08-11T00:33:12Z</time>
   </trkpt>
   <trkpt lat="39.6889080" lon="-104.9688510">
    <ele>1620.3</ele>
    <time>2023-08-11T00:33:13Z</time>
   </trkpt>
   <trkpt lat="39.6889310" lon="-104.9688580">
    <ele>1620.3</ele>
    <time>2023-08-11T00:33:14Z</time>
   </trkpt>
   <trkpt lat="39.6889600" lon="-104.9688560">
    <ele>1620.3</ele>
    <time>2023-08-11T00:33:15Z</time>
   </trkpt>
   <trkpt lat="39.6889980" lon="-104.9688590">
    <ele>1620.3</ele>
    <time>2023-08-11T00:33:16Z</time>
   </trkpt>
   <trkpt lat="39.6890140" lon="-104.9688560">
    <ele>1620.3</ele>
    <time>2023-08-11T00:33:17Z</time>
   </trkpt>
   <trkpt lat="39.6890600" lon="-104.9688600">
    <ele>1620.3</ele>
    <time>2023-08-11T00:33:18Z</time>
   </trkpt>
   <trkpt lat="39.6890810" lon="-104.9688620">
    <ele>1620.3</ele>
    <time>2023-08-11T00:33:19Z</time>
   </trkpt>
   <trkpt lat="39.6891110" lon="-104.9688560">
    <ele>1620.3</ele>
    <time>2023-08-11T00:33:20Z</time>
   </trkpt>
   <trkpt lat="39.6891380" lon="-104.9688570">
    <ele>1620.3</ele>
    <time>2023-08-11T00:33:21Z</time>
   </trkpt>
   <trkpt lat="39.6891660" lon="-104.9688530">
    <ele>1620.3</ele>
    <time>2023-08-11T00:33:22Z</time>
   </trkpt>
   <trkpt lat="39.6892010" lon="-104.9688660">
    <ele>1620.3</ele>
    <time>2023-08-11T00:33:23Z</time>
   </trkpt>
   <trkpt lat="39.6892310" lon="-104.9688600">
    <ele>1620.3</ele>
    <time>2023-08-11T00:33:24Z</time>
   </trkpt>
   <trkpt lat="39.6892650" lon="-104.9688500">
    <ele>1620.2</ele>
    <time>2023-08-11T00:33:25Z</time>
   </trkpt>
   <trkpt lat="39.6893050" lon="-104.9688390">
    <ele>1620.2</ele>
    <time>2023-08-11T00:33:26Z</time>
   </trkpt>
   <trkpt lat="39.6893340" lon="-104.9688510">
    <ele>1620.2</ele>
    <time>2023-08-11T00:33:27Z</time>
   </trkpt>
   <trkpt lat="39.6893480" lon="-104.9688630">
    <ele>1620.2</ele>
    <time>2023-08-11T00:33:28Z</time>
   </trkpt>
   <trkpt lat="39.6893760" lon="-104.9688580">
    <ele>1620.3</ele>
    <time>2023-08-11T00:33:29Z</time>
   </trkpt>
   <trkpt lat="39.6894080" lon="-104.9688640">
    <ele>1620.3</ele>
    <time>2023-08-11T00:33:30Z</time>
   </trkpt>
   <trkpt lat="39.6894430" lon="-104.9688660">
    <ele>1620.3</ele>
    <time>2023-08-11T00:33:31Z</time>
   </trkpt>
   <trkpt lat="39.6894750" lon="-104.9688700">
    <ele>1620.3</ele>
    <time>2023-08-11T00:33:32Z</time>
   </trkpt>
   <trkpt lat="39.6894840" lon="-104.9688720">
    <ele>1620.3</ele>
    <time>2023-08-11T00:33:33Z</time>
   </trkpt>
   <trkpt lat="39.6895180" lon="-104.9688650">
    <ele>1620.4</ele>
    <time>2023-08-11T00:33:34Z</time>
   </trkpt>
   <trkpt lat="39.6895520" lon="-104.9688610">
    <ele>1620.4</ele>
    <time>2023-08-11T00:33:35Z</time>
   </trkpt>
   <trkpt lat="39.6895910" lon="-104.9688500">
    <ele>1620.5</ele>
    <time>2023-08-11T00:33:36Z</time>
   </trkpt>
   <trkpt lat="39.6896080" lon="-104.9688500">
    <ele>1620.5</ele>
    <time>2023-08-11T00:33:37Z</time>
   </trkpt>
   <trkpt lat="39.6896390" lon="-104.9688480">
    <ele>1620.5</ele>
    <time>2023-08-11T00:33:38Z</time>
   </trkpt>
   <trkpt lat="39.6896720" lon="-104.9688550">
    <ele>1620.6</ele>
    <time>2023-08-11T00:33:39Z</time>
   </trkpt>
   <trkpt lat="39.6896820" lon="-104.9688590">
    <ele>1620.6</ele>
    <time>2023-08-11T00:33:40Z</time>
   </trkpt>
   <trkpt lat="39.6897230" lon="-104.9688670">
    <ele>1620.7</ele>
    <time>2023-08-11T00:33:41Z</time>
   </trkpt>
   <trkpt lat="39.6897380" lon="-104.9688700">
    <ele>1620.7</ele>
    <time>2023-08-11T00:33:42Z</time>
   </trkpt>
   <trkpt lat="39.6897780" lon="-104.9688720">
    <ele>1620.7</ele>
    <time>2023-08-11T00:33:43Z</time>
   </trkpt>
   <trkpt lat="39.6898050" lon="-104.9688710">
    <ele>1620.8</ele>
    <time>2023-08-11T00:33:44Z</time>
   </trkpt>
   <trkpt lat="39.6898420" lon="-104.9688670">
    <ele>1620.8</ele>
    <time>2023-08-11T00:33:45Z</time>
   </trkpt>
   <trkpt lat="39.6898700" lon="-104.9688650">
    <ele>1620.9</ele>
    <time>2023-08-11T00:33:46Z</time>
   </trkpt>
   <trkpt lat="39.6899090" lon="-104.9688680">
    <ele>1620.9</ele>
    <time>2023-08-11T00:33:47Z</time>
   </trkpt>
   <trkpt lat="39.6899600" lon="-104.9688750">
    <ele>1621.0</ele>
    <time>2023-08-11T00:33:48Z</time>
   </trkpt>
   <trkpt lat="39.6899910" lon="-104.9688790">
    <ele>1621.0</ele>
    <time>2023-08-11T00:33:49Z</time>
   </trkpt>
   <trkpt lat="39.6900270" lon="-104.9688850">
    <ele>1621.1</ele>
    <time>2023-08-11T00:33:50Z</time>
   </trkpt>
   <trkpt lat="39.6900470" lon="-104.9688800">
    <ele>1621.1</ele>
    <time>2023-08-11T00:33:51Z</time>
   </trkpt>
   <trkpt lat="39.6900900" lon="-104.9688740">
    <ele>1621.1</ele>
    <time>2023-08-11T00:33:52Z</time>
   </trkpt>
   <trkpt lat="39.6901060" lon="-104.9688760">
    <ele>1621.1</ele>
    <time>2023-08-11T00:33:53Z</time>
   </trkpt>
   <trkpt lat="39.6901380" lon="-104.9688740">
    <ele>1621.2</ele>
    <time>2023-08-11T00:33:54Z</time>
   </trkpt>
   <trkpt lat="39.6901690" lon="-104.9688770">
    <ele>1621.2</ele>
    <time>2023-08-11T00:33:55Z</time>
   </trkpt>
   <trkpt lat="39.6902110" lon="-104.9688750">
    <ele>1621.3</ele>
    <time>2023-08-11T00:33:56Z</time>
   </trkpt>
   <trkpt lat="39.6902390" lon="-104.9688680">
    <ele>1621.3</ele>
    <time>2023-08-11T00:33:57Z</time>
   </trkpt>
   <trkpt lat="39.6902810" lon="-104.9688700">
    <ele>1621.4</ele>
    <time>2023-08-11T00:33:58Z</time>
   </trkpt>
   <trkpt lat="39.6902990" lon="-104.9688720">
    <ele>1621.4</ele>
    <time>2023-08-11T00:33:59Z</time>
   </trkpt>
   <trkpt lat="39.6903270" lon="-104.9688740">
    <ele>1621.4</ele>
    <time>2023-08-11T00:34:00Z</time>
   </trkpt>
   <trkpt lat="39.6903670" lon="-104.9688730">
    <ele>1621.5</ele>
    <time>2023-08-11T00:34:01Z</time>
   </trkpt>
   <trkpt lat="39.6904050" lon="-104.9688780">
    <ele>1621.5</ele>
    <time>2023-08-11T00:34:02Z</time>
   </trkpt>
   <trkpt lat="39.6904180" lon="-104.9688830">
    <ele>1621.6</ele>
    <time>2023-08-11T00:34:03Z</time>
   </trkpt>
   <trkpt lat="39.6904450" lon="-104.9688900">
    <ele>1621.6</ele>
    <time>2023-08-11T00:34:04Z</time>
   </trkpt>
   <trkpt lat="39.6904830" lon="-104.9688860">
    <ele>1621.7</ele>
    <time>2023-08-11T00:34:05Z</time>
   </trkpt>
   <trkpt lat="39.6905130" lon="-104.9688770">
    <ele>1621.7</ele>
    <time>2023-08-11T00:34:06Z</time>
   </trkpt>
   <trkpt lat="39.6905460" lon="-104.9688670">
    <ele>1621.7</ele>
    <time>2023-08-11T00:34:07Z</time>
   </trkpt>
   <trkpt lat="39.6905810" lon="-104.9688560">
    <ele>1621.8</ele>
    <time>2023-08-11T00:34:08Z</time>
   </trkpt>
   <trkpt lat="39.6905970" lon="-104.9688530">
    <ele>1621.8</ele>
    <time>2023-08-11T00:34:09Z</time>
   </trkpt>
   <trkpt lat="39.6906320" lon="-104.9688510">
    <ele>1621.9</ele>
    <time>2023-08-11T00:34:10Z</time>
   </trkpt>
   <trkpt lat="39.6906730" lon="-104.9688660">
    <ele>1621.9</ele>
    <time>2023-08-11T00:34:11Z</time>
   </trkpt>
   <trkpt lat="39.6906870" lon="-104.9688750">
    <ele>1621.9</ele>
    <time>2023-08-11T00:34:12Z</time>
   </trkpt>
   <trkpt lat="39.6907150" lon="-104.9688820">
    <ele>1622.0</ele>
    <time>2023-08-11T00:34:13Z</time>
   </trkpt>
   <trkpt lat="39.6907500" lon="-104.9688770">
    <ele>1622.0</ele>
    <time>2023-08-11T00:34:14Z</time>
   </trkpt>
   <trkpt lat="39.6907870" lon="-104.9688830">
    <ele>1622.1</ele>
    <time>2023-08-11T00:34:15Z</time>
   </trkpt>
   <trkpt lat="39.6908120" lon="-104.9688640">
    <ele>1622.1</ele>
    <time>2023-08-11T00:34:16Z</time>
   </trkpt>
   <trkpt lat="39.6908460" lon="-104.9688580">
    <ele>1622.1</ele>
    <time>2023-08-11T00:34:17Z</time>
   </trkpt>
   <trkpt lat="39.6908560" lon="-104.9688540">
    <ele>1622.1</ele>
    <time>2023-08-11T00:34:18Z</time>
   </trkpt>
   <trkpt lat="39.6908910" lon="-104.9688630">
    <ele>1622.2</ele>
    <time>2023-08-11T00:34:19Z</time>
   </trkpt>
   <trkpt lat="39.6909040" lon="-104.9688670">
    <ele>1622.2</ele>
    <time>2023-08-11T00:34:20Z</time>
   </trkpt>
   <trkpt lat="39.6909440" lon="-104.9688730">
    <ele>1622.2</ele>
    <time>2023-08-11T00:34:21Z</time>
   </trkpt>
   <trkpt lat="39.6909810" lon="-104.9688610">
    <ele>1622.2</ele>
    <time>2023-08-11T00:34:22Z</time>
   </trkpt>
   <trkpt lat="39.6909950" lon="-104.9688550">
    <ele>1622.3</ele>
    <time>2023-08-11T00:34:23Z</time>
   </trkpt>
   <trkpt lat="39.6910330" lon="-104.9688580">
    <ele>1622.3</ele>
    <time>2023-08-11T00:34:24Z</time>
   </trkpt>
   <trkpt lat="39.6910730" lon="-104.9688570">
    <ele>1622.3</ele>
    <time>2023-08-11T00:34:25Z</time>
   </trkpt>
   <trkpt lat="39.6910880" lon="-104.9688550">
    <ele>1622.3</ele>
    <time>2023-08-11T00:34:26Z</time>
   </trkpt>
   <trkpt lat="39.6911180" lon="-104.9688580">
    <ele>1622.4</ele>
    <time>2023-08-11T00:34:27Z</time>
   </trkpt>
   <trkpt lat="39.6911630" lon="-104.9688600">
    <ele>1622.4</ele>
    <time>2023-08-11T00:34:28Z</time>
   </trkpt>
   <trkpt lat="39.6911820" lon="-104.9688550">
    <ele>1622.4</ele>
    <time>2023-08-11T00:34:29Z</time>
   </trkpt>
   <trkpt lat="39.6912150" lon="-104.9688440">
    <ele>1622.4</ele>
    <time>2023-08-11T00:34:30Z</time>
   </trkpt>
   <trkpt lat="39.6912500" lon="-104.9688510">
    <ele>1622.4</ele>
    <time>2023-08-11T00:34:31Z</time>
   </trkpt>
   <trkpt lat="39.6912890" lon="-104.9688530">
    <ele>1622.4</ele>
    <time>2023-08-11T00:34:32Z</time>
   </trkpt>
   <trkpt lat="39.6913010" lon="-104.9688640">
    <ele>1622.4</ele>
    <time>2023-08-11T00:34:33Z</time>
   </trkpt>
   <trkpt lat="39.6913200" lon="-104.9688680">
    <ele>1622.4</ele>
    <time>2023-08-11T00:34:34Z</time>
   </trkpt>
   <trkpt lat="39.6913560" lon="-104.9688630">
    <ele>1622.4</ele>
    <time>2023-08-11T00:34:35Z</time>
   </trkpt>
   <trkpt lat="39.6913680" lon="-104.9688580">
    <ele>1622.4</ele>
    <time>2023-08-11T00:34:36Z</time>
   </trkpt>
   <trkpt lat="39.6914100" lon="-104.9688450">
    <ele>1622.4</ele>
    <time>2023-08-11T00:34:37Z</time>
   </trkpt>
   <trkpt lat="39.6914540" lon="-104.9688440">
    <ele>1622.4</ele>
    <time>2023-08-11T00:34:38Z</time>
   </trkpt>
   <trkpt lat="39.6914950" lon="-104.9688380">
    <ele>1622.4</ele>
    <time>2023-08-11T00:34:39Z</time>
   </trkpt>
   <trkpt lat="39.6915110" lon="-104.9688400">
    <ele>1622.4</ele>
    <time>2023-08-11T00:34:40Z</time>
   </trkpt>
   <trkpt lat="39.6915460" lon="-104.9688390">
    <ele>1622.4</ele>
    <time>2023-08-11T00:34:41Z</time>
   </trkpt>
   <trkpt lat="39.6915630" lon="-104.9688460">
    <ele>1622.4</ele>
    <time>2023-08-11T00:34:42Z</time>
   </trkpt>
   <trkpt lat="39.6915980" lon="-104.9688450">
    <ele>1622.4</ele>
    <time>2023-08-11T00:34:43Z</time>
   </trkpt>
   <trkpt lat="39.6916400" lon="-104.9688420">
    <ele>1622.4</ele>
    <time>2023-08-11T00:34:44Z</time>
   </trkpt>
   <trkpt lat="39.6916550" lon="-104.9688360">
    <ele>1622.4</ele>
    <time>2023-08-11T00:34:45Z</time>
   </trkpt>
   <trkpt lat="39.6916890" lon="-104.9688340">
    <ele>1622.4</ele>
    <time>2023-08-11T00:34:46Z</time>
   </trkpt>
   <trkpt lat="39.6917200" lon="-104.9688400">
    <ele>1622.4</ele>
    <time>2023-08-11T00:34:47Z</time>
   </trkpt>
   <trkpt lat="39.6917530" lon="-104.9688480">
    <ele>1622.4</ele>
    <time>2023-08-11T00:34:48Z</time>
   </trkpt>
   <trkpt lat="39.6917880" lon="-104.9688630">
    <ele>1622.4</ele>
    <time>2023-08-11T00:34:49Z</time>
   </trkpt>
   <trkpt lat="39.6918330" lon="-104.9688570">
    <ele>1622.4</ele>
    <time>2023-08-11T00:34:50Z</time>
   </trkpt>
   <trkpt lat="39.6918540" lon="-104.9688520">
    <ele>1622.3</ele>
    <time>2023-08-11T00:34:51Z</time>
   </trkpt>
   <trkpt lat="39.6918880" lon="-104.9688570">
    <ele>1622.3</ele>
    <time>2023-08-11T00:34:52Z</time>
   </trkpt>
   <trkpt lat="39.6919250" lon="-104.9688620">
    <ele>1622.3</ele>
    <time>2023-08-11T00:34:53Z</time>
   </trkpt>
   <trkpt lat="39.6919420" lon="-104.9688680">
    <ele>1622.3</ele>
    <time>2023-08-11T00:34:54Z</time>
   </trkpt>
   <trkpt lat="39.6919720" lon="-104.9688670">
    <ele>1622.3</ele>
    <time>2023-08-11T00:34:55Z</time>
   </trkpt>
   <trkpt lat="39.6920000" lon="-104.9688610">
    <ele>1622.3</ele>
    <time>2023-08-11T00:34:56Z</time>
   </trkpt>
   <trkpt lat="39.6920400" lon="-104.9688580">
    <ele>1622.3</ele>
    <time>2023-08-11T00:34:57Z</time>
   </trkpt>
   <trkpt lat="39.6920690" lon="-104.9688540">
    <ele>1622.3</ele>
    <time>2023-08-11T00:34:58Z</time>
   </trkpt>
   <trkpt lat="39.6921100" lon="-104.9688490">
    <ele>1622.3</ele>
    <time>2023-08-11T00:34:59Z</time>
   </trkpt>
   <trkpt lat="39.6921260" lon="-104.9688470">
    <ele>1622.2</ele>
    <time>2023-08-11T00:35:00Z</time>
   </trkpt>
   <trkpt lat="39.6921560" lon="-104.9688560">
    <ele>1622.2</ele>
    <time>2023-08-11T00:35:01Z</time>
   </trkpt>
   <trkpt lat="39.6921860" lon="-104.9688620">
    <ele>1622.2</ele>
    <time>2023-08-11T00:35:02Z</time>
   </trkpt>
   <trkpt lat="39.6922250" lon="-104.9688600">
    <ele>1622.2</ele>
    <time>2023-08-11T00:35:03Z</time>
   </trkpt>
   <trkpt lat="39.6922610" lon="-104.9688690">
    <ele>1622.2</ele>
    <time>2023-08-11T00:35:04Z</time>
   </trkpt>
   <trkpt lat="39.6922940" lon="-104.9688590">
    <ele>1622.2</ele>
    <time>2023-08-11T00:35:05Z</time>
   </trkpt>
   <trkpt lat="39.6923330" lon="-104.9688580">
    <ele>1622.2</ele>
    <time>2023-08-11T00:35:06Z</time>
   </trkpt>
   <trkpt lat="39.6923490" lon="-104.9688510">
    <ele>1622.2</ele>
    <time>2023-08-11T00:35:07Z</time>
   </trkpt>
   <trkpt lat="39.6923870" lon="-104.9688630">
    <ele>1622.2</ele>
    <time>2023-08-11T00:35:08Z</time>
   </trkpt>
   <trkpt lat="39.6924180" lon="-104.9688610">
    <ele>1622.2</ele>
    <time>2023-08-11T00:35:09Z</time>
   </trkpt>
   <trkpt lat="39.6924670" lon="-104.9688590">
    <ele>1622.1</ele>
    <time>2023-08-11T00:35:10Z</time>
   </trkpt>
   <trkpt lat="39.6924880" lon="-104.9688570">
    <ele>1622.1</ele>
    <time>2023-08-11T00:35:11Z</time>
   </trkpt>
   <trkpt lat="39.6925200" lon="-104.9688560">
    <ele>1622.1</ele>
    <time>2023-08-11T00:35:12Z</time>
   </trkpt>
   <trkpt lat="39.6925520" lon="-104.9688480">
    <ele>1622.1</ele>
    <time>2023-08-11T00:35:13Z</time>
   </trkpt>
   <trkpt lat="39.6925870" lon="-104.9688700">
    <ele>1622.0</ele>
    <time>2023-08-11T00:35:14Z</time>
   </trkpt>
   <trkpt lat="39.6926160" lon="-104.9688680">
    <ele>1622.0</ele>
    <time>2023-08-11T00:35:15Z</time>
   </trkpt>
   <trkpt lat="39.6926530" lon="-104.9688580">
    <ele>1622.0</ele>
    <time>2023-08-11T00:35:16Z</time>
   </trkpt>
   <trkpt lat="39.6926710" lon="-104.9688590">
    <ele>1622.0</ele>
    <time>2023-08-11T00:35:17Z</time>
   </trkpt>
   <trkpt lat="39.6927070" lon="-104.9688630">
    <ele>1622.0</ele>
    <time>2023-08-11T00:35:18Z</time>
   </trkpt>
   <trkpt lat="39.6927170" lon="-104.9688640">
    <ele>1622.0</ele>
    <time>2023-08-11T00:35:19Z</time>
   </trkpt>
   <trkpt lat="39.6927460" lon="-104.9688600">
    <ele>1622.0</ele>
    <time>2023-08-11T00:35:20Z</time>
   </trkpt>
   <trkpt lat="39.6927790" lon="-104.9688510">
    <ele>1622.0</ele>
    <time>2023-08-11T00:35:21Z</time>
   </trkpt>
   <trkpt lat="39.6927910" lon="-104.9688460">
    <ele>1622.0</ele>
    <time>2023-08-11T00:35:22Z</time>
   </trkpt>
   <trkpt lat="39.6928070" lon="-104.9688450">
    <ele>1622.0</ele>
    <time>2023-08-11T00:35:23Z</time>
   </trkpt>
   <trkpt lat="39.6934810" lon="-104.9688800">
    <ele>1620.9</ele>
    <time>2023-08-11T00:36:47Z</time>
   </trkpt>
   <trkpt lat="39.6934970" lon="-104.9688920">
    <ele>1620.9</ele>
    <time>2023-08-11T00:36:48Z</time>
   </trkpt>
   <trkpt lat="39.6935090" lon="-104.9689050">
    <ele>1620.9</ele>
    <time>2023-08-11T00:36:49Z</time>
   </trkpt>
   <trkpt lat="39.6935190" lon="-104.9689200">
    <ele>1620.9</ele>
    <time>2023-08-11T00:36:50Z</time>
   </trkpt>
   <trkpt lat="39.6935390" lon="-104.9689470">
    <ele>1620.9</ele>
    <time>2023-08-11T00:36:51Z</time>
   </trkpt>
   <trkpt lat="39.6935460" lon="-104.9689570">
    <ele>1620.9</ele>
    <time>2023-08-11T00:36:52Z</time>
   </trkpt>
   <trkpt lat="39.6935720" lon="-104.9689950">
    <ele>1620.8</ele>
    <time>2023-08-11T00:36:53Z</time>
   </trkpt>
   <trkpt lat="39.6935820" lon="-104.9690100">
    <ele>1620.8</ele>
    <time>2023-08-11T00:36:54Z</time>
   </trkpt>
   <trkpt lat="39.6936050" lon="-104.9690360">
    <ele>1620.8</ele>
    <time>2023-08-11T00:36:55Z</time>
   </trkpt>
   <trkpt lat="39.6936320" lon="-104.9690540">
    <ele>1620.8</ele>
    <time>2023-08-11T00:36:56Z</time>
   </trkpt>
   <trkpt lat="39.6936670" lon="-104.9690630">
    <ele>1620.8</ele>
    <time>2023-08-11T00:36:57Z</time>
   </trkpt>
   <trkpt lat="39.6936780" lon="-104.9690650">
    <ele>1620.8</ele>
    <time>2023-08-11T00:36:58Z</time>
   </trkpt>
   <trkpt lat="39.6937110" lon="-104.9690540">
    <ele>1620.8</ele>
    <time>2023-08-11T00:36:59Z</time>
   </trkpt>
   <trkpt lat="39.6937230" lon="-104.9690540">
    <ele>1620.8</ele>
    <time>2023-08-11T00:37:00Z</time>
   </trkpt>
   <trkpt lat="39.6937610" lon="-104.9690420">
    <ele>1620.7</ele>
    <time>2023-08-11T00:37:01Z</time>
   </trkpt>
   <trkpt lat="39.6937740" lon="-104.9690360">
    <ele>1620.7</ele>
    <time>2023-08-11T00:37:02Z</time>
   </trkpt>
   <trkpt lat="39.6938020" lon="-104.9690220">
    <ele>1620.8</ele>
    <time>2023-08-11T00:37:03Z</time>
   </trkpt>
   <trkpt lat="39.6939240" lon="-104.9688500">
    <ele>1620.9</ele>
    <time>2023-08-11T00:37:04Z</time>
   </trkpt>
   <trkpt lat="39.6939350" lon="-104.9688380">
    <ele>1620.9</ele>
    <time>2023-08-11T00:37:05Z</time>
   </trkpt>
   <trkpt lat="39.6939640" lon="-104.9688190">
    <ele>1620.9</ele>
    <time>2023-08-11T00:37:06Z</time>
   </trkpt>
   <trkpt lat="39.6939900" lon="-104.9688050">
    <ele>1620.9</ele>
    <time>2023-08-11T00:37:07Z</time>
   </trkpt>
   <trkpt lat="39.6940240" lon="-104.9688130">
    <ele>1621.0</ele>
    <time>2023-08-11T00:37:08Z</time>
   </trkpt>
   <trkpt lat="39.6940420" lon="-104.9688130">
    <ele>1621.0</ele>
    <time>2023-08-11T00:37:09Z</time>
   </trkpt>
   <trkpt lat="39.6940740" lon="-104.9687960">
    <ele>1621.0</ele>
    <time>2023-08-11T00:37:10Z</time>
   </trkpt>
   <trkpt lat="39.6941090" lon="-104.9687860">
    <ele>1621.1</ele>
    <time>2023-08-11T00:37:11Z</time>
   </trkpt>
   <trkpt lat="39.6941500" lon="-104.9687770">
    <ele>1621.1</ele>
    <time>2023-08-11T00:37:12Z</time>
   </trkpt>
   <trkpt lat="39.6941650" lon="-104.9687720">
    <ele>1621.2</ele>
    <time>2023-08-11T00:37:13Z</time>
   </trkpt>
   <trkpt lat="39.6942020" lon="-104.9687890">
    <ele>1621.2</ele>
    <time>2023-08-11T00:37:14Z</time>
   </trkpt>
   <trkpt lat="39.6942300" lon="-104.9687910">
    <ele>1621.3</ele>
    <time>2023-08-11T00:37:15Z</time>
   </trkpt>
   <trkpt lat="39.6942710" lon="-104.9687840">
    <ele>1621.4</ele>
    <time>2023-08-11T00:37:16Z</time>
   </trkpt>
   <trkpt lat="39.6942870" lon="-104.9687820">
    <ele>1621.4</ele>
    <time>2023-08-11T00:37:17Z</time>
   </trkpt>
   <trkpt lat="39.6943300" lon="-104.9687900">
    <ele>1621.5</ele>
    <time>2023-08-11T00:37:18Z</time>
   </trkpt>
   <trkpt lat="39.6943470" lon="-104.9687920">
    <ele>1621.5</ele>
    <time>2023-08-11T00:37:19Z</time>
   </trkpt>
   <trkpt lat="39.6943660" lon="-104.9688290">
    <ele>1621.6</ele>
    <time>2023-08-11T00:37:20Z</time>
   </trkpt>
   <trkpt lat="39.6944020" lon="-104.9688540">
    <ele>1621.7</ele>
    <time>2023-08-11T00:37:21Z</time>
   </trkpt>
   <trkpt lat="39.6944170" lon="-104.9688650">
    <ele>1621.8</ele>
    <time>2023-08-11T00:37:22Z</time>
   </trkpt>
   <trkpt lat="39.6944360" lon="-104.9688920">
    <ele>1621.8</ele>
    <time>2023-08-11T00:37:23Z</time>
   </trkpt>
   <trkpt lat="39.6944600" lon="-104.9689060">
    <ele>1621.9</ele>
    <time>2023-08-11T00:37:24Z</time>
   </trkpt>
   <trkpt lat="39.6944770" lon="-104.9689360">
    <ele>1621.9</ele>
    <time>2023-08-11T00:37:25Z</time>
   </trkpt>
   <trkpt lat="39.6944870" lon="-104.9689750">
    <ele>1622.0</ele>
    <time>2023-08-11T00:37:26Z</time>
   </trkpt>
   <trkpt lat="39.6945020" lon="-104.9690170">
    <ele>1622.0</ele>
    <time>2023-08-11T00:37:27Z</time>
   </trkpt>
   <trkpt lat="39.6945190" lon="-104.9690500">
    <ele>1622.1</ele>
    <time>2023-08-11T00:37:28Z</time>
   </trkpt>
   <trkpt lat="39.6945480" lon="-104.9690810">
    <ele>1622.1</ele>
    <time>2023-08-11T00:37:29Z</time>
   </trkpt>
   <trkpt lat="39.6945670" lon="-104.9691200">
    <ele>1622.2</ele>
    <time>2023-08-11T00:37:30Z</time>
   </trkpt>
   <trkpt lat="39.6945920" lon="-104.9691470">
    <ele>1622.2</ele>
    <time>2023-08-11T00:37:31Z</time>
   </trkpt>
   <trkpt lat="39.6946240" lon="-104.9691740">
    <ele>1622.2</ele>
    <time>2023-08-11T00:37:32Z</time>
   </trkpt>
   <trkpt lat="39.6946460" lon="-104.9692240">
    <ele>1622.3</ele>
    <time>2023-08-11T00:37:33Z</time>
   </trkpt>
   <trkpt lat="39.6946580" lon="-104.9692430">
    <ele>1622.3</ele>
    <time>2023-08-11T00:37:34Z</time>
   </trkpt>
   <trkpt lat="39.6946870" lon="-104.9693120">
    <ele>1622.3</ele>
    <time>2023-08-11T00:37:35Z</time>
   </trkpt>
   <trkpt lat="39.6947050" lon="-104.9693440">
    <ele>1622.4</ele>
    <time>2023-08-11T00:37:36Z</time>
   </trkpt>
   <trkpt lat="39.6947250" lon="-104.9693680">
    <ele>1622.4</ele>
    <time>2023-08-11T00:37:37Z</time>
   </trkpt>
   <trkpt lat="39.6947500" lon="-104.9694170">
    <ele>1622.4</ele>
    <time>2023-08-11T00:37:38Z</time>
   </trkpt>
   <trkpt lat="39.6947680" lon="-104.9694580">
    <ele>1622.4</ele>
    <time>2023-08-11T00:37:39Z</time>
   </trkpt>
   <trkpt lat="39.6947970" lon="-104.9694990">
    <ele>1622.4</ele>
    <time>2023-08-11T00:37:40Z</time>
   </trkpt>
   <trkpt lat="39.6948120" lon="-104.9695160">
    <ele>1622.4</ele>
    <time>2023-08-11T00:37:41Z</time>
   </trkpt>
   <trkpt lat="39.6948320" lon="-104.9695510">
    <ele>1622.4</ele>
    <time>2023-08-11T00:37:42Z</time>
   </trkpt>
   <trkpt lat="39.6948560" lon="-104.9695920">
    <ele>1622.4</ele>
    <time>2023-08-11T00:37:43Z</time>
   </trkpt>
   <trkpt lat="39.6948690" lon="-104.9696080">
    <ele>1622.4</ele>
    <time>2023-08-11T00:37:44Z</time>
   </trkpt>
   <trkpt lat="39.6948900" lon="-104.9696390">
    <ele>1622.4</ele>
    <time>2023-08-11T00:37:45Z</time>
   </trkpt>
   <trkpt lat="39.6949150" lon="-104.9696670">
    <ele>1622.5</ele>
    <time>2023-08-11T00:37:46Z</time>
   </trkpt>
   <trkpt lat="39.6949410" lon="-104.9697120">
    <ele>1622.5</ele>
    <time>2023-08-11T00:37:47Z</time>
   </trkpt>
   <trkpt lat="39.6949750" lon="-104.9697400">
    <ele>1622.5</ele>
    <time>2023-08-11T00:37:48Z</time>
   </trkpt>
   <trkpt lat="39.6949920" lon="-104.9697520">
    <ele>1622.5</ele>
    <time>2023-08-11T00:37:49Z</time>
   </trkpt>
   <trkpt lat="39.6950200" lon="-104.9697850">
    <ele>1622.5</ele>
    <time>2023-08-11T00:37:50Z</time>
   </trkpt>
   <trkpt lat="39.6950600" lon="-104.9698120">
    <ele>1622.5</ele>
    <time>2023-08-11T00:37:51Z</time>
   </trkpt>
   <trkpt lat="39.6950780" lon="-104.9698250">
    <ele>1622.5</ele>
    <time>2023-08-11T00:37:52Z</time>
   </trkpt>
   <trkpt lat="39.6951040" lon="-104.9698470">
    <ele>1622.5</ele>
    <time>2023-08-11T00:37:53Z</time>
   </trkpt>
   <trkpt lat="39.6951330" lon="-104.9698630">
    <ele>1622.6</ele>
    <time>2023-08-11T00:37:54Z</time>
   </trkpt>
   <trkpt lat="39.6951720" lon="-104.9698850">
    <ele>1622.6</ele>
    <time>2023-08-11T00:37:55Z</time>
   </trkpt>
   <trkpt lat="39.6952020" lon="-104.9699100">
    <ele>1622.6</ele>
    <time>2023-08-11T00:37:56Z</time>
   </trkpt>
   <trkpt lat="39.6952150" lon="-104.9699170">
    <ele>1622.6</ele>
    <time>2023-08-11T00:37:57Z</time>
   </trkpt>
   <trkpt lat="39.6952420" lon="-104.9699280">
    <ele>1622.6</ele>
    <time>2023-08-11T00:37:58Z</time>
   </trkpt>
   <trkpt lat="39.6952740" lon="-104.9699390">
    <ele>1622.6</ele>
    <time>2023-08-11T00:37:59Z</time>
   </trkpt>
   <trkpt lat="39.6953180" lon="-104.9699370">
    <ele>1622.6</ele>
    <time>2023-08-11T00:38:00Z</time>
   </trkpt>
   <trkpt lat="39.6953620" lon="-104.9699410">
    <ele>1622.7</ele>
    <time>2023-08-11T00:38:01Z</time>
   </trkpt>
   <trkpt lat="39.6953800" lon="-104.9699510">
    <ele>1622.7</ele>
    <time>2023-08-11T00:38:02Z</time>
   </trkpt>
   <trkpt lat="39.6954150" lon="-104.9699610">
    <ele>1622.7</ele>
    <time>2023-08-11T00:38:03Z</time>
   </trkpt>
   <trkpt lat="39.6954420" lon="-104.9699690">
    <ele>1622.7</ele>
    <time>2023-08-11T00:38:04Z</time>
   </trkpt>
   <trkpt lat="39.6954760" lon="-104.9699760">
    <ele>1622.7</ele>
    <time>2023-08-11T00:38:05Z</time>
   </trkpt>
   <trkpt lat="39.6955150" lon="-104.9699840">
    <ele>1622.7</ele>
    <time>2023-08-11T00:38:06Z</time>
   </trkpt>
   <trkpt lat="39.6955430" lon="-104.9699970">
    <ele>1622.7</ele>
    <time>2023-08-11T00:38:07Z</time>
   </trkpt>
   <trkpt lat="39.6955820" lon="-104.9699980">
    <ele>1622.7</ele>
    <time>2023-08-11T00:38:08Z</time>
   </trkpt>
   <trkpt lat="39.6956170" lon="-104.9699990">
    <ele>1622.7</ele>
    <time>2023-08-11T00:38:09Z</time>
   </trkpt>
   <trkpt lat="39.6956540" lon="-104.9699890">
    <ele>1622.8</ele>
    <time>2023-08-11T00:38:10Z</time>
   </trkpt>
   <trkpt lat="39.6956930" lon="-104.9699930">
    <ele>1622.8</ele>
    <time>2023-08-11T00:38:11Z</time>
   </trkpt>
   <trkpt lat="39.6957330" lon="-104.9699970">
    <ele>1622.8</ele>
    <time>2023-08-11T00:38:12Z</time>
   </trkpt>
   <trkpt lat="39.6957680" lon="-104.9699980">
    <ele>1622.8</ele>
    <time>2023-08-11T00:38:13Z</time>
   </trkpt>
   <trkpt lat="39.6957980" lon="-104.9699990">
    <ele>1622.8</ele>
    <time>2023-08-11T00:38:14Z</time>
   </trkpt>
   <trkpt lat="39.6958410" lon="-104.9699880">
    <ele>1622.9</ele>
    <time>2023-08-11T00:38:15Z</time>
   </trkpt>
   <trkpt lat="39.6958820" lon="-104.9699870">
    <ele>1622.9</ele>
    <time>2023-08-11T00:38:16Z</time>
   </trkpt>
   <trkpt lat="39.6959240" lon="-104.9699830">
    <ele>1622.9</ele>
    <time>2023-08-11T00:38:17Z</time>
   </trkpt>
   <trkpt lat="39.6959440" lon="-104.9699820">
    <ele>1622.9</ele>
    <time>2023-08-11T00:38:18Z</time>
   </trkpt>
   <trkpt lat="39.6959870" lon="-104.9699760">
    <ele>1623.0</ele>
    <time>2023-08-11T00:38:19Z</time>
   </trkpt>
   <trkpt lat="39.6960190" lon="-104.9699610">
    <ele>1623.0</ele>
    <time>2023-08-11T00:38:20Z</time>
   </trkpt>
   <trkpt lat="39.6960520" lon="-104.9699530">
    <ele>1623.0</ele>
    <time>2023-08-11T00:38:21Z</time>
   </trkpt>
   <trkpt lat="39.6960860" lon="-104.9699450">
    <ele>1623.0</ele>
    <time>2023-08-11T00:38:22Z</time>
   </trkpt>
   <trkpt lat="39.6961230" lon="-104.9699230">
    <ele>1623.1</ele>
    <time>2023-08-11T00:38:23Z</time>
   </trkpt>
   <trkpt lat="39.6961600" lon="-104.9699240">
    <ele>1623.1</ele>
    <time>2023-08-11T00:38:24Z</time>
   </trkpt>
   <trkpt lat="39.6961920" lon="-104.9699050">
    <ele>1623.1</ele>
    <time>2023-08-11T00:38:25Z</time>
   </trkpt>
   <trkpt lat="39.6962100" lon="-104.9698970">
    <ele>1623.2</ele>
    <time>2023-08-11T00:38:26Z</time>
   </trkpt>
   <trkpt lat="39.6962480" lon="-104.9698900">
    <ele>1623.2</ele>
    <time>2023-08-11T00:38:27Z</time>
   </trkpt>
   <trkpt lat="39.6962850" lon="-104.9698780">
    <ele>1623.2</ele>
    <time>2023-08-11T00:38:28Z</time>
   </trkpt>
   <trkpt lat="39.6963160" lon="-104.9698600">
    <ele>1623.2</ele>
    <time>2023-08-11T00:38:29Z</time>
   </trkpt>
   <trkpt lat="39.6963490" lon="-104.9698520">
    <ele>1623.3</ele>
    <time>2023-08-11T00:38:30Z</time>
   </trkpt>
   <trkpt lat="39.6963800" lon="-104.9698420">
    <ele>1623.3</ele>
    <time>2023-08-11T00:38:31Z</time>
   </trkpt>
   <trkpt lat="39.6964160" lon="-104.9698260">
    <ele>1623.3</ele>
    <time>2023-08-11T00:38:32Z</time>
   </trkpt>
   <trkpt lat="39.6964300" lon="-104.9698160">
    <ele>1623.3</ele>
    <time>2023-08-11T00:38:33Z</time>
   </trkpt>
   <trkpt lat="39.6964700" lon="-104.9698030">
    <ele>1623.4</ele>
    <time>2023-08-11T00:38:34Z</time>
   </trkpt>
   <trkpt lat="39.6965000" lon="-104.9697840">
    <ele>1623.4</ele>
    <time>2023-08-11T00:38:35Z</time>
   </trkpt>
   <trkpt lat="39.6965370" lon="-104.9697670">
    <ele>1623.4</ele>
    <time>2023-08-11T00:38:36Z</time>
   </trkpt>
   <trkpt lat="39.6965760" lon="-104.9697560">
    <ele>1623.4</ele>
    <time>2023-08-11T00:38:37Z</time>
   </trkpt>
   <trkpt lat="39.6965890" lon="-104.9697540">
    <ele>1623.5</ele>
    <time>2023-08-11T00:38:38Z</time>
   </trkpt>
   <trkpt lat="39.6966320" lon="-104.9697610">
    <ele>1623.5</ele>
    <time>2023-08-11T00:38:39Z</time>
   </trkpt>
   <trkpt lat="39.6966750" lon="-104.9697570">
    <ele>1623.5</ele>
    <time>2023-08-11T00:38:40Z</time>
   </trkpt>
   <trkpt lat="39.6966920" lon="-104.9697600">
    <ele>1623.5</ele>
    <time>2023-08-11T00:38:41Z</time>
   </trkpt>
   <trkpt lat="39.6967390" lon="-104.9697690">
    <ele>1623.5</ele>
    <time>2023-08-11T00:38:43Z</time>
   </trkpt>
   <trkpt lat="39.6967550" lon="-104.9697700">
    <ele>1623.5</ele>
    <time>2023-08-11T00:38:44Z</time>
   </trkpt>
   <trkpt lat="39.6967720" lon="-104.9697710">
    <ele>1623.5</ele>
    <time>2023-08-11T00:38:45Z</time>
   </trkpt>
   <trkpt lat="39.6968040" lon="-104.9697710">
    <ele>1623.6</ele>
    <time>2023-08-11T00:38:46Z</time>
   </trkpt>
   <trkpt lat="39.6968370" lon="-104.9697860">
    <ele>1623.6</ele>
    <time>2023-08-11T00:38:47Z</time>
   </trkpt>
   <trkpt lat="39.6968490" lon="-104.9697880">
    <ele>1623.6</ele>
    <time>2023-08-11T00:38:48Z</time>
   </trkpt>
   <trkpt lat="39.6968740" lon="-104.9697720">
    <ele>1623.6</ele>
    <time>2023-08-11T00:38:49Z</time>
   </trkpt>
   <trkpt lat="39.6969110" lon="-104.9697340">
    <ele>1623.6</ele>
    <time>2023-08-11T00:38:50Z</time>
   </trkpt>
   <trkpt lat="39.6969270" lon="-104.9697170">
    <ele>1623.6</ele>
    <time>2023-08-11T00:38:51Z</time>
   </trkpt>
   <trkpt lat="39.6969430" lon="-104.9696810">
    <ele>1623.6</ele>
    <time>2023-08-11T00:38:52Z</time>
   </trkpt>
   <trkpt lat="39.6969600" lon="-104.9696340">
    <ele>1623.5</ele>
    <time>2023-08-11T00:38:53Z</time>
   </trkpt>
   <trkpt lat="39.6969630" lon="-104.9696160">
    <ele>1623.5</ele>
    <time>2023-08-11T00:38:54Z</time>
   </trkpt>
   <trkpt lat="39.6969870" lon="-104.9695840">
    <ele>1623.5</ele>
    <time>2023-08-11T00:38:55Z</time>
   </trkpt>
   <trkpt lat="39.6970170" lon="-104.9695890">
    <ele>1623.5</ele>
    <time>2023-08-11T00:38:56Z</time>
   </trkpt>
   <trkpt lat="39.6970580" lon="-104.9696320">
    <ele>1623.4</ele>
    <time>2023-08-11T00:38:57Z</time>
   </trkpt>
   <trkpt lat="39.6970930" lon="-104.9696820">
    <ele>1623.4</ele>
    <time>2023-08-11T00:38:58Z</time>
   </trkpt>
   <trkpt lat="39.6971220" lon="-104.9696870">
    <ele>1623.4</ele>
    <time>2023-08-11T00:38:59Z</time>
   </trkpt>
   <trkpt lat="39.6971370" lon="-104.9696930">
    <ele>1623.3</ele>
    <time>2023-08-11T00:39:00Z</time>
   </trkpt>
   <trkpt lat="39.6971630" lon="-104.9697140">
    <ele>1623.3</ele>
    <time>2023-08-11T00:39:01Z</time>
   </trkpt>
   <trkpt lat="39.6971900" lon="-104.9697290">
    <ele>1623.3</ele>
    <time>2023-08-11T00:39:02Z</time>
   </trkpt>
   <trkpt lat="39.6972190" lon="-104.9697500">
    <ele>1623.3</ele>
    <time>2023-08-11T00:39:03Z</time>
   </trkpt>
   <trkpt lat="39.6972470" lon="-104.9697850">
    <ele>1623.2</ele>
    <time>2023-08-11T00:39:04Z</time>
   </trkpt>
   <trkpt lat="39.6972600" lon="-104.9697980">
    <ele>1623.2</ele>
    <time>2023-08-11T00:39:05Z</time>
   </trkpt>
   <trkpt lat="39.6972830" lon="-104.9698220">
    <ele>1623.2</ele>
    <time>2023-08-11T00:39:06Z</time>
   </trkpt>
   <trkpt lat="39.6973100" lon="-104.9698570">
    <ele>1623.2</ele>
    <time>2023-08-11T00:39:07Z</time>
   </trkpt>
   <trkpt lat="39.6973200" lon="-104.9698710">
    <ele>1623.2</ele>
    <time>2023-08-11T00:39:08Z</time>
   </trkpt>
   <trkpt lat="39.6973440" lon="-104.9698950">
    <ele>1623.2</ele>
    <time>2023-08-11T00:39:09Z</time>
   </trkpt>
   <trkpt lat="39.6973780" lon="-104.9699140">
    <ele>1623.2</ele>
    <time>2023-08-11T00:39:10Z</time>
   </trkpt>
   <trkpt lat="39.6973900" lon="-104.9699180">
    <ele>1623.2</ele>
    <time>2023-08-11T00:39:11Z</time>
   </trkpt>
   <trkpt lat="39.6974260" lon="-104.9699280">
    <ele>1623.1</ele>
    <time>2023-08-11T00:39:12Z</time>
   </trkpt>
   <trkpt lat="39.6974390" lon="-104.9699310">
    <ele>1623.1</ele>
    <time>2023-08-11T00:39:13Z</time>
   </trkpt>
   <trkpt lat="39.6974710" lon="-104.9699200">
    <ele>1623.0</ele>
    <time>2023-08-11T00:39:14Z</time>
   </trkpt>
   <trkpt lat="39.6974930" lon="-104.9699000">
    <ele>1623.0</ele>
    <time>2023-08-11T00:39:15Z</time>
   </trkpt>
   <trkpt lat="39.6975190" lon="-104.9698760">
    <ele>1622.9</ele>
    <time>2023-08-11T00:39:16Z</time>
   </trkpt>
   <trkpt lat="39.6975360" lon="-104.9698420">
    <ele>1622.8</ele>
    <time>2023-08-11T00:39:17Z</time>
   </trkpt>
   <trkpt lat="39.6975640" lon="-104.9698100">
    <ele>1622.7</ele>
    <time>2023-08-11T00:39:18Z</time>
   </trkpt>
   <trkpt lat="39.6975990" lon="-104.9697850">
    <ele>1622.6</ele>
    <time>2023-08-11T00:39:19Z</time>
   </trkpt>
   <trkpt lat="39.6976150" lon="-104.9697770">
    <ele>1622.6</ele>
    <time>2023-08-11T00:39:20Z</time>
   </trkpt>
   <trkpt lat="39.6976400" lon="-104.9697630">
    <ele>1622.5</ele>
    <time>2023-08-11T00:39:21Z</time>
   </trkpt>
   <trkpt lat="39.6976680" lon="-104.9697280">
    <ele>1622.4</ele>
    <time>2023-08-11T00:39:22Z</time>
   </trkpt>
   <trkpt lat="39.6976750" lon="-104.9697100">
    <ele>1622.4</ele>
    <time>2023-08-11T00:39:23Z</time>
   </trkpt>
   <trkpt lat="39.6977080" lon="-104.9696760">
    <ele>1622.2</ele>
    <time>2023-08-11T00:39:24Z</time>
   </trkpt>
   <trkpt lat="39.6977360" lon="-104.9696640">
    <ele>1622.1</ele>
    <time>2023-08-11T00:39:25Z</time>
   </trkpt>
   <trkpt lat="39.6977680" lon="-104.9696520">
    <ele>1622.0</ele>
    <time>2023-08-11T00:39:26Z</time>
   </trkpt>
   <trkpt lat="39.6977960" lon="-104.9696320">
    <ele>1621.9</ele>
    <time>2023-08-11T00:39:27Z</time>
   </trkpt>
   <trkpt lat="39.6978190" lon="-104.9696060">
    <ele>1621.8</ele>
    <time>2023-08-11T00:39:28Z</time>
   </trkpt>
   <trkpt lat="39.6978470" lon="-104.9695810">
    <ele>1621.6</ele>
    <time>2023-08-11T00:39:29Z</time>
   </trkpt>
   <trkpt lat="39.6978760" lon="-104.9695680">
    <ele>1621.5</ele>
    <time>2023-08-11T00:39:30Z</time>
   </trkpt>
   <trkpt lat="39.6979330" lon="-104.9695680">
    <ele>1621.3</ele>
    <time>2023-08-11T00:39:31Z</time>
   </trkpt>
   <trkpt lat="39.6979660" lon="-104.9695660">
    <ele>1621.2</ele>
    <time>2023-08-11T00:39:32Z</time>
   </trkpt>
   <trkpt lat="39.6979950" lon="-104.9695840">
    <ele>1621.1</ele>
    <time>2023-08-11T00:39:33Z</time>
   </trkpt>
   <trkpt lat="39.6980270" lon="-104.9696030">
    <ele>1621.0</ele>
    <time>2023-08-11T00:39:34Z</time>
   </trkpt>
   <trkpt lat="39.6980630" lon="-104.9696240">
    <ele>1620.9</ele>
    <time>2023-08-11T00:39:35Z</time>
   </trkpt>
   <trkpt lat="39.6980770" lon="-104.9696310">
    <ele>1620.8</ele>
    <time>2023-08-11T00:39:36Z</time>
   </trkpt>
   <trkpt lat="39.6981100" lon="-104.9696470">
    <ele>1620.8</ele>
    <time>2023-08-11T00:39:37Z</time>
   </trkpt>
   <trkpt lat="39.6981410" lon="-104.9696600">
    <ele>1620.7</ele>
    <time>2023-08-11T00:39:38Z</time>
   </trkpt>
   <trkpt lat="39.6981560" lon="-104.9696670">
    <ele>1620.7</ele>
    <time>2023-08-11T00:39:39Z</time>
   </trkpt>
   <trkpt lat="39.6981910" lon="-104.9696690">
    <ele>1620.7</ele>
    <time>2023-08-11T00:39:40Z</time>
   </trkpt>
   <trkpt lat="39.6982170" lon="-104.9696820">
    <ele>1620.6</ele>
    <time>2023-08-11T00:39:41Z</time>
   </trkpt>
   <trkpt lat="39.6982590" lon="-104.9696800">
    <ele>1620.6</ele>
    <time>2023-08-11T00:39:42Z</time>
   </trkpt>
   <trkpt lat="39.6982750" lon="-104.9696780">
    <ele>1620.6</ele>
    <time>2023-08-11T00:39:43Z</time>
   </trkpt>
   <trkpt lat="39.6983140" lon="-104.9696720">
    <ele>1620.6</ele>
    <time>2023-08-11T00:39:44Z</time>
   </trkpt>
   <trkpt lat="39.6983290" lon="-104.9696720">
    <ele>1620.6</ele>
    <time>2023-08-11T00:39:45Z</time>
   </trkpt>
   <trkpt lat="39.6983600" lon="-104.9696620">
    <ele>1620.6</ele>
    <time>2023-08-11T00:39:46Z</time>
   </trkpt>
   <trkpt lat="39.6983970" lon="-104.9696630">
    <ele>1620.6</ele>
    <time>2023-08-11T00:39:47Z</time>
   </trkpt>
   <trkpt lat="39.6984120" lon="-104.9696590">
    <ele>1620.6</ele>
    <time>2023-08-11T00:39:48Z</time>
   </trkpt>
   <trkpt lat="39.6984450" lon="-104.9696540">
    <ele>1620.6</ele>
    <time>2023-08-11T00:39:49Z</time>
   </trkpt>
   <trkpt lat="39.6984790" lon="-104.9696540">
    <ele>1620.6</ele>
    <time>2023-08-11T00:39:50Z</time>
   </trkpt>
   <trkpt lat="39.6984910" lon="-104.9696500">
    <ele>1620.6</ele>
    <time>2023-08-11T00:39:51Z</time>
   </trkpt>
   <trkpt lat="39.6985220" lon="-104.9696480">
    <ele>1620.6</ele>
    <time>2023-08-11T00:39:52Z</time>
   </trkpt>
   <trkpt lat="39.6985550" lon="-104.9696420">
    <ele>1620.7</ele>
    <time>2023-08-11T00:39:53Z</time>
   </trkpt>
   <trkpt lat="39.6985690" lon="-104.9696400">
    <ele>1620.7</ele>
    <time>2023-08-11T00:39:54Z</time>
   </trkpt>
   <trkpt lat="39.6986030" lon="-104.9696500">
    <ele>1620.7</ele>
    <time>2023-08-11T00:39:55Z</time>
   </trkpt>
   <trkpt lat="39.6986380" lon="-104.9696530">
    <ele>1620.7</ele>
    <time>2023-08-11T00:39:56Z</time>
   </trkpt>
   <trkpt lat="39.6986530" lon="-104.9696510">
    <ele>1620.7</ele>
    <time>2023-08-11T00:39:57Z</time>
   </trkpt>
   <trkpt lat="39.6986840" lon="-104.9696510">
    <ele>1620.8</ele>
    <time>2023-08-11T00:39:58Z</time>
   </trkpt>
   <trkpt lat="39.6987260" lon="-104.9696450">
    <ele>1620.8</ele>
    <time>2023-08-11T00:39:59Z</time>
   </trkpt>
   <trkpt lat="39.6987460" lon="-104.9696390">
    <ele>1620.8</ele>
    <time>2023-08-11T00:40:00Z</time>
   </trkpt>
   <trkpt lat="39.6987740" lon="-104.9696400">
    <ele>1620.9</ele>
    <time>2023-08-11T00:40:01Z</time>
   </trkpt>
   <trkpt lat="39.6988120" lon="-104.9696440">
    <ele>1620.9</ele>
    <time>2023-08-11T00:40:02Z</time>
   </trkpt>
   <trkpt lat="39.6988280" lon="-104.9696390">
    <ele>1620.9</ele>
    <time>2023-08-11T00:40:03Z</time>
   </trkpt>
   <trkpt lat="39.6988670" lon="-104.9696540">
    <ele>1621.0</ele>
    <time>2023-08-11T00:40:04Z</time>
   </trkpt>
   <trkpt lat="39.6988820" lon="-104.9696610">
    <ele>1621.0</ele>
    <time>2023-08-11T00:40:05Z</time>
   </trkpt>
   <trkpt lat="39.6989150" lon="-104.9696620">
    <ele>1621.0</ele>
    <time>2023-08-11T00:40:06Z</time>
   </trkpt>
   <trkpt lat="39.6989600" lon="-104.9696570">
    <ele>1621.0</ele>
    <time>2023-08-11T00:40:07Z</time>
   </trkpt>
   <trkpt lat="39.6989770" lon="-104.9696480">
    <ele>1621.0</ele>
    <time>2023-08-11T00:40:08Z</time>
   </trkpt>
   <trkpt lat="39.6990120" lon="-104.9696270">
    <ele>1621.0</ele>
    <time>2023-08-11T00:40:09Z</time>
   </trkpt>
   <trkpt lat="39.6990520" lon="-104.9696240">
    <ele>1621.1</ele>
    <time>2023-08-11T00:40:10Z</time>
   </trkpt>
   <trkpt lat="39.6990670" lon="-104.9696250">
    <ele>1621.1</ele>
    <time>2023-08-11T00:40:11Z</time>
   </trkpt>
   <trkpt lat="39.6991050" lon="-104.9696330">
    <ele>1621.1</ele>
    <time>2023-08-11T00:40:12Z</time>
   </trkpt>
   <trkpt lat="39.6991440" lon="-104.9696490">
    <ele>1621.1</ele>
    <time>2023-08-11T00:40:13Z</time>
   </trkpt>
   <trkpt lat="39.6991620" lon="-104.9696480">
    <ele>1621.1</ele>
    <time>2023-08-11T00:40:14Z</time>
   </trkpt>
   <trkpt lat="39.6991930" lon="-104.9696550">
    <ele>1621.1</ele>
    <time>2023-08-11T00:40:15Z</time>
   </trkpt>
   <trkpt lat="39.6992240" lon="-104.9696660">
    <ele>1621.1</ele>
    <time>2023-08-11T00:40:16Z</time>
   </trkpt>
   <trkpt lat="39.6992610" lon="-104.9696700">
    <ele>1621.1</ele>
    <time>2023-08-11T00:40:17Z</time>
   </trkpt>
   <trkpt lat="39.6992910" lon="-104.9696900">
    <ele>1621.1</ele>
    <time>2023-08-11T00:40:18Z</time>
   </trkpt>
   <trkpt lat="39.6993350" lon="-104.9697040">
    <ele>1621.2</ele>
    <time>2023-08-11T00:40:19Z</time>
   </trkpt>
   <trkpt lat="39.6993560" lon="-104.9697050">
    <ele>1621.2</ele>
    <time>2023-08-11T00:40:20Z</time>
   </trkpt>
   <trkpt lat="39.6993860" lon="-104.9697100">
    <ele>1621.2</ele>
    <time>2023-08-11T00:40:21Z</time>
   </trkpt>
   <trkpt lat="39.6994310" lon="-104.9697170">
    <ele>1621.2</ele>
    <time>2023-08-11T00:40:22Z</time>
   </trkpt>
   <trkpt lat="39.6994500" lon="-104.9697210">
    <ele>1621.3</ele>
    <time>2023-08-11T00:40:23Z</time>
   </trkpt>
   <trkpt lat="39.6994760" lon="-104.9697320">
    <ele>1621.3</ele>
    <time>2023-08-11T00:40:24Z</time>
   </trkpt>
   <trkpt lat="39.6995070" lon="-104.9697200">
    <ele>1621.3</ele>
    <time>2023-08-11T00:40:25Z</time>
   </trkpt>
   <trkpt lat="39.6995450" lon="-104.9697150">
    <ele>1621.4</ele>
    <time>2023-08-11T00:40:26Z</time>
   </trkpt>
   <trkpt lat="39.6995800" lon="-104.9697240">
    <ele>1621.4</ele>
    <time>2023-08-11T00:40:27Z</time>
   </trkpt>
   <trkpt lat="39.6996070" lon="-104.9697290">
    <ele>1621.4</ele>
    <time>2023-08-11T00:40:28Z</time>
   </trkpt>
   <trkpt lat="39.6996380" lon="-104.9697090">
    <ele>1621.5</ele>
    <time>2023-08-11T00:40:29Z</time>
   </trkpt>
   <trkpt lat="39.6996530" lon="-104.9697010">
    <ele>1621.5</ele>
    <time>2023-08-11T00:40:30Z</time>
   </trkpt>
   <trkpt lat="39.6996930" lon="-104.9697000">
    <ele>1621.6</ele>
    <time>2023-08-11T00:40:31Z</time>
   </trkpt>
   <trkpt lat="39.6997360" lon="-104.9696940">
    <ele>1621.7</ele>
    <time>2023-08-11T00:40:32Z</time>
   </trkpt>
   <trkpt lat="39.6997560" lon="-104.9696860">
    <ele>1621.7</ele>
    <time>2023-08-11T00:40:33Z</time>
   </trkpt>
   <trkpt lat="39.6997880" lon="-104.9696700">
    <ele>1621.8</ele>
    <time>2023-08-11T00:40:34Z</time>
   </trkpt>
   <trkpt lat="39.6998270" lon="-104.9696590">
    <ele>1621.9</ele>
    <time>2023-08-11T00:40:35Z</time>
   </trkpt>
   <trkpt lat="39.6998410" lon="-104.9696560">
    <ele>1621.9</ele>
    <time>2023-08-11T00:40:36Z</time>
   </trkpt>
   <trkpt lat="39.6998720" lon="-104.9696550">
    <ele>1621.9</ele>
    <time>2023-08-11T00:40:37Z</time>
   </trkpt>
   <trkpt lat="39.6999010" lon="-104.9696480">
    <ele>1622.0</ele>
    <time>2023-08-11T00:40:38Z</time>
   </trkpt>
   <trkpt lat="39.6999300" lon="-104.9696200">
    <ele>1622.1</ele>
    <time>2023-08-11T00:40:39Z</time>
   </trkpt>
   <trkpt lat="39.6999670" lon="-104.9696050">
    <ele>1622.1</ele>
    <time>2023-08-11T00:40:40Z</time>
   </trkpt>
   <trkpt lat="39.6999790" lon="-104.9695940">
    <ele>1622.2</ele>
    <time>2023-08-11T00:40:41Z</time>
   </trkpt>
   <trkpt lat="39.7000100" lon="-104.9695700">
    <ele>1622.2</ele>
    <time>2023-08-11T00:40:42Z</time>
   </trkpt>
   <trkpt lat="39.7000450" lon="-104.9695510">
    <ele>1622.3</ele>
    <time>2023-08-11T00:40:43Z</time>
   </trkpt>
   <trkpt lat="39.7000610" lon="-104.9695430">
    <ele>1622.4</ele>
    <time>2023-08-11T00:40:44Z</time>
   </trkpt>
   <trkpt lat="39.7000860" lon="-104.9695280">
    <ele>1622.4</ele>
    <time>2023-08-11T00:40:45Z</time>
   </trkpt>
   <trkpt lat="39.7001140" lon="-104.9695150">
    <ele>1622.5</ele>
    <time>2023-08-11T00:40:46Z</time>
   </trkpt>
   <trkpt lat="39.7001470" lon="-104.9694980">
    <ele>1622.5</ele>
    <time>2023-08-11T00:40:47Z</time>
   </trkpt>
   <trkpt lat="39.7001760" lon="-104.9695100">
    <ele>1622.6</ele>
    <time>2023-08-11T00:40:49Z</time>
   </trkpt>
   <trkpt lat="39.7002030" lon="-104.9695150">
    <ele>1622.7</ele>
    <time>2023-08-11T00:40:50Z</time>
   </trkpt>
   <trkpt lat="39.7002380" lon="-104.9695150">
    <ele>1622.7</ele>
    <time>2023-08-11T00:40:51Z</time>
   </trkpt>
   <trkpt lat="39.7002670" lon="-104.9695260">
    <ele>1622.7</ele>
    <time>2023-08-11T00:40:52Z</time>
   </trkpt>
   <trkpt lat="39.7003060" lon="-104.9695380">
    <ele>1622.7</ele>
    <time>2023-08-11T00:40:53Z</time>
   </trkpt>
   <trkpt lat="39.7003250" lon="-104.9695460">
    <ele>1622.7</ele>
    <time>2023-08-11T00:40:54Z</time>
   </trkpt>
   <trkpt lat="39.7003540" lon="-104.9695610">
    <ele>1622.7</ele>
    <time>2023-08-11T00:40:55Z</time>
   </trkpt>
   <trkpt lat="39.7003630" lon="-104.9695670">
    <ele>1622.7</ele>
    <time>2023-08-11T00:40:56Z</time>
   </trkpt>
   <trkpt lat="39.7003950" lon="-104.9695820">
    <ele>1622.7</ele>
    <time>2023-08-11T00:40:57Z</time>
   </trkpt>
   <trkpt lat="39.7004320" lon="-104.9695930">
    <ele>1622.7</ele>
    <time>2023-08-11T00:40:58Z</time>
   </trkpt>
   <trkpt lat="39.7004480" lon="-104.9695980">
    <ele>1622.7</ele>
    <time>2023-08-11T00:40:59Z</time>
   </trkpt>
   <trkpt lat="39.7004780" lon="-104.9696060">
    <ele>1622.7</ele>
    <time>2023-08-11T00:41:00Z</time>
   </trkpt>
   <trkpt lat="39.7005170" lon="-104.9696260">
    <ele>1622.8</ele>
    <time>2023-08-11T00:41:01Z</time>
   </trkpt>
   <trkpt lat="39.7005330" lon="-104.9696300">
    <ele>1622.8</ele>
    <time>2023-08-11T00:41:02Z</time>
   </trkpt>
   <trkpt lat="39.7005650" lon="-104.9696510">
    <ele>1622.8</ele>
    <time>2023-08-11T00:41:03Z</time>
   </trkpt>
   <trkpt lat="39.7005740" lon="-104.9696570">
    <ele>1622.8</ele>
    <time>2023-08-11T00:41:04Z</time>
   </trkpt>
   <trkpt lat="39.7006070" lon="-104.9696660">
    <ele>1622.8</ele>
    <time>2023-08-11T00:41:05Z</time>
   </trkpt>
   <trkpt lat="39.7006310" lon="-104.9696900">
    <ele>1622.8</ele>
    <time>2023-08-11T00:41:06Z</time>
   </trkpt>
   <trkpt lat="39.7006660" lon="-104.9697070">
    <ele>1622.8</ele>
    <time>2023-08-11T00:41:07Z</time>
   </trkpt>
   <trkpt lat="39.7007050" lon="-104.9697290">
    <ele>1622.8</ele>
    <time>2023-08-11T00:41:08Z</time>
   </trkpt>
   <trkpt lat="39.7007380" lon="-104.9697400">
    <ele>1622.8</ele>
    <time>2023-08-11T00:41:09Z</time>
   </trkpt>
   <trkpt lat="39.7007500" lon="-104.9697450">
    <ele>1622.8</ele>
    <time>2023-08-11T00:41:10Z</time>
   </trkpt>
   <trkpt lat="39.7007710" lon="-104.9697740">
    <ele>1622.8</ele>
    <time>2023-08-11T00:41:11Z</time>
   </trkpt>
   <trkpt lat="39.7007850" lon="-104.9698080">
    <ele>1622.8</ele>
    <time>2023-08-11T00:41:12Z</time>
   </trkpt>
   <trkpt lat="39.7008180" lon="-104.9698380">
    <ele>1622.8</ele>
    <time>2023-08-11T00:41:13Z</time>
   </trkpt>
   <trkpt lat="39.7008460" lon="-104.9698620">
    <ele>1622.8</ele>
    <time>2023-08-11T00:41:14Z</time>
   </trkpt>
   <trkpt lat="39.7008820" lon="-104.9698850">
    <ele>1622.8</ele>
    <time>2023-08-11T00:41:15Z</time>
   </trkpt>
   <trkpt lat="39.7008980" lon="-104.9698980">
    <ele>1622.8</ele>
    <time>2023-08-11T00:41:16Z</time>
   </trkpt>
   <trkpt lat="39.7009280" lon="-104.9699340">
    <ele>1622.8</ele>
    <time>2023-08-11T00:41:17Z</time>
   </trkpt>
   <trkpt lat="39.7009390" lon="-104.9699510">
    <ele>1622.8</ele>
    <time>2023-08-11T00:41:18Z</time>
   </trkpt>
   <trkpt lat="39.7009630" lon="-104.9699870">
    <ele>1622.8</ele>
    <time>2023-08-11T00:41:19Z</time>
   </trkpt>
   <trkpt lat="39.7009900" lon="-104.9700080">
    <ele>1622.8</ele>
    <time>2023-08-11T00:41:20Z</time>
   </trkpt>
   <trkpt lat="39.7010040" lon="-104.9700130">
    <ele>1622.8</ele>
    <time>2023-08-11T00:41:21Z</time>
   </trkpt>
   <trkpt lat="39.7010340" lon="-104.9700410">
    <ele>1622.8</ele>
    <time>2023-08-11T00:41:22Z</time>
   </trkpt>
   <trkpt lat="39.7010790" lon="-104.9700520">
    <ele>1622.8</ele>
    <time>2023-08-11T00:41:23Z</time>
   </trkpt>
   <trkpt lat="39.7011000" lon="-104.9700590">
    <ele>1622.8</ele>
    <time>2023-08-11T00:41:24Z</time>
   </trkpt>
   <trkpt lat="39.7011350" lon="-104.9700660">
    <ele>1622.8</ele>
    <time>2023-08-11T00:41:25Z</time>
   </trkpt>
   <trkpt lat="39.7011710" lon="-104.9700650">
    <ele>1622.8</ele>
    <time>2023-08-11T00:41:26Z</time>
   </trkpt>
   <trkpt lat="39.7011920" lon="-104.9700690">
    <ele>1622.9</ele>
    <time>2023-08-11T00:41:27Z</time>
   </trkpt>
   <trkpt lat="39.7012210" lon="-104.9700720">
    <ele>1622.9</ele>
    <time>2023-08-11T00:41:28Z</time>
   </trkpt>
   <trkpt lat="39.7012510" lon="-104.9700660">
    <ele>1622.9</ele>
    <time>2023-08-11T00:41:29Z</time>
   </trkpt>
   <trkpt lat="39.7012860" lon="-104.9700710">
    <ele>1623.0</ele>
    <time>2023-08-11T00:41:30Z</time>
   </trkpt>
   <trkpt lat="39.7013290" lon="-104.9700780">
    <ele>1623.0</ele>
    <time>2023-08-11T00:41:31Z</time>
   </trkpt>
   <trkpt lat="39.7013470" lon="-104.9700790">
    <ele>1623.1</ele>
    <time>2023-08-11T00:41:32Z</time>
   </trkpt>
   <trkpt lat="39.7013770" lon="-104.9701010">
    <ele>1623.1</ele>
    <time>2023-08-11T00:41:33Z</time>
   </trkpt>
   <trkpt lat="39.7014090" lon="-104.9701160">
    <ele>1623.2</ele>
    <time>2023-08-11T00:41:34Z</time>
   </trkpt>
   <trkpt lat="39.7014240" lon="-104.9701210">
    <ele>1623.1</ele>
    <time>2023-08-11T00:41:35Z</time>
   </trkpt>
   <trkpt lat="39.7014530" lon="-104.9701330">
    <ele>1623.1</ele>
    <time>2023-08-11T00:41:36Z</time>
   </trkpt>
   <trkpt lat="39.7014870" lon="-104.9701480">
    <ele>1623.2</ele>
    <time>2023-08-11T00:41:37Z</time>
   </trkpt>
   <trkpt lat="39.7015040" lon="-104.9701540">
    <ele>1623.2</ele>
    <time>2023-08-11T00:41:38Z</time>
   </trkpt>
   <trkpt lat="39.7015280" lon="-104.9701710">
    <ele>1623.2</ele>
    <time>2023-08-11T00:41:39Z</time>
   </trkpt>
   <trkpt lat="39.7015610" lon="-104.9701990">
    <ele>1623.2</ele>
    <time>2023-08-11T00:41:40Z</time>
   </trkpt>
   <trkpt lat="39.7015750" lon="-104.9702160">
    <ele>1623.2</ele>
    <time>2023-08-11T00:41:41Z</time>
   </trkpt>
   <trkpt lat="39.7015850" lon="-104.9702540">
    <ele>1623.1</ele>
    <time>2023-08-11T00:41:42Z</time>
   </trkpt>
   <trkpt lat="39.7016410" lon="-104.9703230">
    <ele>1623.2</ele>
    <time>2023-08-11T00:41:43Z</time>
   </trkpt>
   <trkpt lat="39.7016870" lon="-104.9703680">
    <ele>1623.2</ele>
    <time>2023-08-11T00:41:59Z</time>
   </trkpt>
   <trkpt lat="39.7017320" lon="-104.9704140">
    <ele>1623.1</ele>
    <time>2023-08-11T00:42:00Z</time>
   </trkpt>
   <trkpt lat="39.7017780" lon="-104.9704590">
    <ele>1623.1</ele>
    <time>2023-08-11T00:42:01Z</time>
   </trkpt>
   <trkpt lat="39.7018060" lon="-104.9704830">
    <ele>1623.1</ele>
    <time>2023-08-11T00:42:02Z</time>
   </trkpt>
   <trkpt lat="39.7018180" lon="-104.9704920">
    <ele>1623.1</ele>
    <time>2023-08-11T00:42:03Z</time>
   </trkpt>
   <trkpt lat="39.7018670" lon="-104.9705130">
    <ele>1623.1</ele>
    <time>2023-08-11T00:42:04Z</time>
   </trkpt>
   <trkpt lat="39.7019020" lon="-104.9705390">
    <ele>1623.1</ele>
    <time>2023-08-11T00:42:05Z</time>
   </trkpt>
   <trkpt lat="39.7019400" lon="-104.9705710">
    <ele>1623.0</ele>
    <time>2023-08-11T00:42:06Z</time>
   </trkpt>
   <trkpt lat="39.7019530" lon="-104.9705920">
    <ele>1622.9</ele>
    <time>2023-08-11T00:42:07Z</time>
   </trkpt>
   <trkpt lat="39.7019760" lon="-104.9706200">
    <ele>1622.9</ele>
    <time>2023-08-11T00:42:08Z</time>
   </trkpt>
   <trkpt lat="39.7020120" lon="-104.9706480">
    <ele>1622.7</ele>
    <time>2023-08-11T00:42:09Z</time>
   </trkpt>
   <trkpt lat="39.7020260" lon="-104.9706640">
    <ele>1622.7</ele>
    <time>2023-08-11T00:42:10Z</time>
   </trkpt>
   <trkpt lat="39.7020500" lon="-104.9706910">
    <ele>1622.6</ele>
    <time>2023-08-11T00:42:11Z</time>
   </trkpt>
   <trkpt lat="39.7020840" lon="-104.9707310">
    <ele>1622.5</ele>
    <time>2023-08-11T00:42:12Z</time>
   </trkpt>
   <trkpt lat="39.7021070" lon="-104.9707570">
    <ele>1622.5</ele>
    <time>2023-08-11T00:42:13Z</time>
   </trkpt>
   <trkpt lat="39.7021480" lon="-104.9707780">
    <ele>1622.3</ele>
    <time>2023-08-11T00:42:14Z</time>
   </trkpt>
   <trkpt lat="39.7021670" lon="-104.9707940">
    <ele>1622.3</ele>
    <time>2023-08-11T00:42:15Z</time>
   </trkpt>
   <trkpt lat="39.7021940" lon="-104.9708190">
    <ele>1622.2</ele>
    <time>2023-08-11T00:42:16Z</time>
   </trkpt>
   <trkpt lat="39.7022210" lon="-104.9708340">
    <ele>1622.2</ele>
    <time>2023-08-11T00:42:17Z</time>
   </trkpt>
   <trkpt lat="39.7022540" lon="-104.9708700">
    <ele>1622.0</ele>
    <time>2023-08-11T00:42:18Z</time>
   </trkpt>
   <trkpt lat="39.7022910" lon="-104.9708830">
    <ele>1622.0</ele>
    <time>2023-08-11T00:42:19Z</time>
   </trkpt>
   <trkpt lat="39.7023080" lon="-104.9708850">
    <ele>1621.9</ele>
    <time>2023-08-11T00:42:20Z</time>
   </trkpt>
   <trkpt lat="39.7023460" lon="-104.9709030">
    <ele>1621.7</ele>
    <time>2023-08-11T00:42:21Z</time>
   </trkpt>
   <trkpt lat="39.7023860" lon="-104.9709350">
    <ele>1621.5</ele>
    <time>2023-08-11T00:42:22Z</time>
   </trkpt>
   <trkpt lat="39.7024060" lon="-104.9709500">
    <ele>1621.4</ele>
    <time>2023-08-11T00:42:23Z</time>
   </trkpt>
   <trkpt lat="39.7024380" lon="-104.9709800">
    <ele>1621.3</ele>
    <time>2023-08-11T00:42:24Z</time>
   </trkpt>
   <trkpt lat="39.7024700" lon="-104.9710130">
    <ele>1621.1</ele>
    <time>2023-08-11T00:42:25Z</time>
   </trkpt>
   <trkpt lat="39.7024830" lon="-104.9710260">
    <ele>1621.1</ele>
    <time>2023-08-11T00:42:26Z</time>
   </trkpt>
   <trkpt lat="39.7025070" lon="-104.9710630">
    <ele>1620.9</ele>
    <time>2023-08-11T00:42:27Z</time>
   </trkpt>
   <trkpt lat="39.7025180" lon="-104.9710760">
    <ele>1620.9</ele>
    <time>2023-08-11T00:42:28Z</time>
   </trkpt>
   <trkpt lat="39.7025370" lon="-104.9711160">
    <ele>1620.7</ele>
    <time>2023-08-11T00:42:29Z</time>
   </trkpt>
   <trkpt lat="39.7025380" lon="-104.9711590">
    <ele>1620.6</ele>
    <time>2023-08-11T00:42:30Z</time>
   </trkpt>
   <trkpt lat="39.7025360" lon="-104.9711970">
    <ele>1620.4</ele>
    <time>2023-08-11T00:42:31Z</time>
   </trkpt>
   <trkpt lat="39.7025490" lon="-104.9712480">
    <ele>1620.3</ele>
    <time>2023-08-11T00:42:32Z</time>
   </trkpt>
   <trkpt lat="39.7025580" lon="-104.9712920">
    <ele>1620.2</ele>
    <time>2023-08-11T00:42:33Z</time>
   </trkpt>
   <trkpt lat="39.7025590" lon="-104.9713050">
    <ele>1620.1</ele>
    <time>2023-08-11T00:42:34Z</time>
   </trkpt>
   <trkpt lat="39.7025730" lon="-104.9713450">
    <ele>1620.0</ele>
    <time>2023-08-11T00:42:35Z</time>
   </trkpt>
   <trkpt lat="39.7025640" lon="-104.9713900">
    <ele>1619.9</ele>
    <time>2023-08-11T00:42:36Z</time>
   </trkpt>
   <trkpt lat="39.7025580" lon="-104.9714370">
    <ele>1619.8</ele>
    <time>2023-08-11T00:42:37Z</time>
   </trkpt>
   <trkpt lat="39.7025580" lon="-104.9714610">
    <ele>1619.7</ele>
    <time>2023-08-11T00:42:38Z</time>
   </trkpt>
   <trkpt lat="39.7025530" lon="-104.9715010">
    <ele>1619.7</ele>
    <time>2023-08-11T00:42:39Z</time>
   </trkpt>
   <trkpt lat="39.7025520" lon="-104.9715270">
    <ele>1619.6</ele>
    <time>2023-08-11T00:42:40Z</time>
   </trkpt>
   <trkpt lat="39.7025480" lon="-104.9715400">
    <ele>1619.6</ele>
    <time>2023-08-11T00:42:41Z</time>
   </trkpt>
   <trkpt lat="39.7025400" lon="-104.9715500">
    <ele>1619.6</ele>
    <time>2023-08-11T00:42:42Z</time>
   </trkpt>
   <trkpt lat="39.7025340" lon="-104.9715560">
    <ele>1619.6</ele>
    <time>2023-08-11T00:42:43Z</time>
   </trkpt>
   <trkpt lat="39.7025350" lon="-104.9715710">
    <ele>1619.5</ele>
    <time>2023-08-11T00:42:44Z</time>
   </trkpt>
   <trkpt lat="39.7025350" lon="-104.9715820">
    <ele>1619.5</ele>
    <time>2023-08-11T00:42:45Z</time>
   </trkpt>
  </trkseg>
 </trk>
</gpx>
