<?xml version="1.0" encoding="UTF-8"?>
<gpx creator="StravaGPX" version="1.1" xmlns="http://www.topografix.com/GPX/1/1" xmlns:xsi="http://www.w3.org/2001/XMLSchema-instance" xsi:schemaLocation="http://www.topografix.com/GPX/1/1 http://www.topografix.com/GPX/1/1/gpx.xsd">
 <metadata>
  <time>2023-08-11T02:17:50Z</time>
 </metadata>
 <trk>
  <name>Run Part 2</name>
  <type>running</type>
  <trkseg>
   <trkpt lat="39.6974740" lon="-104.9707010">
    <ele>1622.1</ele>
    <time>2023-08-11T02:17:50Z</time>
   </trkpt>
   <trkpt lat="39.6974670" lon="-104.9706850">
    <ele>1622.0</ele>
    <time>2023-08-11T02:17:51Z</time>
   </trkpt>
   <trkpt lat="39.6974590" lon="-104.9706700">
    <ele>1622.0</ele>
    <time>2023-08-11T02:17:52Z</time>
   </trkpt>
   <trkpt lat="39.6974470" lon="-104.9706570">
    <ele>1622.0</ele>
    <time>2023-08-11T02:17:53Z</time>
   </trkpt>
   <trkpt lat="39.6974340" lon="-104.9706380">
    <ele>1622.0</ele>
    <time>2023-08-11T02:17:54Z</time>
   </trkpt>
   <trkpt lat="39.6974150" lon="-104.9706010">
    <ele>1622.0</ele>
    <time>2023-08-11T02:17:55Z</time>
   </trkpt>
   <trkpt lat="39.6974090" lon="-104.9705890">
    <ele>1622.0</ele>
    <time>2023-08-11T02:17:56Z</time>
   </trkpt>
   <trkpt lat="39.6973880" lon="-104.9705530">
    <ele>1622.0</ele>
    <time>2023-08-11T02:17:57Z</time>
   </trkpt>
   <trkpt lat="39.6973810" lon="-104.9705400">
    <ele>1622.0</ele>
    <time>2023-08-11T02:17:58Z</time>
   </trkpt>
   <trkpt lat="39.6973580" lon="-104.9705060">
    <ele>1622.0</ele>
    <time>2023-08-11T02:17:59Z</time>
   </trkpt>
   <trkpt lat="39.6973500" lon="-104.9704950">
    <ele>1622.0</ele>
    <time>2023-08-11T02:18:00Z</time>
   </trkpt>
   <trkpt lat="39.6973310" lon="-104.9704610">
    <ele>1622.0</ele>
    <time>2023-08-11T02:18:01Z</time>
   </trkpt>
   <trkpt lat="39.6973240" lon="-104.9704500">
    <ele>1622.0</ele>
    <time>2023-08-11T02:18:02Z</time>
   </trkpt>
   <trkpt lat="39.6972970" lon="-104.9704200">
    <ele>1622.1</ele>
    <time>2023-08-11T02:18:03Z</time>
   </trkpt>
   <trkpt lat="39.6972910" lon="-104.9704070">
    <ele>1622.1</ele>
    <time>2023-08-11T02:18:04Z</time>
   </trkpt>
   <trkpt lat="39.6972540" lon="-104.9703700">
    <ele>1622.1</ele>
    <time>2023-08-11T02:18:05Z</time>
   </trkpt>
   <trkpt lat="39.6972370" lon="-104.9703530">
    <ele>1622.2</ele>
    <time>2023-08-11T02:18:06Z</time>
   </trkpt>
   <trkpt lat="39.6972140" lon="-104.9703200">
    <ele>1622.2</ele>
    <time>2023-08-11T02:18:07Z</time>
   </trkpt>
   <trkpt lat="39.6971900" lon="-104.9702990">
    <ele>1622.3</ele>
    <time>2023-08-11T02:18:08Z</time>
   </trkpt>
   <trkpt lat="39.6971620" lon="-104.9702840">
    <ele>1622.3</ele>
    <time>2023-08-11T02:18:09Z</time>
   </trkpt>
   <trkpt lat="39.6971370" lon="-104.9702490">
    <ele>1622.4</ele>
    <time>2023-08-11T02:18:10Z</time>
   </trkpt>
   <trkpt lat="39.6971160" lon="-104.9702230">
    <ele>1622.4</ele>
    <time>2023-08-11T02:18:11Z</time>
   </trkpt>
   <trkpt lat="39.6970910" lon="-104.9701980">
    <ele>1622.4</ele>
    <time>2023-08-11T02:18:12Z</time>
   </trkpt>
   <trkpt lat="39.6970610" lon="-104.9701770">
    <ele>1622.4</ele>
    <time>2023-08-11T02:18:13Z</time>
   </trkpt>
   <trkpt lat="39.6970310" lon="-104.9701680">
    <ele>1622.4</ele>
    <time>2023-08-11T02:18:14Z</time>
   </trkpt>
   <trkpt lat="39.6970010" lon="-104.9701680">
    <ele>1622.4</ele>
    <time>2023-08-11T02:18:15Z</time>
   </trkpt>
   <trkpt lat="39.6969700" lon="-104.9701540">
    <ele>1622.4</ele>
    <time>2023-08-11T02:18:16Z</time>
   </trkpt>
   <trkpt lat="39.6969390" lon="-104.9701340">
    <ele>1622.4</ele>
    <time>2023-08-11T02:18:17Z</time>
   </trkpt>
   <trkpt lat="39.6969030" lon="-104.9701160">
    <ele>1622.4</ele>
    <time>2023-08-11T02:18:18Z</time>
   </trkpt>
   <trkpt lat="39.6968770" lon="-104.9700710">
    <ele>1622.4</ele>
    <time>2023-08-11T02:18:19Z</time>
   </trkpt>
   <trkpt lat="39.6968550" lon="-104.9700400">
    <ele>1622.4</ele>
    <time>2023-08-11T02:18:20Z</time>
   </trkpt>
   <trkpt lat="39.6968270" lon="-104.9700150">
    <ele>1622.4</ele>
    <time>2023-08-11T02:18:21Z</time>
   </trkpt>
   <trkpt lat="39.6968020" lon="-104.9699700">
    <ele>1622.4</ele>
    <time>2023-08-11T02:18:22Z</time>
   </trkpt>
   <trkpt lat="39.6967750" lon="-104.9699520">
    <ele>1622.4</ele>
    <time>2023-08-11T02:18:23Z</time>
   </trkpt>
   <trkpt lat="39.6967380" lon="-104.9699340">
    <ele>1622.4</ele>
    <time>2023-08-11T02:18:24Z</time>
   </trkpt>
   <trkpt lat="39.6967090" lon="-104.9699090">
    <ele>1622.4</ele>
    <time>2023-08-11T02:18:25Z</time>
   </trkpt>
   <trkpt lat="39.6966830" lon="-104.9698860">
    <ele>1622.4</ele>
    <time>2023-08-11T02:18:26Z</time>
   </trkpt>
   <trkpt lat="39.6966600" lon="-104.9698580">
    <ele>1622.5</ele>
    <time>2023-08-11T02:18:27Z</time>
   </trkpt>
   <trkpt lat="39.6966310" lon="-104.9698410">
    <ele>1622.5</ele>
    <time>2023-08-11T02:18:28Z</time>
   </trkpt>
   <trkpt lat="39.6966050" lon="-104.9698320">
    <ele>1622.5</ele>
    <time>2023-08-11T02:18:29Z</time>
   </trkpt>
   <trkpt lat="39.6965700" lon="-104.9698120">
    <ele>1622.6</ele>
    <time>2023-08-11T02:18:30Z</time>
   </trkpt>
   <trkpt lat="39.6965420" lon="-104.9697950">
    <ele>1622.6</ele>
    <time>2023-08-11T02:18:31Z</time>
   </trkpt>
   <trkpt lat="39.6965090" lon="-104.9697940">
    <ele>1622.7</ele>
    <time>2023-08-11T02:18:32Z</time>
   </trkpt>
   <trkpt lat="39.6964750" lon="-104.9697860">
    <ele>1622.7</ele>
    <time>2023-08-11T02:18:33Z</time>
   </trkpt>
   <trkpt lat="39.6964610" lon="-104.9697850">
    <ele>1622.8</ele>
    <time>2023-08-11T02:18:34Z</time>
   </trkpt>
   <trkpt lat="39.6964170" lon="-104.9697950">
    <ele>1622.8</ele>
    <time>2023-08-11T02:18:35Z</time>
   </trkpt>
   <trkpt lat="39.6963970" lon="-104.9697990">
    <ele>1622.8</ele>
    <time>2023-08-11T02:18:36Z</time>
   </trkpt>
   <trkpt lat="39.6963670" lon="-104.9697710">
    <ele>1622.9</ele>
    <time>2023-08-11T02:18:37Z</time>
   </trkpt>
   <trkpt lat="39.6963360" lon="-104.9697580">
    <ele>1623.0</ele>
    <time>2023-08-11T02:18:38Z</time>
   </trkpt>
   <trkpt lat="39.6963200" lon="-104.9697530">
    <ele>1623.0</ele>
    <time>2023-08-11T02:18:39Z</time>
   </trkpt>
   <trkpt lat="39.6962810" lon="-104.9697650">
    <ele>1623.1</ele>
    <time>2023-08-11T02:18:40Z</time>
   </trkpt>
   <trkpt lat="39.6962650" lon="-104.9697700">
    <ele>1623.1</ele>
    <time>2023-08-11T02:18:41Z</time>
   </trkpt>
   <trkpt lat="39.6962330" lon="-104.9697780">
    <ele>1623.1</ele>
    <time>2023-08-11T02:18:42Z</time>
   </trkpt>
   <trkpt lat="39.6962020" lon="-104.9697860">
    <ele>1623.2</ele>
    <time>2023-08-11T02:18:43Z</time>
   </trkpt>
   <trkpt lat="39.6961720" lon="-104.9698050">
    <ele>1623.2</ele>
    <time>2023-08-11T02:18:44Z</time>
   </trkpt>
   <trkpt lat="39.6961360" lon="-104.9697990">
    <ele>1623.2</ele>
    <time>2023-08-11T02:18:45Z</time>
   </trkpt>
   <trkpt lat="39.6961090" lon="-104.9697960">
    <ele>1623.2</ele>
    <time>2023-08-11T02:18:46Z</time>
   </trkpt>
   <trkpt lat="39.6960720" lon="-104.9697660">
    <ele>1623.2</ele>
    <time>2023-08-11T02:18:47Z</time>
   </trkpt>
   <trkpt lat="39.6960570" lon="-104.9697510">
    <ele>1623.2</ele>
    <time>2023-08-11T02:18:48Z</time>
   </trkpt>
   <trkpt lat="39.6960280" lon="-104.9697430">
    <ele>1623.2</ele>
    <time>2023-08-11T02:18:49Z</time>
   </trkpt>
   <trkpt lat="39.6960000" lon="-104.9697250">
    <ele>1623.2</ele>
    <time>2023-08-11T02:18:50Z</time>
   </trkpt>
   <trkpt lat="39.6959750" lon="-104.9696970">
    <ele>1623.2</ele>
    <time>2023-08-11T02:18:51Z</time>
   </trkpt>
   <trkpt lat="39.6959350" lon="-104.9696920">
    <ele>1623.2</ele>
    <time>2023-08-11T02:18:52Z</time>
   </trkpt>
   <trkpt lat="39.6959200" lon="-104.9696890">
    <ele>1623.3</ele>
    <time>2023-08-11T02:18:53Z</time>
   </trkpt>
   <trkpt lat="39.6958990" lon="-104.9696560">
    <ele>1623.3</ele>
    <time>2023-08-11T02:18:54Z</time>
   </trkpt>
   <trkpt lat="39.6958650" lon="-104.9696570">
    <ele>1623.3</ele>
    <time>2023-08-11T02:18:56Z</time>
   </trkpt>
   <trkpt lat="39.6958370" lon="-104.9696450">
    <ele>1623.3</ele>
    <time>2023-08-11T02:18:57Z</time>
   </trkpt>
   <trkpt lat="39.6958080" lon="-104.9696130">
    <ele>1623.3</ele>
    <time>2023-08-11T02:18:58Z</time>
   </trkpt>
   <trkpt lat="39.6957820" lon="-104.9696010">
    <ele>1623.3</ele>
    <time>2023-08-11T02:18:59Z</time>
   </trkpt>
   <trkpt lat="39.6957600" lon="-104.9695770">
    <ele>1623.3</ele>
    <time>2023-08-11T02:19:00Z</time>
   </trkpt>
   <trkpt lat="39.6957210" lon="-104.9695610">
    <ele>1623.4</ele>
    <time>2023-08-11T02:19:01Z</time>
   </trkpt>
   <trkpt lat="39.6957040" lon="-104.9695590">
    <ele>1623.4</ele>
    <time>2023-08-11T02:19:02Z</time>
   </trkpt>
   <trkpt lat="39.6956780" lon="-104.9695300">
    <ele>1623.4</ele>
    <time>2023-08-11T02:19:03Z</time>
   </trkpt>
   <trkpt lat="39.6956580" lon="-104.9695060">
    <ele>1623.4</ele>
    <time>2023-08-11T02:19:04Z</time>
   </trkpt>
   <trkpt lat="39.6956150" lon="-104.9694910">
    <ele>1623.4</ele>
    <time>2023-08-11T02:19:05Z</time>
   </trkpt>
   <trkpt lat="39.6955860" lon="-104.9694790">
    <ele>1623.4</ele>
    <time>2023-08-11T02:19:06Z</time>
   </trkpt>
   <trkpt lat="39.6955450" lon="-104.9694680">
    <ele>1623.4</ele>
    <time>2023-08-11T02:19:07Z</time>
   </trkpt>
   <trkpt lat="39.6955130" lon="-104.9694370">
    <ele>1623.3</ele>
    <time>2023-08-11T02:19:08Z</time>
   </trkpt>
   <trkpt lat="39.6954650" lon="-104.9694250">
    <ele>1623.3</ele>
    <time>2023-08-11T02:19:09Z</time>
   </trkpt>
   <trkpt lat="39.6954260" lon="-104.9694010">
    <ele>1623.3</ele>
    <time>2023-08-11T02:19:10Z</time>
   </trkpt>
   <trkpt lat="39.6953970" lon="-104.9693700">
    <ele>1623.3</ele>
    <time>2023-08-11T02:19:11Z</time>
   </trkpt>
   <trkpt lat="39.6953630" lon="-104.9693710">
    <ele>1623.3</ele>
    <time>2023-08-11T02:19:12Z</time>
   </trkpt>
   <trkpt lat="39.6953250" lon="-104.9693470">
    <ele>1623.3</ele>
    <time>2023-08-11T02:19:13Z</time>
   </trkpt>
   <trkpt lat="39.6953070" lon="-104.9693350">
    <ele>1623.3</ele>
    <time>2023-08-11T02:19:14Z</time>
   </trkpt>
   <trkpt lat="39.6952680" lon="-104.9693220">
    <ele>1623.3</ele>
    <time>2023-08-11T02:19:15Z</time>
   </trkpt>
   <trkpt lat="39.6952240" lon="-104.9692960">
    <ele>1623.3</ele>
    <time>2023-08-11T02:19:16Z</time>
   </trkpt>
   <trkpt lat="39.6951990" lon="-104.9692840">
    <ele>1623.3</ele>
    <time>2023-08-11T02:19:17Z</time>
   </trkpt>
   <trkpt lat="39.6951630" lon="-104.9692670">
    <ele>1623.3</ele>
    <time>2023-08-11T02:19:18Z</time>
   </trkpt>
   <trkpt lat="39.6951430" lon="-104.9692220">
    <ele>1623.4</ele>
    <time>2023-08-11T02:19:19Z</time>
   </trkpt>
   <trkpt lat="39.6951110" lon="-104.9692060">
    <ele>1623.4</ele>
    <time>2023-08-11T02:19:20Z</time>
   </trkpt>
   <trkpt lat="39.6950810" lon="-104.9691880">
    <ele>1623.4</ele>
    <time>2023-08-11T02:19:21Z</time>
   </trkpt>
   <trkpt lat="39.6950400" lon="-104.9691530">
    <ele>1623.3</ele>
    <time>2023-08-11T02:19:22Z</time>
   </trkpt>
   <trkpt lat="39.6950100" lon="-104.9691330">
    <ele>1623.3</ele>
    <time>2023-08-11T02:19:23Z</time>
   </trkpt>
   <trkpt lat="39.6949800" lon="-104.9691080">
    <ele>1623.3</ele>
    <time>2023-08-11T02:19:24Z</time>
   </trkpt>
   <trkpt lat="39.6949480" lon="-104.9690890">
    <ele>1623.3</ele>
    <time>2023-08-11T02:19:25Z</time>
   </trkpt>
   <trkpt lat="39.6949340" lon="-104.9690830">
    <ele>1623.3</ele>
    <time>2023-08-11T02:19:26Z</time>
   </trkpt>
   <trkpt lat="39.6949030" lon="-104.9690580">
    <ele>1623.3</ele>
    <time>2023-08-11T02:19:27Z</time>
   </trkpt>
   <trkpt lat="39.6948720" lon="-104.9690470">
    <ele>1623.2</ele>
    <time>2023-08-11T02:19:28Z</time>
   </trkpt>
   <trkpt lat="39.6948370" lon="-104.9690170">
    <ele>1623.2</ele>
    <time>2023-08-11T02:19:29Z</time>
   </trkpt>
   <trkpt lat="39.6948110" lon="-104.9689910">
    <ele>1623.2</ele>
    <time>2023-08-11T02:19:30Z</time>
   </trkpt>
   <trkpt lat="39.6948020" lon="-104.9689810">
    <ele>1623.2</ele>
    <time>2023-08-11T02:19:31Z</time>
   </trkpt>
   <trkpt lat="39.6947720" lon="-104.9689590">
    <ele>1623.1</ele>
    <time>2023-08-11T02:19:32Z</time>
   </trkpt>
   <trkpt lat="39.6947410" lon="-104.9689270">
    <ele>1623.1</ele>
    <time>2023-08-11T02:19:33Z</time>
   </trkpt>
   <trkpt lat="39.6947250" lon="-104.9689110">
    <ele>1623.1</ele>
    <time>2023-08-11T02:19:34Z</time>
   </trkpt>
   <trkpt lat="39.6946990" lon="-104.9688860">
    <ele>1623.0</ele>
    <time>2023-08-11T02:19:35Z</time>
   </trkpt>
   <trkpt lat="39.6946610" lon="-104.9688680">
    <ele>1622.9</ele>
    <time>2023-08-11T02:19:36Z</time>
   </trkpt>
   <trkpt lat="39.6946420" lon="-104.9688650">
    <ele>1622.9</ele>
    <time>2023-08-11T02:19:37Z</time>
   </trkpt>
   <trkpt lat="39.6946160" lon="-104.9688430">
    <ele>1622.8</ele>
    <time>2023-08-11T02:19:38Z</time>
   </trkpt>
   <trkpt lat="39.6945820" lon="-104.9688030">
    <ele>1622.7</ele>
    <time>2023-08-11T02:19:39Z</time>
   </trkpt>
   <trkpt lat="39.6945640" lon="-104.9687910">
    <ele>1622.7</ele>
    <time>2023-08-11T02:19:40Z</time>
   </trkpt>
   <trkpt lat="39.6945300" lon="-104.9687860">
    <ele>1622.6</ele>
    <time>2023-08-11T02:19:41Z</time>
   </trkpt>
   <trkpt lat="39.6945010" lon="-104.9687470">
    <ele>1622.5</ele>
    <time>2023-08-11T02:19:42Z</time>
   </trkpt>
   <trkpt lat="39.6944770" lon="-104.9687080">
    <ele>1622.5</ele>
    <time>2023-08-11T02:19:43Z</time>
   </trkpt>
   <trkpt lat="39.6944470" lon="-104.9686720">
    <ele>1622.4</ele>
    <time>2023-08-11T02:19:44Z</time>
   </trkpt>
   <trkpt lat="39.6944390" lon="-104.9686530">
    <ele>1622.3</ele>
    <time>2023-08-11T02:19:45Z</time>
   </trkpt>
   <trkpt lat="39.6944190" lon="-104.9686260">
    <ele>1622.3</ele>
    <time>2023-08-11T02:19:46Z</time>
   </trkpt>
   <trkpt lat="39.6943840" lon="-104.9686350">
    <ele>1622.2</ele>
    <time>2023-08-11T02:19:47Z</time>
   </trkpt>
   <trkpt lat="39.6943490" lon="-104.9686190">
    <ele>1622.1</ele>
    <time>2023-08-11T02:19:48Z</time>
   </trkpt>
   <trkpt lat="39.6943310" lon="-104.9685900">
    <ele>1622.1</ele>
    <time>2023-08-11T02:19:49Z</time>
   </trkpt>
   <trkpt lat="39.6943020" lon="-104.9685910">
    <ele>1622.1</ele>
    <time>2023-08-11T02:19:50Z</time>
   </trkpt>
   <trkpt lat="39.6942740" lon="-104.9685660">
    <ele>1622.0</ele>
    <time>2023-08-11T02:19:51Z</time>
   </trkpt>
   <trkpt lat="39.6942460" lon="-104.9685450">
    <ele>1622.0</ele>
    <time>2023-08-11T02:19:52Z</time>
   </trkpt>
   <trkpt lat="39.6942330" lon="-104.9685040">
    <ele>1622.0</ele>
    <time>2023-08-11T02:19:53Z</time>
   </trkpt>
   <trkpt lat="39.6942070" lon="-104.9684750">
    <ele>1622.0</ele>
    <time>2023-08-11T02:19:54Z</time>
   </trkpt>
   <trkpt lat="39.6941820" lon="-104.9684520">
    <ele>1622.0</ele>
    <time>2023-08-11T02:19:55Z</time>
   </trkpt>
   <trkpt lat="39.6941430" lon="-104.9684210">
    <ele>1621.9</ele>
    <time>2023-08-11T02:19:56Z</time>
   </trkpt>
   <trkpt lat="39.6941130" lon="-104.9684010">
    <ele>1621.9</ele>
    <time>2023-08-11T02:19:57Z</time>
   </trkpt>
   <trkpt lat="39.6940820" lon="-104.9683780">
    <ele>1621.9</ele>
    <time>2023-08-11T02:19:58Z</time>
   </trkpt>
   <trkpt lat="39.6940510" lon="-104.9683340">
    <ele>1621.9</ele>
    <time>2023-08-11T02:19:59Z</time>
   </trkpt>
   <trkpt lat="39.6940270" lon="-104.9683110">
    <ele>1621.9</ele>
    <time>2023-08-11T02:20:00Z</time>
   </trkpt>
   <trkpt lat="39.6940010" lon="-104.9682800">
    <ele>1621.9</ele>
    <time>2023-08-11T02:20:01Z</time>
   </trkpt>
   <trkpt lat="39.6939720" lon="-104.9682510">
    <ele>1621.8</ele>
    <time>2023-08-11T02:20:02Z</time>
   </trkpt>
   <trkpt lat="39.6939380" lon="-104.9682180">
    <ele>1621.8</ele>
    <time>2023-08-11T02:20:03Z</time>
   </trkpt>
   <trkpt lat="39.6939230" lon="-104.9682060">
    <ele>1621.8</ele>
    <time>2023-08-11T02:20:04Z</time>
   </trkpt>
   <trkpt lat="39.6939040" lon="-104.9681650">
    <ele>1621.8</ele>
    <time>2023-08-11T02:20:05Z</time>
   </trkpt>
   <trkpt lat="39.6938600" lon="-104.9681330">
    <ele>1621.8</ele>
    <time>2023-08-11T02:20:06Z</time>
   </trkpt>
   <trkpt lat="39.6938400" lon="-104.9681120">
    <ele>1621.7</ele>
    <time>2023-08-11T02:20:07Z</time>
   </trkpt>
   <trkpt lat="39.6938070" lon="-104.9680860">
    <ele>1621.7</ele>
    <time>2023-08-11T02:20:08Z</time>
   </trkpt>
   <trkpt lat="39.6937810" lon="-104.9680660">
    <ele>1621.7</ele>
    <time>2023-08-11T02:20:09Z</time>
   </trkpt>
   <trkpt lat="39.6937460" lon="-104.9680380">
    <ele>1621.7</ele>
    <time>2023-08-11T02:20:10Z</time>
   </trkpt>
   <trkpt lat="39.6937060" lon="-104.9680150">
    <ele>1621.7</ele>
    <time>2023-08-11T02:20:11Z</time>
   </trkpt>
   <trkpt lat="39.6936920" lon="-104.9680030">
    <ele>1621.7</ele>
    <time>2023-08-11T02:20:12Z</time>
   </trkpt>
   <trkpt lat="39.6936570" lon="-104.9679670">
    <ele>1621.8</ele>
    <time>2023-08-11T02:20:13Z</time>
   </trkpt>
   <trkpt lat="39.6936250" lon="-104.9679550">
    <ele>1621.8</ele>
    <time>2023-08-11T02:20:14Z</time>
   </trkpt>
   <trkpt lat="39.6935940" lon="-104.9679450">
    <ele>1621.8</ele>
    <time>2023-08-11T02:20:15Z</time>
   </trkpt>
   <trkpt lat="39.6935640" lon="-104.9679150">
    <ele>1621.9</ele>
    <time>2023-08-11T02:20:16Z</time>
   </trkpt>
   <trkpt lat="39.6935370" lon="-104.9678980">
    <ele>1621.9</ele>
    <time>2023-08-11T02:20:17Z</time>
   </trkpt>
   <trkpt lat="39.6935070" lon="-104.9678740">
    <ele>1621.9</ele>
    <time>2023-08-11T02:20:18Z</time>
   </trkpt>
   <trkpt lat="39.6934770" lon="-104.9678700">
    <ele>1622.0</ele>
    <time>2023-08-11T02:20:19Z</time>
   </trkpt>
   <trkpt lat="39.6934580" lon="-104.9678430">
    <ele>1622.0</ele>
    <time>2023-08-11T02:20:20Z</time>
   </trkpt>
   <trkpt lat="39.6934340" lon="-104.9678190">
    <ele>1622.0</ele>
    <time>2023-08-11T02:20:21Z</time>
   </trkpt>
   <trkpt lat="39.6933990" lon="-104.9678120">
    <ele>1622.1</ele>
    <time>2023-08-11T02:20:22Z</time>
   </trkpt>
   <trkpt lat="39.6933860" lon="-104.9678080">
    <ele>1622.1</ele>
    <time>2023-08-11T02:20:23Z</time>
   </trkpt>
   <trkpt lat="39.6933580" lon="-104.9677820">
    <ele>1622.1</ele>
    <time>2023-08-11T02:20:24Z</time>
   </trkpt>
   <trkpt lat="39.6933270" lon="-104.9677630">
    <ele>1622.2</ele>
    <time>2023-08-11T02:20:25Z</time>
   </trkpt>
   <trkpt lat="39.6932940" lon="-104.9677430">
    <ele>1622.2</ele>
    <time>2023-08-11T02:20:26Z</time>
   </trkpt>
   <trkpt lat="39.6932830" lon="-104.9677350">
    <ele>1622.2</ele>
    <time>2023-08-11T02:20:27Z</time>
   </trkpt>
   <trkpt lat="39.6932390" lon="-104.9677280">
    <ele>1622.3</ele>
    <time>2023-08-11T02:20:28Z</time>
   </trkpt>
   <trkpt lat="39.6932190" lon="-104.9677280">
    <ele>1622.3</ele>
    <time>2023-08-11T02:20:29Z</time>
   </trkpt>
   <trkpt lat="39.6931820" lon="-104.9677110">
    <ele>1622.4</ele>
    <time>2023-08-11T02:20:30Z</time>
   </trkpt>
   <trkpt lat="39.6931500" lon="-104.9677260">
    <ele>1622.5</ele>
    <time>2023-08-11T02:20:31Z</time>
   </trkpt>
   <trkpt lat="39.6931370" lon="-104.9677210">
    <ele>1622.5</ele>
    <time>2023-08-11T02:20:32Z</time>
   </trkpt>
   <trkpt lat="39.6931040" lon="-104.9677120">
    <ele>1622.6</ele>
    <time>2023-08-11T02:20:33Z</time>
   </trkpt>
   <trkpt lat="39.6930760" lon="-104.9677060">
    <ele>1622.6</ele>
    <time>2023-08-11T02:20:34Z</time>
   </trkpt>
   <trkpt lat="39.6930520" lon="-104.9676720">
    <ele>1622.6</ele>
    <time>2023-08-11T02:20:35Z</time>
   </trkpt>
   <trkpt lat="39.6930540" lon="-104.9676330">
    <ele>1622.6</ele>
    <time>2023-08-11T02:20:36Z</time>
   </trkpt>
   <trkpt lat="39.6930510" lon="-104.9676190">
    <ele>1622.6</ele>
    <time>2023-08-11T02:20:37Z</time>
   </trkpt>
   <trkpt lat="39.6930340" lon="-104.9676210">
    <ele>1622.6</ele>
    <time>2023-08-11T02:20:38Z</time>
   </trkpt>
   <trkpt lat="39.6930270" lon="-104.9676270">
    <ele>1622.6</ele>
    <time>2023-08-11T02:20:39Z</time>
   </trkpt>
   <trkpt lat="39.6928050" lon="-104.9676670">
    <ele>1622.7</ele>
    <time>2023-08-11T02:20:52Z</time>
   </trkpt>
   <trkpt lat="39.6927870" lon="-104.9676830">
    <ele>1622.7</ele>
    <time>2023-08-11T02:20:53Z</time>
   </trkpt>
   <trkpt lat="39.6927760" lon="-104.9676940">
    <ele>1622.7</ele>
    <time>2023-08-11T02:20:54Z</time>
   </trkpt>
   <trkpt lat="39.6927640" lon="-104.9677180">
    <ele>1622.7</ele>
    <time>2023-08-11T02:20:55Z</time>
   </trkpt>
   <trkpt lat="39.6927380" lon="-104.9677490">
    <ele>1622.7</ele>
    <time>2023-08-11T02:20:56Z</time>
   </trkpt>
   <trkpt lat="39.6927300" lon="-104.9677570">
    <ele>1622.7</ele>
    <time>2023-08-11T02:20:57Z</time>
   </trkpt>
   <trkpt lat="39.6927120" lon="-104.9677950">
    <ele>1622.7</ele>
    <time>2023-08-11T02:20:58Z</time>
   </trkpt>
   <trkpt lat="39.6927020" lon="-104.9678040">
    <ele>1622.7</ele>
    <time>2023-08-11T02:20:59Z</time>
   </trkpt>
   <trkpt lat="39.6926800" lon="-104.9678270">
    <ele>1622.7</ele>
    <time>2023-08-11T02:21:00Z</time>
   </trkpt>
   <trkpt lat="39.6926530" lon="-104.9678590">
    <ele>1622.6</ele>
    <time>2023-08-11T02:21:02Z</time>
   </trkpt>
   <trkpt lat="39.6926220" lon="-104.9678870">
    <ele>1622.6</ele>
    <time>2023-08-11T02:21:03Z</time>
   </trkpt>
   <trkpt lat="39.6925910" lon="-104.9679270">
    <ele>1622.6</ele>
    <time>2023-08-11T02:21:04Z</time>
   </trkpt>
   <trkpt lat="39.6925780" lon="-104.9679420">
    <ele>1622.6</ele>
    <time>2023-08-11T02:21:05Z</time>
   </trkpt>
   <trkpt lat="39.6925570" lon="-104.9679670">
    <ele>1622.6</ele>
    <time>2023-08-11T02:21:06Z</time>
   </trkpt>
   <trkpt lat="39.6925350" lon="-104.9680150">
    <ele>1622.5</ele>
    <time>2023-08-11T02:21:07Z</time>
   </trkpt>
   <trkpt lat="39.6925270" lon="-104.9680330">
    <ele>1622.5</ele>
    <time>2023-08-11T02:21:08Z</time>
   </trkpt>
   <trkpt lat="39.6924960" lon="-104.9680580">
    <ele>1622.5</ele>
    <time>2023-08-11T02:21:09Z</time>
   </trkpt>
   <trkpt lat="39.6924800" lon="-104.9680880">
    <ele>1622.5</ele>
    <time>2023-08-11T02:21:10Z</time>
   </trkpt>
   <trkpt lat="39.6924510" lon="-104.9681040">
    <ele>1622.5</ele>
    <time>2023-08-11T02:21:11Z</time>
   </trkpt>
   <trkpt lat="39.6924250" lon="-104.9681270">
    <ele>1622.5</ele>
    <time>2023-08-11T02:21:12Z</time>
   </trkpt>
   <trkpt lat="39.6924010" lon="-104.9681590">
    <ele>1622.4</ele>
    <time>2023-08-11T02:21:13Z</time>
   </trkpt>
   <trkpt lat="39.6923800" lon="-104.9681880">
    <ele>1622.4</ele>
    <time>2023-08-11T02:21:14Z</time>
   </trkpt>
   <trkpt lat="39.6923490" lon="-104.9682260">
    <ele>1622.4</ele>
    <time>2023-08-11T02:21:15Z</time>
   </trkpt>
   <trkpt lat="39.6923310" lon="-104.9682350">
    <ele>1622.4</ele>
    <time>2023-08-11T02:21:16Z</time>
   </trkpt>
   <trkpt lat="39.6923020" lon="-104.9682580">
    <ele>1622.4</ele>
    <time>2023-08-11T02:21:17Z</time>
   </trkpt>
   <trkpt lat="39.6922890" lon="-104.9682630">
    <ele>1622.4</ele>
    <time>2023-08-11T02:21:18Z</time>
   </trkpt>
   <trkpt lat="39.6922460" lon="-104.9682900">
    <ele>1622.4</ele>
    <time>2023-08-11T02:21:19Z</time>
   </trkpt>
   <trkpt lat="39.6922150" lon="-104.9683220">
    <ele>1622.4</ele>
    <time>2023-08-11T02:21:20Z</time>
   </trkpt>
   <trkpt lat="39.6922060" lon="-104.9683350">
    <ele>1622.4</ele>
    <time>2023-08-11T02:21:21Z</time>
   </trkpt>
   <trkpt lat="39.6921700" lon="-104.9683570">
    <ele>1622.4</ele>
    <time>2023-08-11T02:21:22Z</time>
   </trkpt>
   <trkpt lat="39.6921320" lon="-104.9683860">
    <ele>1622.4</ele>
    <time>2023-08-11T02:21:23Z</time>
   </trkpt>
   <trkpt lat="39.6921130" lon="-104.9683960">
    <ele>1622.4</ele>
    <time>2023-08-11T02:21:24Z</time>
   </trkpt>
   <trkpt lat="39.6920900" lon="-104.9684170">
    <ele>1622.4</ele>
    <time>2023-08-11T02:21:25Z</time>
   </trkpt>
   <trkpt lat="39.6920580" lon="-104.9684450">
    <ele>1622.3</ele>
    <time>2023-08-11T02:21:26Z</time>
   </trkpt>
   <trkpt lat="39.6920410" lon="-104.9684530">
    <ele>1622.3</ele>
    <time>2023-08-11T02:21:27Z</time>
   </trkpt>
   <trkpt lat="39.6920120" lon="-104.9684730">
    <ele>1622.3</ele>
    <time>2023-08-11T02:21:28Z</time>
   </trkpt>
   <trkpt lat="39.6919860" lon="-104.9684840">
    <ele>1622.3</ele>
    <time>2023-08-11T02:21:29Z</time>
   </trkpt>
   <trkpt lat="39.6919540" lon="-104.9685000">
    <ele>1622.3</ele>
    <time>2023-08-11T02:21:30Z</time>
   </trkpt>
   <trkpt lat="39.6919280" lon="-104.9685110">
    <ele>1622.3</ele>
    <time>2023-08-11T02:21:31Z</time>
   </trkpt>
   <trkpt lat="39.6918940" lon="-104.9685380">
    <ele>1622.4</ele>
    <time>2023-08-11T02:21:32Z</time>
   </trkpt>
   <trkpt lat="39.6918820" lon="-104.9685440">
    <ele>1622.4</ele>
    <time>2023-08-11T02:21:33Z</time>
   </trkpt>
   <trkpt lat="39.6918480" lon="-104.9685690">
    <ele>1622.4</ele>
    <time>2023-08-11T02:21:34Z</time>
   </trkpt>
   <trkpt lat="39.6918320" lon="-104.9685810">
    <ele>1622.4</ele>
    <time>2023-08-11T02:21:35Z</time>
   </trkpt>
   <trkpt lat="39.6918040" lon="-104.9685940">
    <ele>1622.4</ele>
    <time>2023-08-11T02:21:36Z</time>
   </trkpt>
   <trkpt lat="39.6917700" lon="-104.9686140">
    <ele>1622.4</ele>
    <time>2023-08-11T02:21:37Z</time>
   </trkpt>
   <trkpt lat="39.6917530" lon="-104.9686180">
    <ele>1622.4</ele>
    <time>2023-08-11T02:21:38Z</time>
   </trkpt>
   <trkpt lat="39.6917270" lon="-104.9686330">
    <ele>1622.4</ele>
    <time>2023-08-11T02:21:39Z</time>
   </trkpt>
   <trkpt lat="39.6916940" lon="-104.9686380">
    <ele>1622.4</ele>
    <time>2023-08-11T02:21:40Z</time>
   </trkpt>
   <trkpt lat="39.6916580" lon="-104.9686240">
    <ele>1622.4</ele>
    <time>2023-08-11T02:21:41Z</time>
   </trkpt>
   <trkpt lat="39.6916140" lon="-104.9686270">
    <ele>1622.4</ele>
    <time>2023-08-11T02:21:42Z</time>
   </trkpt>
   <trkpt lat="39.6915950" lon="-104.9686270">
    <ele>1622.4</ele>
    <time>2023-08-11T02:21:43Z</time>
   </trkpt>
   <trkpt lat="39.6915580" lon="-104.9686290">
    <ele>1622.4</ele>
    <time>2023-08-11T02:21:44Z</time>
   </trkpt>
   <trkpt lat="39.6915130" lon="-104.9686270">
    <ele>1622.4</ele>
    <time>2023-08-11T02:21:45Z</time>
   </trkpt>
   <trkpt lat="39.6914930" lon="-104.9686280">
    <ele>1622.4</ele>
    <time>2023-08-11T02:21:46Z</time>
   </trkpt>
   <trkpt lat="39.6914670" lon="-104.9686400">
    <ele>1622.4</ele>
    <time>2023-08-11T02:21:47Z</time>
   </trkpt>
   <trkpt lat="39.6914320" lon="-104.9686420">
    <ele>1622.4</ele>
    <time>2023-08-11T02:21:48Z</time>
   </trkpt>
   <trkpt lat="39.6913890" lon="-104.9686230">
    <ele>1622.4</ele>
    <time>2023-08-11T02:21:49Z</time>
   </trkpt>
   <trkpt lat="39.6913560" lon="-104.9686240">
    <ele>1622.4</ele>
    <time>2023-08-11T02:21:50Z</time>
   </trkpt>
   <trkpt lat="39.6913440" lon="-104.9686240">
    <ele>1622.4</ele>
    <time>2023-08-11T02:21:51Z</time>
   </trkpt>
   <trkpt lat="39.6913150" lon="-104.9686250">
    <ele>1622.4</ele>
    <time>2023-08-11T02:21:52Z</time>
   </trkpt>
   <trkpt lat="39.6912720" lon="-104.9686260">
    <ele>1622.4</ele>
    <time>2023-08-11T02:21:53Z</time>
   </trkpt>
   <trkpt lat="39.6912520" lon="-104.9686230">
    <ele>1622.4</ele>
    <time>2023-08-11T02:21:54Z</time>
   </trkpt>
   <trkpt lat="39.6912150" lon="-104.9686310">
    <ele>1622.4</ele>
    <time>2023-08-11T02:21:55Z</time>
   </trkpt>
   <trkpt lat="39.6912010" lon="-104.9686330">
    <ele>1622.4</ele>
    <time>2023-08-11T02:21:56Z</time>
   </trkpt>
   <trkpt lat="39.6911680" lon="-104.9686220">
    <ele>1622.4</ele>
    <time>2023-08-11T02:21:57Z</time>
   </trkpt>
   <trkpt lat="39.6911380" lon="-104.9686270">
    <ele>1622.4</ele>
    <time>2023-08-11T02:21:58Z</time>
   </trkpt>
   <trkpt lat="39.6911250" lon="-104.9686280">
    <ele>1622.4</ele>
    <time>2023-08-11T02:21:59Z</time>
   </trkpt>
   <trkpt lat="39.6910790" lon="-104.9686160">
    <ele>1622.3</ele>
    <time>2023-08-11T02:22:00Z</time>
   </trkpt>
   <trkpt lat="39.6910460" lon="-104.9686200">
    <ele>1622.3</ele>
    <time>2023-08-11T02:22:01Z</time>
   </trkpt>
   <trkpt lat="39.6910120" lon="-104.9686280">
    <ele>1622.3</ele>
    <time>2023-08-11T02:22:02Z</time>
   </trkpt>
   <trkpt lat="39.6910010" lon="-104.9686360">
    <ele>1622.3</ele>
    <time>2023-08-11T02:22:03Z</time>
   </trkpt>
   <trkpt lat="39.6909750" lon="-104.9686500">
    <ele>1622.2</ele>
    <time>2023-08-11T02:22:04Z</time>
   </trkpt>
   <trkpt lat="39.6909400" lon="-104.9686290">
    <ele>1622.2</ele>
    <time>2023-08-11T02:22:05Z</time>
   </trkpt>
   <trkpt lat="39.6909110" lon="-104.9686290">
    <ele>1622.2</ele>
    <time>2023-08-11T02:22:06Z</time>
   </trkpt>
   <trkpt lat="39.6908830" lon="-104.9686310">
    <ele>1622.1</ele>
    <time>2023-08-11T02:22:07Z</time>
   </trkpt>
   <trkpt lat="39.6908440" lon="-104.9686350">
    <ele>1622.1</ele>
    <time>2023-08-11T02:22:08Z</time>
   </trkpt>
   <trkpt lat="39.6908310" lon="-104.9686400">
    <ele>1622.1</ele>
    <time>2023-08-11T02:22:09Z</time>
   </trkpt>
   <trkpt lat="39.6907760" lon="-104.9686340">
    <ele>1622.1</ele>
    <time>2023-08-11T02:22:10Z</time>
   </trkpt>
   <trkpt lat="39.6907420" lon="-104.9686470">
    <ele>1622.0</ele>
    <time>2023-08-11T02:22:11Z</time>
   </trkpt>
   <trkpt lat="39.6907150" lon="-104.9686440">
    <ele>1622.0</ele>
    <time>2023-08-11T02:22:12Z</time>
   </trkpt>
   <trkpt lat="39.6906810" lon="-104.9686450">
    <ele>1621.9</ele>
    <time>2023-08-11T02:22:13Z</time>
   </trkpt>
   <trkpt lat="39.6906480" lon="-104.9686390">
    <ele>1621.9</ele>
    <time>2023-08-11T02:22:14Z</time>
   </trkpt>
   <trkpt lat="39.6906200" lon="-104.9686330">
    <ele>1621.8</ele>
    <time>2023-08-11T02:22:15Z</time>
   </trkpt>
   <trkpt lat="39.6905740" lon="-104.9686400">
    <ele>1621.8</ele>
    <time>2023-08-11T02:22:16Z</time>
   </trkpt>
   <trkpt lat="39.6905340" lon="-104.9686320">
    <ele>1621.7</ele>
    <time>2023-08-11T02:22:17Z</time>
   </trkpt>
   <trkpt lat="39.6905030" lon="-104.9686190">
    <ele>1621.7</ele>
    <time>2023-08-11T02:22:18Z</time>
   </trkpt>
   <trkpt lat="39.6904690" lon="-104.9686190">
    <ele>1621.6</ele>
    <time>2023-08-11T02:22:19Z</time>
   </trkpt>
   <trkpt lat="39.6904360" lon="-104.9686150">
    <ele>1621.6</ele>
    <time>2023-08-11T02:22:20Z</time>
   </trkpt>
   <trkpt lat="39.6904040" lon="-104.9686090">
    <ele>1621.5</ele>
    <time>2023-08-11T02:22:21Z</time>
   </trkpt>
   <trkpt lat="39.6903680" lon="-104.9686210">
    <ele>1621.5</ele>
    <time>2023-08-11T02:22:22Z</time>
   </trkpt>
   <trkpt lat="39.6903360" lon="-104.9686360">
    <ele>1621.4</ele>
    <time>2023-08-11T02:22:23Z</time>
   </trkpt>
   <trkpt lat="39.6903000" lon="-104.9686330">
    <ele>1621.4</ele>
    <time>2023-08-11T02:22:24Z</time>
   </trkpt>
   <trkpt lat="39.6902630" lon="-104.9686350">
    <ele>1621.3</ele>
    <time>2023-08-11T02:22:25Z</time>
   </trkpt>
   <trkpt lat="39.6902510" lon="-104.9686380">
    <ele>1621.3</ele>
    <time>2023-08-11T02:22:26Z</time>
   </trkpt>
   <trkpt lat="39.6902140" lon="-104.9686270">
    <ele>1621.3</ele>
    <time>2023-08-11T02:22:27Z</time>
   </trkpt>
   <trkpt lat="39.6901780" lon="-104.9686270">
    <ele>1621.2</ele>
    <time>2023-08-11T02:22:28Z</time>
   </trkpt>
   <trkpt lat="39.6901630" lon="-104.9686270">
    <ele>1621.2</ele>
    <time>2023-08-11T02:22:29Z</time>
   </trkpt>
   <trkpt lat="39.6901260" lon="-104.9686170">
    <ele>1621.2</ele>
    <time>2023-08-11T02:22:30Z</time>
   </trkpt>
   <trkpt lat="39.6900990" lon="-104.9686270">
    <ele>1621.1</ele>
    <time>2023-08-11T02:22:31Z</time>
   </trkpt>
   <trkpt lat="39.6900610" lon="-104.9686220">
    <ele>1621.1</ele>
    <time>2023-08-11T02:22:32Z</time>
   </trkpt>
   <trkpt lat="39.6900340" lon="-104.9686290">
    <ele>1621.1</ele>
    <time>2023-08-11T02:22:33Z</time>
   </trkpt>
   <trkpt lat="39.6900000" lon="-104.9686390">
    <ele>1621.0</ele>
    <time>2023-08-11T02:22:34Z</time>
   </trkpt>
   <trkpt lat="39.6899820" lon="-104.9686360">
    <ele>1621.0</ele>
    <time>2023-08-11T02:22:35Z</time>
   </trkpt>
   <trkpt lat="39.6899500" lon="-104.9686320">
    <ele>1621.0</ele>
    <time>2023-08-11T02:22:36Z</time>
   </trkpt>
   <trkpt lat="39.6899150" lon="-104.9686270">
    <ele>1620.9</ele>
    <time>2023-08-11T02:22:37Z</time>
   </trkpt>
   <trkpt lat="39.6898790" lon="-104.9686200">
    <ele>1620.9</ele>
    <time>2023-08-11T02:22:38Z</time>
   </trkpt>
   <trkpt lat="39.6898440" lon="-104.9686270">
    <ele>1620.8</ele>
    <time>2023-08-11T02:22:39Z</time>
   </trkpt>
   <trkpt lat="39.6898090" lon="-104.9686240">
    <ele>1620.8</ele>
    <time>2023-08-11T02:22:40Z</time>
   </trkpt>
   <trkpt lat="39.6897820" lon="-104.9686220">
    <ele>1620.7</ele>
    <time>2023-08-11T02:22:41Z</time>
   </trkpt>
   <trkpt lat="39.6897420" lon="-104.9686210">
    <ele>1620.7</ele>
    <time>2023-08-11T02:22:42Z</time>
   </trkpt>
   <trkpt lat="39.6897060" lon="-104.9686260">
    <ele>1620.6</ele>
    <time>2023-08-11T02:22:43Z</time>
   </trkpt>
   <trkpt lat="39.6896680" lon="-104.9686270">
    <ele>1620.6</ele>
    <time>2023-08-11T02:22:44Z</time>
   </trkpt>
   <trkpt lat="39.6896470" lon="-104.9686250">
    <ele>1620.6</ele>
    <time>2023-08-11T02:22:45Z</time>
   </trkpt>
   <trkpt lat="39.6896060" lon="-104.9686290">
    <ele>1620.5</ele>
    <time>2023-08-11T02:22:46Z</time>
   </trkpt>
   <trkpt lat="39.6895780" lon="-104.9686240">
    <ele>1620.5</ele>
    <time>2023-08-11T02:22:47Z</time>
   </trkpt>
   <trkpt lat="39.6895440" lon="-104.9686110">
    <ele>1620.4</ele>
    <time>2023-08-11T02:22:48Z</time>
   </trkpt>
   <trkpt lat="39.6895100" lon="-104.9686180">
    <ele>1620.4</ele>
    <time>2023-08-11T02:22:49Z</time>
   </trkpt>
   <trkpt lat="39.6894950" lon="-104.9686230">
    <ele>1620.4</ele>
    <time>2023-08-11T02:22:50Z</time>
   </trkpt>
   <trkpt lat="39.6894610" lon="-104.9686400">
    <ele>1620.3</ele>
    <time>2023-08-11T02:22:51Z</time>
   </trkpt>
   <trkpt lat="39.6894200" lon="-104.9686510">
    <ele>1620.3</ele>
    <time>2023-08-11T02:22:52Z</time>
   </trkpt>
   <trkpt lat="39.6894010" lon="-104.9686510">
    <ele>1620.3</ele>
    <time>2023-08-11T02:22:53Z</time>
   </trkpt>
   <trkpt lat="39.6893710" lon="-104.9686340">
    <ele>1620.3</ele>
    <time>2023-08-11T02:22:54Z</time>
   </trkpt>
   <trkpt lat="39.6893300" lon="-104.9686370">
    <ele>1620.2</ele>
    <time>2023-08-11T02:22:55Z</time>
   </trkpt>
   <trkpt lat="39.6893070" lon="-104.9686350">
    <ele>1620.2</ele>
    <time>2023-08-11T02:22:56Z</time>
   </trkpt>
   <trkpt lat="39.6892710" lon="-104.9686350">
    <ele>1620.2</ele>
    <time>2023-08-11T02:22:57Z</time>
   </trkpt>
   <trkpt lat="39.6892440" lon="-104.9686360">
    <ele>1620.3</ele>
    <time>2023-08-11T02:22:58Z</time>
   </trkpt>
   <trkpt lat="39.6892080" lon="-104.9686310">
    <ele>1620.3</ele>
    <time>2023-08-11T02:22:59Z</time>
   </trkpt>
   <trkpt lat="39.6891970" lon="-104.9686340">
    <ele>1620.3</ele>
    <time>2023-08-11T02:23:00Z</time>
   </trkpt>
   <trkpt lat="39.6891650" lon="-104.9686340">
    <ele>1620.3</ele>
    <time>2023-08-11T02:23:01Z</time>
   </trkpt>
   <trkpt lat="39.6891300" lon="-104.9686350">
    <ele>1620.3</ele>
    <time>2023-08-11T02:23:02Z</time>
   </trkpt>
   <trkpt lat="39.6890890" lon="-104.9686350">
    <ele>1620.3</ele>
    <time>2023-08-11T02:23:03Z</time>
   </trkpt>
   <trkpt lat="39.6890700" lon="-104.9686320">
    <ele>1620.3</ele>
    <time>2023-08-11T02:23:04Z</time>
   </trkpt>
   <trkpt lat="39.6890410" lon="-104.9686240">
    <ele>1620.3</ele>
    <time>2023-08-11T02:23:05Z</time>
   </trkpt>
   <trkpt lat="39.6890200" lon="-104.9686270">
    <ele>1620.3</ele>
    <time>2023-08-11T02:23:06Z</time>
   </trkpt>
   <trkpt lat="39.6889800" lon="-104.9686300">
    <ele>1620.3</ele>
    <time>2023-08-11T02:23:08Z</time>
   </trkpt>
   <trkpt lat="39.6889520" lon="-104.9686200">
    <ele>1620.3</ele>
    <time>2023-08-11T02:23:09Z</time>
   </trkpt>
   <trkpt lat="39.6889190" lon="-104.9686240">
    <ele>1620.3</ele>
    <time>2023-08-11T02:23:10Z</time>
   </trkpt>
   <trkpt lat="39.6888870" lon="-104.9686380">
    <ele>1620.3</ele>
    <time>2023-08-11T02:23:11Z</time>
   </trkpt>
   <trkpt lat="39.6888730" lon="-104.9686400">
    <ele>1620.3</ele>
    <time>2023-08-11T02:23:12Z</time>
   </trkpt>
   <trkpt lat="39.6888360" lon="-104.9686260">
    <ele>1620.3</ele>
    <time>2023-08-11T02:23:13Z</time>
   </trkpt>
   <trkpt lat="39.6887940" lon="-104.9686290">
    <ele>1620.4</ele>
    <time>2023-08-11T02:23:14Z</time>
   </trkpt>
   <trkpt lat="39.6887770" lon="-104.9686240">
    <ele>1620.4</ele>
    <time>2023-08-11T02:23:15Z</time>
   </trkpt>
   <trkpt lat="39.6887380" lon="-104.9686240">
    <ele>1620.4</ele>
    <time>2023-08-11T02:23:16Z</time>
   </trkpt>
   <trkpt lat="39.6887260" lon="-104.9686240">
    <ele>1620.4</ele>
    <time>2023-08-11T02:23:17Z</time>
   </trkpt>
   <trkpt lat="39.6886960" lon="-104.9686310">
    <ele>1620.5</ele>
    <time>2023-08-11T02:23:18Z</time>
   </trkpt>
   <trkpt lat="39.6886670" lon="-104.9686360">
    <ele>1620.5</ele>
    <time>2023-08-11T02:23:19Z</time>
   </trkpt>
   <trkpt lat="39.6886250" lon="-104.9686340">
    <ele>1620.5</ele>
    <time>2023-08-11T02:23:20Z</time>
   </trkpt>
   <trkpt lat="39.6886090" lon="-104.9686280">
    <ele>1620.5</ele>
    <time>2023-08-11T02:23:21Z</time>
   </trkpt>
   <trkpt lat="39.6885760" lon="-104.9686350">
    <ele>1620.6</ele>
    <time>2023-08-11T02:23:22Z</time>
   </trkpt>
   <trkpt lat="39.6885640" lon="-104.9686460">
    <ele>1620.6</ele>
    <time>2023-08-11T02:23:23Z</time>
   </trkpt>
   <trkpt lat="39.6885360" lon="-104.9686410">
    <ele>1620.6</ele>
    <time>2023-08-11T02:23:24Z</time>
   </trkpt>
   <trkpt lat="39.6885030" lon="-104.9686410">
    <ele>1620.6</ele>
    <time>2023-08-11T02:23:25Z</time>
   </trkpt>
   <trkpt lat="39.6884610" lon="-104.9686470">
    <ele>1620.7</ele>
    <time>2023-08-11T02:23:26Z</time>
   </trkpt>
   <trkpt lat="39.6884330" lon="-104.9686380">
    <ele>1620.7</ele>
    <time>2023-08-11T02:23:27Z</time>
   </trkpt>
   <trkpt lat="39.6884040" lon="-104.9686440">
    <ele>1620.7</ele>
    <time>2023-08-11T02:23:28Z</time>
   </trkpt>
   <trkpt lat="39.6883670" lon="-104.9686350">
    <ele>1620.7</ele>
    <time>2023-08-11T02:23:29Z</time>
   </trkpt>
   <trkpt lat="39.6883350" lon="-104.9686340">
    <ele>1620.8</ele>
    <time>2023-08-11T02:23:30Z</time>
   </trkpt>
   <trkpt lat="39.6883040" lon="-104.9686230">
    <ele>1620.8</ele>
    <time>2023-08-11T02:23:31Z</time>
   </trkpt>
   <trkpt lat="39.6882650" lon="-104.9686190">
    <ele>1620.8</ele>
    <time>2023-08-11T02:23:32Z</time>
   </trkpt>
   <trkpt lat="39.6882500" lon="-104.9686190">
    <ele>1620.9</ele>
    <time>2023-08-11T02:23:33Z</time>
   </trkpt>
   <trkpt lat="39.6882200" lon="-104.9686040">
    <ele>1620.9</ele>
    <time>2023-08-11T02:23:34Z</time>
   </trkpt>
   <trkpt lat="39.6881890" lon="-104.9686220">
    <ele>1621.0</ele>
    <time>2023-08-11T02:23:35Z</time>
   </trkpt>
   <trkpt lat="39.6881700" lon="-104.9686230">
    <ele>1621.0</ele>
    <time>2023-08-11T02:23:36Z</time>
   </trkpt>
   <trkpt lat="39.6881350" lon="-104.9686200">
    <ele>1621.0</ele>
    <time>2023-08-11T02:23:37Z</time>
   </trkpt>
   <trkpt lat="39.6881040" lon="-104.9686130">
    <ele>1621.1</ele>
    <time>2023-08-11T02:23:38Z</time>
   </trkpt>
   <trkpt lat="39.6880740" lon="-104.9686170">
    <ele>1621.2</ele>
    <time>2023-08-11T02:23:39Z</time>
   </trkpt>
   <trkpt lat="39.6880350" lon="-104.9686240">
    <ele>1621.2</ele>
    <time>2023-08-11T02:23:40Z</time>
   </trkpt>
   <trkpt lat="39.6880160" lon="-104.9686270">
    <ele>1621.3</ele>
    <time>2023-08-11T02:23:41Z</time>
   </trkpt>
   <trkpt lat="39.6879840" lon="-104.9686350">
    <ele>1621.3</ele>
    <time>2023-08-11T02:23:42Z</time>
   </trkpt>
   <trkpt lat="39.6879520" lon="-104.9686370">
    <ele>1621.4</ele>
    <time>2023-08-11T02:23:43Z</time>
   </trkpt>
   <trkpt lat="39.6879370" lon="-104.9686320">
    <ele>1621.4</ele>
    <time>2023-08-11T02:23:44Z</time>
   </trkpt>
   <trkpt lat="39.6878970" lon="-104.9686330">
    <ele>1621.5</ele>
    <time>2023-08-11T02:23:45Z</time>
   </trkpt>
   <trkpt lat="39.6878840" lon="-104.9686320">
    <ele>1621.5</ele>
    <time>2023-08-11T02:23:46Z</time>
   </trkpt>
   <trkpt lat="39.6878530" lon="-104.9686200">
    <ele>1621.6</ele>
    <time>2023-08-11T02:23:47Z</time>
   </trkpt>
   <trkpt lat="39.6878250" lon="-104.9686280">
    <ele>1621.7</ele>
    <time>2023-08-11T02:23:48Z</time>
   </trkpt>
   <trkpt lat="39.6877860" lon="-104.9686370">
    <ele>1621.8</ele>
    <time>2023-08-11T02:23:49Z</time>
   </trkpt>
   <trkpt lat="39.6877570" lon="-104.9686370">
    <ele>1621.8</ele>
    <time>2023-08-11T02:23:50Z</time>
   </trkpt>
   <trkpt lat="39.6877170" lon="-104.9686520">
    <ele>1622.0</ele>
    <time>2023-08-11T02:23:51Z</time>
   </trkpt>
   <trkpt lat="39.6876960" lon="-104.9686560">
    <ele>1622.0</ele>
    <time>2023-08-11T02:23:52Z</time>
   </trkpt>
   <trkpt lat="39.6876580" lon="-104.9686510">
    <ele>1622.1</ele>
    <time>2023-08-11T02:23:53Z</time>
   </trkpt>
   <trkpt lat="39.6876420" lon="-104.9686550">
    <ele>1622.1</ele>
    <time>2023-08-11T02:23:54Z</time>
   </trkpt>
   <trkpt lat="39.6876110" lon="-104.9686510">
    <ele>1622.2</ele>
    <time>2023-08-11T02:23:55Z</time>
   </trkpt>
   <trkpt lat="39.6875770" lon="-104.9686450">
    <ele>1622.3</ele>
    <time>2023-08-11T02:23:56Z</time>
   </trkpt>
   <trkpt lat="39.6875490" lon="-104.9686490">
    <ele>1622.4</ele>
    <time>2023-08-11T02:23:57Z</time>
   </trkpt>
   <trkpt lat="39.6875140" lon="-104.9686550">
    <ele>1622.5</ele>
    <time>2023-08-11T02:23:58Z</time>
   </trkpt>
   <trkpt lat="39.6874990" lon="-104.9686560">
    <ele>1622.5</ele>
    <time>2023-08-11T02:23:59Z</time>
   </trkpt>
   <trkpt lat="39.6874630" lon="-104.9686520">
    <ele>1622.6</ele>
    <time>2023-08-11T02:24:00Z</time>
   </trkpt>
   <trkpt lat="39.6874240" lon="-104.9686490">
    <ele>1622.7</ele>
    <time>2023-08-11T02:24:01Z</time>
   </trkpt>
   <trkpt lat="39.6874060" lon="-104.9686410">
    <ele>1622.8</ele>
    <time>2023-08-11T02:24:02Z</time>
   </trkpt>
   <trkpt lat="39.6873730" lon="-104.9686360">
    <ele>1622.9</ele>
    <time>2023-08-11T02:24:03Z</time>
   </trkpt>
   <trkpt lat="39.6873310" lon="-104.9686470">
    <ele>1623.0</ele>
    <time>2023-08-11T02:24:04Z</time>
   </trkpt>
   <trkpt lat="39.6873110" lon="-104.9686480">
    <ele>1623.1</ele>
    <time>2023-08-11T02:24:05Z</time>
   </trkpt>
   <trkpt lat="39.6872770" lon="-104.9686530">
    <ele>1623.2</ele>
    <time>2023-08-11T02:24:06Z</time>
   </trkpt>
   <trkpt lat="39.6872480" lon="-104.9686520">
    <ele>1623.3</ele>
    <time>2023-08-11T02:24:07Z</time>
   </trkpt>
   <trkpt lat="39.6872190" lon="-104.9686430">
    <ele>1623.4</ele>
    <time>2023-08-11T02:24:08Z</time>
   </trkpt>
   <trkpt lat="39.6871790" lon="-104.9686440">
    <ele>1623.5</ele>
    <time>2023-08-11T02:24:09Z</time>
   </trkpt>
   <trkpt lat="39.6871600" lon="-104.9686420">
    <ele>1623.5</ele>
    <time>2023-08-11T02:24:10Z</time>
   </trkpt>
   <trkpt lat="39.6871300" lon="-104.9686420">
    <ele>1623.6</ele>
    <time>2023-08-11T02:24:11Z</time>
   </trkpt>
   <trkpt lat="39.6870940" lon="-104.9686530">
    <ele>1623.7</ele>
    <time>2023-08-11T02:24:12Z</time>
   </trkpt>
   <trkpt lat="39.6870790" lon="-104.9686480">
    <ele>1623.8</ele>
    <time>2023-08-11T02:24:13Z</time>
   </trkpt>
   <trkpt lat="39.6870510" lon="-104.9686630">
    <ele>1623.9</ele>
    <time>2023-08-11T02:24:14Z</time>
   </trkpt>
   <trkpt lat="39.6870400" lon="-104.9686680">
    <ele>1623.9</ele>
    <time>2023-08-11T02:24:15Z</time>
   </trkpt>
   <trkpt lat="39.6870220" lon="-104.9686640">
    <ele>1623.9</ele>
    <time>2023-08-11T02:24:16Z</time>
   </trkpt>
   <trkpt lat="39.6870160" lon="-104.9686530">
    <ele>1624.0</ele>
    <time>2023-08-11T02:24:17Z</time>
   </trkpt>
   <trkpt lat="39.6870090" lon="-104.9686520">
    <ele>1624.0</ele>
    <time>2023-08-11T02:24:18Z</time>
   </trkpt>
   <trkpt lat="39.6868910" lon="-104.9686120">
    <ele>1624.1</ele>
    <time>2023-08-11T02:24:19Z</time>
   </trkpt>
   <trkpt lat="39.6867790" lon="-104.9685750">
    <ele>1624.3</ele>
    <time>2023-08-11T02:24:40Z</time>
   </trkpt>
   <trkpt lat="39.6866670" lon="-104.9685370">
    <ele>1624.4</ele>
    <time>2023-08-11T02:24:41Z</time>
   </trkpt>
   <trkpt lat="39.6866680" lon="-104.9684970">
    <ele>1624.5</ele>
    <time>2023-08-11T02:24:42Z</time>
   </trkpt>
   <trkpt lat="39.6866270" lon="-104.9684700">
    <ele>1624.5</ele>
    <time>2023-08-11T02:24:43Z</time>
   </trkpt>
   <trkpt lat="39.6866030" lon="-104.9684350">
    <ele>1624.6</ele>
    <time>2023-08-11T02:24:44Z</time>
   </trkpt>
   <trkpt lat="39.6865800" lon="-104.9683870">
    <ele>1624.6</ele>
    <time>2023-08-11T02:24:45Z</time>
   </trkpt>
   <trkpt lat="39.6865610" lon="-104.9683570">
    <ele>1624.7</ele>
    <time>2023-08-11T02:24:46Z</time>
   </trkpt>
   <trkpt lat="39.6865440" lon="-104.9683160">
    <ele>1624.7</ele>
    <time>2023-08-11T02:24:47Z</time>
   </trkpt>
   <trkpt lat="39.6865390" lon="-104.9682950">
    <ele>1624.7</ele>
    <time>2023-08-11T02:24:48Z</time>
   </trkpt>
   <trkpt lat="39.6865200" lon="-104.9682550">
    <ele>1624.8</ele>
    <time>2023-08-11T02:24:49Z</time>
   </trkpt>
   <trkpt lat="39.6864960" lon="-104.9682270">
    <ele>1624.8</ele>
    <time>2023-08-11T02:24:50Z</time>
   </trkpt>
   <trkpt lat="39.6864800" lon="-104.9681800">
    <ele>1624.9</ele>
    <time>2023-08-11T02:24:51Z</time>
   </trkpt>
   <trkpt lat="39.6864610" lon="-104.9681330">
    <ele>1624.9</ele>
    <time>2023-08-11T02:24:52Z</time>
   </trkpt>
   <trkpt lat="39.6864470" lon="-104.9681030">
    <ele>1624.9</ele>
    <time>2023-08-11T02:24:53Z</time>
   </trkpt>
   <trkpt lat="39.6864200" lon="-104.9680650">
    <ele>1625.0</ele>
    <time>2023-08-11T02:24:54Z</time>
   </trkpt>
   <trkpt lat="39.6864040" lon="-104.9680330">
    <ele>1625.0</ele>
    <time>2023-08-11T02:24:55Z</time>
   </trkpt>
   <trkpt lat="39.6863930" lon="-104.9679930">
    <ele>1625.1</ele>
    <time>2023-08-11T02:24:56Z</time>
   </trkpt>
   <trkpt lat="39.6863880" lon="-104.9679750">
    <ele>1625.1</ele>
    <time>2023-08-11T02:24:57Z</time>
   </trkpt>
   <trkpt lat="39.6863640" lon="-104.9679490">
    <ele>1625.1</ele>
    <time>2023-08-11T02:24:58Z</time>
   </trkpt>
   <trkpt lat="39.6863220" lon="-104.9679250">
    <ele>1625.2</ele>
    <time>2023-08-11T02:24:59Z</time>
   </trkpt>
   <trkpt lat="39.6862920" lon="-104.9678900">
    <ele>1625.3</ele>
    <time>2023-08-11T02:25:00Z</time>
   </trkpt>
   <trkpt lat="39.6862850" lon="-104.9678670">
    <ele>1625.3</ele>
    <time>2023-08-11T02:25:01Z</time>
   </trkpt>
   <trkpt lat="39.6862690" lon="-104.9678190">
    <ele>1625.3</ele>
    <time>2023-08-11T02:25:02Z</time>
   </trkpt>
   <trkpt lat="39.6862500" lon="-104.9677740">
    <ele>1625.3</ele>
    <time>2023-08-11T02:25:03Z</time>
   </trkpt>
   <trkpt lat="39.6862400" lon="-104.9677570">
    <ele>1625.4</ele>
    <time>2023-08-11T02:25:04Z</time>
   </trkpt>
   <trkpt lat="39.6862210" lon="-104.9677130">
    <ele>1625.4</ele>
    <time>2023-08-11T02:25:05Z</time>
   </trkpt>
   <trkpt lat="39.6862150" lon="-104.9676980">
    <ele>1625.4</ele>
    <time>2023-08-11T02:25:06Z</time>
   </trkpt>
   <trkpt lat="39.6861860" lon="-104.9676700">
    <ele>1625.4</ele>
    <time>2023-08-11T02:25:07Z</time>
   </trkpt>
   <trkpt lat="39.6861790" lon="-104.9676330">
    <ele>1625.4</ele>
    <time>2023-08-11T02:25:08Z</time>
   </trkpt>
   <trkpt lat="39.6861740" lon="-104.9675930">
    <ele>1625.5</ele>
    <time>2023-08-11T02:25:09Z</time>
   </trkpt>
   <trkpt lat="39.6861680" lon="-104.9675760">
    <ele>1625.5</ele>
    <time>2023-08-11T02:25:10Z</time>
   </trkpt>
   <trkpt lat="39.6861390" lon="-104.9675560">
    <ele>1625.5</ele>
    <time>2023-08-11T02:25:11Z</time>
   </trkpt>
   <trkpt lat="39.6861020" lon="-104.9675310">
    <ele>1625.5</ele>
    <time>2023-08-11T02:25:13Z</time>
   </trkpt>
   <trkpt lat="39.6860790" lon="-104.9675080">
    <ele>1625.5</ele>
    <time>2023-08-11T02:25:14Z</time>
   </trkpt>
   <trkpt lat="39.6860610" lon="-104.9674720">
    <ele>1625.5</ele>
    <time>2023-08-11T02:25:15Z</time>
   </trkpt>
   <trkpt lat="39.6860540" lon="-104.9674530">
    <ele>1625.5</ele>
    <time>2023-08-11T02:25:16Z</time>
   </trkpt>
   <trkpt lat="39.6860370" lon="-104.9674140">
    <ele>1625.5</ele>
    <time>2023-08-11T02:25:17Z</time>
   </trkpt>
   <trkpt lat="39.6860300" lon="-104.9674030">
    <ele>1625.5</ele>
    <time>2023-08-11T02:25:18Z</time>
   </trkpt>
   <trkpt lat="39.6860150" lon="-104.9673730">
    <ele>1625.5</ele>
    <time>2023-08-11T02:25:19Z</time>
   </trkpt>
   <trkpt lat="39.6859930" lon="-104.9673330">
    <ele>1625.5</ele>
    <time>2023-08-11T02:25:20Z</time>
   </trkpt>
   <trkpt lat="39.6859840" lon="-104.9673180">
    <ele>1625.5</ele>
    <time>2023-08-11T02:25:21Z</time>
   </trkpt>
   <trkpt lat="39.6859540" lon="-104.9672890">
    <ele>1625.5</ele>
    <time>2023-08-11T02:25:22Z</time>
   </trkpt>
   <trkpt lat="39.6859290" lon="-104.9672490">
    <ele>1625.5</ele>
    <time>2023-08-11T02:25:23Z</time>
   </trkpt>
   <trkpt lat="39.6859200" lon="-104.9672350">
    <ele>1625.5</ele>
    <time>2023-08-11T02:25:24Z</time>
   </trkpt>
   <trkpt lat="39.6859040" lon="-104.9671990">
    <ele>1625.4</ele>
    <time>2023-08-11T02:25:25Z</time>
   </trkpt>
   <trkpt lat="39.6858850" lon="-104.9671530">
    <ele>1625.4</ele>
    <time>2023-08-11T02:25:26Z</time>
   </trkpt>
   <trkpt lat="39.6858760" lon="-104.9671390">
    <ele>1625.4</ele>
    <time>2023-08-11T02:25:27Z</time>
   </trkpt>
   <trkpt lat="39.6858570" lon="-104.9670990">
    <ele>1625.4</ele>
    <time>2023-08-11T02:25:28Z</time>
   </trkpt>
   <trkpt lat="39.6858510" lon="-104.9670840">
    <ele>1625.4</ele>
    <time>2023-08-11T02:25:29Z</time>
   </trkpt>
   <trkpt lat="39.6858290" lon="-104.9670480">
    <ele>1625.3</ele>
    <time>2023-08-11T02:25:30Z</time>
   </trkpt>
   <trkpt lat="39.6858110" lon="-104.9670060">
    <ele>1625.3</ele>
    <time>2023-08-11T02:25:31Z</time>
   </trkpt>
   <trkpt lat="39.6857910" lon="-104.9669610">
    <ele>1625.3</ele>
    <time>2023-08-11T02:25:32Z</time>
   </trkpt>
   <trkpt lat="39.6857850" lon="-104.9669440">
    <ele>1625.2</ele>
    <time>2023-08-11T02:25:33Z</time>
   </trkpt>
   <trkpt lat="39.6857660" lon="-104.9669030">
    <ele>1625.2</ele>
    <time>2023-08-11T02:25:34Z</time>
   </trkpt>
   <trkpt lat="39.6857580" lon="-104.9668840">
    <ele>1625.2</ele>
    <time>2023-08-11T02:25:35Z</time>
   </trkpt>
   <trkpt lat="39.6857380" lon="-104.9668510">
    <ele>1625.2</ele>
    <time>2023-08-11T02:25:36Z</time>
   </trkpt>
   <trkpt lat="39.6857120" lon="-104.9668200">
    <ele>1625.1</ele>
    <time>2023-08-11T02:25:37Z</time>
   </trkpt>
   <trkpt lat="39.6857020" lon="-104.9668040">
    <ele>1625.1</ele>
    <time>2023-08-11T02:25:38Z</time>
   </trkpt>
   <trkpt lat="39.6856790" lon="-104.9667680">
    <ele>1625.1</ele>
    <time>2023-08-11T02:25:39Z</time>
   </trkpt>
   <trkpt lat="39.6856710" lon="-104.9667560">
    <ele>1625.1</ele>
    <time>2023-08-11T02:25:40Z</time>
   </trkpt>
   <trkpt lat="39.6856560" lon="-104.9667150">
    <ele>1625.1</ele>
    <time>2023-08-11T02:25:41Z</time>
   </trkpt>
   <trkpt lat="39.6856260" lon="-104.9666830">
    <ele>1625.1</ele>
    <time>2023-08-11T02:25:42Z</time>
   </trkpt>
   <trkpt lat="39.6856160" lon="-104.9666670">
    <ele>1625.1</ele>
    <time>2023-08-11T02:25:43Z</time>
   </trkpt>
   <trkpt lat="39.6856010" lon="-104.9666280">
    <ele>1625.1</ele>
    <time>2023-08-11T02:25:44Z</time>
   </trkpt>
   <trkpt lat="39.6855970" lon="-104.9666170">
    <ele>1625.1</ele>
    <time>2023-08-11T02:25:45Z</time>
   </trkpt>
   <trkpt lat="39.6855630" lon="-104.9665890">
    <ele>1625.0</ele>
    <time>2023-08-11T02:25:46Z</time>
   </trkpt>
   <trkpt lat="39.6855380" lon="-104.9665720">
    <ele>1625.0</ele>
    <time>2023-08-11T02:25:47Z</time>
   </trkpt>
   <trkpt lat="39.6855190" lon="-104.9665220">
    <ele>1625.0</ele>
    <time>2023-08-11T02:25:48Z</time>
   </trkpt>
   <trkpt lat="39.6855090" lon="-104.9664750">
    <ele>1625.0</ele>
    <time>2023-08-11T02:25:49Z</time>
   </trkpt>
   <trkpt lat="39.6854770" lon="-104.9664360">
    <ele>1625.0</ele>
    <time>2023-08-11T02:25:50Z</time>
   </trkpt>
   <trkpt lat="39.6854650" lon="-104.9664180">
    <ele>1625.0</ele>
    <time>2023-08-11T02:25:51Z</time>
   </trkpt>
   <trkpt lat="39.6854370" lon="-104.9663980">
    <ele>1625.0</ele>
    <time>2023-08-11T02:25:52Z</time>
   </trkpt>
   <trkpt lat="39.6854070" lon="-104.9663920">
    <ele>1625.0</ele>
    <time>2023-08-11T02:25:53Z</time>
   </trkpt>
   <trkpt lat="39.6853800" lon="-104.9663600">
    <ele>1625.0</ele>
    <time>2023-08-11T02:25:54Z</time>
   </trkpt>
   <trkpt lat="39.6853650" lon="-104.9663300">
    <ele>1625.0</ele>
    <time>2023-08-11T02:25:55Z</time>
   </trkpt>
   <trkpt lat="39.6853450" lon="-104.9662880">
    <ele>1625.0</ele>
    <time>2023-08-11T02:25:56Z</time>
   </trkpt>
   <trkpt lat="39.6853330" lon="-104.9662710">
    <ele>1625.0</ele>
    <time>2023-08-11T02:25:57Z</time>
   </trkpt>
   <trkpt lat="39.6853120" lon="-104.9662320">
    <ele>1625.0</ele>
    <time>2023-08-11T02:25:58Z</time>
   </trkpt>
   <trkpt lat="39.6853050" lon="-104.9662200">
    <ele>1625.0</ele>
    <time>2023-08-11T02:25:59Z</time>
   </trkpt>
   <trkpt lat="39.6852860" lon="-104.9661820">
    <ele>1625.0</ele>
    <time>2023-08-11T02:26:00Z</time>
   </trkpt>
   <trkpt lat="39.6852750" lon="-104.9661750">
    <ele>1625.0</ele>
    <time>2023-08-11T02:26:01Z</time>
   </trkpt>
   <trkpt lat="39.6852520" lon="-104.9661480">
    <ele>1625.0</ele>
    <time>2023-08-11T02:26:02Z</time>
   </trkpt>
   <trkpt lat="39.6852310" lon="-104.9661220">
    <ele>1625.0</ele>
    <time>2023-08-11T02:26:03Z</time>
   </trkpt>
   <trkpt lat="39.6852080" lon="-104.9660810">
    <ele>1625.0</ele>
    <time>2023-08-11T02:26:04Z</time>
   </trkpt>
   <trkpt lat="39.6851980" lon="-104.9660690">
    <ele>1625.0</ele>
    <time>2023-08-11T02:26:05Z</time>
   </trkpt>
   <trkpt lat="39.6851830" lon="-104.9660380">
    <ele>1625.0</ele>
    <time>2023-08-11T02:26:06Z</time>
   </trkpt>
   <trkpt lat="39.6851600" lon="-104.9659920">
    <ele>1625.0</ele>
    <time>2023-08-11T02:26:07Z</time>
   </trkpt>
   <trkpt lat="39.6851490" lon="-104.9659740">
    <ele>1625.0</ele>
    <time>2023-08-11T02:26:08Z</time>
   </trkpt>
   <trkpt lat="39.6851130" lon="-104.9659010">
    <ele>1625.1</ele>
    <time>2023-08-11T02:26:09Z</time>
   </trkpt>
   <trkpt lat="39.6850910" lon="-104.9658530">
    <ele>1625.1</ele>
    <time>2023-08-11T02:26:10Z</time>
   </trkpt>
   <trkpt lat="39.6850690" lon="-104.9658050">
    <ele>1625.1</ele>
    <time>2023-08-11T02:26:28Z</time>
   </trkpt>
   <trkpt lat="39.6850470" lon="-104.9657570">
    <ele>1625.1</ele>
    <time>2023-08-11T02:26:29Z</time>
   </trkpt>
   <trkpt lat="39.6850140" lon="-104.9657150">
    <ele>1625.2</ele>
    <time>2023-08-11T02:26:30Z</time>
   </trkpt>
   <trkpt lat="39.6850020" lon="-104.9656710">
    <ele>1625.2</ele>
    <time>2023-08-11T02:26:31Z</time>
   </trkpt>
   <trkpt lat="39.6849760" lon="-104.9656460">
    <ele>1625.2</ele>
    <time>2023-08-11T02:26:32Z</time>
   </trkpt>
   <trkpt lat="39.6849490" lon="-104.9656110">
    <ele>1625.2</ele>
    <time>2023-08-11T02:26:33Z</time>
   </trkpt>
   <trkpt lat="39.6849260" lon="-104.9655640">
    <ele>1625.3</ele>
    <time>2023-08-11T02:26:34Z</time>
   </trkpt>
   <trkpt lat="39.6849180" lon="-104.9655410">
    <ele>1625.3</ele>
    <time>2023-08-11T02:26:35Z</time>
   </trkpt>
   <trkpt lat="39.6849130" lon="-104.9655020">
    <ele>1625.3</ele>
    <time>2023-08-11T02:26:36Z</time>
   </trkpt>
   <trkpt lat="39.6848730" lon="-104.9654680">
    <ele>1625.3</ele>
    <time>2023-08-11T02:26:37Z</time>
   </trkpt>
   <trkpt lat="39.6848540" lon="-104.9654520">
    <ele>1625.4</ele>
    <time>2023-08-11T02:26:38Z</time>
   </trkpt>
   <trkpt lat="39.6848230" lon="-104.9654050">
    <ele>1625.4</ele>
    <time>2023-08-11T02:26:39Z</time>
   </trkpt>
   <trkpt lat="39.6848020" lon="-104.9653880">
    <ele>1625.4</ele>
    <time>2023-08-11T02:26:40Z</time>
   </trkpt>
   <trkpt lat="39.6847920" lon="-104.9653540">
    <ele>1625.4</ele>
    <time>2023-08-11T02:26:41Z</time>
   </trkpt>
   <trkpt lat="39.6847690" lon="-104.9653200">
    <ele>1625.4</ele>
    <time>2023-08-11T02:26:42Z</time>
   </trkpt>
   <trkpt lat="39.6847550" lon="-104.9653050">
    <ele>1625.4</ele>
    <time>2023-08-11T02:26:43Z</time>
   </trkpt>
   <trkpt lat="39.6847310" lon="-104.9652670">
    <ele>1625.4</ele>
    <time>2023-08-11T02:26:44Z</time>
   </trkpt>
   <trkpt lat="39.6847200" lon="-104.9652320">
    <ele>1625.4</ele>
    <time>2023-08-11T02:26:45Z</time>
   </trkpt>
   <trkpt lat="39.6846920" lon="-104.9651850">
    <ele>1625.5</ele>
    <time>2023-08-11T02:26:46Z</time>
   </trkpt>
   <trkpt lat="39.6846790" lon="-104.9651670">
    <ele>1625.5</ele>
    <time>2023-08-11T02:26:47Z</time>
   </trkpt>
   <trkpt lat="39.6846640" lon="-104.9651370">
    <ele>1625.5</ele>
    <time>2023-08-11T02:26:48Z</time>
   </trkpt>
   <trkpt lat="39.6846390" lon="-104.9650970">
    <ele>1625.5</ele>
    <time>2023-08-11T02:26:49Z</time>
   </trkpt>
   <trkpt lat="39.6846270" lon="-104.9650780">
    <ele>1625.6</ele>
    <time>2023-08-11T02:26:50Z</time>
   </trkpt>
   <trkpt lat="39.6846140" lon="-104.9650320">
    <ele>1625.6</ele>
    <time>2023-08-11T02:26:51Z</time>
   </trkpt>
   <trkpt lat="39.6846010" lon="-104.9649970">
    <ele>1625.6</ele>
    <time>2023-08-11T02:26:52Z</time>
   </trkpt>
   <trkpt lat="39.6845920" lon="-104.9649830">
    <ele>1625.6</ele>
    <time>2023-08-11T02:26:53Z</time>
   </trkpt>
   <trkpt lat="39.6845650" lon="-104.9649450">
    <ele>1625.6</ele>
    <time>2023-08-11T02:26:54Z</time>
   </trkpt>
   <trkpt lat="39.6845410" lon="-104.9649200">
    <ele>1625.6</ele>
    <time>2023-08-11T02:26:55Z</time>
   </trkpt>
   <trkpt lat="39.6845130" lon="-104.9648930">
    <ele>1625.6</ele>
    <time>2023-08-11T02:26:56Z</time>
   </trkpt>
   <trkpt lat="39.6845100" lon="-104.9648500">
    <ele>1625.6</ele>
    <time>2023-08-11T02:26:57Z</time>
   </trkpt>
   <trkpt lat="39.6844930" lon="-104.9647960">
    <ele>1625.7</ele>
    <time>2023-08-11T02:26:58Z</time>
   </trkpt>
   <trkpt lat="39.6844600" lon="-104.9647530">
    <ele>1625.7</ele>
    <time>2023-08-11T02:26:59Z</time>
   </trkpt>
   <trkpt lat="39.6844300" lon="-104.9647090">
    <ele>1625.7</ele>
    <time>2023-08-11T02:27:00Z</time>
   </trkpt>
   <trkpt lat="39.6844150" lon="-104.9646910">
    <ele>1625.7</ele>
    <time>2023-08-11T02:27:01Z</time>
   </trkpt>
   <trkpt lat="39.6843980" lon="-104.9646540">
    <ele>1625.7</ele>
    <time>2023-08-11T02:27:02Z</time>
   </trkpt>
   <trkpt lat="39.6843790" lon="-104.9646210">
    <ele>1625.8</ele>
    <time>2023-08-11T02:27:03Z</time>
   </trkpt>
   <trkpt lat="39.6843560" lon="-104.9645700">
    <ele>1625.8</ele>
    <time>2023-08-11T02:27:04Z</time>
   </trkpt>
   <trkpt lat="39.6843440" lon="-104.9645390">
    <ele>1625.8</ele>
    <time>2023-08-11T02:27:05Z</time>
   </trkpt>
   <trkpt lat="39.6843270" lon="-104.9645100">
    <ele>1625.8</ele>
    <time>2023-08-11T02:27:06Z</time>
   </trkpt>
   <trkpt lat="39.6843010" lon="-104.9644840">
    <ele>1625.9</ele>
    <time>2023-08-11T02:27:07Z</time>
   </trkpt>
   <trkpt lat="39.6842770" lon="-104.9644390">
    <ele>1625.9</ele>
    <time>2023-08-11T02:27:08Z</time>
   </trkpt>
   <trkpt lat="39.6842480" lon="-104.9644030">
    <ele>1625.9</ele>
    <time>2023-08-11T02:27:09Z</time>
   </trkpt>
   <trkpt lat="39.6842200" lon="-104.9643610">
    <ele>1626.0</ele>
    <time>2023-08-11T02:27:10Z</time>
   </trkpt>
   <trkpt lat="39.6842140" lon="-104.9643400">
    <ele>1626.0</ele>
    <time>2023-08-11T02:27:11Z</time>
   </trkpt>
   <trkpt lat="39.6842050" lon="-104.9642930">
    <ele>1626.0</ele>
    <time>2023-08-11T02:27:12Z</time>
   </trkpt>
   <trkpt lat="39.6841790" lon="-104.9642600">
    <ele>1626.0</ele>
    <time>2023-08-11T02:27:13Z</time>
   </trkpt>
   <trkpt lat="39.6841670" lon="-104.9642470">
    <ele>1626.0</ele>
    <time>2023-08-11T02:27:14Z</time>
   </trkpt>
   <trkpt lat="39.6841520" lon="-104.9642340">
    <ele>1626.1</ele>
    <time>2023-08-11T02:27:15Z</time>
   </trkpt>
   <trkpt lat="39.6841540" lon="-104.9642320">
    <ele>1626.1</ele>
    <time>2023-08-11T02:27:16Z</time>
   </trkpt>
  </trkseg>
 </trk>
</gpx>
